{"type":"FeatureCollection","features":[{"type":"Feature","id":"level_polygon.6161","geometry":{"type":"Polygon","coordinates":[[[114.18404423000004,22.27998707000006,4.149999999994179],[114.18407051000008,22.279952080000044,4.149999999994179],[114.18409742000006,22.279914440000027,4.149999999994179],[114.18411492000007,22.279889070000024,4.149999999994179],[114.18411773000003,22.279891100000043,4.149999999994179],[114.18415331000006,22.279843610000057,4.149999999994179],[114.18417937000004,22.279808900000035,4.149999999994179],[114.18421675000002,22.27975826000005,4.149999999994179],[114.18424152000011,22.279726090000054,4.149999999994179],[114.18427717000009,22.279678390000072,4.149999999994179],[114.18423741000004,22.279664050000065,4.149999999994179],[114.18422314000009,22.279658790000042,4.149999999994179],[114.18415359000005,22.279632250000077,4.149999999994179],[114.18407907000005,22.279605580000066,4.149999999994179],[114.18387802000007,22.279530520000037,4.149999999994179],[114.1838201600001,22.279508300000032,4.149999999994179],[114.18371030000003,22.279467020000027,4.149999999994179],[114.18370574000005,22.27947764000004,4.149999999994179],[114.18365227000004,22.27945666000005,4.149999999994179],[114.18365620000009,22.27944615000007,4.149999999994179],[114.18354489000001,22.279404170000078,4.149999999994179],[114.18353480000007,22.27942930000006,4.149999999994179],[114.18352983000011,22.279426870000066,4.149999999994179],[114.18348288000004,22.27953604000004,4.149999999994179],[114.18347845000005,22.279547360000038,4.149999999994179],[114.18346995000002,22.27956659000006,4.149999999994179],[114.18345713000008,22.27959726000006,4.149999999994179],[114.18350304,22.279613810000058,4.149999999994179],[114.18353815000012,22.279627520000076,4.149999999994179],[114.18354582000006,22.27963052000007,4.149999999994179],[114.18351115000007,22.27970436000004,4.149999999994179],[114.18351842000004,22.27970712000007,4.149999999994179],[114.18351833000008,22.27971554000004,4.149999999994179],[114.18349254000009,22.279715140000064,4.149999999994179],[114.18349251000006,22.279708350000078,4.149999999994179],[114.18347173000006,22.279707850000023,4.149999999994179],[114.18347226000003,22.27969764000005,4.149999999994179],[114.18344836000006,22.279696890000025,4.149999999994179],[114.18343347000007,22.279708930000027,4.149999999994179],[114.18343286000004,22.279722540000023,4.149999999994179],[114.18343045000006,22.279722440000057,4.149999999994179],[114.18342945000006,22.27974702000006,4.149999999994179],[114.1834282100001,22.279802800000027,4.149999999994179],[114.18341591000001,22.27980886000006,4.149999999994179],[114.18341511000006,22.279805320000037,4.149999999994179],[114.18335377000005,22.279834570000048,4.149999999994179],[114.18331228000011,22.279929710000033,4.149999999994179],[114.18333298000005,22.279959590000033,4.149999999994179],[114.18349402000001,22.27996619000004,4.149999999994179],[114.18357429000002,22.279969590000064,4.149999999994179],[114.18361647000006,22.279970750000075,4.149999999994179],[114.18365381000001,22.27997232000007,4.149999999994179],[114.18365547000008,22.27997171000004,4.149999999994179],[114.18365739000001,22.279970150000054,4.149999999994179],[114.18365824000011,22.279968590000067,4.149999999994179],[114.18365848000008,22.279963330000044,4.149999999994179],[114.18365876000007,22.279962410000053,4.149999999994179],[114.18365971000003,22.279961210000067,4.149999999994179],[114.18366214000002,22.27996016000003,4.149999999994179],[114.18369773000006,22.279961490000062,4.149999999994179],[114.1836992100001,22.279962020000028,4.149999999994179],[114.1837003600001,22.279962820000037,4.149999999994179],[114.18370102000006,22.27996365000007,4.149999999994179],[114.1837015100001,22.27996453000003,4.149999999994179],[114.18370170000003,22.279971490000037,4.149999999994179],[114.18370383000001,22.279973980000022,4.149999999994179],[114.1838889500001,22.279980800000033,4.149999999994179],[114.18396091000011,22.279983980000054,4.149999999994179],[114.18400306000001,22.279985430000067,4.149999999994179],[114.18404423000004,22.27998707000006,4.149999999994179]]]},"geometry_name":"shape","properties":{"level_id":"a4e20e16-ac57-47bc-b24d-9583e8238caf","level_floorpolyid":"F3697915652P2012022302000000","level_ordinal":0,"level_z_value":4.15,"level_name_en":"Ground Floor","level_name_zh":"地下","level_short_name_en":"G/F","level_category":"unspecified","level_restriction":null,"level_outdoor":0,"venue_id":"5bb79500-645d-4089-b5bc-5a02cfeed057","venue_category":"shoppingcenter","venue_name_en":"Hysan Place","venue_name_zh":"希慎廣場","venue_alt_name":null,"venue_restriction":null,"venue_hours":null,"venue_website":null,"venue_phone":null,"address_address":"500 HENNESSY ROAD","address_unit":null,"address_locality":"WAN CHAI DISTRICT","building_id":"fe22579e-e24d-4f35-b351-c175944708ff","building_category":"unspecified","building_name_en":"Hysan Place","building_name_zh":"希慎廣場","building_alt_name":null,"building_restriction":"","bbox":[114.18331228000011,22.279404170000078,114.18427717000009,22.27998707000006]}},{"type":"Feature","id":"level_polygon.6162","geometry":{"type":"Polygon","coordinates":[[[114.1840628000001,22.279958230000034,9.44999999999709],[114.18411430000003,22.279887850000023,9.44999999999709],[114.18413729000008,22.279856460000076,9.44999999999709],[114.1841492100001,22.27984158000004,9.44999999999709],[114.18417567000006,22.27980561000004,9.44999999999709],[114.18420655000011,22.27976343000006,9.44999999999709],[114.18423407000012,22.279726460000063,9.44999999999709],[114.18420616000003,22.279707390000056,9.44999999999709],[114.18422776000011,22.279678380000064,9.44999999999709],[114.18423851000011,22.27966334000007,9.44999999999709],[114.18407802000002,22.279604220000067,9.44999999999709],[114.18403725000007,22.27963101000006,9.44999999999709],[114.18402822000007,22.27961946000005,9.44999999999709],[114.18401905000007,22.27960790000003,9.44999999999709],[114.18401030000007,22.279596080000033,9.44999999999709],[114.1839351000001,22.279646800000023,9.44999999999709],[114.18393264000008,22.279643270000065,9.44999999999709],[114.1839568800001,22.279627780000055,9.44999999999709],[114.18394510000007,22.279619970000056,9.44999999999709],[114.18393354000011,22.279613690000076,9.44999999999709],[114.1839213400001,22.279608160000066,9.44999999999709],[114.18390770000008,22.27960353000003,9.44999999999709],[114.18389437000008,22.279599950000033,9.44999999999709],[114.18388201000005,22.27959666000004,9.44999999999709],[114.18386821000001,22.27959517000005,9.44999999999709],[114.18385488000001,22.27959412000007,9.44999999999709],[114.1838410800001,22.27959412000007,9.44999999999709],[114.1838304800001,22.279593980000072,9.44999999999709],[114.18382828000006,22.279578740000034,9.44999999999709],[114.18382594000002,22.279550070000028,9.44999999999709],[114.18381652000005,22.279546510000046,9.44999999999709],[114.18381084000009,22.279544130000033,9.44999999999709],[114.18381474000012,22.279535820000035,9.44999999999709],[114.1835291000001,22.279427560000045,9.44999999999709],[114.18348799000012,22.27952288000006,9.44999999999709],[114.18347818000007,22.279545050000024,9.44999999999709],[114.18346930000007,22.27956549000004,9.44999999999709],[114.18345688000011,22.279595400000062,9.44999999999709],[114.18350940000005,22.279614550000076,9.44999999999709],[114.18350569000006,22.27970583000007,9.44999999999709],[114.18349720000003,22.279705440000043,9.44999999999709],[114.18347711000001,22.279697030000023,9.44999999999709],[114.18347197000003,22.279697140000053,9.44999999999709],[114.18344858000012,22.27969625000003,9.44999999999709],[114.18343363000008,22.279709060000073,9.44999999999709],[114.18342454000003,22.279728240000054,9.44999999999709],[114.1833861,22.279818980000073,9.44999999999709],[114.18335315000002,22.27983467000007,9.44999999999709],[114.18331262000004,22.27992856000003,9.44999999999709],[114.18333196000003,22.279957170000046,9.44999999999709],[114.18361586000003,22.279970460000072,9.44999999999709],[114.18375325000011,22.279975910000076,9.44999999999709],[114.1837773200001,22.279976860000033,9.44999999999709],[114.18385893000004,22.279980040000055,9.44999999999709],[114.18389562000004,22.27998148000006,9.44999999999709],[114.18389759000002,22.27995180000005,9.44999999999709],[114.18393075000006,22.27995351000004,9.44999999999709],[114.18393046000006,22.279966640000055,9.44999999999709],[114.1839455600001,22.279967820000024,9.44999999999709],[114.18396094000002,22.279968350000047,9.44999999999709],[114.18396023000003,22.279983610000045,9.44999999999709],[114.18400312000006,22.27998554000004,9.44999999999709],[114.18402229000003,22.27995935000007,9.44999999999709],[114.1840628000001,22.279958230000034,9.44999999999709]]]},"geometry_name":"shape","properties":{"level_id":"ba047eef-2b62-4561-932a-25c1a1e16fb3","level_floorpolyid":"F3697915652P2012022301000100","level_ordinal":1,"level_z_value":9.45,"level_name_en":"1st Floor","level_name_zh":"一樓","level_short_name_en":"1/F","level_category":"unspecified","level_restriction":null,"level_outdoor":0,"venue_id":"5bb79500-645d-4089-b5bc-5a02cfeed057","venue_category":"shoppingcenter","venue_name_en":"Hysan Place","venue_name_zh":"希慎廣場","venue_alt_name":null,"venue_restriction":null,"venue_hours":null,"venue_website":null,"venue_phone":null,"address_address":"500 HENNESSY ROAD","address_unit":null,"address_locality":"WAN CHAI DISTRICT","building_id":"2bd7dd16-b76d-475d-8d2d-1bf8910d87d9","building_category":"unspecified","building_name_en":"Hysan Place Podium","building_name_zh":"希慎廣場平台","building_alt_name":null,"building_restriction":"","bbox":[114.18331262000004,22.279427560000045,114.18423851000011,22.27998554000004]}}]}