{"type":"FeatureCollection","features":[{"type":"Feature","id":"venue_polygon.101","geometry":{"type":"Polygon","coordinates":[[[114.17236835000006,22.339230850000035],[114.17236835000006,22.33923101000005],[114.17236835000006,22.33923111000007],[114.17236836000006,22.339231230000053],[114.17236836000006,22.339231340000026],[114.17236836000006,22.33923144000005],[114.1723684000001,22.33923210000006],[114.1723684100001,22.339232200000026],[114.17236849000005,22.33923285000003],[114.17236850000006,22.33923296000006],[114.17236852000008,22.339233070000034],[114.1723685400001,22.339233180000065],[114.1723685500001,22.33923328000003],[114.17236858000001,22.339233440000044],[114.17236861000004,22.339233540000066],[114.17236863000005,22.33923364000003],[114.17236865000007,22.339233750000062],[114.17236868000009,22.339233870000044],[114.17236876000004,22.33923419000007],[114.17236876000004,22.33923421000003],[114.17236880000007,22.339234350000027],[114.17236888000002,22.339234660000045],[114.17236890000004,22.33923475000006],[114.17236900000012,22.33923507000003],[114.17236901000001,22.339235100000053],[114.17236906000005,22.33923525000006],[114.17236908000007,22.33923531000005],[114.1723691300001,22.33923544000004],[114.17236917000002,22.339235560000077],[114.17236919000004,22.339235620000068],[114.17236925000009,22.339235780000024],[114.1723692700001,22.339235810000048],[114.17236933000004,22.339235960000053],[114.17236935000005,22.339236010000036],[114.1723694100001,22.339236150000033],[114.17236946000003,22.33923627000007],[114.17236949000005,22.33923636000003],[114.17236977000005,22.33923696000005],[114.17236982000009,22.339237050000065],[114.17236990000004,22.33923720000007],[114.17236992000005,22.339237240000045],[114.1723699900001,22.339237360000027],[114.17237006000005,22.339237490000073],[114.17237008000006,22.339237530000048],[114.17237015,22.33923765000003],[114.17237022000006,22.339237780000076],[114.17237029000012,22.339237900000057],[114.17237035000005,22.339238000000023],[114.1723704100001,22.339238100000046],[114.17237046000002,22.339238180000052],[114.1723705500001,22.33923832000005],[114.17237060000002,22.339238390000048],[114.17237067000008,22.33923850000008],[114.17237083000009,22.33923874000004],[114.17237088000002,22.33923881000004],[114.1723709800001,22.339238950000038],[114.17237102000001,22.339239000000077],[114.17237110000008,22.33923911000005],[114.17237118000003,22.339239220000024],[114.1723712700001,22.339239340000063],[114.17237135000005,22.33923944000003],[114.17237143000011,22.339239530000043],[114.17237148000004,22.33923960000004],[114.17237181000007,22.339239990000067],[114.17237186000011,22.33924004000005],[114.17237194000006,22.339240140000072],[114.17237203000002,22.339240240000038],[114.1723721300001,22.33924035000007],[114.17237232000002,22.33924054000005],[114.17237238000007,22.339240610000047],[114.17237260000002,22.33924083000005],[114.17237267000007,22.339240890000042],[114.1723728500001,22.33924107000007],[114.17237297000008,22.339241180000045],[114.17237304000002,22.339241240000035],[114.17237310000007,22.339241300000026],[114.17237322000005,22.339241410000056],[114.17237348000003,22.33924163000006],[114.17237353000007,22.339241670000035],[114.17237367000007,22.339241780000066],[114.17237369000009,22.339241790000074],[114.17237378000004,22.339241870000023],[114.17237388000001,22.33924195000003],[114.1723740000001,22.339242040000045],[114.17237484000009,22.339242640000066],[114.17237497000008,22.339242730000024],[114.17237510000007,22.339242800000022],[114.17237521000004,22.33924288000003],[114.17237526000008,22.339242910000053],[114.17237556000009,22.339243090000025],[114.17237565000005,22.339243140000065],[114.17237575000001,22.339243190000047],[114.1723758600001,22.339243260000046],[114.17237595000006,22.33924331000003],[114.17237610000006,22.339243390000036],[114.1723761500001,22.33924341000005],[114.1723762800001,22.33924348000005],[114.17237641000008,22.33924355000005],[114.17237646000001,22.339243570000065],[114.17237662000002,22.33924365000007],[114.17237666000005,22.33924368000004],[114.17237679000004,22.339243730000078],[114.17237693000004,22.339243800000077],[114.17237702000011,22.33924385000006],[114.17237734000003,22.339243990000057],[114.1723774400001,22.33924403000003],[114.17237755000008,22.339244070000063],[114.17237766000005,22.339244120000046],[114.17237776000002,22.339244160000078],[114.1723778700001,22.339244200000053],[114.17237798000008,22.339244250000036],[114.17237808000004,22.33924428000006],[114.17237818000001,22.339244320000034],[114.17237836000004,22.339244380000025],[114.17237848000002,22.339244420000057],[114.17237862000002,22.33924447000004],[114.17237871000009,22.339244500000063],[114.17239487000006,22.33924933000003],[114.17239214000006,22.33925712000007],[114.1723920600001,22.339257460000056],[114.1723920500001,22.33925781000005],[114.17239209000002,22.339258030000053],[114.17238405,22.339282860000026],[114.17238397000006,22.339283210000076],[114.17238397000006,22.33928355000006],[114.17238405,22.339283900000055],[114.17238419000012,22.339284220000025],[114.17238440000006,22.339284510000027],[114.17238466000003,22.339284760000055],[114.17238497000005,22.339284960000043],[114.1723853200001,22.339285090000033],[114.17260223000005,22.33934885000008],[114.17261381000003,22.339352260000055],[114.17262555000002,22.339355710000063],[114.17276155000002,22.33939569000006],[114.17276193000009,22.339395770000067],[114.17276231000005,22.339395770000067],[114.17276269000001,22.339395710000076],[114.17276304000006,22.339395570000022],[114.17276336000009,22.33939538000004],[114.17276363000008,22.33939513000007],[114.17276385000002,22.339394840000068],[114.17276400000003,22.339394510000034],[114.17277186000001,22.339370960000053],[114.17277250000006,22.339369090000048],[114.17277250000006,22.33936908000004],[114.1727751300001,22.33936120000004],[114.17277764000005,22.33936194000006],[114.17277765000006,22.339361950000068],[114.17279565000001,22.339367200000027],[114.1728101000001,22.33937141000007],[114.17282912000007,22.33937696000004],[114.17283252000004,22.339377950000028],[114.17285260000006,22.339383800000064],[114.17285322000009,22.339383990000044],[114.17285333000007,22.339384030000076],[114.17285343000003,22.339384050000035],[114.17285354,22.33938408000006],[114.17285368000012,22.339384120000034],[114.17285384000002,22.339384160000066],[114.17285414000003,22.339384240000072],[114.17285429000003,22.33938427000004],[114.17285444000004,22.339384290000055],[114.17285459000004,22.339384320000022],[114.17285462000007,22.33938433000003],[114.17285477000007,22.339384350000046],[114.17285492000008,22.33938438000007],[114.1728549500001,22.339384390000077],[114.17285529000003,22.33938445000007],[114.17285539000011,22.339384460000076],[114.17285555000001,22.339384480000035],[114.17285556000002,22.339384480000035],[114.17285589000005,22.339384520000067],[114.17286636000006,22.339387550000026],[114.17286674000002,22.339387620000025],[114.1728671300001,22.339387620000025],[114.17286751000006,22.339387550000026],[114.17286786000011,22.33938741000003],[114.17286819000003,22.33938721000004],[114.17286846000002,22.33938696000007],[114.17286867000007,22.33938665000005],[114.17286881000007,22.339386320000074],[114.17288070000006,22.33934761000006],[114.17288704000009,22.33932697000006],[114.17288707000012,22.33932690000006],[114.17288708000001,22.33932686000003],[114.17288755000004,22.339325320000057],[114.17289189000007,22.339326500000027],[114.17289190000008,22.339326500000027],[114.17289273000006,22.33932672000003],[114.17291090000003,22.33933163000006],[114.17291128000011,22.33933169000005],[114.17291166000007,22.33933169000005],[114.17291203000002,22.339331620000053],[114.17291238000007,22.339331480000055],[114.1729127000001,22.339331280000067],[114.17291296000008,22.33933103000004],[114.17291317000002,22.33933073000003],[114.17291332000002,22.33933041000006],[114.17291372000011,22.339329150000026],[114.17291372000011,22.339329140000075],[114.17292168000006,22.33930384000007],[114.1729290400001,22.33928048000007],[114.17292971000006,22.33928049000008],[114.17292973000008,22.33928049000008],[114.17293028000006,22.33928049000008],[114.17293030000008,22.33928049000008],[114.17293123000002,22.33928048000007],[114.17293129000007,22.33928048000007],[114.17293153000003,22.339280470000062],[114.17293160000008,22.339280470000062],[114.17293167000003,22.339280470000062],[114.17293260000008,22.33928044000004],[114.17293264000011,22.33928044000004],[114.17293280000001,22.33928043000003],[114.17293315000006,22.339280420000023],[114.17293318000009,22.339280420000023],[114.17293411000003,22.339280380000048],[114.17293413000004,22.339280380000048],[114.17293451,22.339280360000032],[114.17293454000003,22.339280350000024],[114.17293547000008,22.339280290000033],[114.1729354900001,22.339280290000033],[114.17293642000004,22.339280220000035],[114.17293644000006,22.339280220000035],[114.17293701000006,22.339280170000052],[114.17293703000007,22.339280170000052],[114.17293796000001,22.339280080000037],[114.17293798000003,22.339280080000037],[114.17293890000008,22.33927998000007],[114.17293899000003,22.339279970000064],[114.17293906000009,22.339279960000056],[114.17293930000005,22.339279930000032],[114.17293931000006,22.339279930000032],[114.17294024000012,22.33927981000005],[114.17294027000003,22.33927981000005],[114.17294067000012,22.33927975000006],[114.17294081000011,22.339279730000044],[114.17294084000002,22.339279730000044],[114.17294176000007,22.339279600000054],[114.17294181000011,22.339279590000046],[114.17294270000002,22.33927944000004],[114.17294303000006,22.339279400000066],[114.1729430900001,22.33927939000006],[114.17294401000004,22.339279230000045],[114.17294405000007,22.339279220000037],[114.17294434000007,22.339279160000046],[114.17294461000006,22.33927912000007],[114.17294464000008,22.339279110000064],[114.17294556000002,22.339278930000035],[114.17294559000004,22.339278920000027],[114.17294650000008,22.339278730000046],[114.1729465200001,22.339278730000046],[114.17294684000001,22.339278660000048],[114.17294687000003,22.33927865000004],[114.17294776000006,22.339278440000044],[114.1729486700001,22.339278240000056],[114.17294871000001,22.339278230000048],[114.17294931000004,22.339278080000042],[114.17294934000006,22.339278070000034],[114.17294963000006,22.339277990000028],[114.17295052000009,22.339277760000073],[114.17295057000001,22.339277750000065],[114.17295146000004,22.339277500000037],[114.17295148000005,22.339277500000037],[114.17295237000008,22.339277240000058],[114.1729524000001,22.339277220000042],[114.1729525400001,22.339277180000067],[114.1729529700001,22.33927706000003],[114.17295302000002,22.33927704000007],[114.17295391000005,22.339276760000075],[114.17295393000006,22.339276750000067],[114.17295481000008,22.339276460000065],[114.17295482000009,22.339276460000065],[114.17295509000007,22.33927637000005],[114.17295510000008,22.33927637000005],[114.1729559800001,22.33927607000004],[114.17295601000001,22.33927606000003],[114.17295688000002,22.33927575000007],[114.17295690000003,22.339275740000062],[114.17295777000004,22.339275420000035],[114.17295780000006,22.339275410000027],[114.17295834000004,22.33927520000003],[114.17295841000009,22.339275170000064],[114.17295845000001,22.33927515000005],[114.1729592800001,22.33927482000007],[114.17295930000012,22.33927482000007],[114.17296016000012,22.339274470000078],[114.1729602800001,22.33927441000003],[114.17296035000004,22.33927439000007],[114.17296045,22.33927435000004],[114.17296130000011,22.33927398000003],[114.17296131,22.339273970000022],[114.1729621500001,22.33927360000007],[114.17296216000011,22.33927360000007],[114.1729630000001,22.339273220000052],[114.17296307000004,22.339273180000077],[114.17296341000008,22.339273020000064],[114.17296359000011,22.339272940000058],[114.17296367000006,22.339272900000026],[114.17296410000006,22.33927269000003],[114.17296471000009,22.339272390000076],[114.17296476000001,22.33927237000006],[114.17296494000004,22.339272270000038],[114.17296533000001,22.339272080000057],[114.17296536000003,22.33927206000004],[114.17296618000012,22.33927164000005],[114.17296623000004,22.339271620000034],[114.17296653000005,22.33927145000007],[114.17296721000002,22.339271090000068],[114.17296725000006,22.339271070000052],[114.17296770000007,22.339270820000024],[114.17296771000008,22.339270820000024],[114.17296867000005,22.33927028000005],[114.17296869000006,22.339270260000035],[114.1729688800001,22.33927015000006],[114.1729688900001,22.33927015000006],[114.17296968000005,22.339269690000037],[114.17296970000007,22.33926968000003],[114.17297048000012,22.339269210000054],[114.17297051000003,22.33926919000004],[114.17297129000008,22.339268700000048],[114.17297130000009,22.339268700000048],[114.17297168000005,22.339268460000028],[114.17297168000005,22.339268450000077],[114.1729719000001,22.339268310000023],[114.17297191000011,22.33926830000007],[114.17297208000002,22.33926819000004],[114.17297209000003,22.33926819000004],[114.17297269000005,22.339267800000073],[114.17297271000007,22.339267790000065],[114.1729734700001,22.33926728000006],[114.17297349000012,22.339267260000042],[114.17297439000004,22.339266640000062],[114.17297440000004,22.339266630000054],[114.17297500000006,22.339266210000062],[114.1729750400001,22.339266190000046],[114.1729751900001,22.339266080000073],[114.1729751900001,22.339266070000065],[114.17297665000001,22.33926499000006],[114.17297669000004,22.339264960000037],[114.17297718000009,22.339264590000028],[114.17297724000002,22.339264540000045],[114.17297727000005,22.33926452000003],[114.17297799000005,22.33926396000004],[114.17297802000007,22.339263930000072],[114.17297872000006,22.339263360000075],[114.17297874000008,22.339263350000067],[114.17297944000006,22.33926277000006],[114.17297947000009,22.339262740000038],[114.17297968000003,22.339262560000066],[114.17298015000006,22.339262160000033],[114.17298016000007,22.339262150000025],[114.17298085000004,22.33926155000006],[114.17298088000007,22.339261520000036],[114.17298233000008,22.33926020000007],[114.17298237000011,22.339260170000045],[114.17298259000006,22.33925996000005],[114.17298290000008,22.33925966000004],[114.1729829300001,22.339259640000023],[114.17298358000005,22.339259010000035],[114.17298360000007,22.339258990000076],[114.17298433000008,22.339258260000065],[114.17298434000008,22.339258250000057],[114.17298497000002,22.33925761000006],[114.17298501000005,22.33925757000003],[114.17298513000003,22.33925744000004],[114.17298552000011,22.339257030000056],[114.17298554000001,22.33925701000004],[114.17298615000004,22.339256350000028],[114.17298616000005,22.339256340000077],[114.17298677000008,22.339255670000057],[114.1729868000001,22.339255640000033],[114.17298738000011,22.339254960000062],[114.17298745000005,22.339254880000055],[114.17298747000007,22.33925486000004],[114.17298805000007,22.33925418000007],[114.17298806000008,22.33925417000006],[114.17298864000009,22.339253480000025],[114.1729886600001,22.339253460000066],[114.17298922000009,22.33925277000003],[114.1729892300001,22.33925275000007],[114.17298956000002,22.339252330000022],[114.17298971000002,22.339252140000042],[114.17298973000004,22.339252120000026],[114.17299028000002,22.33925141000003],[114.17299031000005,22.339251370000056],[114.17299137000009,22.33924993000005],[114.1729913800001,22.339249910000035],[114.17299143000002,22.339249840000036],[114.17299144000003,22.33924983000003],[114.1729919500001,22.339249100000075],[114.17299200000002,22.339249020000068],[114.17299203000005,22.339248980000036],[114.17299241,22.339248440000063],[114.17299244000003,22.33924840000003],[114.17299293000008,22.33924766000007],[114.17299293000008,22.33924765000006],[114.17299342000001,22.339246900000035],[114.17299345000004,22.33924686000006],[114.1729938200001,22.33924626000004],[114.17299393000008,22.339246100000025],[114.1729939700001,22.339246040000035],[114.17299443000002,22.339245280000057],[114.17299460000004,22.339245000000062],[114.17299460000004,22.339244990000054],[114.17299485000001,22.339244570000062],[114.17299487000003,22.33924454000004],[114.17299523000008,22.33924391000005],[114.17299533000005,22.339243730000078],[114.17299535000006,22.339243690000046],[114.17299575000004,22.339242960000036],[114.17299576000005,22.339242950000028],[114.17299618000004,22.339242170000034],[114.17299619000005,22.339242160000026],[114.17299660000003,22.339241380000033],[114.17299661000004,22.339241350000066],[114.17299701000002,22.339240560000064],[114.17299701000002,22.339240550000056],[114.17299707000006,22.339240430000075],[114.17299708000007,22.339240420000067],[114.17299741000011,22.33923974000004],[114.17299742000012,22.339239710000072],[114.17299779000007,22.33923892000007],[114.17299780000008,22.339238910000063],[114.1729981100001,22.339238240000043],[114.17299818000004,22.339238090000038],[114.17299819000004,22.339238050000063],[114.17299853000009,22.33923727000007],[114.1729985500001,22.339237240000045],[114.17299875000003,22.339236740000047],[114.17299889000003,22.339236420000077],[114.17299890000004,22.339236390000053],[114.17299923000007,22.339235580000036],[114.17299924000008,22.339235560000077],[114.17299956000011,22.33923474000005],[114.17299957000012,22.339234700000077],[114.1729996900001,22.33923438000005],[114.17299987000001,22.339233910000075],[114.17299987000001,22.339233900000067],[114.17300017000002,22.339233080000042],[114.17300019000004,22.339233040000067],[114.17300047000003,22.339232210000034],[114.17300047000003,22.339232200000026],[114.17300075000003,22.339231360000042],[114.17300078000005,22.339231260000076],[114.17300126000009,22.339229440000054],[114.1730012700001,22.339229400000022],[114.17300149000005,22.33922849000004],[114.17300149000005,22.33922848000003],[114.1730017000001,22.339227570000048],[114.17300171000011,22.339227540000024],[114.17300191000004,22.339226620000034],[114.17300191000004,22.339226590000067],[114.17300209000007,22.339225670000076],[114.17300210000008,22.33922565000006],[114.1730022700001,22.33922473000007],[114.1730022700001,22.339224710000053],[114.17300243000011,22.339223780000054],[114.17300243000011,22.339223770000046],[114.17300258000012,22.339222840000048],[114.17300259000001,22.339222800000073],[114.17300272000011,22.339221880000025],[114.17300272000011,22.339221860000066],[114.1730028400001,22.339220930000067],[114.1730028500001,22.339220900000043],[114.17300295000007,22.339219970000045],[114.17300305000003,22.339219030000038],[114.17300305000003,22.339218970000047],[114.17300319000003,22.33921711000005],[114.17300319000003,22.339217080000026],[114.17300324000007,22.339216140000076],[114.17300329000011,22.339215210000077],[114.17300329000011,22.339215160000037],[114.17300333000003,22.339213280000024],[114.17300333000003,22.33921324000005],[114.17300333000003,22.33921231000005],[114.17300333000003,22.339212270000075],[114.17300329000011,22.33921040000007],[114.17300329000011,22.339210370000046],[114.17300325000008,22.33920943000004],[114.17300325000008,22.339209410000024],[114.17300320000004,22.339208480000025],[114.17300320000004,22.339208450000058],[114.1730031300001,22.33920751000005],[114.17300306000004,22.339206580000052],[114.17300306000004,22.33920652000006],[114.17300296000008,22.339205590000063],[114.17300286000011,22.339204650000056],[114.1730028500001,22.339204610000024],[114.17300273000001,22.339203690000033],[114.17300273000001,22.339203680000026],[114.17300260000002,22.339202750000027],[114.17300260000002,22.339202730000068],[114.17300246000002,22.33920180000007],[114.17300245000001,22.339201760000037],[114.17300229000011,22.339200840000046],[114.17300229000011,22.33920083000004],[114.17300212000009,22.33919990000004],[114.17300211000008,22.339199880000024],[114.17300193000005,22.339198960000033],[114.17300193000005,22.339198940000074],[114.17300174000002,22.339198020000026],[114.17300173000001,22.33919798000005],[114.17300152000007,22.33919707000007],[114.17300152000007,22.33919706000006],[114.17300130000001,22.33919614000007],[114.17300129000012,22.339196100000038],[114.17300105000004,22.339195190000055],[114.17300081000008,22.339194290000023],[114.17300080000007,22.339194260000056],[114.17300054000009,22.339193350000073],[114.17300053000008,22.339193330000057],[114.1730002600001,22.339192430000026],[114.17300025000009,22.33919240000006],[114.17299996000008,22.339191500000027],[114.17299996000008,22.33919147000006],[114.17299966000007,22.339190580000036],[114.17299965000007,22.339190570000028],[114.17299934000005,22.33918968000006],[114.17299934000005,22.339189660000045],[114.17299902000002,22.339188770000078],[114.17299901000001,22.339188750000062],[114.17299868000009,22.339187870000046],[114.17299867000008,22.339187840000022],[114.17299832000003,22.339186960000063],[114.17299831000003,22.339186940000047],[114.17299795000008,22.33918606000003],[114.17299794000007,22.339186030000064],[114.17299757,22.339185170000064],[114.17299756000011,22.339185170000064],[114.17299718000004,22.339184300000056],[114.17299717000003,22.339184260000025],[114.17299677000005,22.339183400000024],[114.17299676000005,22.339183380000065],[114.17299635000006,22.339182520000065],[114.17299634000005,22.33918250000005],[114.17299592000006,22.339181650000057],[114.17299591000005,22.33918163000004],[114.17299548000005,22.339180790000057],[114.17299547000005,22.33918078000005],[114.17299503000004,22.339179940000065],[114.17299501000002,22.33917991000004],[114.17299474000004,22.339179410000042],[114.17299473000003,22.339179380000076],[114.17299470000012,22.33917930000007],[114.1729946800001,22.339179220000062],[114.17299465000008,22.339179130000048],[114.17299456,22.33917887000007],[114.1729945300001,22.33917882000003],[114.17299449000006,22.339178700000048],[114.17299444000002,22.339178590000074],[114.1729943900001,22.33917849000005],[114.17299432000004,22.339178360000062],[114.17299429000002,22.339178310000023],[114.17299415000002,22.33917806000005],[114.17299414000001,22.339178050000044],[114.17299406000006,22.339177930000062],[114.17299401000002,22.339177860000063],[114.17299398000011,22.33917782000003],[114.1729939600001,22.339177780000057],[114.17299393000008,22.339177750000033],[114.17299391000006,22.339177710000058],[114.17299384000012,22.33917763000005],[114.17299383000011,22.339177610000036],[114.17299364000007,22.33917739000003],[114.1729935400001,22.339177290000066],[114.17299309000009,22.33917654000004],[114.17299307000008,22.339176500000065],[114.17299205000006,22.33917488000003],[114.17299203000005,22.339174850000063],[114.17299151000009,22.33917406000006],[114.17299150000008,22.339174050000054],[114.1729909600001,22.339173250000044],[114.17299094000009,22.339173220000077],[114.17298984000001,22.339171660000034],[114.1729898100001,22.33917162000006],[114.1729892400001,22.339170850000073],[114.1729892400001,22.339170840000065],[114.1729886600001,22.339170070000023],[114.17298864000009,22.339170050000064],[114.17298805000007,22.33916929000003],[114.17298803000006,22.33916927000007],[114.17298743000003,22.339168520000044],[114.17298742000003,22.339168500000028],[114.17298681000011,22.339167760000066],[114.1729868000001,22.33916775000006],[114.17298618000007,22.33916701000004],[114.17298615000004,22.339166980000073],[114.1729855100001,22.339166250000062],[114.1729855000001,22.339166240000054],[114.17298486000004,22.33916552000005],[114.17298484000003,22.339165500000036],[114.17298419000008,22.33916479000004],[114.17298418000007,22.339164780000033],[114.17298352000012,22.339164070000038],[114.1729835000001,22.33916404000007],[114.17298283000002,22.339163350000035],[114.17298282000002,22.339163340000027],[114.17298214000004,22.33916265000005],[114.17298211000002,22.339162620000025],[114.17298141000003,22.339161940000054],[114.17298140000003,22.339161930000046],[114.17298070000004,22.339161260000026],[114.17298069000003,22.339161250000075],[114.17297998000004,22.339160580000055],[114.17297995000001,22.33916055000003],[114.17297851000001,22.339159250000023],[114.1729784800001,22.339159230000064],[114.17297774000008,22.339158590000068],[114.17297771000005,22.339158560000044],[114.17297621000012,22.339157320000027],[114.17297617000008,22.33915729000006],[114.17297540000004,22.33915668000003],[114.17297539000003,22.339156670000023],[114.1729746200001,22.339156070000058],[114.17297460000009,22.33915606000005],[114.17297382000004,22.339155470000037],[114.17297380000002,22.339155450000078],[114.17297301000008,22.339154870000073],[114.17297300000007,22.339154860000065],[114.17297220000012,22.33915428000006],[114.1729721700001,22.33915427000005],[114.17297137000003,22.339153710000062],[114.17297135000001,22.339153690000046],[114.17297054000005,22.339153140000064],[114.17297052000004,22.33915312000005],[114.17296970000007,22.339152580000075],[114.17296967000004,22.339152570000067],[114.17296884000007,22.339152040000045],[114.17296884000007,22.339152030000037],[114.17296800000008,22.33915150000007],[114.17296797000006,22.339151490000063],[114.17296713000007,22.339150980000056],[114.17296710000005,22.33915096000004],[114.17296625000006,22.33915046000004],[114.17296623000004,22.339150450000034],[114.17296537000004,22.339149960000043],[114.17296535000003,22.339149950000035],[114.17296449000003,22.339149470000052],[114.17296447000001,22.339149460000044],[114.17296360000012,22.33914899000007],[114.1729635800001,22.339148970000053],[114.17296270000008,22.33914851000003],[114.17296268000007,22.33914851000003],[114.17296180000005,22.33914806000007],[114.17296178000004,22.339148040000055],[114.17296089000001,22.339147600000047],[114.17296087000011,22.339147600000047],[114.17295998000009,22.339147170000047],[114.17295994000006,22.33914715000003],[114.17295904000002,22.339146740000047],[114.17295903000002,22.33914673000004],[114.17295812000009,22.339146320000054],[114.17295809000007,22.339146310000046],[114.17295718000003,22.339145920000078],[114.17295715000012,22.33914591000007],[114.17295623000007,22.339145530000053],[114.17295603000002,22.339145460000054],[114.17295056000012,22.339143840000077],[114.17294330000004,22.339141700000027],[114.17293479000011,22.339139200000034],[114.17293231000008,22.339138470000023],[114.17292510000004,22.339136350000047],[114.17292510000004,22.33913634000004],[114.1729227400001,22.339135660000068],[114.1729099800001,22.33913191000005],[114.17290349000007,22.33913000000007],[114.17288108000002,22.339123420000078],[114.17287984000006,22.33912305000007],[114.17287682000006,22.339122170000053],[114.17287678000002,22.339122150000037],[114.17287649000002,22.33912207000003],[114.1728747300001,22.339121550000073],[114.1728747200001,22.339121550000073],[114.17287465000004,22.339121530000057],[114.17285822000008,22.339116700000034],[114.17285821000007,22.339116690000026],[114.17285798000012,22.339116630000035],[114.17285536000009,22.33911586000005],[114.17285371000003,22.33911537000006],[114.17285644000003,22.339108000000067],[114.17285647000006,22.33910792000006],[114.17286446000003,22.33908247000005],[114.17286453000008,22.339082130000065],[114.17286452000008,22.339081780000072],[114.17286445000002,22.33908144000003],[114.17286431000002,22.33908112000006],[114.17286410000008,22.339080830000057],[114.1728638300001,22.339080590000037],[114.17286352000008,22.33908039000005],[114.17286318000004,22.33908026000006],[114.17266130000007,22.33902080000007],[114.17265522000002,22.339019010000072],[114.17265272000009,22.339018270000054],[114.17262561000007,22.339010290000033],[114.17257696000001,22.338995960000034],[114.17257289000008,22.33899476000005],[114.17251375000001,22.338977340000042],[114.17251265000004,22.338977020000073],[114.17248871000004,22.33896997000005],[114.17248833000008,22.338969890000044],[114.17248795000012,22.338969890000044],[114.17248757000004,22.338969950000035],[114.17248722000011,22.338970090000032],[114.17248690000008,22.33897028000007],[114.17248662000009,22.33897053000004],[114.17248641000003,22.33897083000005],[114.17248626000003,22.338971150000077],[114.17247782000004,22.33899671000006],[114.17247774000009,22.338996890000033],[114.17247543000008,22.339003930000047],[114.17247530000009,22.339004330000023],[114.17246097000009,22.33900005000004],[114.17245819000004,22.338999220000062],[114.17245795000008,22.33899916000007],[114.17245778000006,22.338999130000047],[114.17245765000007,22.33899911000003],[114.17245753000009,22.338999100000024],[114.1724574000001,22.338999080000065],[114.17245730000002,22.33899906000005],[114.17245695000008,22.338999020000074],[114.17245694000007,22.338999020000074],[114.17245658000002,22.338998980000042],[114.17245647000004,22.338998970000034],[114.17245558000002,22.33899892000005],[114.17245546000004,22.33899892000005],[114.17245474000003,22.33899892000005],[114.17245463000006,22.33899892000005],[114.17245431000003,22.338998940000067],[114.17245420000006,22.338998940000067],[114.1724539700001,22.338998950000075],[114.17245385000001,22.338998970000034],[114.17245372000002,22.338998970000034],[114.17245361000005,22.338998980000042],[114.17245349000007,22.338999000000058],[114.17245336000008,22.338999000000058],[114.17245323000009,22.338999020000074],[114.17245306000007,22.338999040000033],[114.17245297000011,22.33899905000004],[114.17245284,22.338999070000057],[114.17245272000002,22.338999080000065],[114.17245261000005,22.338999100000024],[114.1724522500001,22.33899916000007],[114.17245223000009,22.33899916000007],[114.17245207000008,22.338999190000038],[114.17245190000006,22.338999220000062],[114.17245176000006,22.33899925000003],[114.17245165000008,22.338999270000045],[114.17245154000011,22.33899929000006],[114.17245145000004,22.338999310000077],[114.17245127000001,22.33899935000005],[114.1724512400001,22.33899936000006],[114.17245107000008,22.338999400000034],[114.17245089000005,22.338999450000074],[114.17245086000003,22.338999460000025],[114.17245082000011,22.338999470000033],[114.17245061000006,22.338999520000073],[114.1724501000001,22.338999670000078],[114.17245000000003,22.338999700000045],[114.17244988000004,22.338999740000077],[114.17244976000006,22.33899978000005],[114.1724496600001,22.338999810000075],[114.17244932000006,22.338999930000057],[114.17244917000005,22.338999990000048],[114.17244914000003,22.339000000000055],[114.17244901000004,22.33900005000004],[114.17244897,22.339000060000046],[114.1724489500001,22.339000070000054],[114.17244884000002,22.339000120000037],[114.17244883000001,22.339000120000037],[114.17244873000004,22.33900016000007],[114.17244856000002,22.339000230000067],[114.1724485200001,22.339000240000075],[114.17244836000009,22.339000310000074],[114.17244827000002,22.339000360000057],[114.17244815000004,22.33900041000004],[114.17244804000006,22.339000460000022],[114.1724479500001,22.339000510000062],[114.17244783000001,22.339000560000045],[114.17244772000004,22.339000610000028],[114.17244763000008,22.339000660000067],[114.17244747000007,22.339000740000074],[114.17244733000007,22.339000810000073],[114.1724472300001,22.339000860000056],[114.1724470900001,22.339000940000062],[114.17244696000012,22.33900101000006],[114.17244692000008,22.339001030000077],[114.17244676000007,22.339001120000034],[114.17244671000003,22.33900115000006],[114.17244626000002,22.339001420000045],[114.17244618000007,22.339001470000028],[114.17244605000008,22.339001560000042],[114.17244592000009,22.33900164000005],[114.17244589000006,22.339001660000065],[114.17244574000006,22.33900176000003],[114.17244569000002,22.339001800000062],[114.17244541000002,22.33900200000005],[114.17244534000008,22.339002050000033],[114.17244524000012,22.33900213000004],[114.17244513000003,22.339002210000046],[114.17244506000009,22.33900226000003],[114.17244478000009,22.339002480000033],[114.17244473000005,22.339002520000065],[114.17244462000008,22.339002610000023],[114.1724445100001,22.339002700000037],[114.17244446000007,22.33900274000007],[114.17244433000008,22.339002850000043],[114.17244427000003,22.339002910000033],[114.17244417000006,22.339003000000048],[114.1724440700001,22.339003080000055],[114.17244395000012,22.339003190000028],[114.17244386000004,22.339003280000043],[114.17244376000008,22.339003380000065],[114.17244370000003,22.339003430000048],[114.17244333000008,22.339003800000057],[114.17244328000004,22.33900385000004],[114.17244305000008,22.339004100000068],[114.17244300000004,22.33900416000006],[114.17244291000009,22.339004260000024],[114.17244282000001,22.339004360000047],[114.17244277000009,22.339004420000037],[114.17244244000005,22.339004810000063],[114.1724423500001,22.339004930000044],[114.17244229000005,22.33900501000005],[114.17244223000012,22.33900508000005],[114.17244214000004,22.33900520000003],[114.17244204000008,22.33900534000003],[114.17244180000012,22.339005800000052],[114.17244067000001,22.339009160000046],[114.17242259000011,22.339062960000035],[114.17242256000009,22.33906305000005],[114.1724221500001,22.33906427000005],[114.1724221500001,22.33906428000006],[114.1723873300001,22.339170540000055],[114.17238036000003,22.33919197000006],[114.17236878000006,22.339227570000048],[114.17236875000003,22.33922768000008],[114.17236871000011,22.339227840000035],[114.17236868000009,22.339227940000058],[114.17236866000007,22.33922805000003],[114.17236864000006,22.33922816000006],[114.17236861000004,22.339228260000027],[114.1723685500001,22.339228580000054],[114.1723685500001,22.33922860000007],[114.17236852000008,22.339228770000034],[114.17236851000007,22.33922885000004],[114.17236849000005,22.33922896000007],[114.17236847000004,22.339229070000044],[114.17236846000003,22.339229170000067],[114.17236844000001,22.339229330000023],[114.17236843,22.339229440000054],[114.17236842000011,22.339229560000035],[114.1723684100001,22.339229660000058],[114.1723684000001,22.33922977000003],[114.17236836000006,22.339230420000035],[114.17236836000006,22.339230520000058],[114.17236836000006,22.33923064000004],[114.17236835000006,22.33923075000007],[114.17236835000006,22.339230850000035]]]},"geometry_name":"shape","properties":{"venue_id":"29c70b46-ec21-4dc0-97d6-96be4177c208","venue_category":"stadium","venue_name_en":"Cornwall Street Squash and Table Tennis Centre","venue_name_zh":"歌和老街壁球及乒乓球中心","venue_alt_name":null,"venue_restriction":null,"venue_hours":null,"venue_website":null,"venue_phone":null,"venue_display_height":66.65,"venue_display_height_min":40.3,"address_address":"17 CORNWALL STREET","address_unit":null,"address_locality":"KOWLOON CITY DISTRICT","venue_network":"False","bbox":[114.17236835000006,22.338969890000044,114.17300333000003,22.339395770000067]}},{"type":"Feature","id":"venue_polygon.435","geometry":{"type":"Polygon","coordinates":[[[114.16851209000004,22.336573360000045],[114.16852109000001,22.336614360000056],[114.16852121000011,22.336614690000033],[114.16852139000002,22.33661500000005],[114.1685216300001,22.336615280000046],[114.16852193000011,22.33661550000005],[114.16852226000003,22.336615660000064],[114.1685226300001,22.336615770000037],[114.16852301000006,22.33661580000006],[114.16852338000001,22.33661576000003],[114.16861253000002,22.336599110000066],[114.16861610000001,22.336613390000025],[114.16861910000011,22.33662638000004],[114.16861912000002,22.336626460000048],[114.16862110000011,22.33663339000003],[114.1686220900001,22.336638330000028],[114.1686221000001,22.33663836000005],[114.16862606000007,22.336656180000034],[114.16862606000007,22.336659000000054],[114.16862608000008,22.33665927000004],[114.16862614000001,22.336659530000077],[114.1686271100001,22.336662430000047],[114.16862809000008,22.33666733000007],[114.16862819000005,22.336667650000038],[114.16862835000006,22.33666795000005],[114.16862857000001,22.336668220000035],[114.16862906000006,22.336668700000075],[114.16862906000006,22.336671000000024],[114.16862910000009,22.336671360000025],[114.16863109000008,22.336680340000044],[114.16863209000007,22.336685330000023],[114.16863210000008,22.336685380000063],[114.16863509000007,22.336698350000063],[114.16863606000004,22.33670316000007],[114.16863606000004,22.336704000000054],[114.16863611000008,22.33670441000004],[114.16863906000003,22.336716210000077],[114.16863906000003,22.33671700000008],[114.16863910000006,22.33671738000004],[114.16864310000005,22.336734380000053],[114.16864314000009,22.336734530000058],[114.16864336000003,22.336735200000078],[114.16864810000004,22.336756360000038],[114.16864821000001,22.336756700000024],[114.16864839000004,22.336757010000042],[114.16864863,22.33675728000003],[114.16864892000001,22.336757500000033],[114.16864926000005,22.336757660000046],[114.16864941000006,22.336757700000078],[114.1686560600001,22.336786190000055],[114.1686560600001,22.336787000000072],[114.16865609000001,22.33678733000005],[114.16865619000009,22.336787660000027],[114.1686563500001,22.336787960000038],[114.16865657000005,22.336788220000074],[114.1686570600001,22.336788700000056],[114.1686570600001,22.336789000000067],[114.16865709000001,22.336789330000045],[114.16865719000009,22.336789660000022],[114.1686573500001,22.336789960000033],[114.16865757000005,22.33679022000007],[114.1686580600001,22.33679070000005],[114.1686580600001,22.336791000000062],[114.16865809000001,22.33679133000004],[114.16865819000009,22.336791660000074],[114.1686583500001,22.336791960000028],[114.16865857000005,22.336792220000063],[114.1686590600001,22.336792700000046],[114.1686590600001,22.336793000000057],[114.16865909,22.336793330000035],[114.16865919000008,22.33679366000007],[114.1686593500001,22.336793960000023],[114.16865957000005,22.33679422000006],[114.1686600600001,22.33679470000004],[114.1686600600001,22.336795000000052],[114.16866009000012,22.336795350000045],[114.16866020000009,22.33679569000003],[114.16866038,22.33679600000005],[114.16866062000008,22.336796270000036],[114.1686609200001,22.336796500000048],[114.16866106000009,22.33679656000004],[114.16866106000009,22.336797000000047],[114.16866109000011,22.33679735000004],[114.16866120000009,22.336797690000026],[114.16866138000012,22.336798000000044],[114.16866162000008,22.33679827000003],[114.16866192000009,22.336798500000043],[114.16866218000007,22.336798620000025],[114.16866219000008,22.336798660000056],[114.16866235000009,22.336798960000067],[114.16866257000004,22.336799220000046],[114.16866406000008,22.336800700000026],[114.16866406000008,22.336801000000037],[114.1686640900001,22.33680133000007],[114.16866419000007,22.33680166000005],[114.16866435000009,22.33680196000006],[114.16866457000003,22.33680222000004],[114.16866706000008,22.336804700000073],[114.16866706000008,22.336805000000027],[114.1686670900001,22.336805350000077],[114.16866720000007,22.336805690000062],[114.1686673800001,22.336806000000024],[114.16866762000006,22.336806270000068],[114.16866792000008,22.336806500000023],[114.16866826000012,22.336806660000036],[114.16866862000006,22.33680676000006],[114.16866900000002,22.336806800000033],[114.16866915000003,22.336806800000033],[114.16867557,22.336813220000067],[114.16867587000002,22.33681347000004],[114.16867622000007,22.336813650000067],[114.16867660000003,22.33681376000004],[114.16867700000012,22.336813800000073],[114.16867715000001,22.336813800000073],[114.16867757000011,22.336814220000065],[114.16867787000001,22.336814470000036],[114.16867818000003,22.33681463000005],[114.16867820000004,22.33681469000004],[114.16867838000007,22.33681500000006],[114.16867862000004,22.336815270000045],[114.16867892000005,22.336815500000057],[114.16867926000009,22.33681566000007],[114.16867962000003,22.336815760000036],[114.16868000000011,22.336815800000068],[114.16868015000011,22.336815800000068],[114.1686815700001,22.336817220000057],[114.16868187000011,22.336817470000028],[114.16868222000005,22.336817650000057],[114.16868260000001,22.33681776000003],[114.1686830000001,22.336817800000063],[114.1686831500001,22.336817800000063],[114.1686835700001,22.336818220000055],[114.16868387000011,22.336818470000026],[114.16868418000001,22.33681863000004],[114.16868420000003,22.33681869000003],[114.16868438000006,22.336819000000048],[114.16868462000002,22.336819270000035],[114.16868492000003,22.336819500000047],[114.16868526000007,22.33681966000006],[114.16868562000002,22.336819760000026],[114.1686860000001,22.336819800000058],[114.16868627000008,22.336819800000058],[114.16868638000005,22.336820000000046],[114.16868662000002,22.336820270000032],[114.16868692000003,22.336820500000044],[114.16868726000007,22.336820660000058],[114.16868762000001,22.336820760000023],[114.16868800000009,22.336820800000055],[114.16868915000009,22.336820800000055],[114.16868957000008,22.336821220000047],[114.1686898700001,22.336821470000075],[114.16869022000003,22.336821650000047],[114.1686906000001,22.336821760000078],[114.16869100000008,22.336821800000052],[114.16869115000009,22.336821800000052],[114.16869157000008,22.336822220000045],[114.16869187000009,22.336822470000072],[114.16869222000003,22.336822650000045],[114.1686926000001,22.336822760000075],[114.16869300000008,22.33682280000005],[114.16869415000008,22.33682280000005],[114.16869457000007,22.336823220000042],[114.16869487000008,22.33682347000007],[114.16869522000002,22.336823650000042],[114.16869560000009,22.336823760000073],[114.16869600000007,22.336823800000047],[114.16869715000007,22.336823800000047],[114.16869757000006,22.33682422000004],[114.16869787000007,22.336824470000067],[114.16869822000001,22.33682465000004],[114.16869860000008,22.33682476000007],[114.16869900000006,22.336824800000045],[114.16870115000006,22.336824800000045],[114.16870157000005,22.336825220000037],[114.16870187000006,22.336825470000065],[114.16870222000011,22.336825650000037],[114.16870260000007,22.336825760000067],[114.16870300000005,22.336825800000042],[114.16870715000005,22.336825800000042],[114.16870757000004,22.336826220000034],[114.16870787000005,22.336826470000062],[114.1687082200001,22.336826650000035],[114.16870860000006,22.336826760000065],[114.16870900000004,22.33682680000004],[114.16872500000011,22.33682680000004],[114.16872540000008,22.336826760000065],[114.16872578000005,22.336826650000035],[114.1687261300001,22.336826470000062],[114.1687264300001,22.336826220000034],[114.1687268500001,22.336825800000042],[114.1687294300001,22.336825800000042],[114.16873310000005,22.336841380000067],[114.16873321000003,22.336841710000044],[114.16873340000006,22.336842020000063],[114.16873364000003,22.33684228000004],[114.16873393000003,22.336842500000046],[114.16873426000006,22.33684266000006],[114.16873462000001,22.336842760000025],[114.16873499000008,22.336842800000056],[114.16873536000003,22.336842770000032],[114.16882458000009,22.336827080000035],[114.16882612000006,22.33683246000004],[114.16882624000004,22.336832770000058],[114.16882643000008,22.33683306000006],[114.16882667000004,22.33683331000003],[114.16882696000005,22.336833520000027],[114.16882728000007,22.336833670000033],[114.16882762000012,22.336833760000047],[114.16882798000006,22.336833800000022],[114.16882834,22.336833770000055],[114.16887034000001,22.336826770000073],[114.16887072000009,22.33682667000005],[114.16887106000001,22.336826510000037],[114.16887137000003,22.336826280000025],[114.16887161000011,22.33682600000003],[114.16887180000003,22.33682569000007],[114.16887191000001,22.336825340000075],[114.16887194000003,22.336824980000074],[114.16887190000011,22.336824620000073],[114.16886332000001,22.33678746000004],[114.16889933000004,22.336781770000073],[114.16889937000008,22.336781770000073],[114.16896947000009,22.336769110000034],[114.1689720600001,22.33678118000006],[114.1689720600001,22.336782000000028],[114.16897208000012,22.33678227000007],[114.16897214000005,22.33678253000005],[114.1689740600001,22.336788270000056],[114.1689740600001,22.336789000000067],[114.16897410000001,22.33678936000007],[114.16897610000001,22.336798360000046],[114.16897624,22.336798760000022],[114.16897712000002,22.336800520000054],[114.1689780800001,22.336806270000068],[114.16897818000007,22.33680662000006],[114.16897835000009,22.33680695000004],[114.16897859000005,22.336807230000034],[114.16897888000005,22.336807470000053],[114.1689792200001,22.336807650000026],[114.16897959000005,22.336807760000056],[114.16897998000002,22.33680780000003],[114.1689803700001,22.336807770000064],[114.16905337000003,22.33679477000004],[114.16905365000002,22.336794690000033],[114.16905392000001,22.33679458000006],[114.16905565000002,22.33679372000006],[114.16906734000008,22.336791770000048],[114.1690675100001,22.336791740000024],[114.1690715100001,22.336790740000026],[114.16907184000002,22.336790620000045],[114.16907215000003,22.336790450000024],[114.16907242000002,22.336790230000076],[114.16907264000008,22.336789960000033],[114.1690728100001,22.33678967000003],[114.16907291000007,22.33678935000006],[114.16907294000009,22.336789020000026],[114.16907291000007,22.33678869000005],[114.1690629200001,22.336736690000066],[114.16905024000005,22.33666745000005],[114.1690603400001,22.336665770000025],[114.16906070000005,22.336665680000067],[114.16906103000008,22.336665520000054],[114.16906133000009,22.336665320000066],[114.16906157000005,22.33666506000003],[114.16906176000009,22.336664770000027],[114.16906188000007,22.33666444000005],[114.16906194,22.336664110000072],[114.16906193000011,22.33666376000008],[114.16905993000012,22.336649760000057],[114.16905985000005,22.33664944000003],[114.16905970000005,22.33664913000007],[114.16905950000012,22.336648850000074],[114.16905924000002,22.336648610000054],[114.16905894000001,22.336648420000074],[114.16905861000009,22.336648290000028],[114.16905825000003,22.33664822000003],[114.16905789000009,22.33664820000007],[114.16905753000003,22.336648250000053],[114.16904660000012,22.33665078000007],[114.16904520000003,22.336642400000073],[114.16904536000004,22.336642290000043],[114.16904560000012,22.336642020000056],[114.16904578000003,22.336641720000046],[114.16904590000001,22.336641390000068],[114.16904594000005,22.336641050000026],[114.16904592000003,22.336640700000032],[114.16904582000006,22.336640370000055],[114.16904565000004,22.336640050000028],[114.1690454300001,22.33663978000004],[114.16904480000005,22.336639150000053],[114.16904292000004,22.336630700000057],[114.16904193000005,22.336623760000066],[114.16904184000009,22.336623410000072],[114.16904167000007,22.336623080000038],[114.16904144000011,22.336622790000035],[114.16904115000011,22.336622550000072],[114.16904081000007,22.336622360000035],[114.16904044000012,22.33662225000006],[114.16904005000004,22.336622200000022],[114.16903966000007,22.336622230000046],[114.16903549000006,22.336622920000025],[114.16902990000006,22.336599610000064],[114.16902978000007,22.336599270000022],[114.16902959000004,22.33659896000006],[114.16902934000007,22.336598690000073],[114.16902903000005,22.33659847000007],[114.16902868000011,22.336598320000064],[114.16902831000004,22.33659822000004],[114.16902793000008,22.336598200000026],[114.16902755000001,22.336598250000065],[114.16902062000008,22.336599790000037],[114.1690189300001,22.336588750000033],[114.16901886000005,22.336588470000038],[114.16901690000009,22.336582580000027],[114.16901492000011,22.336571700000036],[114.16901490000009,22.336571610000078],[114.16900690000011,22.336538620000056],[114.16900391000001,22.336525650000056],[114.16900091000002,22.336510670000052],[114.16900080000005,22.336510330000067],[114.16900063000003,22.33651002000005],[114.16900039000006,22.336509740000054],[114.16900009000005,22.33650951000004],[114.16900006000003,22.336509500000034],[114.16900025000007,22.336509380000052],[114.16900053000006,22.336509110000065],[114.16900074000012,22.336508800000047],[114.16900088000011,22.33650846000006],[114.16900094000005,22.336508090000052],[114.16900092000003,22.33650773000005],[114.16900020000003,22.336503380000067],[114.16901244000007,22.336500750000027],[114.16901279000001,22.336500640000054],[114.16901312000005,22.336500470000033],[114.16901340000004,22.33650025000003],[114.16901363000011,22.336499980000042],[114.16901380000002,22.336499670000023],[114.1690139100001,22.336499340000046],[114.16901394000001,22.33649900000006],[114.16901394000001,22.336498000000063],[114.1690139100001,22.33649765000007],[114.16901380000002,22.336497310000027],[114.1690136200001,22.336497000000065],[114.16901338000002,22.33649673000008],[114.16901308000001,22.336496500000067],[114.16901294000002,22.336496440000076],[114.16901294000002,22.336494000000073],[114.1690129100001,22.336493650000023],[114.16901280000002,22.336493310000037],[114.1690126200001,22.336493000000075],[114.16901238000003,22.33649273000003],[114.16901208000002,22.336492500000077],[114.16901194000002,22.33649244000003],[114.16901194000002,22.336491000000024],[114.16901191000011,22.33649065000003],[114.16901180000002,22.336490310000045],[114.1690116200001,22.336490000000026],[114.16901138000003,22.33648973000004],[114.16901108000002,22.336489500000027],[114.16901094000002,22.336489440000037],[114.16901094000002,22.33648900000003],[114.16901091000011,22.336488650000035],[114.16901080000002,22.33648831000005],[114.16901062000011,22.33648800000003],[114.16901038000003,22.336487730000044],[114.16901008000002,22.336487500000032],[114.16900982000004,22.33648738000005],[114.16900981000003,22.336487340000076],[114.16900965000002,22.336487040000065],[114.16900943000007,22.33648678000003],[114.16900894000003,22.336486300000047],[114.16900894000003,22.336486000000036],[114.16900891000012,22.336485650000043],[114.16900880000003,22.336485310000057],[114.16900862000011,22.33648500000004],[114.16900838000004,22.336484730000052],[114.16900808000003,22.33648450000004],[114.16900782000005,22.33648437000005],[114.16900780000003,22.33648431000006],[114.16900762000012,22.33648400000004],[114.16900738000004,22.336483730000054],[114.16900708000003,22.336483500000043],[114.16900682000005,22.33648338000006],[114.16900681000004,22.33648334000003],[114.16900665000003,22.336483040000076],[114.16900643000008,22.33648278000004],[114.16900243000009,22.33647878000005],[114.16900213000008,22.336478530000022],[114.16900182000006,22.336478370000066],[114.16900180000005,22.336478310000075],[114.16900162000002,22.336478000000056],[114.16900138000005,22.33647773000007],[114.16900108000004,22.336477500000058],[114.16900082000006,22.33647737000007],[114.16900080000005,22.336477310000078],[114.16900062000002,22.33647700000006],[114.16900038000006,22.336476730000072],[114.16900008000005,22.33647650000006],[114.16899974000012,22.336476340000047],[114.16899938000006,22.336476240000025],[114.1689990000001,22.33647620000005],[114.1689988500001,22.33647620000005],[114.1689984300001,22.336475780000058],[114.16899813000009,22.33647553000003],[114.16899778000004,22.336475350000057],[114.16899740000008,22.336475240000027],[114.1689970000001,22.336475200000052],[114.1689968500001,22.336475200000052],[114.1689964300001,22.33647478000006],[114.1689961300001,22.336474530000032],[114.16899578000005,22.33647435000006],[114.16899540000009,22.33647424000003],[114.16899500000011,22.336474200000055],[114.1689948500001,22.336474200000055],[114.16899443000011,22.336473780000063],[114.1689941300001,22.336473530000035],[114.16899378000005,22.336473350000063],[114.16899340000009,22.336473240000032],[114.16899300000011,22.336473200000057],[114.16899185000011,22.336473200000057],[114.16899143,22.336472780000065],[114.16899113000011,22.336472530000037],[114.16899078000006,22.336472350000065],[114.1689904000001,22.336472240000035],[114.16899000000001,22.33647220000006],[114.16898885,22.33647220000006],[114.16898843000001,22.336471780000068],[114.16898813000012,22.33647153000004],[114.16898778000007,22.336471350000068],[114.1689874000001,22.336471240000037],[114.16898700000002,22.336471200000062],[114.16898485000002,22.336471200000062],[114.16898443000002,22.33647078000007],[114.16898413000001,22.336470530000042],[114.16898378000008,22.33647035000007],[114.16898340000012,22.33647024000004],[114.16898300000003,22.336470200000065],[114.16898085000003,22.336470200000065],[114.16898043000003,22.336469780000073],[114.16898013000002,22.336469530000045],[114.16897978000009,22.336469350000073],[114.16897940000001,22.336469240000042],[114.16897900000004,22.336469200000067],[114.16897585000004,22.336469200000067],[114.16897543000005,22.336468780000075],[114.16897513000004,22.336468530000047],[114.1689747800001,22.336468350000075],[114.16897440000002,22.336468240000045],[114.16897400000005,22.33646820000007],[114.16896685000006,22.33646820000007],[114.16896643000007,22.336467780000078],[114.16896613000006,22.33646753000005],[114.16896578000001,22.336467350000078],[114.16896540000005,22.336467240000047],[114.16896500000007,22.336467200000072],[114.16895800000009,22.336467200000072],[114.16895760000011,22.336467240000047],[114.16895722000004,22.336467350000078],[114.1689568700001,22.33646753000005],[114.16895657000009,22.336467780000078],[114.1689561500001,22.33646820000007],[114.16894800000011,22.33646820000007],[114.16894760000002,22.336468240000045],[114.16894722000006,22.336468350000075],[114.16894687000001,22.336468530000047],[114.16894657000012,22.336468780000075],[114.16894615000001,22.336469200000067],[114.16894400000001,22.336469200000067],[114.16894363000006,22.336469230000034],[114.16862963000005,22.336525230000063],[114.16862927000011,22.33652533000003],[114.16862893000007,22.33652550000005],[114.16862863000006,22.336525720000054],[114.1686283900001,22.33652599000004],[114.16862821000007,22.33652630000006],[114.16862810000009,22.336526640000045],[114.16862806000006,22.33652699000004],[114.16862809000008,22.336527340000032],[114.16863274000002,22.336549670000068],[114.16862158000004,22.33655224000006],[114.16851364000001,22.33657123000006],[114.16851327000006,22.336571330000027],[114.16851293000002,22.336571500000048],[114.16851263000001,22.33657172000005],[114.16851239000005,22.336572000000047],[114.16851220000001,22.336572310000065],[114.16851209000004,22.33657265000005],[114.16851206000001,22.336573000000044],[114.16851209000004,22.336573360000045]]]},"geometry_name":"shape","properties":{"venue_id":"97390be8-174d-47a0-b013-f04a7276e15d","venue_category":"governmentfacility","venue_name_en":"Pak Tin Community Complex","venue_name_zh":"白田社區綜合大樓","venue_alt_name":null,"venue_restriction":null,"venue_hours":null,"venue_website":null,"venue_phone":null,"venue_display_height":56.45,"venue_display_height_min":32.05,"address_address":"51 PAK TIN STREET","address_unit":null,"address_locality":"SHAM SHUI PO DISTRICT","venue_network":"False","bbox":[114.16851206000001,22.336467200000072,114.16907294000009,22.336842800000056]}},{"type":"Feature","id":"venue_polygon.490","geometry":{"type":"Polygon","coordinates":[[[114.16692382000008,22.333085390000065],[114.16693324000005,22.333095870000022],[114.16706564000003,22.333243120000077],[114.16706592000003,22.333243370000048],[114.16706624000005,22.333243560000028],[114.1670665900001,22.333243700000025],[114.16706696000006,22.333243760000073],[114.16706735000002,22.333243760000073],[114.16706772000009,22.333243690000074],[114.16706807000003,22.333243550000077],[114.16706839000005,22.333243350000032],[114.16707138000004,22.333241040000075],[114.16707241000006,22.333242190000078],[114.16707269000005,22.33324244000005],[114.16707300000007,22.33324263000003],[114.16707336000002,22.333242760000076],[114.16707373000008,22.333242830000074],[114.16707412000005,22.333242830000074],[114.16707449,22.333242760000076],[114.16707484000005,22.333242620000078],[114.16707516000008,22.333242420000033],[114.16707670000005,22.333241230000056],[114.16710902000011,22.333277210000062],[114.16711945000009,22.333288820000064],[114.1671194600001,22.333288830000072],[114.1671532800001,22.33332647000003],[114.16715388000011,22.33332714000005],[114.16715361000001,22.33332740000003],[114.16715339000007,22.333327740000072],[114.16715325000007,22.333328110000025],[114.16715321000004,22.33332850000005],[114.16715321000004,22.333328510000058],[114.16715323000005,22.333328820000077],[114.16715332000001,22.33332912000003],[114.16715346000001,22.333329400000025],[114.16715366000005,22.33332966000006],[114.16716484000005,22.33334209000003],[114.16716511000004,22.33334234000006],[114.16716543000007,22.33334253000004],[114.16716578,22.333342670000036],[114.16716616000008,22.333342730000027],[114.16716654000004,22.333342730000027],[114.1671669100001,22.333342660000028],[114.16716726000004,22.33334252000003],[114.16716754000004,22.333342350000066],[114.1671682000001,22.333343090000028],[114.16716822000001,22.333343100000036],[114.16720206000002,22.333380770000076],[114.16720307000003,22.333381900000063],[114.16724140000008,22.333424570000034],[114.16724122000005,22.333424740000055],[114.16724101000011,22.333425030000058],[114.16724087000011,22.333425360000035],[114.16724079000005,22.33342571000003],[114.16724080000006,22.333426060000022],[114.16724087000011,22.333426400000064],[114.16724102,22.333426730000042],[114.16724123000006,22.333427020000045],[114.16725222000002,22.333439250000026],[114.16725250000002,22.333439500000054],[114.16725281000004,22.333439690000034],[114.1672531700001,22.333439820000024],[114.16725354000005,22.333439890000022],[114.16725392000001,22.333439890000022],[114.16725430000008,22.333439820000024],[114.16725465000002,22.333439680000026],[114.16725486000007,22.333439550000037],[114.16728823000005,22.333476700000062],[114.16728690000002,22.333477720000076],[114.16728664000004,22.333477970000047],[114.1672864300001,22.333478270000057],[114.1672862800001,22.333478590000027],[114.16728621000004,22.333478940000077],[114.16728622000005,22.33347929000007],[114.1672862900001,22.333479640000064],[114.16728644000011,22.333479960000034],[114.16728666000006,22.333480250000036],[114.16730590000009,22.33350162000005],[114.1673062000001,22.333501890000036],[114.16730656000004,22.333502100000032],[114.16730697000003,22.33350223000008],[114.16730739000002,22.333502270000054],[114.16730740000003,22.333502270000054],[114.16730774000007,22.33350224000003],[114.1673080600001,22.333502160000023],[114.16730837000011,22.333502030000034],[114.1673086400001,22.33350185000006],[114.16731101000005,22.333500040000047],[114.16731173000005,22.333499490000065],[114.16731192000009,22.333499320000044],[114.1673119300001,22.333499310000036],[114.16731217000006,22.333499020000033],[114.16731233000007,22.333498690000056],[114.16731243000004,22.333498330000054],[114.16731244000005,22.333497960000045],[114.1673123700001,22.333497600000044],[114.1673122200001,22.33349726000006],[114.16731201000005,22.33349695000004],[114.16729878000001,22.333481980000045],[114.16731262000008,22.333471090000046],[114.16732616000002,22.333486110000024],[114.16733235000004,22.33349302000005],[114.16733236000005,22.333493030000056],[114.1673347200001,22.333495630000073],[114.16733503000012,22.33349590000006],[114.16733539000006,22.333496100000048],[114.16733579000004,22.333496230000037],[114.16733621000003,22.33349627000007],[114.16733622000004,22.33349627000007],[114.16733656000008,22.333496240000045],[114.16733689000012,22.33349616000004],[114.16733720000002,22.33349602000004],[114.16733748000001,22.33349584000007],[114.16735804000007,22.33347968000004],[114.16738048000002,22.333462050000037],[114.16740075000007,22.333446120000076],[114.16743508000002,22.333419140000046],[114.16743884000005,22.33341618000003],[114.16744144000006,22.33341414000006],[114.16744638000011,22.33341026000005],[114.1674482300001,22.33340880000003],[114.16745530000003,22.33340325000006],[114.16745547000005,22.333403100000055],[114.16745548000006,22.333403090000047],[114.16745572000002,22.333402800000044],[114.16745589000004,22.33340246000006],[114.16745598000011,22.333402100000058],[114.16745599000001,22.33340173000005],[114.16745592000007,22.333401370000047],[114.16745577000006,22.333401020000053],[114.1674555400001,22.333400720000043],[114.16743310000004,22.333375830000023],[114.16743663000011,22.333373090000066],[114.16743990000009,22.33337056000005],[114.1674399100001,22.33337055000004],[114.16744051,22.333370080000066],[114.16744068000003,22.33336993000006],[114.16744069000003,22.333369920000052],[114.16744093000011,22.33336963000005],[114.16744110000002,22.333369290000064],[114.16744119000009,22.333368930000063],[114.1674412000001,22.333368560000054],[114.16744113000004,22.333368200000052],[114.16744098000004,22.333367860000067],[114.16744076000009,22.333367550000048],[114.16743860000008,22.333365160000028],[114.16744008,22.333363950000034],[114.1674403400001,22.333363700000064],[114.16744054000003,22.333363400000053],[114.16744067000002,22.333363080000026],[114.16744074000007,22.33336274000004],[114.16744073000007,22.333362390000048],[114.16744065000012,22.333362050000062],[114.16744051,22.333361740000043],[114.16744029000006,22.33336145000004],[114.1674202700001,22.33333920000007],[114.16742253000007,22.333337420000078],[114.16742270000009,22.333337270000072],[114.1674227100001,22.333337260000064],[114.16742295000006,22.33333697000006],[114.16742312000008,22.333336630000076],[114.16742321000004,22.333336270000075],[114.16742322000005,22.333335900000066],[114.1674231500001,22.333335540000064],[114.1674230000001,22.33333520000008],[114.16742277000003,22.33333489000006],[114.16740893000008,22.333319500000073],[114.16739414000006,22.33330306000005],[114.16738046000012,22.333287850000033],[114.1673801600001,22.333287580000047],[114.16737980000005,22.33328737000005],[114.16737939000006,22.33328724000006],[114.16737897000007,22.33328720000003],[114.16737896000006,22.33328720000003],[114.16737862000002,22.333287230000053],[114.1673782900001,22.33328731000006],[114.16737798000008,22.333287450000057],[114.16737770000009,22.33328763000003],[114.16737546000002,22.333289380000053],[114.16735620000009,22.333267960000057],[114.16735194000012,22.333263230000057],[114.16733278000004,22.333241930000042],[114.16733463000003,22.333240450000062],[114.16733464000004,22.333240440000054],[114.16733503000012,22.333240120000028],[114.16733517000011,22.33323999000004],[114.16733518000001,22.33323998000003],[114.16733542000009,22.333239690000028],[114.1673355900001,22.333239350000042],[114.16733568000006,22.33323899000004],[114.16733569000007,22.33323862000003],[114.16733562000002,22.33323826000003],[114.16733547000001,22.333237920000045],[114.16733525000006,22.333237610000026],[114.16732164000007,22.33322246000006],[114.16730672000006,22.33320587000003],[114.16730476000009,22.333203680000054],[114.16729292000002,22.333190500000057],[114.16729261000012,22.33319023000007],[114.16729225000006,22.333190020000075],[114.16729184000008,22.33318989000003],[114.16729142000008,22.333189850000053],[114.16729141000008,22.333189850000053],[114.16729107000003,22.333189880000077],[114.16729074000011,22.333189960000027],[114.1672904400001,22.333190090000073],[114.1672901600001,22.333190270000046],[114.16728790000002,22.333192030000077],[114.16727006000008,22.33317217000007],[114.16727231000004,22.333170430000052],[114.16727258000003,22.333170180000025],[114.16727279000008,22.333169890000022],[114.16727293000008,22.333169560000044],[114.16727301000003,22.33316921000005],[114.16727300000002,22.333168860000058],[114.16727293000008,22.333168510000064],[114.16727278000008,22.333168190000038],[114.16727256000001,22.333167900000035],[114.16721085000006,22.333099410000045],[114.16721055000005,22.33309914000006],[114.1672101800001,22.333098930000062],[114.16720978000001,22.333098800000073],[114.16720936000002,22.33309876000004],[114.16720935000001,22.33309876000004],[114.16720901000008,22.333098790000065],[114.16720869000005,22.33309887000007],[114.16720838000003,22.33309900000006],[114.16720810000004,22.333099180000033],[114.16720307000003,22.333103080000058],[114.16719904000001,22.333098590000077],[114.16719773000011,22.333097130000056],[114.1671931300001,22.33309201000003],[114.16717802000005,22.333075200000053],[114.16716073000009,22.333055970000032],[114.1671478500001,22.333041630000025],[114.1671272000001,22.333018650000042],[114.16711253000005,22.333002330000056],[114.16709788000003,22.33298603000003],[114.16708748000008,22.33297445000005],[114.16708747000007,22.332974440000044],[114.16707789000009,22.33296390000004],[114.16707758000007,22.33296363000005],[114.16707722000001,22.332963430000063],[114.16707682000003,22.332963300000074],[114.16707640000004,22.332963260000042],[114.16707639000003,22.332963260000042],[114.1670760500001,22.332963290000066],[114.16707572000007,22.332963370000073],[114.16707541000005,22.33296351000007],[114.16707513000006,22.332963690000042],[114.16707204000011,22.332966130000045],[114.16706736000003,22.332969820000073],[114.16706710000005,22.332970070000044],[114.16706689000011,22.332970370000055],[114.16706675000012,22.332970700000033],[114.16706668000006,22.332971040000075],[114.16706669000007,22.33297139000007],[114.16706677000002,22.332971730000054],[114.16706692000002,22.33297206000003],[114.16706713000008,22.332972350000034],[114.1670751800001,22.332981220000022],[114.16704945000004,22.333001590000038],[114.16704195000011,22.33300753000003],[114.16702972000007,22.33301720000003],[114.16702312000007,22.333022420000077],[114.16701510000007,22.333013450000067],[114.16701482000008,22.33301320000004],[114.16701450000005,22.33301301000006],[114.16701415000011,22.33301287000006],[114.16701377000004,22.33301281000007],[114.16701338000007,22.33301281000007],[114.16701301,22.333012890000077],[114.16701265000006,22.333013030000075],[114.16701234000004,22.333013230000063],[114.16692406000004,22.333082870000055],[114.16692380000006,22.333083120000026],[114.16692359000001,22.333083420000037],[114.16692345000001,22.333083740000063],[114.16692338000007,22.333084090000057],[114.16692339000008,22.33308444000005],[114.16692346000002,22.333084780000036],[114.16692361000003,22.333085100000062],[114.16692382000008,22.333085390000065]]]},"geometry_name":"shape","properties":{"venue_id":"0409d24b-80aa-4de5-adc5-ab0aa2864176","venue_category":"governmentfacility","venue_name_en":"Shek Kip Mei Estate Ancillary Facilities Block","venue_name_zh":"石硤尾邨服務設施大樓","venue_alt_name":null,"venue_restriction":null,"venue_hours":null,"venue_website":null,"venue_phone":null,"venue_display_height":40.4,"venue_display_height_min":9.1,"address_address":"100 WOH CHAI STREET","address_unit":null,"address_locality":"SHAM SHUI PO DISTRICT","venue_network":"False","bbox":[114.16692338000007,22.332963260000042,114.16745599000001,22.333502270000054]}},{"type":"Feature","id":"venue_polygon.491","geometry":{"type":"Polygon","coordinates":[[[114.16949782000006,22.33715643000005],[114.16956005000009,22.337200390000078],[114.16956024000001,22.33720076000003],[114.16956038000001,22.33720100000005],[114.16956057000004,22.337201220000054],[114.1695613600001,22.337202010000055],[114.16956324000012,22.337205760000074],[114.16956338000011,22.337206000000037],[114.16956357000004,22.33720622000004],[114.1695643600001,22.337207010000043],[114.16956524000011,22.337208760000067],[114.16956538000011,22.33720900000003],[114.16956557000003,22.337209220000034],[114.16956836000008,22.33721201000003],[114.1695702400001,22.33721576000005],[114.1695703800001,22.33721600000007],[114.16957057000002,22.337216220000073],[114.16957136000008,22.337217010000074],[114.1695722400001,22.33721876000004],[114.16957238000009,22.33721900000006],[114.16957257000001,22.337219220000065],[114.16957536000007,22.337222010000062],[114.16957624000008,22.33722376000003],[114.16957645000002,22.337224080000055],[114.16957673000002,22.33722436000005],[114.16957708000007,22.337224580000054],[114.16957851000006,22.337225300000057],[114.16957924000008,22.33722676000008],[114.16957938000007,22.33722700000004],[114.16957957000011,22.337227220000045],[114.1695921600001,22.33723981000003],[114.16960307000011,22.337312250000025],[114.16960308000012,22.337312260000033],[114.16963782000005,22.337535600000024],[114.1696345900001,22.337536240000077],[114.16963424000005,22.337536340000042],[114.16963392000002,22.337536500000056],[114.16963364000003,22.33753672000006],[114.16963340000007,22.33753697000003],[114.16963322000004,22.33753727000004],[114.16963311000006,22.337537590000068],[114.16963306000002,22.337537920000045],[114.16963308000004,22.33753826000003],[114.16963908000002,22.33757626000005],[114.1696391700001,22.337576600000034],[114.16963933000011,22.33757692000006],[114.16963955000006,22.337577200000055],[114.16963983000005,22.337577440000075],[114.16964016000009,22.337577620000047],[114.16964052000003,22.33757774000003],[114.1696408900001,22.337577800000076],[114.16964127000006,22.33757778000006],[114.16964439000003,22.337577370000076],[114.16964707000011,22.33759525000005],[114.16964716000007,22.337595590000035],[114.16964732000008,22.33759591000006],[114.16964755000004,22.337596200000064],[114.16964783000003,22.337596440000027],[114.16964815000006,22.337596620000056],[114.16964851000012,22.337596740000038],[114.16964889000008,22.33759680000003],[114.16964927000004,22.33759678000007],[114.16981827000006,22.337574780000068],[114.16981828000007,22.337574780000068],[114.17023927000002,22.33751878000004],[114.17045626000004,22.33749178000005],[114.1704566200001,22.337491700000044],[114.17045696000002,22.337491560000046],[114.17045727000004,22.337491360000058],[114.17045753000002,22.33749111000003],[114.17045773000007,22.337490820000028],[114.17045787000006,22.337490500000058],[114.17045794,22.337490170000024],[114.17045793000011,22.33748982000003],[114.17043194000007,22.337249820000068],[114.17041294,22.337069830000075],[114.17041293000011,22.337069760000077],[114.17041193000011,22.337062760000038],[114.17041184000004,22.337062420000052],[114.17041168000003,22.337062090000074],[114.17041145000007,22.337061800000072],[114.17041117000008,22.337061560000052],[114.17041084000005,22.337061380000023],[114.17041047000009,22.33706126000004],[114.17041009000002,22.33706120000005],[114.17040970000005,22.337061220000066],[114.17040470000006,22.33706194000007],[114.17040293000002,22.337047790000042],[114.17040285000007,22.33704744000005],[114.17040269000006,22.337047120000022],[114.17040247000011,22.33704682000007],[114.17040219000012,22.33704658000005],[114.17040186000008,22.33704639000007],[114.17040150000003,22.337046260000022],[114.17040112000007,22.33704620000003],[114.1704007300001,22.337046220000047],[114.1703537300001,22.337052220000032],[114.1703537200001,22.337052220000032],[114.17033872000002,22.337054220000027],[114.16990851000003,22.337111390000075],[114.16991756000004,22.337100070000076],[114.16991776000009,22.337099770000066],[114.16991789000008,22.33709944000003],[114.16991794,22.337099090000038],[114.1699179200001,22.337098740000044],[114.16991783000003,22.33709840000006],[114.16991767000002,22.33709809000004],[114.16991745000007,22.337097800000038],[114.16991717000008,22.337097570000026],[114.16985833000001,22.337056380000035],[114.16985576000002,22.33705124000005],[114.16985562000002,22.33705100000003],[114.1698554300001,22.337050780000027],[114.16985464000004,22.337049990000025],[114.16985276000003,22.337046240000063],[114.16985255000009,22.337045920000037],[114.16985227000009,22.337045640000042],[114.16985192000004,22.337045420000038],[114.16985049000004,22.337044700000035],[114.16984876000004,22.337041240000076],[114.16984862000004,22.337041000000056],[114.16984843000012,22.337040780000052],[114.16984764000006,22.33703999000005],[114.16984576000004,22.33703624000003],[114.1698455500001,22.337035920000062],[114.16984527000011,22.337035640000067],[114.16984492000006,22.337035420000063],[114.16984349000006,22.33703470000006],[114.16984276000005,22.33703324000004],[114.16984262000005,22.337033000000076],[114.16984243000002,22.337032780000072],[114.16983964000008,22.337029990000076],[114.16983876000006,22.337028240000052],[114.16983862000006,22.337028000000032],[114.16983843000003,22.337027780000028],[114.16983464000009,22.337023990000034],[114.16983376000007,22.337022240000067],[114.16983355000002,22.33702192000004],[114.16983327000003,22.337021640000046],[114.16983292000009,22.337021420000042],[114.16983149000009,22.33702070000004],[114.16983076000008,22.337019240000075],[114.16983055000003,22.337018920000048],[114.16983027000003,22.337018640000053],[114.1698299200001,22.33701842000005],[114.1698282100001,22.33701756000005],[114.16982143000007,22.33701078000007],[114.1698211900001,22.337010580000026],[114.16982092,22.33701042000007],[114.16981921000001,22.33700956000007],[114.16981643000008,22.337006780000024],[114.16981619,22.337006580000036],[114.16981592000002,22.337006420000023],[114.16981249000003,22.337004700000023],[114.16981176000002,22.337003240000058],[114.16981155000008,22.33700292000003],[114.16981127000008,22.337002640000037],[114.16981092000003,22.337002420000033],[114.16980721000004,22.337000560000035],[114.16980643000011,22.336999780000042],[114.16980619000003,22.336999580000054],[114.16980592000004,22.33699942000004],[114.16979849000006,22.336995700000045],[114.16979776000005,22.336994240000024],[114.16979755000011,22.336993920000054],[114.16979727000012,22.33699364000006],[114.16979692000007,22.336993420000056],[114.16978892000009,22.336989420000066],[114.16978863000008,22.336989300000027],[114.16978832000007,22.33698923000003],[114.16978800000004,22.336989200000062],[114.16978685000004,22.336989200000062],[114.16978643000004,22.33698878000007],[114.16978619000008,22.336988580000025],[114.1697859200001,22.33698842000007],[114.16977592,22.336983420000024],[114.16977563000012,22.336983300000043],[114.1697753200001,22.336983230000044],[114.16977500000007,22.336983200000077],[114.16977349000001,22.336983200000077],[114.16976792000003,22.33698042000003],[114.16976763000002,22.33698030000005],[114.16976732,22.33698023000005],[114.16976700000009,22.336980200000028],[114.16976549000003,22.336980200000028],[114.16976192000004,22.336978420000037],[114.16976163000004,22.336978300000055],[114.16976132000002,22.336978230000057],[114.16976100000011,22.336978200000033],[114.16975949000005,22.336978200000033],[114.16975792000005,22.33697742000004],[114.16975763000005,22.336977300000058],[114.16975732000003,22.33697723000006],[114.16975700000012,22.336977200000035],[114.16975549000006,22.336977200000035],[114.16975392000006,22.336976420000042],[114.16975363000006,22.33697630000006],[114.16975332000004,22.33697623000006],[114.16975300000001,22.336976200000038],[114.16975149000007,22.336976200000038],[114.16974992000007,22.336975420000044],[114.16974963000007,22.336975300000063],[114.16974932000005,22.336975230000064],[114.16974900000002,22.33697520000004],[114.16974734000007,22.33697520000004],[114.1697446600001,22.336974310000073],[114.16974433000007,22.336974230000067],[114.16974400000004,22.336974200000043],[114.16974249000009,22.336974200000043],[114.1697409200001,22.33697342000005],[114.16974063000009,22.336973300000068],[114.16974032000007,22.33697323000007],[114.16974000000005,22.336973200000045],[114.16973951000011,22.336973200000045],[114.16967717000011,22.336929570000052],[114.16967684000008,22.336929380000072],[114.16967648000002,22.336929260000034],[114.16967610000006,22.336929200000043],[114.1696757200001,22.33692922000006],[114.16967534000003,22.336929310000073],[114.1696750000001,22.33692946000008],[114.16967469000008,22.336929670000075],[114.1696744300001,22.33692994000006],[114.16962680000006,22.336990220000075],[114.16962668000008,22.336990230000026],[114.16962637000006,22.336990300000025],[114.16962608000006,22.336990420000063],[114.16962008000007,22.336993420000056],[114.16961981000009,22.33699358000007],[114.16961957000001,22.336993780000057],[114.16961657000002,22.33699678000005],[114.16961635000007,22.336997050000036],[114.16961619000006,22.336997350000047],[114.16961609000009,22.336997670000073],[114.16961606000007,22.33699801000006],[114.16961609000009,22.336998340000036],[114.16961619000006,22.33699867000007],[114.16961636000008,22.336998970000025],[114.16961800000001,22.337001350000037],[114.16955471000006,22.337081450000028],[114.16955057000007,22.337080280000066],[114.1695501800001,22.337080210000067],[114.16954978000001,22.337080210000067],[114.16954939000004,22.337080290000074],[114.1695490300001,22.337080440000022],[114.16954871000007,22.337080660000026],[114.16954844000009,22.33708093000007],[114.16954824000004,22.337081240000032],[114.16954624000005,22.33708524000008],[114.16954610000005,22.33708561000003],[114.16954606000002,22.337086000000056],[114.16954606000002,22.337087600000075],[114.16954524000005,22.33708924000007],[114.16954510000005,22.337089610000078],[114.16954506000002,22.337090000000046],[114.16954506000002,22.337091600000065],[114.16954424000005,22.33709324000006],[114.16954410000005,22.337093610000068],[114.16954406000002,22.337094000000036],[114.16954406000002,22.337094930000035],[114.16949743000009,22.337153940000064],[114.16949724000006,22.337154240000075],[114.16949711000007,22.337154570000052],[114.16949706000003,22.337154910000038],[114.16949708000004,22.33715526000003],[114.16949717000011,22.337155600000074],[114.16949732,22.337155910000035],[114.16949754000007,22.33715619000003],[114.16949782000006,22.33715643000005]]]},"geometry_name":"shape","properties":{"venue_id":"7b0cfab6-1456-4b5a-a2ff-3d518ed65e5a","venue_category":"stadium","venue_name_en":"Shek Kip Mei Park Sports Centre","venue_name_zh":"石硤尾公園體育館","venue_alt_name":null,"venue_restriction":null,"venue_hours":null,"venue_website":null,"venue_phone":null,"venue_display_height":70.695,"venue_display_height_min":49.45,"address_address":"290 NAM CHEONG STREET","address_unit":null,"address_locality":"SHAM SHUI PO DISTRICT","venue_network":"False","bbox":[114.16949706000003,22.336929200000043,114.17045794,22.33759680000003]}},{"type":"Feature","id":"mtr_venue_polygon.65","geometry":{"type":"Polygon","coordinates":[[[114.16874551000001,22.33134941000003],[114.16874911000002,22.33134941000003],[114.16874911000002,22.331352910000078],[114.16874841000003,22.331352910000078],[114.1687482100001,22.331406310000034],[114.16874811000002,22.331423010000037],[114.16874801000006,22.331449510000027],[114.16872181000008,22.33144941000006],[114.16872181000008,22.33145391000005],[114.1687161100001,22.33145391000005],[114.1687161100001,22.331448610000052],[114.16868851000004,22.33144851000003],[114.16868851000004,22.331457310000076],[114.16868851000004,22.331461010000055],[114.16868841000007,22.331464410000024],[114.16868841000007,22.331473310000035],[114.16871591000006,22.331473410000058],[114.16871601000003,22.331468010000037],[114.16872171000011,22.331468010000037],[114.16872161000003,22.331490210000027],[114.16874781000001,22.331490210000027],[114.16874781000001,22.331653410000058],[114.16873351000004,22.331653410000058],[114.1686615100001,22.331653410000058],[114.16861841000002,22.331653410000058],[114.16860001000009,22.331653410000058],[114.16856301000007,22.331653410000058],[114.16852861000007,22.331653310000036],[114.16852861000007,22.331670510000038],[114.1685285100001,22.331694910000067],[114.1685629100001,22.331695010000033],[114.1686003100001,22.331695010000033],[114.16861831000006,22.331695010000033],[114.1686615100001,22.331694910000067],[114.16869111000005,22.331694910000067],[114.16869101000009,22.33201671000006],[114.16869101000009,22.332050010000046],[114.16869101000009,22.332068110000023],[114.16869101000009,22.332101410000064],[114.16869101000009,22.332189610000057],[114.1687459100001,22.332189610000057],[114.16874381000002,22.33272051000006],[114.16875231000006,22.33272051000006],[114.16875231000006,22.33273631000003],[114.16875231000006,22.33275031000005],[114.16877781000005,22.33275031000005],[114.16877781000005,22.332758210000065],[114.1687836100001,22.33276311000003],[114.16879511000002,22.332763210000053],[114.16879511000002,22.332773710000026],[114.16879511000002,22.332787610000025],[114.16880731000003,22.332787610000025],[114.16882711000005,22.332787710000048],[114.1689451100001,22.33278781000007],[114.16902381000011,22.332787910000036],[114.16902391000008,22.332729810000046],[114.16902391000008,22.33271761000003],[114.16902411000001,22.33262441000005],[114.16902421000009,22.332536710000056],[114.16902431000005,22.33245811000006],[114.1690245100001,22.332352510000078],[114.16893701000004,22.332352310000033],[114.16893701000004,22.332339310000066],[114.16893721000008,22.332281710000075],[114.16893731000005,22.332224110000027],[114.16893801000003,22.331903510000075],[114.16893951000009,22.331510410000078],[114.16895231000001,22.331510510000044],[114.16895221000004,22.331541910000055],[114.16895201000011,22.33163811000003],[114.16895191000003,22.33169551000003],[114.16895191000003,22.33172411000004],[114.16895191000003,22.331737910000072],[114.16895181000007,22.331760410000072],[114.16895191000003,22.331760410000072],[114.16899751000005,22.331760510000038],[114.16900131000011,22.331760510000038],[114.16900141000008,22.331679010000073],[114.16902081,22.33167911000004],[114.16902091000009,22.33163821000005],[114.16902091000009,22.331623810000053],[114.1690212100001,22.33151261000006],[114.1690212100001,22.33149831000003],[114.1690212100001,22.331488810000053],[114.16903481000008,22.331488810000053],[114.1690781100001,22.331488910000076],[114.16909581000004,22.33148901000004],[114.16913971000008,22.331489110000064],[114.16916941000011,22.331489110000064],[114.16916941000011,22.33147801000007],[114.16916941000011,22.33146651000004],[114.16913971000008,22.33146651000004],[114.16909581000004,22.331466410000075],[114.16907821000007,22.331466410000075],[114.16903491000005,22.331466310000053],[114.16899861000002,22.33146621000003],[114.16899091000005,22.33146621000003],[114.16893971000002,22.331466110000065],[114.16894011000011,22.331349610000075],[114.16894451000007,22.331349610000075],[114.16894631000002,22.330866910000054],[114.16889221000008,22.330866510000078],[114.1688703100001,22.330866410000056],[114.16887001000009,22.33090321000003],[114.16882281000005,22.330902910000077],[114.16882311000006,22.330866110000045],[114.16880011,22.330865910000057],[114.16874611000003,22.330865510000024],[114.16874601000006,22.330943010000055],[114.16874551000001,22.33134941000003]],[[114.1689388100001,22.332409410000025],[114.1689560100001,22.332409510000048],[114.1689560100001,22.33243451000004],[114.16895581000006,22.332536610000034],[114.16895571000009,22.332604210000056],[114.16895551000005,22.332717510000066],[114.16895551000005,22.332729710000024],[114.16895551000005,22.332746610000072],[114.1689451100001,22.332746610000072],[114.16893871000002,22.332746610000072],[114.16893871000002,22.332670310000026],[114.1689388100001,22.332540210000047],[114.1689388100001,22.33249741000003],[114.1689388100001,22.332460010000034],[114.1689388100001,22.332409410000025]]]},"geometry_name":"shape","properties":{"venue_id":"e41c97ec-85f5-4338-9ee0-87ca1d102d16","venue_category":"trainstation","venue_name_en":"Shek Kip Mei Station","venue_name_zh":"石硤尾鐵路站","venue_alt_name":null,"venue_restriction":null,"venue_hours":null,"venue_website":null,"venue_phone":null,"venue_display_height":14.2,"venue_display_height_min":3,"address_address":"Shek Kip Mei, KLN","address_unit":null,"address_locality":"SHAM SHUI PO DISTRICT","venue_network":"True","bbox":[114.1685285100001,22.330865510000024,114.16916941000011,22.332787910000036]}}]}