{"type":"FeatureCollection","features":[{"type":"Feature","id":"amenity_point.172230","geometry":{"type":"Point","coordinates":[114.13184475000003,22.363139170000068,16.10000000000582]},"geometry_name":"shape","properties":{"amenity_id":"72b55db2-bf16-451e-adcf-c79b30fd9987","amenity_category":"elevator","amenity_name_en":"FIREMAN'S ELEVATOR","amenity_name_zh":null,"amenity_alt_name":null,"amenity_accessibility":null,"amenity_phone":null,"amenity_website":null,"amenity_hours":null,"amenity_correlation_id":null,"unit_id":"2add2dda-ef95-49d8-8978-9280bb8aa426","level_id":"d1fad80f-bce1-4637-9d2b-7bf42880d551","level_floorpolyid":"F3159924870P2007042601000200","level_ordinal":2,"level_z_value":16.1,"level_name_en":"2nd Floor","level_name_zh":null,"level_short_name_en":"2/F","venue_id":"1652598f-c2c2-458c-951f-64366586a5e1","building_id":"32e7426e-42a4-4c99-9266-d18c600492db","bbox":[114.13184475000003,22.363139170000068,114.13184475000003,22.363139170000068]}},{"type":"Feature","id":"amenity_point.172231","geometry":{"type":"Point","coordinates":[114.13182078000011,22.36316258000005,16.10000000000582]},"geometry_name":"shape","properties":{"amenity_id":"fc68cd17-65d1-4ac5-b548-a3f4153645ab","amenity_category":"elevator","amenity_name_en":"LIFT","amenity_name_zh":"升降機","amenity_alt_name":null,"amenity_accessibility":null,"amenity_phone":null,"amenity_website":null,"amenity_hours":null,"amenity_correlation_id":null,"unit_id":"9bc6b0d7-a11d-44a5-b555-b48f8b1e5df8","level_id":"d1fad80f-bce1-4637-9d2b-7bf42880d551","level_floorpolyid":"F3159924870P2007042601000200","level_ordinal":2,"level_z_value":16.1,"level_name_en":"2nd Floor","level_name_zh":null,"level_short_name_en":"2/F","venue_id":"1652598f-c2c2-458c-951f-64366586a5e1","building_id":"32e7426e-42a4-4c99-9266-d18c600492db","bbox":[114.13182078000011,22.36316258000005,114.13182078000011,22.36316258000005]}},{"type":"Feature","id":"amenity_point.172232","geometry":{"type":"Point","coordinates":[114.13182084000005,22.36313953000007,16.10000000000582]},"geometry_name":"shape","properties":{"amenity_id":"c9467ac0-ccdd-4e54-b0cc-72fe5baa37ce","amenity_category":"elevator","amenity_name_en":"LIFT","amenity_name_zh":"升降機","amenity_alt_name":null,"amenity_accessibility":null,"amenity_phone":null,"amenity_website":null,"amenity_hours":null,"amenity_correlation_id":null,"unit_id":"35cd792d-1126-4c2f-a1e6-a2b01c55fc4e","level_id":"d1fad80f-bce1-4637-9d2b-7bf42880d551","level_floorpolyid":"F3159924870P2007042601000200","level_ordinal":2,"level_z_value":16.1,"level_name_en":"2nd Floor","level_name_zh":null,"level_short_name_en":"2/F","venue_id":"1652598f-c2c2-458c-951f-64366586a5e1","building_id":"32e7426e-42a4-4c99-9266-d18c600492db","bbox":[114.13182084000005,22.36313953000007,114.13182084000005,22.36313953000007]}},{"type":"Feature","id":"amenity_point.172233","geometry":{"type":"Point","coordinates":[114.13181982000003,22.363116710000043,16.10000000000582]},"geometry_name":"shape","properties":{"amenity_id":"b5daf1f0-404f-4de6-abc5-b1f1533762e7","amenity_category":"elevator","amenity_name_en":"LIFT","amenity_name_zh":"升降機","amenity_alt_name":null,"amenity_accessibility":null,"amenity_phone":null,"amenity_website":null,"amenity_hours":null,"amenity_correlation_id":null,"unit_id":"37717c07-d30f-438e-87bf-f09f8dbfa1c3","level_id":"d1fad80f-bce1-4637-9d2b-7bf42880d551","level_floorpolyid":"F3159924870P2007042601000200","level_ordinal":2,"level_z_value":16.1,"level_name_en":"2nd Floor","level_name_zh":null,"level_short_name_en":"2/F","venue_id":"1652598f-c2c2-458c-951f-64366586a5e1","building_id":"32e7426e-42a4-4c99-9266-d18c600492db","bbox":[114.13181982000003,22.363116710000043,114.13181982000003,22.363116710000043]}},{"type":"Feature","id":"amenity_point.172234","geometry":{"type":"Point","coordinates":[114.13173671000004,22.363164480000023,16.10000000000582]},"geometry_name":"shape","properties":{"amenity_id":"21edfd43-7757-4e62-b0da-936853170236","amenity_category":"escalator","amenity_name_en":"Escalator","amenity_name_zh":"扶手電梯","amenity_alt_name":null,"amenity_accessibility":null,"amenity_phone":null,"amenity_website":null,"amenity_hours":null,"amenity_correlation_id":null,"unit_id":"4ecfcbb2-3bde-4f08-a66f-95029b4cc0c3","level_id":"d1fad80f-bce1-4637-9d2b-7bf42880d551","level_floorpolyid":"F3159924870P2007042601000200","level_ordinal":2,"level_z_value":16.1,"level_name_en":"2nd Floor","level_name_zh":null,"level_short_name_en":"2/F","venue_id":"1652598f-c2c2-458c-951f-64366586a5e1","building_id":"32e7426e-42a4-4c99-9266-d18c600492db","bbox":[114.13173671000004,22.363164480000023,114.13173671000004,22.363164480000023]}},{"type":"Feature","id":"amenity_point.172235","geometry":{"type":"Point","coordinates":[114.13172189000011,22.363164830000073,16.10000000000582]},"geometry_name":"shape","properties":{"amenity_id":"d62cc8a7-255b-4a35-a1d3-39c587cb5ca5","amenity_category":"escalator","amenity_name_en":"Escalator","amenity_name_zh":"扶手電梯","amenity_alt_name":null,"amenity_accessibility":null,"amenity_phone":null,"amenity_website":null,"amenity_hours":null,"amenity_correlation_id":null,"unit_id":"a775e0eb-fe67-4ae9-9d39-6ff494e4a930","level_id":"d1fad80f-bce1-4637-9d2b-7bf42880d551","level_floorpolyid":"F3159924870P2007042601000200","level_ordinal":2,"level_z_value":16.1,"level_name_en":"2nd Floor","level_name_zh":null,"level_short_name_en":"2/F","venue_id":"1652598f-c2c2-458c-951f-64366586a5e1","building_id":"32e7426e-42a4-4c99-9266-d18c600492db","bbox":[114.13172189000011,22.363164830000073,114.13172189000011,22.363164830000073]}},{"type":"Feature","id":"amenity_point.172236","geometry":{"type":"Point","coordinates":[114.13152433000005,22.36318042000005,16.10000000000582]},"geometry_name":"shape","properties":{"amenity_id":"ab00b226-afdb-4923-987d-82e5bd7cdefb","amenity_category":"escalator","amenity_name_en":"Escalator","amenity_name_zh":"扶手電梯","amenity_alt_name":null,"amenity_accessibility":null,"amenity_phone":null,"amenity_website":null,"amenity_hours":null,"amenity_correlation_id":null,"unit_id":"f4400cfd-3222-4dd1-bf06-79d7d7aed978","level_id":"d1fad80f-bce1-4637-9d2b-7bf42880d551","level_floorpolyid":"F3159924870P2007042601000200","level_ordinal":2,"level_z_value":16.1,"level_name_en":"2nd Floor","level_name_zh":null,"level_short_name_en":"2/F","venue_id":"1652598f-c2c2-458c-951f-64366586a5e1","building_id":"32e7426e-42a4-4c99-9266-d18c600492db","bbox":[114.13152433000005,22.36318042000005,114.13152433000005,22.36318042000005]}},{"type":"Feature","id":"amenity_point.172237","geometry":{"type":"Point","coordinates":[114.1315241100001,22.363167340000075,16.10000000000582]},"geometry_name":"shape","properties":{"amenity_id":"12df4c24-110b-4140-b69c-58a196a0e81c","amenity_category":"escalator","amenity_name_en":"Escalator","amenity_name_zh":"扶手電梯","amenity_alt_name":null,"amenity_accessibility":null,"amenity_phone":null,"amenity_website":null,"amenity_hours":null,"amenity_correlation_id":null,"unit_id":"460f0300-5320-4a68-95f4-816380448958","level_id":"d1fad80f-bce1-4637-9d2b-7bf42880d551","level_floorpolyid":"F3159924870P2007042601000200","level_ordinal":2,"level_z_value":16.1,"level_name_en":"2nd Floor","level_name_zh":null,"level_short_name_en":"2/F","venue_id":"1652598f-c2c2-458c-951f-64366586a5e1","building_id":"32e7426e-42a4-4c99-9266-d18c600492db","bbox":[114.1315241100001,22.363167340000075,114.1315241100001,22.363167340000075]}},{"type":"Feature","id":"amenity_point.172238","geometry":{"type":"Point","coordinates":[114.13186595000002,22.363111830000037,16.10000000000582]},"geometry_name":"shape","properties":{"amenity_id":"c05daeb5-b8a6-4332-afbc-eedf0f069783","amenity_category":"unspecified","amenity_name_en":"COMMERCIAL SERVICE LIFT LOBBY","amenity_name_zh":null,"amenity_alt_name":null,"amenity_accessibility":null,"amenity_phone":null,"amenity_website":null,"amenity_hours":null,"amenity_correlation_id":null,"unit_id":"f350491d-4adc-43b7-bcc7-560cb071eba9","level_id":"d1fad80f-bce1-4637-9d2b-7bf42880d551","level_floorpolyid":"F3159924870P2007042601000200","level_ordinal":2,"level_z_value":16.1,"level_name_en":"2nd Floor","level_name_zh":null,"level_short_name_en":"2/F","venue_id":"1652598f-c2c2-458c-951f-64366586a5e1","building_id":"32e7426e-42a4-4c99-9266-d18c600492db","bbox":[114.13186595000002,22.363111830000037,114.13186595000002,22.363111830000037]}},{"type":"Feature","id":"amenity_point.172239","geometry":{"type":"Point","coordinates":[114.13183656000001,22.363182250000023,16.10000000000582]},"geometry_name":"shape","properties":{"amenity_id":"9e9f0e64-5497-423f-9b76-bdbd214cc07b","amenity_category":"unspecified","amenity_name_en":"LIFT LOBBY","amenity_name_zh":null,"amenity_alt_name":null,"amenity_accessibility":null,"amenity_phone":null,"amenity_website":null,"amenity_hours":null,"amenity_correlation_id":null,"unit_id":"6618abb1-6b11-46c0-b582-a84b4daf62f0","level_id":"d1fad80f-bce1-4637-9d2b-7bf42880d551","level_floorpolyid":"F3159924870P2007042601000200","level_ordinal":2,"level_z_value":16.1,"level_name_en":"2nd Floor","level_name_zh":null,"level_short_name_en":"2/F","venue_id":"1652598f-c2c2-458c-951f-64366586a5e1","building_id":"32e7426e-42a4-4c99-9266-d18c600492db","bbox":[114.13183656000001,22.363182250000023,114.13183656000001,22.363182250000023]}},{"type":"Feature","id":"amenity_point.172240","geometry":{"type":"Point","coordinates":[114.13177625000003,22.363167850000025,16.10000000000582]},"geometry_name":"shape","properties":{"amenity_id":"12758d54-63f9-4e66-bfcb-07c7fea17bce","amenity_category":"unspecified","amenity_name_en":"MAIN LOBBY","amenity_name_zh":null,"amenity_alt_name":null,"amenity_accessibility":null,"amenity_phone":null,"amenity_website":null,"amenity_hours":null,"amenity_correlation_id":null,"unit_id":"bbcd4560-4f54-407d-951c-61010c8142f1","level_id":"d1fad80f-bce1-4637-9d2b-7bf42880d551","level_floorpolyid":"F3159924870P2007042601000200","level_ordinal":2,"level_z_value":16.1,"level_name_en":"2nd Floor","level_name_zh":null,"level_short_name_en":"2/F","venue_id":"1652598f-c2c2-458c-951f-64366586a5e1","building_id":"32e7426e-42a4-4c99-9266-d18c600492db","bbox":[114.13177625000003,22.363167850000025,114.13177625000003,22.363167850000025]}},{"type":"Feature","id":"amenity_point.172290","geometry":{"type":"Point","coordinates":[114.13184443000011,22.363139450000062,7.44999999999709]},"geometry_name":"shape","properties":{"amenity_id":"1a3e51b2-8d77-4d3c-8dc2-c673a669caa6","amenity_category":"elevator","amenity_name_en":"FIREMAN'S ELEVATOR","amenity_name_zh":null,"amenity_alt_name":null,"amenity_accessibility":null,"amenity_phone":null,"amenity_website":null,"amenity_hours":null,"amenity_correlation_id":null,"unit_id":"9ccb9051-bc64-4049-bb43-257dc829dff5","level_id":"3e2f7405-4ca9-42d2-8e83-27023edb9046","level_floorpolyid":"F3159924870P2007042602000000","level_ordinal":0,"level_z_value":7.45,"level_name_en":"Grd Floor","level_name_zh":null,"level_short_name_en":"G/F","venue_id":"1652598f-c2c2-458c-951f-64366586a5e1","building_id":"32e7426e-42a4-4c99-9266-d18c600492db","bbox":[114.13184443000011,22.363139450000062,114.13184443000011,22.363139450000062]}},{"type":"Feature","id":"amenity_point.172291","geometry":{"type":"Point","coordinates":[114.13184431000002,22.36311623000006,7.44999999999709]},"geometry_name":"shape","properties":{"amenity_id":"a22d02a6-89e1-4857-a615-fda13bc1191e","amenity_category":"elevator","amenity_name_en":"LIFT","amenity_name_zh":"升降機","amenity_alt_name":null,"amenity_accessibility":null,"amenity_phone":null,"amenity_website":null,"amenity_hours":null,"amenity_correlation_id":null,"unit_id":"73e8b061-48e0-4536-b620-49b2fc93d3c5","level_id":"3e2f7405-4ca9-42d2-8e83-27023edb9046","level_floorpolyid":"F3159924870P2007042602000000","level_ordinal":0,"level_z_value":7.45,"level_name_en":"Grd Floor","level_name_zh":null,"level_short_name_en":"G/F","venue_id":"1652598f-c2c2-458c-951f-64366586a5e1","building_id":"32e7426e-42a4-4c99-9266-d18c600492db","bbox":[114.13184431000002,22.36311623000006,114.13184431000002,22.36311623000006]}},{"type":"Feature","id":"amenity_point.172292","geometry":{"type":"Point","coordinates":[114.13181997000004,22.363117810000062,7.44999999999709]},"geometry_name":"shape","properties":{"amenity_id":"28dd2b3f-5764-4541-82bf-90fe01c61a79","amenity_category":"elevator","amenity_name_en":"LIFT","amenity_name_zh":"升降機","amenity_alt_name":null,"amenity_accessibility":null,"amenity_phone":null,"amenity_website":null,"amenity_hours":null,"amenity_correlation_id":null,"unit_id":"7b7d61c1-f0a6-461f-904f-04dfdcdad96c","level_id":"3e2f7405-4ca9-42d2-8e83-27023edb9046","level_floorpolyid":"F3159924870P2007042602000000","level_ordinal":0,"level_z_value":7.45,"level_name_en":"Grd Floor","level_name_zh":null,"level_short_name_en":"G/F","venue_id":"1652598f-c2c2-458c-951f-64366586a5e1","building_id":"32e7426e-42a4-4c99-9266-d18c600492db","bbox":[114.13181997000004,22.363117810000062,114.13181997000004,22.363117810000062]}},{"type":"Feature","id":"amenity_point.172293","geometry":{"type":"Point","coordinates":[114.13182073000007,22.363139450000062,7.44999999999709]},"geometry_name":"shape","properties":{"amenity_id":"30acbccc-30ff-4a16-92f0-cfab4f38353f","amenity_category":"elevator","amenity_name_en":"LIFT","amenity_name_zh":"升降機","amenity_alt_name":null,"amenity_accessibility":null,"amenity_phone":null,"amenity_website":null,"amenity_hours":null,"amenity_correlation_id":null,"unit_id":"17f30eb6-78e1-482f-89a6-462d16e02e73","level_id":"3e2f7405-4ca9-42d2-8e83-27023edb9046","level_floorpolyid":"F3159924870P2007042602000000","level_ordinal":0,"level_z_value":7.45,"level_name_en":"Grd Floor","level_name_zh":null,"level_short_name_en":"G/F","venue_id":"1652598f-c2c2-458c-951f-64366586a5e1","building_id":"32e7426e-42a4-4c99-9266-d18c600492db","bbox":[114.13182073000007,22.363139450000062,114.13182073000007,22.363139450000062]}},{"type":"Feature","id":"amenity_point.172294","geometry":{"type":"Point","coordinates":[114.13177888000007,22.36312908000008,7.44999999999709]},"geometry_name":"shape","properties":{"amenity_id":"af443a9a-802b-4746-a0dd-218e2b94d65c","amenity_category":"unspecified","amenity_name_en":"GOVERNMENT OFFICE LIFT LOBBY","amenity_name_zh":null,"amenity_alt_name":null,"amenity_accessibility":null,"amenity_phone":null,"amenity_website":null,"amenity_hours":null,"amenity_correlation_id":null,"unit_id":"31a9ee29-66e4-4129-b502-c7e31d11168a","level_id":"3e2f7405-4ca9-42d2-8e83-27023edb9046","level_floorpolyid":"F3159924870P2007042602000000","level_ordinal":0,"level_z_value":7.45,"level_name_en":"Grd Floor","level_name_zh":null,"level_short_name_en":"G/F","venue_id":"1652598f-c2c2-458c-951f-64366586a5e1","building_id":"32e7426e-42a4-4c99-9266-d18c600492db","bbox":[114.13177888000007,22.36312908000008,114.13177888000007,22.36312908000008]}},{"type":"Feature","id":"amenity_point.172295","geometry":{"type":"Point","coordinates":[114.13180049000005,22.363093680000077,7.44999999999709]},"geometry_name":"shape","properties":{"amenity_id":"8717ae20-bebf-4e98-b4ce-6c24512bcc5a","amenity_category":"unspecified","amenity_name_en":"PASSAGE","amenity_name_zh":null,"amenity_alt_name":null,"amenity_accessibility":null,"amenity_phone":null,"amenity_website":null,"amenity_hours":null,"amenity_correlation_id":null,"unit_id":"305a1970-c46b-4890-b45d-36a5092184fc","level_id":"3e2f7405-4ca9-42d2-8e83-27023edb9046","level_floorpolyid":"F3159924870P2007042602000000","level_ordinal":0,"level_z_value":7.45,"level_name_en":"Grd Floor","level_name_zh":null,"level_short_name_en":"G/F","venue_id":"1652598f-c2c2-458c-951f-64366586a5e1","building_id":"32e7426e-42a4-4c99-9266-d18c600492db","bbox":[114.13180049000005,22.363093680000077,114.13180049000005,22.363093680000077]}},{"type":"Feature","id":"amenity_point.172296","geometry":{"type":"Point","coordinates":[114.13175536000006,22.36325897000006,7.44999999999709]},"geometry_name":"shape","properties":{"amenity_id":"0e8df60c-ca42-45d7-b08e-366e11222e62","amenity_category":"security","amenity_name_en":"CONTROL ROOM","amenity_name_zh":null,"amenity_alt_name":null,"amenity_accessibility":null,"amenity_phone":null,"amenity_website":null,"amenity_hours":null,"amenity_correlation_id":null,"unit_id":"0753b82c-3cf2-4970-a449-ed2d20919560","level_id":"3e2f7405-4ca9-42d2-8e83-27023edb9046","level_floorpolyid":"F3159924870P2007042602000000","level_ordinal":0,"level_z_value":7.45,"level_name_en":"Grd Floor","level_name_zh":null,"level_short_name_en":"G/F","venue_id":"1652598f-c2c2-458c-951f-64366586a5e1","building_id":"32e7426e-42a4-4c99-9266-d18c600492db","bbox":[114.13175536000006,22.36325897000006,114.13175536000006,22.36325897000006]}},{"type":"Feature","id":"amenity_point.172297","geometry":{"type":"Point","coordinates":[114.1318064400001,22.36320574000007,7.44999999999709]},"geometry_name":"shape","properties":{"amenity_id":"cae442dc-eb9e-4e60-9bb3-bad18f50a846","amenity_category":"unspecified","amenity_name_en":"PUMP ROOM","amenity_name_zh":null,"amenity_alt_name":null,"amenity_accessibility":null,"amenity_phone":null,"amenity_website":null,"amenity_hours":null,"amenity_correlation_id":null,"unit_id":"8f01659c-8550-48f6-bf8c-d1f2569477cf","level_id":"3e2f7405-4ca9-42d2-8e83-27023edb9046","level_floorpolyid":"F3159924870P2007042602000000","level_ordinal":0,"level_z_value":7.45,"level_name_en":"Grd Floor","level_name_zh":null,"level_short_name_en":"G/F","venue_id":"1652598f-c2c2-458c-951f-64366586a5e1","building_id":"32e7426e-42a4-4c99-9266-d18c600492db","bbox":[114.1318064400001,22.36320574000007,114.1318064400001,22.36320574000007]}},{"type":"Feature","id":"amenity_point.172298","geometry":{"type":"Point","coordinates":[114.13174661000005,22.36318932000006,7.44999999999709]},"geometry_name":"shape","properties":{"amenity_id":"e3b83446-3872-4469-8dae-91a233f5932d","amenity_category":"unspecified","amenity_name_en":"CORRIDOR","amenity_name_zh":null,"amenity_alt_name":null,"amenity_accessibility":null,"amenity_phone":null,"amenity_website":null,"amenity_hours":null,"amenity_correlation_id":null,"unit_id":"4e7e058e-dac0-42d2-bb5c-e13897c64aad","level_id":"3e2f7405-4ca9-42d2-8e83-27023edb9046","level_floorpolyid":"F3159924870P2007042602000000","level_ordinal":0,"level_z_value":7.45,"level_name_en":"Grd Floor","level_name_zh":null,"level_short_name_en":"G/F","venue_id":"1652598f-c2c2-458c-951f-64366586a5e1","building_id":"32e7426e-42a4-4c99-9266-d18c600492db","bbox":[114.13174661000005,22.36318932000006,114.13174661000005,22.36318932000006]}},{"type":"Feature","id":"amenity_point.172299","geometry":{"type":"Point","coordinates":[114.13189819000002,22.363194320000048,7.44999999999709]},"geometry_name":"shape","properties":{"amenity_id":"3d443aae-f005-4ff6-a107-d8c40104feba","amenity_category":"unspecified","amenity_name_en":"STORE","amenity_name_zh":null,"amenity_alt_name":null,"amenity_accessibility":null,"amenity_phone":null,"amenity_website":null,"amenity_hours":null,"amenity_correlation_id":null,"unit_id":"6d5fdb9d-8f21-4adb-958b-8af78a69357b","level_id":"3e2f7405-4ca9-42d2-8e83-27023edb9046","level_floorpolyid":"F3159924870P2007042602000000","level_ordinal":0,"level_z_value":7.45,"level_name_en":"Grd Floor","level_name_zh":null,"level_short_name_en":"G/F","venue_id":"1652598f-c2c2-458c-951f-64366586a5e1","building_id":"32e7426e-42a4-4c99-9266-d18c600492db","bbox":[114.13189819000002,22.363194320000048,114.13189819000002,22.363194320000048]}},{"type":"Feature","id":"amenity_point.172300","geometry":{"type":"Point","coordinates":[114.13188875000003,22.36314832000005,7.44999999999709]},"geometry_name":"shape","properties":{"amenity_id":"249626eb-6e6e-493a-8482-1711c01ec041","amenity_category":"unspecified","amenity_name_en":"CORRIDOR","amenity_name_zh":null,"amenity_alt_name":null,"amenity_accessibility":null,"amenity_phone":null,"amenity_website":null,"amenity_hours":null,"amenity_correlation_id":null,"unit_id":"828c58fd-9842-4202-841c-5a4d14a12f6a","level_id":"3e2f7405-4ca9-42d2-8e83-27023edb9046","level_floorpolyid":"F3159924870P2007042602000000","level_ordinal":0,"level_z_value":7.45,"level_name_en":"Grd Floor","level_name_zh":null,"level_short_name_en":"G/F","venue_id":"1652598f-c2c2-458c-951f-64366586a5e1","building_id":"32e7426e-42a4-4c99-9266-d18c600492db","bbox":[114.13188875000003,22.36314832000005,114.13188875000003,22.36314832000005]}},{"type":"Feature","id":"amenity_point.172301","geometry":{"type":"Point","coordinates":[114.13177194000002,22.363060740000037,7.44999999999709]},"geometry_name":"shape","properties":{"amenity_id":"312b35d5-e420-4a53-94d5-fa501b9c61b5","amenity_category":"escalator","amenity_name_en":"Escalator","amenity_name_zh":"扶手電梯","amenity_alt_name":null,"amenity_accessibility":null,"amenity_phone":null,"amenity_website":null,"amenity_hours":null,"amenity_correlation_id":null,"unit_id":"2ebb44b3-7092-4f11-bcfc-50259fbd5b27","level_id":"3e2f7405-4ca9-42d2-8e83-27023edb9046","level_floorpolyid":"F3159924870P2007042602000000","level_ordinal":0,"level_z_value":7.45,"level_name_en":"Grd Floor","level_name_zh":null,"level_short_name_en":"G/F","venue_id":"1652598f-c2c2-458c-951f-64366586a5e1","building_id":"32e7426e-42a4-4c99-9266-d18c600492db","bbox":[114.13177194000002,22.363060740000037,114.13177194000002,22.363060740000037]}},{"type":"Feature","id":"amenity_point.172302","geometry":{"type":"Point","coordinates":[114.13175665000006,22.363060610000048,7.44999999999709]},"geometry_name":"shape","properties":{"amenity_id":"2153ab8a-5efb-479d-a556-75c1b039c1fb","amenity_category":"escalator","amenity_name_en":"Escalator","amenity_name_zh":"扶手電梯","amenity_alt_name":null,"amenity_accessibility":null,"amenity_phone":null,"amenity_website":null,"amenity_hours":null,"amenity_correlation_id":null,"unit_id":"fd47cc0a-0806-4905-b29c-795e6a45dc97","level_id":"3e2f7405-4ca9-42d2-8e83-27023edb9046","level_floorpolyid":"F3159924870P2007042602000000","level_ordinal":0,"level_z_value":7.45,"level_name_en":"Grd Floor","level_name_zh":null,"level_short_name_en":"G/F","venue_id":"1652598f-c2c2-458c-951f-64366586a5e1","building_id":"32e7426e-42a4-4c99-9266-d18c600492db","bbox":[114.13175665000006,22.363060610000048,114.13175665000006,22.363060610000048]}},{"type":"Feature","id":"amenity_point.172303","geometry":{"type":"Point","coordinates":[114.1318684900001,22.363192990000073,7.44999999999709]},"geometry_name":"shape","properties":{"amenity_id":"05acc9f0-57ab-4074-9f93-ba584cff0795","amenity_category":"unspecified","amenity_name_en":"MDF ROOM","amenity_name_zh":null,"amenity_alt_name":null,"amenity_accessibility":null,"amenity_phone":null,"amenity_website":null,"amenity_hours":null,"amenity_correlation_id":null,"unit_id":"de105a6c-2237-4047-a3c5-e620a0419720","level_id":"3e2f7405-4ca9-42d2-8e83-27023edb9046","level_floorpolyid":"F3159924870P2007042602000000","level_ordinal":0,"level_z_value":7.45,"level_name_en":"Grd Floor","level_name_zh":null,"level_short_name_en":"G/F","venue_id":"1652598f-c2c2-458c-951f-64366586a5e1","building_id":"32e7426e-42a4-4c99-9266-d18c600492db","bbox":[114.1318684900001,22.363192990000073,114.1318684900001,22.363192990000073]}},{"type":"Feature","id":"amenity_point.172304","geometry":{"type":"Point","coordinates":[114.13184967000007,22.36318816000005,7.44999999999709]},"geometry_name":"shape","properties":{"amenity_id":"7d200df7-8ca1-4624-8db7-b5e0512fb961","amenity_category":"unspecified","amenity_name_en":"SERVICE LOBBY","amenity_name_zh":null,"amenity_alt_name":null,"amenity_accessibility":null,"amenity_phone":null,"amenity_website":null,"amenity_hours":null,"amenity_correlation_id":null,"unit_id":"6b24738e-b207-47f7-b66c-02f7f8450d9d","level_id":"3e2f7405-4ca9-42d2-8e83-27023edb9046","level_floorpolyid":"F3159924870P2007042602000000","level_ordinal":0,"level_z_value":7.45,"level_name_en":"Grd Floor","level_name_zh":null,"level_short_name_en":"G/F","venue_id":"1652598f-c2c2-458c-951f-64366586a5e1","building_id":"32e7426e-42a4-4c99-9266-d18c600492db","bbox":[114.13184967000007,22.36318816000005,114.13184967000007,22.36318816000005]}},{"type":"Feature","id":"amenity_point.172305","geometry":{"type":"Point","coordinates":[114.13174507000008,22.363130080000076,7.44999999999709]},"geometry_name":"shape","properties":{"amenity_id":"62349025-44d5-4789-b42c-a5ed78ba85ca","amenity_category":"unspecified","amenity_name_en":"CORRIDOR","amenity_name_zh":null,"amenity_alt_name":null,"amenity_accessibility":null,"amenity_phone":null,"amenity_website":null,"amenity_hours":null,"amenity_correlation_id":null,"unit_id":"67a17cd8-5213-43d7-9379-c4d5530d9c8c","level_id":"3e2f7405-4ca9-42d2-8e83-27023edb9046","level_floorpolyid":"F3159924870P2007042602000000","level_ordinal":0,"level_z_value":7.45,"level_name_en":"Grd Floor","level_name_zh":null,"level_short_name_en":"G/F","venue_id":"1652598f-c2c2-458c-951f-64366586a5e1","building_id":"32e7426e-42a4-4c99-9266-d18c600492db","bbox":[114.13174507000008,22.363130080000076,114.13174507000008,22.363130080000076]}},{"type":"Feature","id":"amenity_point.172306","geometry":{"type":"Point","coordinates":[114.13181104000012,22.36297331000003,7.44999999999709]},"geometry_name":"shape","properties":{"amenity_id":"e9f289ac-6794-49ea-b4c5-900673b3fea9","amenity_category":"unspecified","amenity_name_en":"STORE","amenity_name_zh":null,"amenity_alt_name":null,"amenity_accessibility":null,"amenity_phone":null,"amenity_website":null,"amenity_hours":null,"amenity_correlation_id":null,"unit_id":"6d45d3de-cc98-499f-b258-458eec658dc0","level_id":"3e2f7405-4ca9-42d2-8e83-27023edb9046","level_floorpolyid":"F3159924870P2007042602000000","level_ordinal":0,"level_z_value":7.45,"level_name_en":"Grd Floor","level_name_zh":null,"level_short_name_en":"G/F","venue_id":"1652598f-c2c2-458c-951f-64366586a5e1","building_id":"32e7426e-42a4-4c99-9266-d18c600492db","bbox":[114.13181104000012,22.36297331000003,114.13181104000012,22.36297331000003]}},{"type":"Feature","id":"amenity_point.172307","geometry":{"type":"Point","coordinates":[114.13181522000002,22.362992290000022,7.44999999999709]},"geometry_name":"shape","properties":{"amenity_id":"a82c5a31-d5bc-4004-8272-ebd4f6381341","amenity_category":"unspecified","amenity_name_en":"STORE","amenity_name_zh":null,"amenity_alt_name":null,"amenity_accessibility":null,"amenity_phone":null,"amenity_website":null,"amenity_hours":null,"amenity_correlation_id":null,"unit_id":"eccbeec9-3ebb-42ff-b006-48e0d70ea8bc","level_id":"3e2f7405-4ca9-42d2-8e83-27023edb9046","level_floorpolyid":"F3159924870P2007042602000000","level_ordinal":0,"level_z_value":7.45,"level_name_en":"Grd Floor","level_name_zh":null,"level_short_name_en":"G/F","venue_id":"1652598f-c2c2-458c-951f-64366586a5e1","building_id":"32e7426e-42a4-4c99-9266-d18c600492db","bbox":[114.13181522000002,22.362992290000022,114.13181522000002,22.362992290000022]}},{"type":"Feature","id":"amenity_point.172308","geometry":{"type":"Point","coordinates":[114.13175683000009,22.362985450000053,7.44999999999709]},"geometry_name":"shape","properties":{"amenity_id":"faf8ac22-5826-4bf3-9729-2bca66153573","amenity_category":"unspecified","amenity_name_en":"SWITCH ROOM","amenity_name_zh":null,"amenity_alt_name":null,"amenity_accessibility":null,"amenity_phone":null,"amenity_website":null,"amenity_hours":null,"amenity_correlation_id":null,"unit_id":"df4e3b47-31a7-406e-8ba4-000831a0d892","level_id":"3e2f7405-4ca9-42d2-8e83-27023edb9046","level_floorpolyid":"F3159924870P2007042602000000","level_ordinal":0,"level_z_value":7.45,"level_name_en":"Grd Floor","level_name_zh":null,"level_short_name_en":"G/F","venue_id":"1652598f-c2c2-458c-951f-64366586a5e1","building_id":"32e7426e-42a4-4c99-9266-d18c600492db","bbox":[114.13175683000009,22.362985450000053,114.13175683000009,22.362985450000053]}},{"type":"Feature","id":"amenity_point.172309","geometry":{"type":"Point","coordinates":[114.13173999000003,22.36287942000007,7.44999999999709]},"geometry_name":"shape","properties":{"amenity_id":"59353b20-bee3-43b2-8cd3-70fa07172486","amenity_category":"unspecified","amenity_name_en":"CORRIDOR","amenity_name_zh":null,"amenity_alt_name":null,"amenity_accessibility":null,"amenity_phone":null,"amenity_website":null,"amenity_hours":null,"amenity_correlation_id":null,"unit_id":"11932b24-e10a-49dd-a294-0cb65c00e124","level_id":"3e2f7405-4ca9-42d2-8e83-27023edb9046","level_floorpolyid":"F3159924870P2007042602000000","level_ordinal":0,"level_z_value":7.45,"level_name_en":"Grd Floor","level_name_zh":null,"level_short_name_en":"G/F","venue_id":"1652598f-c2c2-458c-951f-64366586a5e1","building_id":"32e7426e-42a4-4c99-9266-d18c600492db","bbox":[114.13173999000003,22.36287942000007,114.13173999000003,22.36287942000007]}},{"type":"Feature","id":"amenity_point.172310","geometry":{"type":"Point","coordinates":[114.13176687000009,22.362928890000035,7.44999999999709]},"geometry_name":"shape","properties":{"amenity_id":"33ae2bf8-4bc8-47cf-bce0-38f880173fd8","amenity_category":"unspecified","amenity_name_en":"TRANSFORMER ROOM","amenity_name_zh":null,"amenity_alt_name":null,"amenity_accessibility":null,"amenity_phone":null,"amenity_website":null,"amenity_hours":null,"amenity_correlation_id":null,"unit_id":"18fb257f-69b8-4c3f-a08d-6c71e8c2467a","level_id":"3e2f7405-4ca9-42d2-8e83-27023edb9046","level_floorpolyid":"F3159924870P2007042602000000","level_ordinal":0,"level_z_value":7.45,"level_name_en":"Grd Floor","level_name_zh":null,"level_short_name_en":"G/F","venue_id":"1652598f-c2c2-458c-951f-64366586a5e1","building_id":"32e7426e-42a4-4c99-9266-d18c600492db","bbox":[114.13176687000009,22.362928890000035,114.13176687000009,22.362928890000035]}},{"type":"Feature","id":"amenity_point.172311","geometry":{"type":"Point","coordinates":[114.13176395000005,22.362867830000027,7.44999999999709]},"geometry_name":"shape","properties":{"amenity_id":"fe135aec-7f51-4ec0-9071-a5b4e9d825d8","amenity_category":"stairs","amenity_name_en":"Stairs","amenity_name_zh":"樓梯","amenity_alt_name":null,"amenity_accessibility":null,"amenity_phone":null,"amenity_website":null,"amenity_hours":null,"amenity_correlation_id":null,"unit_id":"d600b162-8e40-4939-90d1-b06e7cddbc67","level_id":"3e2f7405-4ca9-42d2-8e83-27023edb9046","level_floorpolyid":"F3159924870P2007042602000000","level_ordinal":0,"level_z_value":7.45,"level_name_en":"Grd Floor","level_name_zh":null,"level_short_name_en":"G/F","venue_id":"1652598f-c2c2-458c-951f-64366586a5e1","building_id":"32e7426e-42a4-4c99-9266-d18c600492db","bbox":[114.13176395000005,22.362867830000027,114.13176395000005,22.362867830000027]}},{"type":"Feature","id":"amenity_point.172312","geometry":{"type":"Point","coordinates":[114.13173697000002,22.362850770000023,7.44999999999709]},"geometry_name":"shape","properties":{"amenity_id":"35343e29-b4e6-4855-91c0-78683bae7d8f","amenity_category":"unspecified","amenity_name_en":"P.D.","amenity_name_zh":null,"amenity_alt_name":null,"amenity_accessibility":null,"amenity_phone":null,"amenity_website":null,"amenity_hours":null,"amenity_correlation_id":null,"unit_id":"f9c6df08-b6c0-4dca-a0c7-8fb5fae60b7c","level_id":"3e2f7405-4ca9-42d2-8e83-27023edb9046","level_floorpolyid":"F3159924870P2007042602000000","level_ordinal":0,"level_z_value":7.45,"level_name_en":"Grd Floor","level_name_zh":null,"level_short_name_en":"G/F","venue_id":"1652598f-c2c2-458c-951f-64366586a5e1","building_id":"32e7426e-42a4-4c99-9266-d18c600492db","bbox":[114.13173697000002,22.362850770000023,114.13173697000002,22.362850770000023]}},{"type":"Feature","id":"amenity_point.172313","geometry":{"type":"Point","coordinates":[114.1318960100001,22.363170410000066,7.44999999999709]},"geometry_name":"shape","properties":{"amenity_id":"3b7d98af-232a-4524-a289-ff5f6e490e84","amenity_category":"stairs","amenity_name_en":"Stairs","amenity_name_zh":"樓梯","amenity_alt_name":null,"amenity_accessibility":null,"amenity_phone":null,"amenity_website":null,"amenity_hours":null,"amenity_correlation_id":null,"unit_id":"b3d30ae6-95c8-442c-9139-ef8c4dd80c4a","level_id":"3e2f7405-4ca9-42d2-8e83-27023edb9046","level_floorpolyid":"F3159924870P2007042602000000","level_ordinal":0,"level_z_value":7.45,"level_name_en":"Grd Floor","level_name_zh":null,"level_short_name_en":"G/F","venue_id":"1652598f-c2c2-458c-951f-64366586a5e1","building_id":"32e7426e-42a4-4c99-9266-d18c600492db","bbox":[114.1318960100001,22.363170410000066,114.1318960100001,22.363170410000066]}},{"type":"Feature","id":"amenity_point.172314","geometry":{"type":"Point","coordinates":[114.13188492000006,22.363172680000048,7.44999999999709]},"geometry_name":"shape","properties":{"amenity_id":"f1c8a88e-fe4e-4061-ad2c-fc3025a5c1b7","amenity_category":"unspecified","amenity_name_en":"CORRIDOR","amenity_name_zh":null,"amenity_alt_name":null,"amenity_accessibility":null,"amenity_phone":null,"amenity_website":null,"amenity_hours":null,"amenity_correlation_id":null,"unit_id":"c6f5ea37-7d2f-4c5a-a93d-f06533b68432","level_id":"3e2f7405-4ca9-42d2-8e83-27023edb9046","level_floorpolyid":"F3159924870P2007042602000000","level_ordinal":0,"level_z_value":7.45,"level_name_en":"Grd Floor","level_name_zh":null,"level_short_name_en":"G/F","venue_id":"1652598f-c2c2-458c-951f-64366586a5e1","building_id":"32e7426e-42a4-4c99-9266-d18c600492db","bbox":[114.13188492000006,22.363172680000048,114.13188492000006,22.363172680000048]}},{"type":"Feature","id":"amenity_point.172315","geometry":{"type":"Point","coordinates":[114.13185979000002,22.36321907000007,7.44999999999709]},"geometry_name":"shape","properties":{"amenity_id":"33700c8f-50f6-4273-b6cf-df28a3a14a19","amenity_category":"unspecified","amenity_name_en":"Pipe / AC Duct","amenity_name_zh":null,"amenity_alt_name":null,"amenity_accessibility":null,"amenity_phone":null,"amenity_website":null,"amenity_hours":null,"amenity_correlation_id":null,"unit_id":"a91eaf09-ebba-48e1-9682-add2c6b44459","level_id":"3e2f7405-4ca9-42d2-8e83-27023edb9046","level_floorpolyid":"F3159924870P2007042602000000","level_ordinal":0,"level_z_value":7.45,"level_name_en":"Grd Floor","level_name_zh":null,"level_short_name_en":"G/F","venue_id":"1652598f-c2c2-458c-951f-64366586a5e1","building_id":"32e7426e-42a4-4c99-9266-d18c600492db","bbox":[114.13185979000002,22.36321907000007,114.13185979000002,22.36321907000007]}},{"type":"Feature","id":"amenity_point.172316","geometry":{"type":"Point","coordinates":[114.13186059000009,22.36324453000003,7.44999999999709]},"geometry_name":"shape","properties":{"amenity_id":"5f16e5c0-a665-490a-8b4b-cefc93d910e4","amenity_category":"unspecified","amenity_name_en":"Pipe / AC Duct","amenity_name_zh":null,"amenity_alt_name":null,"amenity_accessibility":null,"amenity_phone":null,"amenity_website":null,"amenity_hours":null,"amenity_correlation_id":null,"unit_id":"661c400f-d2ed-4102-8e78-fcd5a2f1a3f1","level_id":"3e2f7405-4ca9-42d2-8e83-27023edb9046","level_floorpolyid":"F3159924870P2007042602000000","level_ordinal":0,"level_z_value":7.45,"level_name_en":"Grd Floor","level_name_zh":null,"level_short_name_en":"G/F","venue_id":"1652598f-c2c2-458c-951f-64366586a5e1","building_id":"32e7426e-42a4-4c99-9266-d18c600492db","bbox":[114.13186059000009,22.36324453000003,114.13186059000009,22.36324453000003]}},{"type":"Feature","id":"amenity_point.172317","geometry":{"type":"Point","coordinates":[114.13186093000002,22.363262940000027,7.44999999999709]},"geometry_name":"shape","properties":{"amenity_id":"7414ce1d-2dfb-494c-8d6d-101672b07d42","amenity_category":"unspecified","amenity_name_en":"Pipe / AC Duct","amenity_name_zh":null,"amenity_alt_name":null,"amenity_accessibility":null,"amenity_phone":null,"amenity_website":null,"amenity_hours":null,"amenity_correlation_id":null,"unit_id":"98c8811b-3800-4e21-91d3-8be6c9ddda5e","level_id":"3e2f7405-4ca9-42d2-8e83-27023edb9046","level_floorpolyid":"F3159924870P2007042602000000","level_ordinal":0,"level_z_value":7.45,"level_name_en":"Grd Floor","level_name_zh":null,"level_short_name_en":"G/F","venue_id":"1652598f-c2c2-458c-951f-64366586a5e1","building_id":"32e7426e-42a4-4c99-9266-d18c600492db","bbox":[114.13186093000002,22.363262940000027,114.13186093000002,22.363262940000027]}}]}