{"type":"FeatureCollection","features":[{"type":"Feature","id":"level_polygon.7242","geometry":{"type":"Polygon","coordinates":[[[114.1318765100001,22.363104710000073,7.44999999999709],[114.13186221000001,22.36310511000005,7.44999999999709],[114.13186191000011,22.363093510000056,7.44999999999709],[114.13186181000003,22.36309061000003,7.44999999999709],[114.13186171000007,22.363089010000067,7.44999999999709],[114.13186171000007,22.363086810000027,7.44999999999709],[114.1318616100001,22.363085710000064,7.44999999999709],[114.1318616100001,22.363085510000076,7.44999999999709],[114.1318616100001,22.36308531000003,7.44999999999709],[114.1318616100001,22.363085210000065,7.44999999999709],[114.1318616100001,22.363085110000043,7.44999999999709],[114.1318616100001,22.36308451000008,7.44999999999709],[114.13186151000002,22.363080210000078,7.44999999999709],[114.13186151000002,22.363079810000045,7.44999999999709],[114.13186151000002,22.363079110000058,7.44999999999709],[114.13186151000002,22.36307891000007,7.44999999999709],[114.13186151000002,22.363078810000047,7.44999999999709],[114.13186151000002,22.363078710000025,7.44999999999709],[114.13186141000006,22.36307831000005,7.44999999999709],[114.13186121000001,22.363071110000078,7.44999999999709],[114.13186121000001,22.363071010000056,7.44999999999709],[114.13185351000004,22.363053310000055,7.44999999999709],[114.13184511000009,22.363034210000023,7.44999999999709],[114.13184501,22.363034110000058,7.44999999999709],[114.1318421100001,22.36302741000003,7.44999999999709],[114.1318315100001,22.363003510000055,7.44999999999709],[114.13182771000004,22.362994810000032,7.44999999999709],[114.13182531000007,22.36298941000007,7.44999999999709],[114.13182431000007,22.36298731000005,7.44999999999709],[114.1318229100001,22.362984010000048,7.44999999999709],[114.13182261000009,22.36298321000004,7.44999999999709],[114.13182171000005,22.362981310000066,7.44999999999709],[114.13182071000006,22.36297901000006,7.44999999999709],[114.13181821,22.36297331000003,7.44999999999709],[114.13181611000005,22.362968610000053,7.44999999999709],[114.13181521000001,22.362966610000058,7.44999999999709],[114.13180281000007,22.36293831000006,7.44999999999709],[114.13179811000009,22.362927710000065,7.44999999999709],[114.13179501000002,22.362920710000026,7.44999999999709],[114.13178841000001,22.36290581000003,7.44999999999709],[114.13178061000008,22.362888010000063,7.44999999999709],[114.13177981000001,22.362886210000056,7.44999999999709],[114.13177881000001,22.362884010000073,7.44999999999709],[114.13177711000003,22.36288011000005,7.44999999999709],[114.13176451000004,22.36285151000004,7.44999999999709],[114.13176261000001,22.362847110000075,7.44999999999709],[114.13175201000001,22.362823210000045,7.44999999999709],[114.13174631000004,22.362810210000077,7.44999999999709],[114.13173261000009,22.362810610000054,7.44999999999709],[114.13173241000004,22.362810610000054,7.44999999999709],[114.13173131000008,22.362810610000054,7.44999999999709],[114.1317319100001,22.36283411000005,7.44999999999709],[114.13173211000003,22.362838810000028,7.44999999999709],[114.13173221000011,22.362841010000068,7.44999999999709],[114.13173221000011,22.362842810000075,7.44999999999709],[114.13173231000007,22.362845210000046,7.44999999999709],[114.13173231000007,22.362847310000063,7.44999999999709],[114.13173241000004,22.362851310000053,7.44999999999709],[114.13173261000009,22.36285741000006,7.44999999999709],[114.13173261000009,22.362858110000047,7.44999999999709],[114.13173271000005,22.362861310000028,7.44999999999709],[114.13173271000005,22.36286201000007,7.44999999999709],[114.13173281000002,22.36286491000004,7.44999999999709],[114.13173311000003,22.362873610000065,7.44999999999709],[114.1317332100001,22.36287931000004,7.44999999999709],[114.13173331000007,22.362882610000042,7.44999999999709],[114.13173341000004,22.362885110000036,7.44999999999709],[114.13173341000004,22.362886910000043,7.44999999999709],[114.1317342100001,22.36291471000004,7.44999999999709],[114.13173501000006,22.362943710000025,7.44999999999709],[114.13173561000008,22.36296481000005,7.44999999999709],[114.13173571000004,22.36296851000003,7.44999999999709],[114.13173581000001,22.362972510000077,7.44999999999709],[114.13173581000001,22.362973210000064,7.44999999999709],[114.1317362100001,22.362985810000055,7.44999999999709],[114.13173641000003,22.36299241000006,7.44999999999709],[114.13173661000008,22.362996810000027,7.44999999999709],[114.13173661000008,22.362998110000035,7.44999999999709],[114.13173671000004,22.363002510000058,7.44999999999709],[114.13173681,22.36300581000006,7.44999999999709],[114.13173731000006,22.36302401000006,7.44999999999709],[114.13173751000011,22.363030210000034,7.44999999999709],[114.13173781000012,22.36304191000005,7.44999999999709],[114.13173831000006,22.363059210000074,7.44999999999709],[114.13173841000003,22.363063010000076,7.44999999999709],[114.13173871000004,22.363073110000073,7.44999999999709],[114.13173871000004,22.36307361000007,7.44999999999709],[114.13173871000004,22.36307461000007,7.44999999999709],[114.13173891000008,22.363081710000074,7.44999999999709],[114.13173901000005,22.363084110000045,7.44999999999709],[114.13173911000001,22.363087310000026,7.44999999999709],[114.13173911000001,22.363089110000033,7.44999999999709],[114.13173931000006,22.363095610000073,7.44999999999709],[114.13173961000007,22.36310491000006,7.44999999999709],[114.13173961000007,22.363105310000037,7.44999999999709],[114.13173971000003,22.36310811000004,7.44999999999709],[114.13173981000011,22.363111610000033,7.44999999999709],[114.13174011000001,22.363122110000063,7.44999999999709],[114.13174011000001,22.363122410000074,7.44999999999709],[114.13174011000001,22.363122710000027,7.44999999999709],[114.13174011000001,22.363124110000058,7.44999999999709],[114.13174021000009,22.36312731000004,7.44999999999709],[114.13174031000005,22.363129410000056,7.44999999999709],[114.13174041000002,22.363135810000074,7.44999999999709],[114.1317405100001,22.363138310000068,7.44999999999709],[114.13174081000011,22.363149210000074,7.44999999999709],[114.13174091000008,22.363150810000036,7.44999999999709],[114.13174101000004,22.36315411000004,7.44999999999709],[114.13174101000004,22.363154310000027,7.44999999999709],[114.13174111000001,22.363156910000043,7.44999999999709],[114.13174171000003,22.36317801000007,7.44999999999709],[114.13174181000011,22.36318281000007,7.44999999999709],[114.13174191000007,22.363186210000038,7.44999999999709],[114.13174191000007,22.363188310000055,7.44999999999709],[114.13174201000004,22.36318951000004,7.44999999999709],[114.13174201000004,22.36319061000006,7.44999999999709],[114.13174211,22.36319481000004,7.44999999999709],[114.13174211,22.36319491000006,7.44999999999709],[114.13174221000008,22.36319701000008,7.44999999999709],[114.13174221000008,22.363198210000064,7.44999999999709],[114.1317425100001,22.36320791000003,7.44999999999709],[114.1317425100001,22.36320911000007,7.44999999999709],[114.13174291000007,22.36322111000004,7.44999999999709],[114.13174341000001,22.36323581000005,7.44999999999709],[114.13174351000009,22.363240510000026,7.44999999999709],[114.13174351000009,22.363241010000024,7.44999999999709],[114.13174351000009,22.363242610000043,7.44999999999709],[114.13174371000002,22.36325001000006,7.44999999999709],[114.13174371000002,22.363251710000043,7.44999999999709],[114.1317438100001,22.363255710000033,7.44999999999709],[114.13174391000007,22.363259710000023,7.44999999999709],[114.13174401000003,22.363263610000047,7.44999999999709],[114.13174421000008,22.36327061000003,7.44999999999709],[114.13176541000007,22.36327011000003,7.44999999999709],[114.13176741000007,22.363270010000065,7.44999999999709],[114.13177971000005,22.363269710000054,7.44999999999709],[114.1317888100001,22.363269510000066,7.44999999999709],[114.13178901000003,22.363269510000066,7.44999999999709],[114.13179691000005,22.363269310000078,7.44999999999709],[114.13179731000002,22.363269310000078,7.44999999999709],[114.13183001000004,22.363268610000034,7.44999999999709],[114.13184411000009,22.363268210000058,7.44999999999709],[114.13184461000003,22.363268210000058,7.44999999999709],[114.13185761000011,22.363267910000047,7.44999999999709],[114.13186481000002,22.363267810000025,7.44999999999709],[114.1318646100001,22.363260810000043,7.44999999999709],[114.13186451000001,22.36325841000007,7.44999999999709],[114.13186381000003,22.36323101000005,7.44999999999709],[114.13186371000006,22.363225810000074,7.44999999999709],[114.13186311000004,22.363206410000032,7.44999999999709],[114.1318798100001,22.363206010000056,7.44999999999709],[114.13188201000003,22.363205910000033,7.44999999999709],[114.13188231000004,22.363205910000033,7.44999999999709],[114.13189671000009,22.363205610000023,7.44999999999709],[114.13189891000002,22.363205510000057,7.44999999999709],[114.13189911000006,22.363205510000057,7.44999999999709],[114.13190111000006,22.363204710000048,7.44999999999709],[114.1319013100001,22.363204610000025,7.44999999999709],[114.13190141000007,22.363204610000025,7.44999999999709],[114.13190181000004,22.363204410000037,7.44999999999709],[114.13190211000006,22.36320431000007,7.44999999999709],[114.13190291000001,22.36320401000006,7.44999999999709],[114.13191401000006,22.36319991000005,7.44999999999709],[114.13191441000004,22.36319971000006,7.44999999999709],[114.13191461000008,22.363199610000038,7.44999999999709],[114.13191481000001,22.363199510000072,7.44999999999709],[114.13191491000009,22.363199510000072,7.44999999999709],[114.13191541000003,22.363199310000027,7.44999999999709],[114.13191791000008,22.363198410000052,7.44999999999709],[114.13191081000002,22.36318231000007,7.44999999999709],[114.13190921000012,22.363178710000057,7.44999999999709],[114.13190681000003,22.363173310000036,7.44999999999709],[114.13190241000007,22.363163410000027,7.44999999999709],[114.13189971000008,22.363157210000054,7.44999999999709],[114.13189711000007,22.363151510000023,7.44999999999709],[114.13189561000002,22.36314801000003,7.44999999999709],[114.1318927100001,22.36314131000006,7.44999999999709],[114.1318914100001,22.363138510000056,7.44999999999709],[114.13189031000002,22.363136110000028,7.44999999999709],[114.1318765100001,22.36310481000004,7.44999999999709],[114.1318765100001,22.363104710000073,7.44999999999709]]]},"geometry_name":"shape","properties":{"level_id":"3e2f7405-4ca9-42d2-8e83-27023edb9046","level_floorpolyid":"F3159924870P2007042602000000","level_ordinal":0,"level_z_value":7.45,"level_name_en":"Grd Floor","level_name_zh":null,"level_short_name_en":"G/F","level_category":"unspecified","level_restriction":null,"level_outdoor":0,"venue_id":"1652598f-c2c2-458c-951f-64366586a5e1","venue_category":"governmentfacility","venue_name_en":"Kwai Hing Government Offices","venue_name_zh":"葵興政府合署","venue_alt_name":null,"venue_restriction":null,"venue_hours":null,"venue_website":null,"venue_phone":null,"address_address":"166-174 HING FONG ROAD","address_unit":null,"address_locality":"KWAI TSING DISTRICT","building_id":"32e7426e-42a4-4c99-9266-d18c600492db","building_category":"unspecified","building_name_en":"Kwai Hing Government Offices","building_name_zh":"葵興政府合署","building_alt_name":null,"building_restriction":"","bbox":[114.13173131000008,22.362810210000077,114.13191791000008,22.36327061000003]}},{"type":"Feature","id":"level_polygon.7244","geometry":{"type":"Polygon","coordinates":[[[114.1318765100001,22.36310481000004,16.10000000000582],[114.1318765100001,22.363104710000073,16.10000000000582],[114.13186851000012,22.36308671000006,16.10000000000582],[114.13186171000007,22.363086810000027,16.10000000000582],[114.1318616100001,22.363085710000064,16.10000000000582],[114.1318616100001,22.363085510000076,16.10000000000582],[114.1318616100001,22.36308531000003,16.10000000000582],[114.1318616100001,22.363085210000065,16.10000000000582],[114.1318616100001,22.363085110000043,16.10000000000582],[114.1318616100001,22.36308451000008,16.10000000000582],[114.13186151000002,22.363080210000078,16.10000000000582],[114.13186151000002,22.363079810000045,16.10000000000582],[114.13186151000002,22.363079110000058,16.10000000000582],[114.13186151000002,22.36307891000007,16.10000000000582],[114.13186151000002,22.363078810000047,16.10000000000582],[114.13186151000002,22.363078710000025,16.10000000000582],[114.13186141000006,22.363074910000023,16.10000000000582],[114.13186131000009,22.363071110000078,16.10000000000582],[114.13186121000001,22.363071110000078,16.10000000000582],[114.13185341000008,22.363071310000066,16.10000000000582],[114.13185341000008,22.363062210000066,16.10000000000582],[114.13185341000008,22.363061110000046,16.10000000000582],[114.13185341000008,22.363061010000024,16.10000000000582],[114.13185341000008,22.36306091000006,16.10000000000582],[114.13185341000008,22.363060610000048,16.10000000000582],[114.13185341000008,22.363060510000025,16.10000000000582],[114.13185351000004,22.36305511000006,16.10000000000582],[114.13185351000004,22.36305501000004,16.10000000000582],[114.13185351000004,22.36305481000005,16.10000000000582],[114.13185351000004,22.36305471000003,16.10000000000582],[114.13185351000004,22.363053310000055,16.10000000000582],[114.13184511000009,22.363034210000023,16.10000000000582],[114.13184501,22.363034110000058,16.10000000000582],[114.1318421100001,22.36302741000003,16.10000000000582],[114.1318315100001,22.363003510000055,16.10000000000582],[114.13182771000004,22.362994810000032,16.10000000000582],[114.13182531000007,22.36298941000007,16.10000000000582],[114.13182431000007,22.36298731000005,16.10000000000582],[114.1318229100001,22.362984010000048,16.10000000000582],[114.13182261000009,22.36298321000004,16.10000000000582],[114.13182171000005,22.362981310000066,16.10000000000582],[114.13182071000006,22.36297901000006,16.10000000000582],[114.13181821,22.36297331000003,16.10000000000582],[114.13181611000005,22.362968610000053,16.10000000000582],[114.13181521000001,22.362966610000058,16.10000000000582],[114.13180281000007,22.36293831000006,16.10000000000582],[114.13179811000009,22.362927710000065,16.10000000000582],[114.13179501000002,22.362920710000026,16.10000000000582],[114.13178841000001,22.36290581000003,16.10000000000582],[114.13178061000008,22.362888010000063,16.10000000000582],[114.13177981000001,22.362886210000056,16.10000000000582],[114.13177881000001,22.362884010000073,16.10000000000582],[114.13177711000003,22.36288011000005,16.10000000000582],[114.13176451000004,22.36285151000004,16.10000000000582],[114.13176261000001,22.362847110000075,16.10000000000582],[114.13175201000001,22.362823210000045,16.10000000000582],[114.13174631000004,22.362810210000077,16.10000000000582],[114.1317448100001,22.362806810000052,16.10000000000582],[114.13173251,22.362807110000062,16.10000000000582],[114.13173231000007,22.362807110000062,16.10000000000582],[114.13171941000007,22.362807410000073,16.10000000000582],[114.13169441000002,22.362808010000037,16.10000000000582],[114.13167711000006,22.36280841000007,16.10000000000582],[114.13166371000011,22.362808710000024,16.10000000000582],[114.13165701000003,22.36280891000007,16.10000000000582],[114.13163261000011,22.362809510000034,16.10000000000582],[114.1316270100001,22.362809610000056,16.10000000000582],[114.13160271000004,22.362810210000077,16.10000000000582],[114.1315969100001,22.362810310000043,16.10000000000582],[114.13157191000005,22.362810910000064,16.10000000000582],[114.1315671100001,22.362811110000052,16.10000000000582],[114.13153721000003,22.36281181000004,16.10000000000582],[114.13152461000004,22.36281211000005,16.10000000000582],[114.13150631000008,22.362812510000026,16.10000000000582],[114.13147741000012,22.36281321000007,16.10000000000582],[114.13144541000008,22.362814010000022,16.10000000000582],[114.13142991000007,22.362814310000033,16.10000000000582],[114.13141601000007,22.362814710000066,16.10000000000582],[114.1313858100001,22.362815410000053,16.10000000000582],[114.13136911000004,22.36281581000003,16.10000000000582],[114.13135941000007,22.362816010000074,16.10000000000582],[114.1313494100001,22.362816310000028,16.10000000000582],[114.13132931000007,22.362816810000027,16.10000000000582],[114.13130791000003,22.362817310000025,16.10000000000582],[114.13130511000008,22.362817410000048,16.10000000000582],[114.1313057100001,22.36283951000007,16.10000000000582],[114.13130621000005,22.362854910000067,16.10000000000582],[114.13130621000005,22.362855610000054,16.10000000000582],[114.13130681000007,22.362878310000042,16.10000000000582],[114.13130751000006,22.36290371000007,16.10000000000582],[114.13130841000009,22.362934710000047,16.10000000000582],[114.13130931,22.36296691000007,16.10000000000582],[114.13130931,22.362967010000034,16.10000000000582],[114.13130951000005,22.36297471000006,16.10000000000582],[114.13130991000003,22.362989510000034,16.10000000000582],[114.13131041000008,22.36300661000007,16.10000000000582],[114.1313107100001,22.363016510000023,16.10000000000582],[114.13131111000007,22.363030010000045,16.10000000000582],[114.13131121000004,22.363035110000055,16.10000000000582],[114.13131131000011,22.36303771000007,16.10000000000582],[114.13131151000005,22.363043910000044,16.10000000000582],[114.13131151000005,22.363044510000066,16.10000000000582],[114.13131171000009,22.363053310000055,16.10000000000582],[114.13131181000006,22.363057210000022,16.10000000000582],[114.13131211000007,22.36306441000005,16.10000000000582],[114.13131211000007,22.363066910000043,16.10000000000582],[114.13131211000007,22.36306711000003,16.10000000000582],[114.13131241000008,22.363076110000065,16.10000000000582],[114.13131271000009,22.36308771000006,16.10000000000582],[114.13131291000002,22.363092910000034,16.10000000000582],[114.13131311000006,22.363102010000034,16.10000000000582],[114.13131331000011,22.36310701000008,16.10000000000582],[114.13131331000011,22.363108410000052,16.10000000000582],[114.13131361,22.36311831000006,16.10000000000582],[114.13131361,22.363119410000024,16.10000000000582],[114.13131381000005,22.36312441000007,16.10000000000582],[114.13131391000002,22.363130010000077,16.10000000000582],[114.1313140100001,22.36313221000006,16.10000000000582],[114.13131461000012,22.36315381000003,16.10000000000582],[114.13131461000012,22.363155410000047,16.10000000000582],[114.13131481000005,22.363160910000033,16.10000000000582],[114.13131511000006,22.363173510000024,16.10000000000582],[114.13131521000003,22.36317561000004,16.10000000000582],[114.13131561000012,22.363190510000038,16.10000000000582],[114.13131571000008,22.363192310000045,16.10000000000582],[114.13131581000005,22.363197210000067,16.10000000000582],[114.13131601000009,22.36320531000007,16.10000000000582],[114.1313163100001,22.36321681000004,16.10000000000582],[114.13131711000005,22.363241410000057,16.10000000000582],[114.13131711000005,22.363241810000034,16.10000000000582],[114.13131711000005,22.363242210000067,16.10000000000582],[114.1313173100001,22.36325031000007,16.10000000000582],[114.13131811000005,22.363280410000073,16.10000000000582],[114.13131871000007,22.363280410000073,16.10000000000582],[114.13131911000005,22.363280410000073,16.10000000000582],[114.13135651000005,22.36327951000004,16.10000000000582],[114.13135981000005,22.363279410000075,16.10000000000582],[114.13137031000008,22.36327921000003,16.10000000000582],[114.13137871000004,22.363279010000042,16.10000000000582],[114.13140111000007,22.363278510000043,16.10000000000582],[114.13140361,22.363278410000078,16.10000000000582],[114.13143091000006,22.363277810000056,16.10000000000582],[114.13144091000004,22.36327761000007,16.10000000000582],[114.13146151000001,22.36327711000007,16.10000000000582],[114.13148891000003,22.36327651000005,16.10000000000582],[114.13149161000001,22.363276410000026,16.10000000000582],[114.13152131000004,22.36327571000004,16.10000000000582],[114.13153761000001,22.363275310000063,16.10000000000582],[114.13153771000009,22.363275310000063,16.10000000000582],[114.13155171000005,22.363275010000052,16.10000000000582],[114.13158171000009,22.363274310000065,16.10000000000582],[114.13160471000003,22.363273810000067,16.10000000000582],[114.13160721000008,22.363273710000044,16.10000000000582],[114.13161231000004,22.36327361000008,16.10000000000582],[114.13163841000005,22.363273010000057,16.10000000000582],[114.1316419100001,22.363272910000035,16.10000000000582],[114.13164911000001,22.36327281000007,16.10000000000582],[114.13167041000008,22.36327231000007,16.10000000000582],[114.1316720100001,22.363272210000048,16.10000000000582],[114.13168431000008,22.363271910000037,16.10000000000582],[114.13170221000007,22.36327151000006,16.10000000000582],[114.13172361000011,22.363271010000062,16.10000000000582],[114.13172531000009,22.363271010000062,16.10000000000582],[114.13173361000008,22.363270810000074,16.10000000000582],[114.13174421000008,22.36327061000003,16.10000000000582],[114.13176541000007,22.36327011000003,16.10000000000582],[114.13176741000007,22.363270010000065,16.10000000000582],[114.13177971000005,22.363269710000054,16.10000000000582],[114.1317888100001,22.363269510000066,16.10000000000582],[114.13178901000003,22.363269510000066,16.10000000000582],[114.13179691000005,22.363269310000078,16.10000000000582],[114.13179731000002,22.363269310000078,16.10000000000582],[114.13183001000004,22.363268610000034,16.10000000000582],[114.13184411000009,22.363268210000058,16.10000000000582],[114.13184461000003,22.363268210000058,16.10000000000582],[114.13185761000011,22.363267910000047,16.10000000000582],[114.13186481000002,22.363267810000025,16.10000000000582],[114.13188151000008,22.36326741000005,16.10000000000582],[114.13192241000002,22.36326641000005,16.10000000000582],[114.13192071000003,22.36320501000006,16.10000000000582],[114.13191791000008,22.363198410000052,16.10000000000582],[114.13191081000002,22.36318231000007,16.10000000000582],[114.13190921000012,22.363178710000057,16.10000000000582],[114.13190681000003,22.363173310000036,16.10000000000582],[114.13190241000007,22.363163410000027,16.10000000000582],[114.13189971000008,22.363157210000054,16.10000000000582],[114.13189711000007,22.363151510000023,16.10000000000582],[114.13189561000002,22.36314801000003,16.10000000000582],[114.1318927100001,22.36314131000006,16.10000000000582],[114.1318914100001,22.363138510000056,16.10000000000582],[114.13189031000002,22.363136110000028,16.10000000000582],[114.1318765100001,22.36310481000004,16.10000000000582]]]},"geometry_name":"shape","properties":{"level_id":"d1fad80f-bce1-4637-9d2b-7bf42880d551","level_floorpolyid":"F3159924870P2007042601000200","level_ordinal":2,"level_z_value":16.1,"level_name_en":"2nd Floor","level_name_zh":null,"level_short_name_en":"2/F","level_category":"unspecified","level_restriction":null,"level_outdoor":0,"venue_id":"1652598f-c2c2-458c-951f-64366586a5e1","venue_category":"governmentfacility","venue_name_en":"Kwai Hing Government Offices","venue_name_zh":"葵興政府合署","venue_alt_name":null,"venue_restriction":null,"venue_hours":null,"venue_website":null,"venue_phone":null,"address_address":"166-174 HING FONG ROAD","address_unit":null,"address_locality":"KWAI TSING DISTRICT","building_id":"32e7426e-42a4-4c99-9266-d18c600492db","building_category":"unspecified","building_name_en":"Kwai Hing Government Offices","building_name_zh":"葵興政府合署","building_alt_name":null,"building_restriction":"","bbox":[114.13130511000008,22.362806810000052,114.13192241000002,22.363280410000073]}}]}