{"type":"FeatureCollection","features":[{"type":"Feature","id":"opening_line.195685","geometry":{"type":"LineString","coordinates":[[114.13186221000001,22.36310511000005,7.44999999999709],[114.13186151000002,22.363078810000047,7.44999999999709]]},"geometry_name":"shape","properties":{"opening_id":"167d1d2c-7add-42ef-8914-21eb91206c3e","opening_category":"pedestrian.principal","opening_accessibility":null,"opening_access_control":null,"opening_door_automatic":"No","opening_door_material":null,"opening_door_type":"open","opening_name":null,"opening_alt_name":null,"opening_display_height":4.75,"level_id":"3e2f7405-4ca9-42d2-8e83-27023edb9046","level_floorpolyid":"F3159924870P2007042602000000","level_ordinal":0,"level_z_value":7.45,"level_name_en":"Grd Floor","level_name_zh":null,"level_short_name_en":"G/F","venue_id":"1652598f-c2c2-458c-951f-64366586a5e1","building_id":"32e7426e-42a4-4c99-9266-d18c600492db","bbox":[114.13186151000002,22.363078810000047,114.13186221000001,22.36310511000005]}},{"type":"Feature","id":"opening_line.195686","geometry":{"type":"LineString","coordinates":[[114.13174391000007,22.363259710000023,7.44999999999709],[114.13174371000002,22.363251710000043,7.44999999999709]]},"geometry_name":"shape","properties":{"opening_id":"a104a96f-5b51-4db4-b622-c7722fb90bf2","opening_category":"pedestrian","opening_accessibility":null,"opening_access_control":null,"opening_door_automatic":"No","opening_door_material":null,"opening_door_type":"swinging","opening_name":null,"opening_alt_name":null,"opening_display_height":2,"level_id":"3e2f7405-4ca9-42d2-8e83-27023edb9046","level_floorpolyid":"F3159924870P2007042602000000","level_ordinal":0,"level_z_value":7.45,"level_name_en":"Grd Floor","level_name_zh":null,"level_short_name_en":"G/F","venue_id":"1652598f-c2c2-458c-951f-64366586a5e1","building_id":"32e7426e-42a4-4c99-9266-d18c600492db","bbox":[114.13174371000002,22.363251710000043,114.13174391000007,22.363259710000023]}},{"type":"Feature","id":"opening_line.195689","geometry":{"type":"LineString","coordinates":[[114.1317296100001,22.363178310000023,16.10000000000582],[114.13174451000009,22.363177910000047,16.10000000000582]]},"geometry_name":"shape","properties":{"opening_id":"b521efe0-3358-4ee1-a24c-2696a3f06502","opening_category":"pedestrian","opening_accessibility":null,"opening_access_control":null,"opening_door_automatic":"No","opening_door_material":null,"opening_door_type":"open","opening_name":null,"opening_alt_name":null,"opening_display_height":3.9000001,"level_id":"d1fad80f-bce1-4637-9d2b-7bf42880d551","level_floorpolyid":"F3159924870P2007042601000200","level_ordinal":2,"level_z_value":16.1,"level_name_en":"2nd Floor","level_name_zh":null,"level_short_name_en":"2/F","venue_id":"1652598f-c2c2-458c-951f-64366586a5e1","building_id":"32e7426e-42a4-4c99-9266-d18c600492db","bbox":[114.1317296100001,22.363177910000047,114.13174451000009,22.363178310000023]}},{"type":"Feature","id":"opening_line.195690","geometry":{"type":"LineString","coordinates":[[114.1317296100001,22.363178310000023,16.10000000000582],[114.13171491000003,22.363178610000034,16.10000000000582]]},"geometry_name":"shape","properties":{"opening_id":"8860a5ca-3ac1-4129-bd3e-8f947ea0abd3","opening_category":"pedestrian","opening_accessibility":null,"opening_access_control":null,"opening_door_automatic":"No","opening_door_material":null,"opening_door_type":"open","opening_name":null,"opening_alt_name":null,"opening_display_height":3.9000001,"level_id":"d1fad80f-bce1-4637-9d2b-7bf42880d551","level_floorpolyid":"F3159924870P2007042601000200","level_ordinal":2,"level_z_value":16.1,"level_name_en":"2nd Floor","level_name_zh":null,"level_short_name_en":"2/F","venue_id":"1652598f-c2c2-458c-951f-64366586a5e1","building_id":"32e7426e-42a4-4c99-9266-d18c600492db","bbox":[114.13171491000003,22.363178310000023,114.1317296100001,22.363178610000034]}},{"type":"Feature","id":"opening_line.195691","geometry":{"type":"LineString","coordinates":[[114.13180711000007,22.36310541000006,16.10000000000582],[114.13180671000009,22.363093210000045,16.10000000000582]]},"geometry_name":"shape","properties":{"opening_id":"4230dda3-7653-4253-9eac-184a66ca17b0","opening_category":"pedestrian","opening_accessibility":null,"opening_access_control":null,"opening_door_automatic":"No","opening_door_material":null,"opening_door_type":"swinging","opening_name":null,"opening_alt_name":null,"opening_display_height":2,"level_id":"d1fad80f-bce1-4637-9d2b-7bf42880d551","level_floorpolyid":"F3159924870P2007042601000200","level_ordinal":2,"level_z_value":16.1,"level_name_en":"2nd Floor","level_name_zh":null,"level_short_name_en":"2/F","venue_id":"1652598f-c2c2-458c-951f-64366586a5e1","building_id":"32e7426e-42a4-4c99-9266-d18c600492db","bbox":[114.13180671000009,22.363093210000045,114.13180711000007,22.36310541000006]}},{"type":"Feature","id":"opening_line.195692","geometry":{"type":"LineString","coordinates":[[114.13174041000002,22.363135810000074,7.44999999999709],[114.13174011000001,22.363122410000074,7.44999999999709]]},"geometry_name":"shape","properties":{"opening_id":"39a145de-7c9f-4392-91f6-5ce301a913f1","opening_category":"pedestrian","opening_accessibility":null,"opening_access_control":null,"opening_door_automatic":"No","opening_door_material":null,"opening_door_type":"open","opening_name":null,"opening_alt_name":null,"opening_display_height":4.75,"level_id":"3e2f7405-4ca9-42d2-8e83-27023edb9046","level_floorpolyid":"F3159924870P2007042602000000","level_ordinal":0,"level_z_value":7.45,"level_name_en":"Grd Floor","level_name_zh":null,"level_short_name_en":"G/F","venue_id":"1652598f-c2c2-458c-951f-64366586a5e1","building_id":"32e7426e-42a4-4c99-9266-d18c600492db","bbox":[114.13174011000001,22.363122410000074,114.13174041000002,22.363135810000074]}},{"type":"Feature","id":"opening_line.195693","geometry":{"type":"LineString","coordinates":[[114.13174221000008,22.363198210000064,7.44999999999709],[114.13174181000011,22.36318281000007,7.44999999999709]]},"geometry_name":"shape","properties":{"opening_id":"2143949c-2302-4194-a271-d1878cae8558","opening_category":"pedestrian","opening_accessibility":null,"opening_access_control":null,"opening_door_automatic":"No","opening_door_material":null,"opening_door_type":"open","opening_name":null,"opening_alt_name":null,"opening_display_height":4.75,"level_id":"3e2f7405-4ca9-42d2-8e83-27023edb9046","level_floorpolyid":"F3159924870P2007042602000000","level_ordinal":0,"level_z_value":7.45,"level_name_en":"Grd Floor","level_name_zh":null,"level_short_name_en":"G/F","venue_id":"1652598f-c2c2-458c-951f-64366586a5e1","building_id":"32e7426e-42a4-4c99-9266-d18c600492db","bbox":[114.13174181000011,22.36318281000007,114.13174221000008,22.363198210000064]}},{"type":"Feature","id":"opening_line.195697","geometry":{"type":"LineString","coordinates":[[114.13173221000011,22.362842810000075,7.44999999999709],[114.1317319100001,22.36283411000005,7.44999999999709]]},"geometry_name":"shape","properties":{"opening_id":"c8b2406f-d5ea-4999-b7d1-cb65f6269c6d","opening_category":"pedestrian","opening_accessibility":null,"opening_access_control":null,"opening_door_automatic":"No","opening_door_material":null,"opening_door_type":"swinging","opening_name":null,"opening_alt_name":null,"opening_display_height":2,"level_id":"3e2f7405-4ca9-42d2-8e83-27023edb9046","level_floorpolyid":"F3159924870P2007042602000000","level_ordinal":0,"level_z_value":7.45,"level_name_en":"Grd Floor","level_name_zh":null,"level_short_name_en":"G/F","venue_id":"1652598f-c2c2-458c-951f-64366586a5e1","building_id":"32e7426e-42a4-4c99-9266-d18c600492db","bbox":[114.1317319100001,22.36283411000005,114.13173221000011,22.362842810000075]}},{"type":"Feature","id":"opening_line.195698","geometry":{"type":"LineString","coordinates":[[114.13173281000002,22.36286491000004,7.44999999999709],[114.13173261000009,22.362858110000047,7.44999999999709]]},"geometry_name":"shape","properties":{"opening_id":"c7d67e0a-5a4f-44bc-91f9-60f42c2231b5","opening_category":"pedestrian","opening_accessibility":null,"opening_access_control":null,"opening_door_automatic":"No","opening_door_material":null,"opening_door_type":"swinging","opening_name":null,"opening_alt_name":null,"opening_display_height":2,"level_id":"3e2f7405-4ca9-42d2-8e83-27023edb9046","level_floorpolyid":"F3159924870P2007042602000000","level_ordinal":0,"level_z_value":7.45,"level_name_en":"Grd Floor","level_name_zh":null,"level_short_name_en":"G/F","venue_id":"1652598f-c2c2-458c-951f-64366586a5e1","building_id":"32e7426e-42a4-4c99-9266-d18c600492db","bbox":[114.13173261000009,22.362858110000047,114.13173281000002,22.36286491000004]}},{"type":"Feature","id":"opening_line.195699","geometry":{"type":"LineString","coordinates":[[114.13178061000008,22.362888010000063,7.44999999999709],[114.13179811000009,22.362927710000065,7.44999999999709]]},"geometry_name":"shape","properties":{"opening_id":"b5d9499e-8792-4cdf-8d33-d3720c8f313d","opening_category":"pedestrian.principal","opening_accessibility":null,"opening_access_control":null,"opening_door_automatic":"No","opening_door_material":null,"opening_door_type":"swinging","opening_name":null,"opening_alt_name":null,"opening_display_height":2,"level_id":"3e2f7405-4ca9-42d2-8e83-27023edb9046","level_floorpolyid":"F3159924870P2007042602000000","level_ordinal":0,"level_z_value":7.45,"level_name_en":"Grd Floor","level_name_zh":null,"level_short_name_en":"G/F","venue_id":"1652598f-c2c2-458c-951f-64366586a5e1","building_id":"32e7426e-42a4-4c99-9266-d18c600492db","bbox":[114.13178061000008,22.362888010000063,114.13179811000009,22.362927710000065]}},{"type":"Feature","id":"opening_line.195700","geometry":{"type":"LineString","coordinates":[[114.13173661000008,22.362998110000035,7.44999999999709],[114.1317362100001,22.362985810000055,7.44999999999709]]},"geometry_name":"shape","properties":{"opening_id":"874d6695-0ba1-43a4-ab7a-808e3f649b51","opening_category":"pedestrian","opening_accessibility":null,"opening_access_control":null,"opening_door_automatic":"No","opening_door_material":null,"opening_door_type":"swinging","opening_name":null,"opening_alt_name":null,"opening_display_height":2,"level_id":"3e2f7405-4ca9-42d2-8e83-27023edb9046","level_floorpolyid":"F3159924870P2007042602000000","level_ordinal":0,"level_z_value":7.45,"level_name_en":"Grd Floor","level_name_zh":null,"level_short_name_en":"G/F","venue_id":"1652598f-c2c2-458c-951f-64366586a5e1","building_id":"32e7426e-42a4-4c99-9266-d18c600492db","bbox":[114.1317362100001,22.362985810000055,114.13173661000008,22.362998110000035]}},{"type":"Feature","id":"opening_line.195701","geometry":{"type":"LineString","coordinates":[[114.13181611000005,22.362968610000053,7.44999999999709],[114.13182071000006,22.36297901000006,7.44999999999709]]},"geometry_name":"shape","properties":{"opening_id":"61a6357c-d85b-4f48-810d-fd9097ecaecd","opening_category":"pedestrian.principal","opening_accessibility":null,"opening_access_control":null,"opening_door_automatic":"No","opening_door_material":null,"opening_door_type":"swinging","opening_name":null,"opening_alt_name":null,"opening_display_height":2,"level_id":"3e2f7405-4ca9-42d2-8e83-27023edb9046","level_floorpolyid":"F3159924870P2007042602000000","level_ordinal":0,"level_z_value":7.45,"level_name_en":"Grd Floor","level_name_zh":null,"level_short_name_en":"G/F","venue_id":"1652598f-c2c2-458c-951f-64366586a5e1","building_id":"32e7426e-42a4-4c99-9266-d18c600492db","bbox":[114.13181611000005,22.362968610000053,114.13182071000006,22.36297901000006]}},{"type":"Feature","id":"opening_line.195702","geometry":{"type":"LineString","coordinates":[[114.13182261000009,22.36298321000004,7.44999999999709],[114.13182431000007,22.36298731000005,7.44999999999709],[114.13182771000004,22.362994810000032,7.44999999999709]]},"geometry_name":"shape","properties":{"opening_id":"969f5ef8-7037-46be-a973-55b01fb20009","opening_category":"pedestrian.principal","opening_accessibility":null,"opening_access_control":null,"opening_door_automatic":"No","opening_door_material":null,"opening_door_type":"swinging","opening_name":null,"opening_alt_name":null,"opening_display_height":2,"level_id":"3e2f7405-4ca9-42d2-8e83-27023edb9046","level_floorpolyid":"F3159924870P2007042602000000","level_ordinal":0,"level_z_value":7.45,"level_name_en":"Grd Floor","level_name_zh":null,"level_short_name_en":"G/F","venue_id":"1652598f-c2c2-458c-951f-64366586a5e1","building_id":"32e7426e-42a4-4c99-9266-d18c600492db","bbox":[114.13182261000009,22.36298321000004,114.13182771000004,22.362994810000032]}},{"type":"Feature","id":"opening_line.195703","geometry":{"type":"LineString","coordinates":[[114.13173311000003,22.362873610000065,7.44999999999709],[114.13173341000004,22.362886910000043,7.44999999999709]]},"geometry_name":"shape","properties":{"opening_id":"64d2e144-5430-43d8-ab14-b2f1a6f99c8d","opening_category":"pedestrian","opening_accessibility":null,"opening_access_control":null,"opening_door_automatic":"No","opening_door_material":null,"opening_door_type":"open","opening_name":null,"opening_alt_name":null,"opening_display_height":4.75,"level_id":"3e2f7405-4ca9-42d2-8e83-27023edb9046","level_floorpolyid":"F3159924870P2007042602000000","level_ordinal":0,"level_z_value":7.45,"level_name_en":"Grd Floor","level_name_zh":null,"level_short_name_en":"G/F","venue_id":"1652598f-c2c2-458c-951f-64366586a5e1","building_id":"32e7426e-42a4-4c99-9266-d18c600492db","bbox":[114.13173311000003,22.362873610000065,114.13173341000004,22.362886910000043]}},{"type":"Feature","id":"opening_line.195704","geometry":{"type":"LineString","coordinates":[[114.1318927100001,22.36314131000006,7.44999999999709],[114.13189971000008,22.363157210000054,7.44999999999709]]},"geometry_name":"shape","properties":{"opening_id":"23ed238e-580a-4bc3-a338-45f2dc2f9ae6","opening_category":"pedestrian.principal","opening_accessibility":null,"opening_access_control":null,"opening_door_automatic":"No","opening_door_material":null,"opening_door_type":"open","opening_name":null,"opening_alt_name":null,"opening_display_height":4.75,"level_id":"3e2f7405-4ca9-42d2-8e83-27023edb9046","level_floorpolyid":"F3159924870P2007042602000000","level_ordinal":0,"level_z_value":7.45,"level_name_en":"Grd Floor","level_name_zh":null,"level_short_name_en":"G/F","venue_id":"1652598f-c2c2-458c-951f-64366586a5e1","building_id":"32e7426e-42a4-4c99-9266-d18c600492db","bbox":[114.1318927100001,22.36314131000006,114.13189971000008,22.363157210000054]}},{"type":"Feature","id":"opening_line.195705","geometry":{"type":"LineString","coordinates":[[114.13180881000005,22.363167710000027,16.10000000000582],[114.13180861000001,22.363159110000026,16.10000000000582]]},"geometry_name":"shape","properties":{"opening_id":"2f105cf9-160f-422c-9e33-85e3173c82d1","opening_category":"pedestrian","opening_accessibility":null,"opening_access_control":null,"opening_door_automatic":"Yes","opening_door_material":"metal","opening_door_type":"sliding","opening_name":null,"opening_alt_name":null,"opening_display_height":2,"level_id":"d1fad80f-bce1-4637-9d2b-7bf42880d551","level_floorpolyid":"F3159924870P2007042601000200","level_ordinal":2,"level_z_value":16.1,"level_name_en":"2nd Floor","level_name_zh":null,"level_short_name_en":"2/F","venue_id":"1652598f-c2c2-458c-951f-64366586a5e1","building_id":"32e7426e-42a4-4c99-9266-d18c600492db","bbox":[114.13180861000001,22.363159110000026,114.13180881000005,22.363167710000027]}},{"type":"Feature","id":"opening_line.195706","geometry":{"type":"LineString","coordinates":[[114.13182541000003,22.36319081000005,16.10000000000582],[114.13182581000001,22.36320401000006,16.10000000000582]]},"geometry_name":"shape","properties":{"opening_id":"5ec872f4-f761-466b-9f68-f2d909217236","opening_category":"pedestrian","opening_accessibility":null,"opening_access_control":null,"opening_door_automatic":"No","opening_door_material":null,"opening_door_type":"swinging","opening_name":null,"opening_alt_name":null,"opening_display_height":2,"level_id":"d1fad80f-bce1-4637-9d2b-7bf42880d551","level_floorpolyid":"F3159924870P2007042601000200","level_ordinal":2,"level_z_value":16.1,"level_name_en":"2nd Floor","level_name_zh":null,"level_short_name_en":"2/F","venue_id":"1652598f-c2c2-458c-951f-64366586a5e1","building_id":"32e7426e-42a4-4c99-9266-d18c600492db","bbox":[114.13182541000003,22.36319081000005,114.13182581000001,22.36320401000006]}},{"type":"Feature","id":"opening_line.195707","geometry":{"type":"LineString","coordinates":[[114.13180751000004,22.36312041000008,16.10000000000582],[114.13180731000011,22.363112210000054,16.10000000000582]]},"geometry_name":"shape","properties":{"opening_id":"82cf0ec0-d284-4440-b0b8-33dff755d1f1","opening_category":"pedestrian","opening_accessibility":null,"opening_access_control":null,"opening_door_automatic":"Yes","opening_door_material":"metal","opening_door_type":"sliding","opening_name":null,"opening_alt_name":null,"opening_display_height":2,"level_id":"d1fad80f-bce1-4637-9d2b-7bf42880d551","level_floorpolyid":"F3159924870P2007042601000200","level_ordinal":2,"level_z_value":16.1,"level_name_en":"2nd Floor","level_name_zh":null,"level_short_name_en":"2/F","venue_id":"1652598f-c2c2-458c-951f-64366586a5e1","building_id":"32e7426e-42a4-4c99-9266-d18c600492db","bbox":[114.13180731000011,22.363112210000054,114.13180751000004,22.36312041000008]}},{"type":"Feature","id":"opening_line.195708","geometry":{"type":"LineString","coordinates":[[114.13180811000007,22.363143010000044,16.10000000000582],[114.13180791000002,22.363134910000042,16.10000000000582]]},"geometry_name":"shape","properties":{"opening_id":"2a0ee022-9265-4d32-8d0c-0f35ada61eed","opening_category":"pedestrian","opening_accessibility":null,"opening_access_control":null,"opening_door_automatic":"Yes","opening_door_material":"metal","opening_door_type":"sliding","opening_name":null,"opening_alt_name":null,"opening_display_height":2,"level_id":"d1fad80f-bce1-4637-9d2b-7bf42880d551","level_floorpolyid":"F3159924870P2007042601000200","level_ordinal":2,"level_z_value":16.1,"level_name_en":"2nd Floor","level_name_zh":null,"level_short_name_en":"2/F","venue_id":"1652598f-c2c2-458c-951f-64366586a5e1","building_id":"32e7426e-42a4-4c99-9266-d18c600492db","bbox":[114.13180791000002,22.363134910000042,114.13180811000007,22.363143010000044]}},{"type":"Feature","id":"opening_line.195709","geometry":{"type":"LineString","coordinates":[[114.13174551000009,22.36321221000003,16.10000000000582],[114.1317458100001,22.363223410000046,16.10000000000582]]},"geometry_name":"shape","properties":{"opening_id":"3acd1e4d-3bc3-4e16-a16a-8d1c0fc87bd1","opening_category":"pedestrian","opening_accessibility":null,"opening_access_control":null,"opening_door_automatic":"No","opening_door_material":null,"opening_door_type":"swinging","opening_name":null,"opening_alt_name":null,"opening_display_height":2,"level_id":"d1fad80f-bce1-4637-9d2b-7bf42880d551","level_floorpolyid":"F3159924870P2007042601000200","level_ordinal":2,"level_z_value":16.1,"level_name_en":"2nd Floor","level_name_zh":null,"level_short_name_en":"2/F","venue_id":"1652598f-c2c2-458c-951f-64366586a5e1","building_id":"32e7426e-42a4-4c99-9266-d18c600492db","bbox":[114.13174551000009,22.36321221000003,114.1317458100001,22.363223410000046]}},{"type":"Feature","id":"opening_line.195710","geometry":{"type":"LineString","coordinates":[[114.13177951000011,22.36323081000006,16.10000000000582],[114.1317941100001,22.36323041000003,16.10000000000582]]},"geometry_name":"shape","properties":{"opening_id":"8e901921-f692-433a-90de-58c745696e01","opening_category":"pedestrian","opening_accessibility":null,"opening_access_control":null,"opening_door_automatic":"No","opening_door_material":null,"opening_door_type":"swinging","opening_name":null,"opening_alt_name":null,"opening_display_height":2,"level_id":"d1fad80f-bce1-4637-9d2b-7bf42880d551","level_floorpolyid":"F3159924870P2007042601000200","level_ordinal":2,"level_z_value":16.1,"level_name_en":"2nd Floor","level_name_zh":null,"level_short_name_en":"2/F","venue_id":"1652598f-c2c2-458c-951f-64366586a5e1","building_id":"32e7426e-42a4-4c99-9266-d18c600492db","bbox":[114.13177951000011,22.36323041000003,114.1317941100001,22.36323081000006]}},{"type":"Feature","id":"opening_line.195711","geometry":{"type":"LineString","coordinates":[[114.1317630100001,22.363231210000038,16.10000000000582],[114.13177811000003,22.36323081000006,16.10000000000582]]},"geometry_name":"shape","properties":{"opening_id":"a266ff5c-9627-40c7-82bb-ad27f570e6fb","opening_category":"pedestrian","opening_accessibility":null,"opening_access_control":null,"opening_door_automatic":"No","opening_door_material":null,"opening_door_type":"swinging","opening_name":null,"opening_alt_name":null,"opening_display_height":2,"level_id":"d1fad80f-bce1-4637-9d2b-7bf42880d551","level_floorpolyid":"F3159924870P2007042601000200","level_ordinal":2,"level_z_value":16.1,"level_name_en":"2nd Floor","level_name_zh":null,"level_short_name_en":"2/F","venue_id":"1652598f-c2c2-458c-951f-64366586a5e1","building_id":"32e7426e-42a4-4c99-9266-d18c600492db","bbox":[114.1317630100001,22.36323081000006,114.13177811000003,22.363231210000038]}},{"type":"Feature","id":"opening_line.195716","geometry":{"type":"LineString","coordinates":[[114.13185641000007,22.363112310000076,7.44999999999709],[114.13185671000008,22.363120910000077,7.44999999999709]]},"geometry_name":"shape","properties":{"opening_id":"d016bd13-336e-4685-bd1c-2c55f2d03a89","opening_category":"pedestrian","opening_accessibility":null,"opening_access_control":null,"opening_door_automatic":"Yes","opening_door_material":"metal","opening_door_type":"sliding","opening_name":null,"opening_alt_name":null,"opening_display_height":2,"level_id":"3e2f7405-4ca9-42d2-8e83-27023edb9046","level_floorpolyid":"F3159924870P2007042602000000","level_ordinal":0,"level_z_value":7.45,"level_name_en":"Grd Floor","level_name_zh":null,"level_short_name_en":"G/F","venue_id":"1652598f-c2c2-458c-951f-64366586a5e1","building_id":"32e7426e-42a4-4c99-9266-d18c600492db","bbox":[114.13185641000007,22.363112310000076,114.13185671000008,22.363120910000077]}},{"type":"Feature","id":"opening_line.195717","geometry":{"type":"LineString","coordinates":[[114.13176511000006,22.363081110000053,7.44999999999709],[114.13178071000004,22.363080710000077,7.44999999999709]]},"geometry_name":"shape","properties":{"opening_id":"01937747-87c8-48b8-8dd6-3b09d338b7a5","opening_category":"pedestrian","opening_accessibility":null,"opening_access_control":null,"opening_door_automatic":"No","opening_door_material":null,"opening_door_type":"open","opening_name":null,"opening_alt_name":null,"opening_display_height":4.75,"level_id":"3e2f7405-4ca9-42d2-8e83-27023edb9046","level_floorpolyid":"F3159924870P2007042602000000","level_ordinal":0,"level_z_value":7.45,"level_name_en":"Grd Floor","level_name_zh":null,"level_short_name_en":"G/F","venue_id":"1652598f-c2c2-458c-951f-64366586a5e1","building_id":"32e7426e-42a4-4c99-9266-d18c600492db","bbox":[114.13176511000006,22.363080710000077,114.13178071000004,22.363081110000053]}},{"type":"Feature","id":"opening_line.195718","geometry":{"type":"LineString","coordinates":[[114.13174981000009,22.36308151000003,7.44999999999709],[114.13176511000006,22.363081110000053,7.44999999999709]]},"geometry_name":"shape","properties":{"opening_id":"4b470c5b-75b7-4a29-ba37-c9d2d9404ff6","opening_category":"pedestrian","opening_accessibility":null,"opening_access_control":null,"opening_door_automatic":"No","opening_door_material":null,"opening_door_type":"open","opening_name":null,"opening_alt_name":null,"opening_display_height":4.75,"level_id":"3e2f7405-4ca9-42d2-8e83-27023edb9046","level_floorpolyid":"F3159924870P2007042602000000","level_ordinal":0,"level_z_value":7.45,"level_name_en":"Grd Floor","level_name_zh":null,"level_short_name_en":"G/F","venue_id":"1652598f-c2c2-458c-951f-64366586a5e1","building_id":"32e7426e-42a4-4c99-9266-d18c600492db","bbox":[114.13174981000009,22.363081110000053,114.13176511000006,22.36308151000003]}},{"type":"Feature","id":"opening_line.195719","geometry":{"type":"LineString","coordinates":[[114.13178241000003,22.363080710000077,7.44999999999709],[114.13179751000007,22.363080310000043,7.44999999999709]]},"geometry_name":"shape","properties":{"opening_id":"3868d1ce-cf4a-491f-8bd3-cffd30a1d64f","opening_category":"pedestrian","opening_accessibility":null,"opening_access_control":null,"opening_door_automatic":"No","opening_door_material":null,"opening_door_type":"swinging","opening_name":null,"opening_alt_name":null,"opening_display_height":2,"level_id":"3e2f7405-4ca9-42d2-8e83-27023edb9046","level_floorpolyid":"F3159924870P2007042602000000","level_ordinal":0,"level_z_value":7.45,"level_name_en":"Grd Floor","level_name_zh":null,"level_short_name_en":"G/F","venue_id":"1652598f-c2c2-458c-951f-64366586a5e1","building_id":"32e7426e-42a4-4c99-9266-d18c600492db","bbox":[114.13178241000003,22.363080310000043,114.13179751000007,22.363080710000077]}},{"type":"Feature","id":"opening_line.195720","geometry":{"type":"LineString","coordinates":[[114.13185621000002,22.363105310000037,7.44999999999709],[114.13185551000004,22.36307891000007,7.44999999999709]]},"geometry_name":"shape","properties":{"opening_id":"532b8887-ab2c-49c8-a099-7ae0a1921670","opening_category":"pedestrian","opening_accessibility":null,"opening_access_control":null,"opening_door_automatic":"No","opening_door_material":null,"opening_door_type":"swinging","opening_name":null,"opening_alt_name":null,"opening_display_height":2,"level_id":"3e2f7405-4ca9-42d2-8e83-27023edb9046","level_floorpolyid":"F3159924870P2007042602000000","level_ordinal":0,"level_z_value":7.45,"level_name_en":"Grd Floor","level_name_zh":null,"level_short_name_en":"G/F","venue_id":"1652598f-c2c2-458c-951f-64366586a5e1","building_id":"32e7426e-42a4-4c99-9266-d18c600492db","bbox":[114.13185551000004,22.36307891000007,114.13185621000002,22.363105310000037]}},{"type":"Feature","id":"opening_line.195721","geometry":{"type":"LineString","coordinates":[[114.13182631000006,22.36324951000006,7.44999999999709],[114.13181681000003,22.363255910000078,7.44999999999709]]},"geometry_name":"shape","properties":{"opening_id":"129fb2b3-4bb6-48df-b6d1-206de99b2993","opening_category":"pedestrian","opening_accessibility":null,"opening_access_control":null,"opening_door_automatic":"No","opening_door_material":null,"opening_door_type":"swinging","opening_name":null,"opening_alt_name":null,"opening_display_height":2,"level_id":"3e2f7405-4ca9-42d2-8e83-27023edb9046","level_floorpolyid":"F3159924870P2007042602000000","level_ordinal":0,"level_z_value":7.45,"level_name_en":"Grd Floor","level_name_zh":null,"level_short_name_en":"G/F","venue_id":"1652598f-c2c2-458c-951f-64366586a5e1","building_id":"32e7426e-42a4-4c99-9266-d18c600492db","bbox":[114.13181681000003,22.36324951000006,114.13182631000006,22.363255910000078]}},{"type":"Feature","id":"opening_line.195722","geometry":{"type":"LineString","coordinates":[[114.13185661000011,22.36318231000007,7.44999999999709],[114.13186291000011,22.363182210000048,7.44999999999709]]},"geometry_name":"shape","properties":{"opening_id":"15417c8b-df2b-4850-a4cb-6892219d172e","opening_category":"pedestrian","opening_accessibility":null,"opening_access_control":null,"opening_door_automatic":"No","opening_door_material":null,"opening_door_type":"swinging","opening_name":null,"opening_alt_name":null,"opening_display_height":2,"level_id":"3e2f7405-4ca9-42d2-8e83-27023edb9046","level_floorpolyid":"F3159924870P2007042602000000","level_ordinal":0,"level_z_value":7.45,"level_name_en":"Grd Floor","level_name_zh":null,"level_short_name_en":"G/F","venue_id":"1652598f-c2c2-458c-951f-64366586a5e1","building_id":"32e7426e-42a4-4c99-9266-d18c600492db","bbox":[114.13185661000011,22.363182210000048,114.13186291000011,22.36318231000007]}},{"type":"Feature","id":"opening_line.195723","geometry":{"type":"LineString","coordinates":[[114.13188221000007,22.36315761000003,7.44999999999709],[114.13189791000002,22.363157310000076,7.44999999999709]]},"geometry_name":"shape","properties":{"opening_id":"3dbfcd84-41a1-40d5-93fe-7a259db574d5","opening_category":"pedestrian","opening_accessibility":null,"opening_access_control":null,"opening_door_automatic":"No","opening_door_material":null,"opening_door_type":"swinging","opening_name":null,"opening_alt_name":null,"opening_display_height":2,"level_id":"3e2f7405-4ca9-42d2-8e83-27023edb9046","level_floorpolyid":"F3159924870P2007042602000000","level_ordinal":0,"level_z_value":7.45,"level_name_en":"Grd Floor","level_name_zh":null,"level_short_name_en":"G/F","venue_id":"1652598f-c2c2-458c-951f-64366586a5e1","building_id":"32e7426e-42a4-4c99-9266-d18c600492db","bbox":[114.13188221000007,22.363157310000076,114.13189791000002,22.36315761000003]}},{"type":"Feature","id":"opening_line.195724","geometry":{"type":"LineString","coordinates":[[114.13183821000007,22.36315201000008,7.44999999999709],[114.13184751000006,22.363151810000033,7.44999999999709]]},"geometry_name":"shape","properties":{"opening_id":"78d2b77b-9575-442f-a4a0-bcab5fa2c21a","opening_category":"pedestrian","opening_accessibility":null,"opening_access_control":null,"opening_door_automatic":"Yes","opening_door_material":"metal","opening_door_type":"sliding","opening_name":null,"opening_alt_name":null,"opening_display_height":2,"level_id":"3e2f7405-4ca9-42d2-8e83-27023edb9046","level_floorpolyid":"F3159924870P2007042602000000","level_ordinal":0,"level_z_value":7.45,"level_name_en":"Grd Floor","level_name_zh":null,"level_short_name_en":"G/F","venue_id":"1652598f-c2c2-458c-951f-64366586a5e1","building_id":"32e7426e-42a4-4c99-9266-d18c600492db","bbox":[114.13183821000007,22.363151810000033,114.13184751000006,22.36315201000008]}},{"type":"Feature","id":"opening_line.195725","geometry":{"type":"LineString","coordinates":[[114.13180751000004,22.36312231000005,7.44999999999709],[114.13180731000011,22.36311341000004,7.44999999999709]]},"geometry_name":"shape","properties":{"opening_id":"cb1d2b36-37f5-464c-ba85-ba7e1e0a7ea5","opening_category":"pedestrian","opening_accessibility":null,"opening_access_control":null,"opening_door_automatic":"Yes","opening_door_material":"metal","opening_door_type":"sliding","opening_name":null,"opening_alt_name":null,"opening_display_height":2,"level_id":"3e2f7405-4ca9-42d2-8e83-27023edb9046","level_floorpolyid":"F3159924870P2007042602000000","level_ordinal":0,"level_z_value":7.45,"level_name_en":"Grd Floor","level_name_zh":null,"level_short_name_en":"G/F","venue_id":"1652598f-c2c2-458c-951f-64366586a5e1","building_id":"32e7426e-42a4-4c99-9266-d18c600492db","bbox":[114.13180731000011,22.36311341000004,114.13180751000004,22.36312231000005]}},{"type":"Feature","id":"opening_line.195726","geometry":{"type":"LineString","coordinates":[[114.13180821000003,22.36314421000003,7.44999999999709],[114.13180791000002,22.363135310000075,7.44999999999709]]},"geometry_name":"shape","properties":{"opening_id":"05d68b97-9e19-42a2-94dd-17656c4ac8e8","opening_category":"pedestrian","opening_accessibility":null,"opening_access_control":null,"opening_door_automatic":"Yes","opening_door_material":"metal","opening_door_type":"sliding","opening_name":null,"opening_alt_name":null,"opening_display_height":2,"level_id":"3e2f7405-4ca9-42d2-8e83-27023edb9046","level_floorpolyid":"F3159924870P2007042602000000","level_ordinal":0,"level_z_value":7.45,"level_name_en":"Grd Floor","level_name_zh":null,"level_short_name_en":"G/F","venue_id":"1652598f-c2c2-458c-951f-64366586a5e1","building_id":"32e7426e-42a4-4c99-9266-d18c600492db","bbox":[114.13180791000002,22.363135310000075,114.13180821000003,22.36314421000003]}},{"type":"Feature","id":"opening_line.195727","geometry":{"type":"LineString","coordinates":[[114.13175041000011,22.363135510000063,7.44999999999709],[114.13175001000002,22.36312221000003,7.44999999999709]]},"geometry_name":"shape","properties":{"opening_id":"a62aaee4-415c-4189-ba2b-bf0118dbe3eb","opening_category":"pedestrian","opening_accessibility":null,"opening_access_control":null,"opening_door_automatic":"No","opening_door_material":null,"opening_door_type":"swinging","opening_name":null,"opening_alt_name":null,"opening_display_height":2,"level_id":"3e2f7405-4ca9-42d2-8e83-27023edb9046","level_floorpolyid":"F3159924870P2007042602000000","level_ordinal":0,"level_z_value":7.45,"level_name_en":"Grd Floor","level_name_zh":null,"level_short_name_en":"G/F","venue_id":"1652598f-c2c2-458c-951f-64366586a5e1","building_id":"32e7426e-42a4-4c99-9266-d18c600492db","bbox":[114.13175001000002,22.36312221000003,114.13175041000011,22.363135510000063]}},{"type":"Feature","id":"opening_line.195728","geometry":{"type":"LineString","coordinates":[[114.1317521100001,22.363196710000068,7.44999999999709],[114.13175171000012,22.363184510000053,7.44999999999709]]},"geometry_name":"shape","properties":{"opening_id":"7193cd5f-94d9-4149-bdbf-41447e9df5ee","opening_category":"pedestrian","opening_accessibility":null,"opening_access_control":null,"opening_door_automatic":"No","opening_door_material":null,"opening_door_type":"swinging","opening_name":null,"opening_alt_name":null,"opening_display_height":2,"level_id":"3e2f7405-4ca9-42d2-8e83-27023edb9046","level_floorpolyid":"F3159924870P2007042602000000","level_ordinal":0,"level_z_value":7.45,"level_name_en":"Grd Floor","level_name_zh":null,"level_short_name_en":"G/F","venue_id":"1652598f-c2c2-458c-951f-64366586a5e1","building_id":"32e7426e-42a4-4c99-9266-d18c600492db","bbox":[114.13175171000012,22.363184510000053,114.1317521100001,22.363196710000068]}},{"type":"Feature","id":"opening_line.195729","geometry":{"type":"LineString","coordinates":[[114.13190241000007,22.363163410000027,7.44999999999709],[114.13188601000002,22.363169610000057,7.44999999999709]]},"geometry_name":"shape","properties":{"opening_id":"87b9de4a-c0b0-48cb-927b-268e534f929e","opening_category":"pedestrian","opening_accessibility":null,"opening_access_control":null,"opening_door_automatic":"No","opening_door_material":null,"opening_door_type":"open","opening_name":null,"opening_alt_name":null,"opening_display_height":4.75,"level_id":"3e2f7405-4ca9-42d2-8e83-27023edb9046","level_floorpolyid":"F3159924870P2007042602000000","level_ordinal":0,"level_z_value":7.45,"level_name_en":"Grd Floor","level_name_zh":null,"level_short_name_en":"G/F","venue_id":"1652598f-c2c2-458c-951f-64366586a5e1","building_id":"32e7426e-42a4-4c99-9266-d18c600492db","bbox":[114.13188601000002,22.363163410000027,114.13190241000007,22.363169610000057]}},{"type":"Feature","id":"opening_line.195756","geometry":{"type":"LineString","coordinates":[[114.13184801000011,22.363151710000068,16.10000000000582],[114.13183831000003,22.36315201000008,16.10000000000582]]},"geometry_name":"shape","properties":{"opening_id":"0ee20b6b-5c89-4df1-842d-f25b160e1310","opening_category":"pedestrian","opening_accessibility":null,"opening_access_control":null,"opening_door_automatic":"Yes","opening_door_material":"metal","opening_door_type":"sliding","opening_name":null,"opening_alt_name":null,"opening_display_height":2,"level_id":"d1fad80f-bce1-4637-9d2b-7bf42880d551","level_floorpolyid":"F3159924870P2007042601000200","level_ordinal":2,"level_z_value":16.1,"level_name_en":"2nd Floor","level_name_zh":null,"level_short_name_en":"2/F","venue_id":"1652598f-c2c2-458c-951f-64366586a5e1","building_id":"32e7426e-42a4-4c99-9266-d18c600492db","bbox":[114.13183831000003,22.363151710000068,114.13184801000011,22.36315201000008]}},{"type":"Feature","id":"opening_line.195758","geometry":{"type":"LineString","coordinates":[[114.13174671000002,22.362873310000055,7.44999999999709],[114.13174701000003,22.362886610000032,7.44999999999709]]},"geometry_name":"shape","properties":{"opening_id":"1c795d81-7770-4b99-8c95-18fc7dec0c88","opening_category":"pedestrian","opening_accessibility":null,"opening_access_control":null,"opening_door_automatic":"No","opening_door_material":null,"opening_door_type":"open","opening_name":null,"opening_alt_name":null,"opening_display_height":4.75,"level_id":"3e2f7405-4ca9-42d2-8e83-27023edb9046","level_floorpolyid":"F3159924870P2007042602000000","level_ordinal":0,"level_z_value":7.45,"level_name_en":"Grd Floor","level_name_zh":null,"level_short_name_en":"G/F","venue_id":"1652598f-c2c2-458c-951f-64366586a5e1","building_id":"32e7426e-42a4-4c99-9266-d18c600492db","bbox":[114.13174671000002,22.362873310000055,114.13174701000003,22.362886610000032]}}]}