{"type":"FeatureCollection","features":[{"type":"Feature","id":99114,"geometry":{"type":"Polygon","coordinates":[[[114.16327438637489,22.331917932333148],[114.16314230326653,22.331771481339235],[114.16321639181643,22.331713981204228],[114.16333037024391,22.331841363735169],[114.16334762344476,22.331860641487154],[114.16333699958662,22.331868956142017],[114.16332304787277,22.3318537146111],[114.16327030612547,22.331894646459769],[114.16328427392145,22.331910194042855],[114.16327438637489,22.331917932333148]]]},"properties":{"OBJECTID":99114,"Shape__Length":66.538487165631977,"Shape__Area":193.55447306832252,"GeoRefNo":"3486421419","DateCreate":1114790400000,"BuildingBlockType":"Tower","BuildingCSUID":"3486421419T20050430","BuildingID":1108225989,"Status":"Active","BuildingNameEN":null,"BuildingNameTC":null,"BaseHeight":5.5999999999999996,"TopHeight":25.399999999999999,"Storeys":6,"StoreysInBasement":null,"DateStamp":1599580800000}},{"type":"Feature","id":99123,"geometry":{"type":"Polygon","coordinates":[[[114.16333037024391,22.331841363735169],[114.16321639181643,22.331713981204228],[114.16328718905993,22.331659035420884],[114.16340172802597,22.331785929214313],[114.16333037024391,22.331841363735169]]]},"properties":{"OBJECTID":99123,"Shape__Length":55.777748609955708,"Shape__Area":175.02767837993642,"GeoRefNo":"3487121411","DateCreate":1114790400000,"BuildingBlockType":"Tower","BuildingCSUID":"3487121411T20050430","BuildingID":1108226030,"Status":"Active","BuildingNameEN":null,"BuildingNameTC":null,"BaseHeight":5.7000000000000002,"TopHeight":36.399999999999999,"Storeys":9,"StoreysInBasement":null,"DateStamp":1599580800000}},{"type":"Feature","id":99124,"geometry":{"type":"Polygon","coordinates":[[[114.16419947225809,22.331886778783463],[114.16410278497872,22.331780298508182],[114.16424434982763,22.331669651809669],[114.16432839185489,22.331763159320495],[114.16423715263491,22.331835890331341],[114.16424830003078,22.331850220651301],[114.16419947225809,22.331886778783463]]]},"properties":{"OBJECTID":99124,"Shape__Length":68.774066623346513,"Shape__Area":270.48747722573694,"GeoRefNo":"3496321410","DateCreate":1114790400000,"BuildingBlockType":"Tower","BuildingCSUID":"3496321410T20050430","BuildingID":1108225999,"Status":"Active","BuildingNameEN":"Wai Bun Building","BuildingNameTC":"渭濱樓","BaseHeight":6.0999999999999996,"TopHeight":42.600000000000001,"Storeys":14,"StoreysInBasement":null,"DateStamp":1599580800000}},{"type":"Feature","id":99272,"geometry":{"type":"Polygon","coordinates":[[[114.16160705623078,22.331848078416687],[114.16164041498304,22.331885104939399],[114.16168245450548,22.331931766541253],[114.16164679852098,22.331959223031845],[114.1615149810534,22.331813193640251],[114.1615282058842,22.331802899847215],[114.16153995543229,22.331816101316761],[114.16156256996317,22.331798700978524],[114.16160705623078,22.331848078416687]]]},"properties":{"OBJECTID":99272,"Shape__Length":51.808736289138587,"Shape__Area":95.205887619413147,"GeoRefNo":"3469421424","DateCreate":1114790400000,"BuildingBlockType":"Tower","BuildingCSUID":"3469421424T20050430","BuildingID":1108225969,"Status":"Active","BuildingNameEN":null,"BuildingNameTC":null,"BaseHeight":5.0999999999999996,"TopHeight":25.899999999999999,"Storeys":6,"StoreysInBasement":null,"DateStamp":1599580800000}},{"type":"Feature","id":99278,"geometry":{"type":"Polygon","coordinates":[[[114.16340172802597,22.331785929214313],[114.16328718905993,22.331659035420884],[114.16332208427617,22.331631955170291],[114.16344018626101,22.331764713060775],[114.16343477207306,22.331768912555741],[114.16342422084536,22.331777109012116],[114.16343661678191,22.331791026522787],[114.16341886137852,22.331804914358127],[114.16340172802597,22.331785929214313]]]},"properties":{"OBJECTID":99278,"Shape__Length":51.391667278234621,"Shape__Area":92.840008824571356,"GeoRefNo":"3487621408","DateCreate":1114790400000,"BuildingBlockType":"Tower","BuildingCSUID":"3487621408T20050430","BuildingID":1108226047,"Status":"Active","BuildingNameEN":null,"BuildingNameTC":"興體樓","BaseHeight":5.7999999999999998,"TopHeight":34.899999999999999,"Storeys":9,"StoreysInBasement":null,"DateStamp":1599580800000}},{"type":"Feature","id":99322,"geometry":{"type":"Polygon","coordinates":[[[114.16144879986351,22.330854861492845],[114.16152522175118,22.330796358687163],[114.16157943840885,22.330857482592879],[114.16142343524702,22.330978379917646],[114.16136842205242,22.330916566580395],[114.16144879986351,22.330854861492845]]]},"properties":{"OBJECTID":99322,"Shape__Length":59.510816883683241,"Shape__Area":184.85996024686403,"GeoRefNo":"3468221315","DateCreate":1114790400000,"BuildingBlockType":"Tower","BuildingCSUID":"3468221315T20050430","BuildingID":1108226574,"Status":"Active","BuildingNameEN":null,"BuildingNameTC":null,"BaseHeight":4.4000000000000004,"TopHeight":22.300000000000001,"Storeys":4,"StoreysInBasement":null,"DateStamp":1599580800000}},{"type":"Feature","id":99327,"geometry":{"type":"Polygon","coordinates":[[[114.16091977074672,22.330923910353544],[114.16083835670042,22.330832848162359],[114.16080836344229,22.330799300473057],[114.16085036769555,22.330766838957022],[114.16096169436844,22.330891271079413],[114.16091977074672,22.330923910353544]]]},"properties":{"OBJECTID":99327,"Shape__Length":47.132934059625313,"Shape__Area":100.96581629377714,"GeoRefNo":"3462021310","DateCreate":1114790400000,"BuildingBlockType":"Tower","BuildingCSUID":"3462021310T20050430","BuildingID":1108226617,"Status":"Active","BuildingNameEN":null,"BuildingNameTC":null,"BaseHeight":4.5,"TopHeight":24.199999999999999,"Storeys":6,"StoreysInBasement":null,"DateStamp":1599580800000}},{"type":"Feature","id":99328,"geometry":{"type":"Polygon","coordinates":[[[114.16088003996204,22.330954836731248],[114.16082219948863,22.330890010508952],[114.1607686464789,22.330829991939883],[114.16078447348634,22.330817766009975],[114.16081486843963,22.33085104047791],[114.16083835670042,22.330832848162359],[114.16091977074672,22.330923910353544],[114.16088003996204,22.330954836731248]]]},"properties":{"OBJECTID":99328,"Shape__Length":46.523299888149509,"Shape__Area":80.331969157937067,"GeoRefNo":"3461721315","DateCreate":1114790400000,"BuildingBlockType":"Tower","BuildingCSUID":"3461721315T20050430","BuildingID":1108226596,"Status":"Active","BuildingNameEN":null,"BuildingNameTC":null,"BaseHeight":4.5,"TopHeight":25.699999999999999,"Storeys":6,"StoreysInBasement":null,"DateStamp":1599580800000}},{"type":"Feature","id":99330,"geometry":{"type":"Polygon","coordinates":[[[114.1604124038856,22.330907690585764],[114.16040807339594,22.330902807672906],[114.16038602651261,22.330878024890016],[114.1604440033154,22.330832658773122],[114.16048808883937,22.330798120979356],[114.16050088967714,22.330812683991926],[114.16052230233245,22.330796539377943],[114.16053360049682,22.33080920427939],[114.16052180927701,22.33081783678076],[114.1605253060708,22.330821744213658],[114.1604124038856,22.330907690585764]]]},"properties":{"OBJECTID":99330,"Shape__Length":41.88817684134839,"Shape__Area":65.696125354152443,"GeoRefNo":"3457521311","DateCreate":1114790400000,"BuildingBlockType":"Tower","BuildingCSUID":"3457521311T20050430","BuildingID":1108226630,"Status":"Active","BuildingNameEN":null,"BuildingNameTC":null,"BaseHeight":4.2999999999999998,"TopHeight":25.399999999999999,"Storeys":6,"StoreysInBasement":null,"DateStamp":1599580800000}},{"type":"Feature","id":99331,"geometry":{"type":"Polygon","coordinates":[[[114.16401766205652,22.330877916953561],[114.16391487640158,22.330763718445741],[114.16393019747976,22.330751741773394],[114.16389986249379,22.330718273284649],[114.16392004048396,22.330702634106359],[114.16395020900077,22.330736100320514],[114.16405323897506,22.330850391027788],[114.16401766205652,22.330877916953561]]]},"properties":{"OBJECTID":99331,"Shape__Length":52.230231987593825,"Shape__Area":91.647106348444851,"GeoRefNo":"3493921306","DateCreate":1114790400000,"BuildingBlockType":"Tower","BuildingCSUID":"3493921306T20050430","BuildingID":1108226641,"Status":"Active","BuildingNameEN":null,"BuildingNameTC":null,"BaseHeight":5.7000000000000002,"TopHeight":25.800000000000001,"Storeys":6,"StoreysInBasement":null,"DateStamp":1599580800000}},{"type":"Feature","id":99504,"geometry":{"type":"Polygon","coordinates":[[[114.16520651383699,22.331649744147654],[114.16529266715042,22.331582693365561],[114.16536239179953,22.331659375981918],[114.1654433129269,22.331748372190098],[114.16536237937206,22.33181138395139],[114.16528528766348,22.33187140429478],[114.16513570889127,22.331704849617175],[114.1651689816545,22.331678954386504],[114.16520651383699,22.331649744147654]]]},"properties":{"OBJECTID":99504,"Shape__Length":90.374036377260751,"Shape__Area":508.39396593199183,"GeoRefNo":"3507421410","DateCreate":1114790400000,"BuildingBlockType":"Tower","BuildingCSUID":"3507421410T20050430","BuildingID":1108226011,"Status":"Active","BuildingNameEN":null,"BuildingNameTC":"昌華新樓","BaseHeight":6.2000000000000002,"TopHeight":40.799999999999997,"Storeys":11,"StoreysInBasement":null,"DateStamp":1599580800000}},{"type":"Feature","id":99540,"geometry":{"type":"Polygon","coordinates":[[[114.16160815097722,22.331668192607818],[114.16149484414254,22.331542396051979],[114.16153322255585,22.331512819740922],[114.16164511173086,22.331638522490429],[114.16164057000259,22.331642168522958],[114.16160815097722,22.331668192607818]]]},"properties":{"OBJECTID":99540,"Shape__Length":46.410375978775193,"Shape__Area":92.090187856520899,"GeoRefNo":"3469521398","DateCreate":1114790400000,"BuildingBlockType":"Tower","BuildingCSUID":"3469521398T20050430","BuildingID":1108226130,"Status":"Active","BuildingNameEN":"YAU HING BUILDING","BuildingNameTC":"友興大廈","BaseHeight":4.7000000000000002,"TopHeight":43.899999999999999,"Storeys":7,"StoreysInBasement":null,"DateStamp":1599580800000}},{"type":"Feature","id":99542,"geometry":{"type":"Polygon","coordinates":[[[114.16266167946561,22.331603306877945],[114.1625508388547,22.331480024485138],[114.16261838206728,22.331427641584536],[114.16272095989308,22.331542994182335],[114.16272849443602,22.33155147473402],[114.16270038869695,22.331573284118551],[114.16269019225301,22.331581202958201],[114.16266167946561,22.331603306877945]]]},"properties":{"OBJECTID":99542,"Shape__Length":53.615628414467714,"Shape__Area":160.37261228950899,"GeoRefNo":"3480121385","DateCreate":1114790400000,"BuildingBlockType":"Tower","BuildingCSUID":"3480121385T20050430","BuildingID":1108226166,"Status":"Active","BuildingNameEN":null,"BuildingNameTC":null,"BaseHeight":5.2000000000000002,"TopHeight":36.299999999999997,"Storeys":8,"StoreysInBasement":null,"DateStamp":1599580800000}},{"type":"Feature","id":99543,"geometry":{"type":"Polygon","coordinates":[[[114.16194941189978,22.331647151261169],[114.1619307221514,22.331626614274636],[114.16191585770774,22.33161028074111],[114.16185769072479,22.331546364784419],[114.16187574931485,22.331532304121776],[114.16189407289495,22.331552905107959],[114.1619129188929,22.331538897252344],[114.16193072933015,22.33155902904846],[114.16202625934393,22.331667009953435],[114.16199169754246,22.331693616120752],[114.16194941189978,22.331647151261169]]]},"properties":{"OBJECTID":99543,"Shape__Length":52.232480986282098,"Shape__Area":94.533455364369317,"GeoRefNo":"3472921395","DateCreate":1114790400000,"BuildingBlockType":"Tower","BuildingCSUID":"3472921395T20050430","BuildingID":1108226114,"Status":"Active","BuildingNameEN":null,"BuildingNameTC":null,"BaseHeight":5.0999999999999996,"TopHeight":25,"Storeys":6,"StoreysInBasement":null,"DateStamp":1599580800000}},{"type":"Feature","id":99546,"geometry":{"type":"Polygon","coordinates":[[[114.15822065413829,22.331621698909888],[114.15816501856071,22.33156117534088],[114.15819889878121,22.33153589541983],[114.15825355392626,22.331598255865696],[114.15822065413829,22.331621698909888]]]},"properties":{"OBJECTID":99546,"Shape__Length":26.472275635534189,"Shape__Area":38.729680819725161,"GeoRefNo":"3434421393","DateCreate":1114790400000,"BuildingBlockType":"Tower","BuildingCSUID":"3434421393T20050430","BuildingID":1108226157,"Status":"Active","BuildingNameEN":null,"BuildingNameTC":null,"BaseHeight":5.0999999999999996,"TopHeight":8.1999999999999993,"Storeys":null,"StoreysInBasement":null,"DateStamp":1361808000000}},{"type":"Feature","id":99547,"geometry":{"type":"Polygon","coordinates":[[[114.16344018626101,22.331764713060775],[114.16332208427617,22.331631955170291],[114.16335596620631,22.33160566121083],[114.1633606247898,22.331610791058207],[114.16347556743264,22.331737264550576],[114.16344758272876,22.331758975821472],[114.16344018626101,22.331764713060775]]]},"properties":{"OBJECTID":99547,"Shape__Length":47.458008946798145,"Shape__Area":88.652280802298904,"GeoRefNo":"3487921404","DateCreate":1114790400000,"BuildingBlockType":"Tower","BuildingCSUID":"3487921404T20050430","BuildingID":1108226070,"Status":"Active","BuildingNameEN":null,"BuildingNameTC":"興體樓","BaseHeight":5.7999999999999998,"TopHeight":34.899999999999999,"Storeys":9,"StoreysInBasement":null,"DateStamp":1599580800000}},{"type":"Feature","id":99636,"geometry":{"type":"Polygon","coordinates":[[[114.16380459321059,22.331042768133283],[114.16369549484838,22.330920936243459],[114.16372080681153,22.330901000304184],[114.16372812456561,22.330895604039842],[114.16383766296796,22.331017182093699],[114.16380459321059,22.331042768133283]]]},"properties":{"OBJECTID":99636,"Shape__Length":43.935960017294164,"Shape__Area":77.412130977987658,"GeoRefNo":"3491621324","DateCreate":1114790400000,"BuildingBlockType":"Tower","BuildingCSUID":"3491621324T20050430","BuildingID":1108226531,"Status":"Active","BuildingNameEN":null,"BuildingNameTC":null,"BaseHeight":5.7000000000000002,"TopHeight":29.600000000000001,"Storeys":8,"StoreysInBasement":null,"DateStamp":1599580800000}},{"type":"Feature","id":99642,"geometry":{"type":"Polygon","coordinates":[[[114.16047186652222,22.33097455893224],[114.16058359993949,22.330886884761735],[114.16058636969713,22.330889979819613],[114.16059772928615,22.33088111536507],[114.16062363968557,22.330910170151164],[114.16059404316768,22.33093289869737],[114.16057858645399,22.330915711861572],[114.16054487299485,22.330941800897346],[114.16056022595646,22.330958862110496],[114.16049942703188,22.331005556292098],[114.16047756442481,22.330980970768437],[114.16047186652222,22.33097455893224]]]},"properties":{"OBJECTID":99642,"Shape__Length":47.205792160452276,"Shape__Area":63.502969228800843,"GeoRefNo":"3458321323","DateCreate":1114790400000,"BuildingBlockType":"Tower","BuildingCSUID":"3458321323T20050430","BuildingID":1108226556,"Status":"Active","BuildingNameEN":null,"BuildingNameTC":null,"BaseHeight":4.5,"TopHeight":25.800000000000001,"Storeys":6,"StoreysInBasement":null,"DateStamp":1599580800000}},{"type":"Feature","id":99644,"geometry":{"type":"Polygon","coordinates":[[[114.16277688457347,22.331078220594243],[114.16266813388366,22.330958468238418],[114.16267887380064,22.330950200414996],[114.16265798331116,22.330927830923091],[114.162679364033,22.330911308723749],[114.16280439325146,22.331048477958365],[114.1628137549915,22.331058748706536],[114.16280439149918,22.331066003155762],[114.16278173218544,22.331083558539568],[114.16277688457347,22.331078220594243]]]},"properties":{"OBJECTID":99644,"Shape__Length":51.414617955990536,"Shape__Area":86.857558361651542,"GeoRefNo":"3481321330","DateCreate":1114790400000,"BuildingBlockType":"Tower","BuildingCSUID":"3481321330T20050430","BuildingID":1108226508,"Status":"Active","BuildingNameEN":null,"BuildingNameTC":null,"BaseHeight":5.2000000000000002,"TopHeight":27.399999999999999,"Storeys":6,"StoreysInBasement":null,"DateStamp":1599580800000}},{"type":"Feature","id":99694,"geometry":{"type":"Polygon","coordinates":[[[114.16077319348297,22.331038018062774],[114.16071469829723,22.330973242850991],[114.16073414511007,22.330958186289184],[114.16067856763206,22.330896805407207],[114.1606940480963,22.330884815511116],[114.16074963877823,22.330946190429003],[114.16080816213743,22.331010799649118],[114.16079809279545,22.331018639094307],[114.16077319348297,22.331038018062774]]]},"properties":{"OBJECTID":99694,"Shape__Length":45.877861628800012,"Shape__Area":62.358085646001435,"GeoRefNo":"3460621326","DateCreate":1114790400000,"BuildingBlockType":"Tower","BuildingCSUID":"3460621326T20050430","BuildingID":1108226536,"Status":"Active","BuildingNameEN":null,"BuildingNameTC":null,"BaseHeight":4.5,"TopHeight":22.699999999999999,"Storeys":6,"StoreysInBasement":null,"DateStamp":1599580800000}},{"type":"Feature","id":99695,"geometry":{"type":"Polygon","coordinates":[[[114.16121587704365,22.330913864906076],[114.16128000966847,22.330864572044508],[114.16129152442117,22.330855721643886],[114.16141070874529,22.330987695558086],[114.16137449891993,22.331015717976214],[114.1613614123189,22.331001007716885],[114.16135077608578,22.331009275553118],[114.16136372134784,22.331024058586266],[114.16133424071802,22.331046873339869],[114.16127999621703,22.330985917410004],[114.16121587704365,22.330913864906076]]]},"properties":{"OBJECTID":99695,"Shape__Length":62.774392640792307,"Shape__Area":191.40737729800509,"GeoRefNo":"3466421322","DateCreate":1114790400000,"BuildingBlockType":"Tower","BuildingCSUID":"3466421322T20050430","BuildingID":1108226528,"Status":"Active","BuildingNameEN":null,"BuildingNameTC":null,"BaseHeight":4.4000000000000004,"TopHeight":25.300000000000001,"Storeys":6,"StoreysInBasement":null,"DateStamp":1599580800000}},{"type":"Feature","id":99702,"geometry":{"type":"Polygon","coordinates":[[[114.16297441286291,22.331999500514613],[114.16294402468827,22.331965563882882],[114.1629227875079,22.331941846764593],[114.16299725512438,22.331884052818211],[114.16307060418234,22.33196557467928],[114.16310662253514,22.332005606231828],[114.16303186551029,22.332063682679522],[114.16297441286291,22.331999500514613]]]},"properties":{"OBJECTID":99702,"Shape__Length":55.135908740813093,"Shape__Area":175.76441351518417,"GeoRefNo":"3483921437","DateCreate":1114790400000,"BuildingBlockType":"Tower","BuildingCSUID":"3483921437T20050430","BuildingID":1108225921,"Status":"Active","BuildingNameEN":null,"BuildingNameTC":null,"BaseHeight":5.5999999999999996,"TopHeight":25.100000000000001,"Storeys":6,"StoreysInBasement":null,"DateStamp":1599580800000}},{"type":"Feature","id":99766,"geometry":{"type":"Polygon","coordinates":[[[114.163940601533,22.332097910345237],[114.16406591782287,22.332000609801888],[114.16409763812038,22.332035969186162],[114.16397232182094,22.332133269753584],[114.16396188844712,22.332141370710413],[114.16394652582369,22.332124245613514],[114.16395695919711,22.332116144747946],[114.163940601533,22.332097910345237]]]},"properties":{"OBJECTID":99766,"Shape__Length":46.631046172455399,"Shape__Area":89.217139776936364,"GeoRefNo":"3494321446","DateCreate":1114790400000,"BuildingBlockType":"Tower","BuildingCSUID":"3494321446T20050430","BuildingID":1108225889,"Status":"Active","BuildingNameEN":null,"BuildingNameTC":null,"BaseHeight":5.9000000000000004,"TopHeight":29.300000000000001,"Storeys":4,"StoreysInBasement":null,"DateStamp":1599580800000}},{"type":"Feature","id":99767,"geometry":{"type":"Polygon","coordinates":[[[114.15893783010121,22.331691272880121],[114.15882247396721,22.33178283587792],[114.15881867783472,22.331817511439557],[114.15890458650028,22.331910631213539],[114.15878672817179,22.331998842658251],[114.15870578606503,22.33190997416272],[114.15866403967075,22.33190563056581],[114.1585462947567,22.331994653155679],[114.15845003662581,22.331888444812314],[114.15856903283867,22.331798522805812],[114.1585719579011,22.331756703782158],[114.15849188799238,22.33166963434784],[114.1586052724081,22.331578812140947],[114.15868697236971,22.33166912711274],[114.15872716349277,22.33167779184344],[114.15884396023296,22.331587410813956],[114.15893783010121,22.331691272880121]]]},"properties":{"OBJECTID":99767,"Shape__Length":193.42969291424075,"Shape__Area":1320.3930455029358,"GeoRefNo":"3439621417","DateCreate":1114790400000,"BuildingBlockType":"Tower","BuildingCSUID":"3439621417T20050430","BuildingID":1108225951,"Status":"Active","BuildingNameEN":"Lai Ping House","BuildingNameTC":"麗平樓","BaseHeight":5.2000000000000002,"TopHeight":47.399999999999999,"Storeys":15,"StoreysInBasement":null,"DateStamp":1786636800000}},{"type":"Feature","id":99768,"geometry":{"type":"Polygon","coordinates":[[[114.15938873335305,22.33205605840984],[114.15939097332905,22.332033217604764],[114.15937766413062,22.332034397913752],[114.1593625336826,22.332046125471994],[114.15932265292219,22.331990135455239],[114.15922734172685,22.331886728238938],[114.15920520103408,22.331862706837107],[114.15915163039199,22.331811127900163],[114.15916357582849,22.331799400104437],[114.15916638349158,22.33178504314235],[114.15914185134233,22.331782676983195],[114.15913893174579,22.33178250029729],[114.15913612589625,22.33178168868363],[114.15913347194162,22.331780242056116],[114.15913146247871,22.331778354626014],[114.15912990822676,22.331776008582391],[114.15912903640023,22.331773380498007],[114.15912892308721,22.331770576038885],[114.15912953010424,22.331767877496851],[114.159130667857,22.331765443608806],[114.15913252611382,22.331763274395403],[114.15913495302442,22.331761651955418],[114.15913768320645,22.331760558650224],[114.15914056492895,22.331760100391914],[114.15914348461986,22.331760294777744],[114.15916369460838,22.331759573813176],[114.15917359207606,22.331751073413106],[114.15916483461281,22.331739255131595],[114.15922736646914,22.331689563761728],[114.15941754025208,22.331538440201811],[114.15943122674619,22.331551811175412],[114.15944305785968,22.331544228202322],[114.15944324984065,22.331524808952611],[114.15944423598971,22.331522180978833],[114.15944590468641,22.331519835374195],[114.15944810409442,22.331517948309067],[114.15945075849186,22.331516590484714],[114.15945364025201,22.331515779486349],[114.15945667362904,22.331515779811543],[114.15945959327384,22.331516309226238],[114.15946228521322,22.331517491256506],[114.15946463588199,22.331519290580676],[114.15946637972156,22.331521548412681],[114.15946751694788,22.331524088385319],[114.15946800951245,22.331526892884909],[114.15946781751303,22.331546488501878],[114.15947665111202,22.331555784624602],[114.15949121286725,22.331543316215626],[114.15971269449238,22.331795335940992],[114.15971948075729,22.331803057803821],[114.15971269287637,22.331808578564452],[114.15969426321685,22.331823568012336],[114.15970267970064,22.331833234422433],[114.15944212242628,22.33204451132578],[114.15942854959039,22.332031598938933],[114.15941368493496,22.332040081210906],[114.15941205195348,22.332060399840525],[114.1594114449494,22.332063027764388],[114.15941019344584,22.332065373503642],[114.15940833521336,22.332067348743283],[114.15940602206486,22.332068971199529],[114.15940348146455,22.332069976210526],[114.15940067554922,22.332070416872014],[114.15939786972152,22.332070152064531],[114.15939513977226,22.332069340373263],[114.15939271322992,22.332067982003259],[114.15939066590273,22.332066094572347],[114.15938922529944,22.33206383677231],[114.15938846731656,22.332061296840099],[114.15938824011273,22.332058686345857],[114.15938873335305,22.33205605840984]]]},"properties":{"OBJECTID":99768,"Shape__Length":192.13006669079726,"Shape__Area":1950.7669140836858,"GeoRefNo":"3450021417","DateCreate":1114790400000,"BuildingBlockType":"Tower","BuildingCSUID":"3450021417T20050430","BuildingID":1108225918,"Status":"Active","BuildingNameEN":null,"BuildingNameTC":null,"BaseHeight":4.5999999999999996,"TopHeight":11.5,"Storeys":null,"StoreysInBasement":null,"DateStamp":1361808000000}},{"type":"Feature","id":100234,"geometry":{"type":"Polygon","coordinates":[[[114.16039996405522,22.329969777606337],[114.16030097496322,22.32985999557377],[114.1603193351059,22.329845705374307],[114.16030956845294,22.329834773942608],[114.16032901350249,22.329819706229141],[114.16043774663619,22.329940454073817],[114.16039996405522,22.329969777606337]]]},"properties":{"OBJECTID":100234,"Shape__Length":45.027250304366689,"Shape__Area":84.634432300989118,"GeoRefNo":"3456521204","DateCreate":1114790400000,"BuildingBlockType":"Tower","BuildingCSUID":"3456521204T20050430","BuildingID":1108227364,"Status":"Active","BuildingNameEN":"Ki Lung Building","BuildingNameTC":"基隆樓","BaseHeight":4.4000000000000004,"TopHeight":26.899999999999999,"Storeys":6,"StoreysInBasement":null,"DateStamp":1599580800000}},{"type":"Feature","id":104627,"geometry":{"type":"Polygon","coordinates":[[[114.16505006880143,22.331858828900582],[114.16501974047485,22.331826716477622],[114.16500095667733,22.331840730297642],[114.16494477108927,22.331779265049253],[114.1649310118359,22.331789835146836],[114.16490892915336,22.331765205144109],[114.16496009706525,22.331725742643957],[114.1649526480806,22.331717363615798],[114.16499415058983,22.331684839132926],[114.1650013310378,22.33169262221158],[114.16505291013756,22.331652449908105],[114.16507765486386,22.331680096388901],[114.16506044620549,22.331694251297638],[114.16506792714245,22.33170249116192],[114.16504656308202,22.331719022074488],[114.16505815962923,22.331731715488601],[114.16503791049102,22.331747065822853],[114.16506876624237,22.331780706074618],[114.16509469852596,22.331760803832555],[114.16510487748059,22.331772524095559],[114.16512049435104,22.33176034793836],[114.16514365727122,22.331785834450443],[114.16505006880143,22.331858828900582]]]},"properties":{"OBJECTID":104627,"Shape__Length":86.594359025867661,"Shape__Area":237.00916611636498,"GeoRefNo":"3504721412","DateCreate":1406476800000,"BuildingBlockType":"Tower","BuildingCSUID":"3504721412T20140728","BuildingID":1810130489,"Status":"Active","BuildingNameEN":"High Point","BuildingNameTC":"曉尚","BaseHeight":21.800000000000001,"TopHeight":110.2,"Storeys":28,"StoreysInBasement":null,"DateStamp":1599580800000}},{"type":"Feature","id":104632,"geometry":{"type":"Polygon","coordinates":[[[114.16495914938878,22.332109969116349],[114.16492228240681,22.332069777981808],[114.16489813371622,22.332088050848927],[114.16482397567957,22.332005966337835],[114.16481388718374,22.332013689806654],[114.16477230457953,22.331965710225059],[114.16473790580281,22.331926019615992],[114.16488851558809,22.331755145922418],[114.16499427558404,22.331871550819685],[114.16498467977269,22.331879905843735],[114.16505795437129,22.331962541264431],[114.16505378346359,22.331965730923613],[114.1650322988109,22.3319821612243],[114.16506938965729,22.332023317809835],[114.16502922853724,22.332054854011268],[114.16503765845216,22.332064017412808],[114.16501067549483,22.332085518251954],[114.16500218066722,22.332076050965266],[114.16495914938878,22.332109969116349]]]},"properties":{"OBJECTID":104632,"Shape__Length":116.26680247457452,"Shape__Area":705.09479699207543,"GeoRefNo":"3503721435","DateCreate":1114790400000,"BuildingBlockType":"Tower","BuildingCSUID":"3503721435T20050430","BuildingID":1108225903,"Status":"Active","BuildingNameEN":"Penta House","BuildingNameTC":"五聯大廈","BaseHeight":6.7000000000000002,"TopHeight":42.899999999999999,"Storeys":12,"StoreysInBasement":null,"DateStamp":1599580800000}},{"type":"Feature","id":104633,"geometry":{"type":"Polygon","coordinates":[[[114.16451705140068,22.332405085103787],[114.16449400470422,22.33242350997828],[114.16447439293125,22.332401626486227],[114.16449794280044,22.332383545537272],[114.16451705140068,22.332405085103787]]]},"properties":{"OBJECTID":104633,"Shape__Length":12.523726307159331,"Shape__Area":9.801898070246521,"GeoRefNo":"3499321484","DateCreate":1406476800000,"BuildingBlockType":"Tower","BuildingCSUID":"3499321484T20140728","BuildingID":1810130476,"Status":"Active","BuildingNameEN":null,"BuildingNameTC":null,"BaseHeight":7.9000000000000004,"TopHeight":12.800000000000001,"Storeys":null,"StoreysInBasement":null,"DateStamp":1406476800000}},{"type":"Feature","id":104634,"geometry":{"type":"Polygon","coordinates":[[[114.16420579174066,22.332059937402118],[114.16418163825603,22.332078688963456],[114.16416224835675,22.332057078173605],[114.16418719857711,22.33203833552723],[114.16420579174066,22.332059937402118]]]},"properties":{"OBJECTID":104634,"Shape__Length":12.726256301824266,"Shape__Area":10.113250276486934,"GeoRefNo":"3496121446","DateCreate":1406476800000,"BuildingBlockType":"Tower","BuildingCSUID":"3496121446T20140728","BuildingID":1810130479,"Status":"Active","BuildingNameEN":null,"BuildingNameTC":null,"BaseHeight":7.2999999999999998,"TopHeight":12.199999999999999,"Storeys":null,"StoreysInBasement":null,"DateStamp":1406476800000}},{"type":"Feature","id":106980,"geometry":{"type":"Polygon","coordinates":[[[114.15848131319562,22.329573907703612],[114.15848083637881,22.329581520611516],[114.1584807707215,22.329582570228709],[114.15847553454424,22.329587095492997],[114.15848189159284,22.329594124805602],[114.1584669288992,22.329605633491848],[114.15847286570998,22.329612198133706],[114.15845429716971,22.329626733010084],[114.15844836045623,22.329620168457843],[114.15844211113661,22.329613258450134],[114.15841882883745,22.329631488192351],[114.15839164467944,22.329601429336094],[114.15841492697713,22.329583199597728],[114.15838289951654,22.329547785415102],[114.15840146591859,22.32953324819858],[114.15840743397418,22.32953984734327],[114.15842228709327,22.329528217459593],[114.15844384704286,22.32955205721376],[114.1584483502856,22.329557036736372],[114.15845399063502,22.329552613203127],[114.15846293958934,22.329553459118817],[114.15848131319562,22.329573907703612]]]},"properties":{"OBJECTID":106980,"Shape__Length":40.123120917206201,"Shape__Area":66.868461565322704,"GeoRefNo":"3436821172","DateCreate":1114790400000,"BuildingBlockType":"Tower","BuildingCSUID":"3436821172T20050430","BuildingID":1108227689,"Status":"Active","BuildingNameEN":"Chi Fung Mansion","BuildingNameTC":"置豐閣","BaseHeight":9.5,"TopHeight":44.100000000000001,"Storeys":12,"StoreysInBasement":null,"DateStamp":1599580800000}},{"type":"Feature","id":107731,"geometry":{"type":"Polygon","coordinates":[[[114.16098277976171,22.333976759792669],[114.16087468617715,22.333855502477775],[114.16089092687328,22.333842980109068],[114.16093699251888,22.33389465570491],[114.16095405391292,22.333881500547502],[114.16095424336824,22.333881719015768],[114.16101507826454,22.333951856252689],[114.16098779404614,22.333972893570081],[114.16098277976171,22.333976759792669]]]},"properties":{"OBJECTID":107731,"Shape__Length":43.666650070507146,"Shape__Area":60.086089949168311,"GeoRefNo":"3462921652","DateCreate":1114790400000,"BuildingBlockType":"Tower","BuildingCSUID":"3462921652T20050430","BuildingID":1108225015,"Status":"Active","BuildingNameEN":null,"BuildingNameTC":null,"BaseHeight":5.9000000000000004,"TopHeight":26.5,"Storeys":6,"StoreysInBasement":null,"DateStamp":1599580800000}},{"type":"Feature","id":107767,"geometry":{"type":"Polygon","coordinates":[[[114.1609494382385,22.3340024678484],[114.160915640338,22.334028527683703],[114.16091479769838,22.33402917753163],[114.16088137319969,22.333991328267338],[114.16082520248798,22.333927721723189],[114.16078599838221,22.333883327769136],[114.16078728369847,22.333882336700146],[114.16079729586482,22.333874617178918],[114.16081306402245,22.333891953294046],[114.16083677209993,22.333874379602101],[114.16088790122758,22.333932507427217],[114.1609494382385,22.3340024678484]]]},"properties":{"OBJECTID":107767,"Shape__Length":51.013917876890645,"Shape__Area":89.307045659163578,"GeoRefNo":"3461921655","DateCreate":1114790400000,"BuildingBlockType":"Tower","BuildingCSUID":"3461921655T20050430","BuildingID":1108224991,"Status":"Active","BuildingNameEN":null,"BuildingNameTC":null,"BaseHeight":5.9000000000000004,"TopHeight":26.899999999999999,"Storeys":6,"StoreysInBasement":null,"DateStamp":1599580800000}},{"type":"Feature","id":107771,"geometry":{"type":"Polygon","coordinates":[[[114.16072725993287,22.333754971058362],[114.16066618839885,22.333686668250166],[114.16070145070195,22.333659351555031],[114.16074417553237,22.333707102907386],[114.16077895237765,22.333745971074723],[114.16079773760654,22.333766966319477],[114.16081098562795,22.333781772811033],[114.16083420832518,22.333807727541743],[114.1608309988241,22.333810193475795],[114.16082170931716,22.333817331049822],[114.16081556775842,22.333810191951578],[114.16080040807485,22.333792569988628],[114.16077634612211,22.333809869291393],[114.16073797989638,22.333766960396403],[114.16072725993287,22.333754971058362]]]},"properties":{"OBJECTID":107771,"Shape__Length":52.165201014113904,"Shape__Area":90.05185785922923,"GeoRefNo":"3460521631","DateCreate":1114790400000,"BuildingBlockType":"Tower","BuildingCSUID":"3460521631T20050430","BuildingID":1108225096,"Status":"Active","BuildingNameEN":null,"BuildingNameTC":null,"BaseHeight":5.7999999999999998,"TopHeight":26.899999999999999,"Storeys":6,"StoreysInBasement":null,"DateStamp":1599580800000}},{"type":"Feature","id":108068,"geometry":{"type":"Polygon","coordinates":[[[114.16289393323349,22.32984045696778],[114.16287196935777,22.329857655809043],[114.16286189540916,22.329846484381353],[114.16288379104076,22.3298293416155],[114.16289393323349,22.32984045696778]]]},"properties":{"OBJECTID":108068,"Shape__Length":9.1350644611213436,"Shape__Area":4.7678467020287574,"GeoRefNo":"3482621201","DateCreate":1114790400000,"BuildingBlockType":"Tower","BuildingCSUID":"3482621201T20050430","BuildingID":1108227463,"Status":"Active","BuildingNameEN":"YING WAI BUILDING","BuildingNameTC":"英偉樓","BaseHeight":4.7000000000000002,"TopHeight":7.2000000000000002,"Storeys":null,"StoreysInBasement":null,"DateStamp":1274198400000}},{"type":"Feature","id":108100,"geometry":{"type":"Polygon","coordinates":[[[114.16211265749301,22.330482761577574],[114.16214279350497,22.330516170781674],[114.16212294787775,22.330531062669102],[114.16209322865912,22.330497800697771],[114.16211265749301,22.330482761577574]]]},"properties":{"OBJECTID":108100,"Shape__Length":14.849750748493205,"Shape__Area":12.577368699604605,"GeoRefNo":"3474821274","DateCreate":1114790400000,"BuildingBlockType":"Tower","BuildingCSUID":"3474821274T20050430","BuildingID":1108226848,"Status":"Active","BuildingNameEN":"JACKSON BUILDING","BuildingNameTC":"積善大樓","BaseHeight":4.7000000000000002,"TopHeight":9.4000000000000004,"Storeys":null,"StoreysInBasement":null,"DateStamp":1274198400000}},{"type":"Feature","id":108119,"geometry":{"type":"Polygon","coordinates":[[[114.16528701746907,22.33365774514554],[114.16532240144328,22.333630685276109],[114.16532713917564,22.33363587449259],[114.16532727049893,22.333636018268724],[114.16536310978962,22.333608056899994],[114.16537344440835,22.333619748708212],[114.16532583877647,22.333669689130414],[114.16530887381802,22.333681684235863],[114.16530153941652,22.333673651105006],[114.1652936362395,22.333664995004032],[114.16528701746907,22.33365774514554]]]},"properties":{"OBJECTID":108119,"Shape__Length":25.053151008625001,"Shape__Area":25.966560278784144,"GeoRefNo":"3507721622","DateCreate":1114790400000,"BuildingBlockType":"Tower","BuildingCSUID":"3507721622T20050430","BuildingID":1108225152,"Status":"Active","BuildingNameEN":null,"BuildingNameTC":null,"BaseHeight":10.300000000000001,"TopHeight":15.6,"Storeys":null,"StoreysInBasement":null,"DateStamp":1274198400000}},{"type":"Feature","id":108135,"geometry":{"type":"Polygon","coordinates":[[[114.16089294315162,22.333681990022313],[114.16087229469971,22.333659025667934],[114.16080232411562,22.333581207325953],[114.16083673217591,22.333554552096704],[114.16087036800288,22.333527331560077],[114.16090876860574,22.333570747495319],[114.16095578139991,22.333623900583188],[114.16098584649565,22.333657892274459],[114.16098586027776,22.333657907808405],[114.16092964316402,22.333701258650429],[114.16090418309219,22.333672900134449],[114.16089294315162,22.333681990022313]]]},"properties":{"OBJECTID":108135,"Shape__Length":55.628632214574857,"Shape__Area":163.91784166000633,"GeoRefNo":"3461821615","DateCreate":1114790400000,"BuildingBlockType":"Tower","BuildingCSUID":"3461821615T20050430","BuildingID":1108225141,"Status":"Active","BuildingNameEN":null,"BuildingNameTC":"明興樓","BaseHeight":5.7999999999999998,"TopHeight":38.399999999999999,"Storeys":10,"StoreysInBasement":null,"DateStamp":1599580800000}},{"type":"Feature","id":108215,"geometry":{"type":"Polygon","coordinates":[[[114.16397972192772,22.330601198053635],[114.16401043633876,22.33057736923212],[114.16402083005866,22.330588712284115],[114.1639900805051,22.330612578039847],[114.16397972192772,22.330601198053635]]]},"properties":{"OBJECTID":108215,"Shape__Length":11.547394214554059,"Shape__Area":6.8060892288599941,"GeoRefNo":"3494121284","DateCreate":1114790400000,"BuildingBlockType":"Tower","BuildingCSUID":"3494121284T20050430","BuildingID":1108226785,"Status":"Active","BuildingNameEN":null,"BuildingNameTC":null,"BaseHeight":5.7000000000000002,"TopHeight":8.8000000000000007,"Storeys":null,"StoreysInBasement":null,"DateStamp":1274198400000}},{"type":"Feature","id":108217,"geometry":{"type":"Polygon","coordinates":[[[114.16206664925647,22.330518368950891],[114.16208764974418,22.330502116989134],[114.16210008398298,22.330515922718664],[114.16207897225672,22.330532162390281],[114.16206664925647,22.330518368950891]]]},"properties":{"OBJECTID":108217,"Shape__Length":9.6169107920169381,"Shape__Area":5.6089482441680341,"GeoRefNo":"3474421275","DateCreate":1114790400000,"BuildingBlockType":"Tower","BuildingCSUID":"3474421275T20050430","BuildingID":1108226846,"Status":"Active","BuildingNameEN":"JACKSON BUILDING","BuildingNameTC":"積善大樓","BaseHeight":4.7000000000000002,"TopHeight":9.4000000000000004,"Storeys":null,"StoreysInBasement":null,"DateStamp":1274198400000}},{"type":"Feature","id":108219,"geometry":{"type":"Polygon","coordinates":[[[114.16202955124798,22.330547096905239],[114.16204686201168,22.330533676060465],[114.16205923763555,22.33054733955608],[114.16204189620515,22.330560692579677],[114.16202955124798,22.330547096905239]]]},"properties":{"OBJECTID":108219,"Shape__Length":8.5898793190083609,"Shape__Area":4.5816260009885443,"GeoRefNo":"3474021278","DateCreate":1114790400000,"BuildingBlockType":"Tower","BuildingCSUID":"3474021278T20050430","BuildingID":1108226831,"Status":"Active","BuildingNameEN":"JACKSON BUILDING","BuildingNameTC":"積善大樓","BaseHeight":4.7000000000000002,"TopHeight":9.5999999999999996,"Storeys":null,"StoreysInBasement":null,"DateStamp":1274198400000}},{"type":"Feature","id":108224,"geometry":{"type":"Polygon","coordinates":[[[114.16284159969786,22.329881434688129],[114.16282160574306,22.329897089553196],[114.16281156975187,22.329885887692665],[114.16283158651865,22.329870215311477],[114.16284159969786,22.329881434688129]]]},"properties":{"OBJECTID":108224,"Shape__Length":8.6171128721608987,"Shape__Area":4.3498335954799829,"GeoRefNo":"3482121205","DateCreate":1114790400000,"BuildingBlockType":"Tower","BuildingCSUID":"3482121205T20050430","BuildingID":1108227424,"Status":"Active","BuildingNameEN":"YING WAI BUILDING","BuildingNameTC":"英偉樓","BaseHeight":4.7000000000000002,"TopHeight":7.2000000000000002,"Storeys":null,"StoreysInBasement":null,"DateStamp":1274198400000}},{"type":"Feature","id":108466,"geometry":{"type":"Polygon","coordinates":[[[114.15882979143527,22.330464514087623],[114.15885965990319,22.330498054363975],[114.15883189665871,22.330519532508657],[114.15870571601609,22.33037861662725],[114.1585861616352,22.330245100508428],[114.1585851516037,22.330243972384736],[114.15861278649083,22.33022263089984],[114.15882979143527,22.330464514087623]]]},"properties":{"OBJECTID":108466,"Shape__Length":86.846929359919116,"Shape__Area":147.64175533866035,"GeoRefNo":"3439621257","DateCreate":1192982400000,"BuildingBlockType":"Tower","BuildingCSUID":"3439621257T20071022","BuildingID":1108226860,"Status":"Active","BuildingNameEN":null,"BuildingNameTC":null,"BaseHeight":4.2999999999999998,"TopHeight":7.9000000000000004,"Storeys":null,"StoreysInBasement":null,"DateStamp":1274198400000}},{"type":"Feature","id":108689,"geometry":{"type":"Polygon","coordinates":[[[114.15810406438901,22.328975148186505],[114.15813019741086,22.329004599936106],[114.15812091903837,22.329011851236569],[114.15809500788836,22.328982566757556],[114.15810406438901,22.328975148186505]]]},"properties":{"OBJECTID":108689,"Shape__Length":10.920750103338012,"Shape__Area":5.2489022259945264,"GeoRefNo":"3433521106","DateCreate":1195574400000,"BuildingBlockType":"Temporary Structure","BuildingCSUID":"3433521106T20071121","BuildingID":1108228180,"Status":"Active","BuildingNameEN":null,"BuildingNameTC":"建新大樓","BaseHeight":null,"TopHeight":null,"Storeys":null,"StoreysInBasement":null,"DateStamp":1274198400000}},{"type":"Feature","id":108797,"geometry":{"type":"Polygon","coordinates":[[[114.16535484556398,22.331956728171885],[114.16532252916362,22.331980505565735],[114.16530619513046,22.331962137739851],[114.16527663064058,22.331928971641233],[114.16526854445789,22.331919556865117],[114.16530065777404,22.331894748987875],[114.16532368429831,22.331921086325437],[114.16535484556398,22.331956728171885]]]},"properties":{"OBJECTID":108797,"Shape__Length":26.137215078727017,"Shape__Area":37.657643802615041,"GeoRefNo":"3507721432","DateCreate":1554825600000,"BuildingBlockType":"Tower","BuildingCSUID":"3507721432T20190410","BuildingID":1810186643,"Status":"Active","BuildingNameEN":null,"BuildingNameTC":null,"BaseHeight":6.5999999999999996,"TopHeight":11.5,"Storeys":null,"StoreysInBasement":null,"DateStamp":1554825600000}},{"type":"Feature","id":110033,"geometry":{"type":"Polygon","coordinates":[[[114.16530065777404,22.331894748987875],[114.16532824022588,22.331873435256085],[114.16535170867746,22.331900096548015],[114.16532368429831,22.331921086325437],[114.16530065777404,22.331894748987875]]]},"properties":{"OBJECTID":110033,"Shape__Length":14.975687807362434,"Shape__Area":14.014600957549387,"GeoRefNo":"3507821428","DateCreate":1554825600000,"BuildingBlockType":"Tower","BuildingCSUID":"3507821428T20190410","BuildingID":1810186645,"Status":"Active","BuildingNameEN":null,"BuildingNameTC":null,"BaseHeight":6.5999999999999996,"TopHeight":11.4,"Storeys":null,"StoreysInBasement":null,"DateStamp":1554825600000}},{"type":"Feature","id":112134,"geometry":{"type":"Polygon","coordinates":[[[114.16384610523065,22.332330191986809],[114.16381307948375,22.332293470096474],[114.16384837831347,22.332265926137165],[114.16385448963736,22.332272408596278],[114.16388513310751,22.332248393767955],[114.16392352698902,22.332289970459705],[114.16393163882847,22.332283523813281],[114.16389387583479,22.332241515241169],[114.16391842585871,22.332222276916145],[114.1639286826675,22.332214239342825],[114.16392261199252,22.332207995296987],[114.16395610342818,22.33218185903737],[114.16408638109999,22.332326518274698],[114.16394267001418,22.332437563716592],[114.16391649122581,22.332408455170924],[114.16384610523065,22.332330191986809]]]},"properties":{"OBJECTID":112134,"Shape__Length":94.134265209352108,"Shape__Area":384.81627328386816,"GeoRefNo":"3493721474","DateCreate":1114790400000,"BuildingBlockType":"Tower","BuildingCSUID":"3493721474T20050430","BuildingID":1108225732,"Status":"Active","BuildingNameEN":"Man On Building","BuildingNameTC":"民安大廈","BaseHeight":7.0999999999999996,"TopHeight":45.899999999999999,"Storeys":11,"StoreysInBasement":null,"DateStamp":1599580800000}},{"type":"Feature","id":112137,"geometry":{"type":"Polygon","coordinates":[[[114.16496768929147,22.332396769132771],[114.16495032475245,22.332377526223638],[114.16492375383318,22.332348061194008],[114.1648788109695,22.332297754124003],[114.16486525516576,22.332282707274441],[114.16487685806084,22.332273662018103],[114.16487784560587,22.332272884287065],[114.16488155057434,22.332269966238073],[114.1648664950574,22.332252714100651],[114.16488963200418,22.332234801032708],[114.16487875009071,22.332222761925543],[114.16488450487931,22.332218412590329],[114.16501305437015,22.332361820942282],[114.16496768929147,22.332396769132771]]]},"properties":{"OBJECTID":112137,"Shape__Length":53.464669366560656,"Shape__Area":111.03537962760937,"GeoRefNo":"3503721473","DateCreate":1114790400000,"BuildingBlockType":"Tower","BuildingCSUID":"3503721473T20050430","BuildingID":1108225752,"Status":"Active","BuildingNameEN":null,"BuildingNameTC":null,"BaseHeight":8,"TopHeight":32.700000000000003,"Storeys":8,"StoreysInBasement":null,"DateStamp":1599580800000}},{"type":"Feature","id":112138,"geometry":{"type":"Polygon","coordinates":[[[114.16265418682997,22.332398055439313],[114.16254909333843,22.332279365699861],[114.16254373586526,22.332273315551873],[114.16252269624491,22.332249555955773],[114.1625600583543,22.332220669611925],[114.16260716038515,22.332273321130629],[114.16267157676434,22.332345326681573],[114.16269233624293,22.332368531936655],[114.16265418682997,22.332398055439313]]]},"properties":{"OBJECTID":112138,"Shape__Length":52.724364789020349,"Shape__Area":107.76146778587342,"GeoRefNo":"3479821473","DateCreate":1114790400000,"BuildingBlockType":"Tower","BuildingCSUID":"3479821473T20050430","BuildingID":1108225751,"Status":"Active","BuildingNameEN":"Pak Fook Building","BuildingNameTC":"百福大廈","BaseHeight":5.7000000000000002,"TopHeight":25.800000000000001,"Storeys":6,"StoreysInBasement":null,"DateStamp":1599580800000}},{"type":"Feature","id":112140,"geometry":{"type":"Polygon","coordinates":[[[114.15912368982285,22.332376717841321],[114.15904130677637,22.332284868546008],[114.15899937068512,22.332280525014792],[114.15896809375865,22.332304675571958],[114.15888325604975,22.332370183055023],[114.15878794501309,22.332266056209242],[114.15890679002231,22.332173682320327],[114.15890952442346,22.332139641580781],[114.15882642161267,22.332045446310676],[114.15894371111712,22.331958134220621],[114.15902833132533,22.332047003091279],[114.15906416292158,22.332049705631444],[114.15918266589605,22.331960329923579],[114.15927778764676,22.332062833815773],[114.15916246982681,22.332150869440028],[114.15915711812988,22.332193393676704],[114.15923999392514,22.332285966136496],[114.1592001363674,22.332317066915042],[114.15912368982285,22.332376717841321]]]},"properties":{"OBJECTID":112140,"Shape__Length":193.63737231261251,"Shape__Area":1327.8478781615513,"GeoRefNo":"3443121458","DateCreate":1114790400000,"BuildingBlockType":"Tower","BuildingCSUID":"3443121458T20050430","BuildingID":1108225768,"Status":"Active","BuildingNameEN":"Han Ching House","BuildingNameTC":"閒靜閣","BaseHeight":5.0999999999999996,"TopHeight":47.399999999999999,"Storeys":15,"StoreysInBasement":null,"DateStamp":1788105600000}},{"type":"Feature","id":112145,"geometry":{"type":"Polygon","coordinates":[[[114.16241121001248,22.332539109177244],[114.16230343416967,22.332419076917152],[114.16234021662913,22.332390637405759],[114.16244767528889,22.332511343385207],[114.16243312150493,22.332522440223801],[114.16245795412027,22.332549923746043],[114.16244125909979,22.332562843850024],[114.16241667240277,22.33253495008789],[114.16241121001248,22.332539109177244]]]},"properties":{"OBJECTID":112145,"Shape__Length":52.474876112614638,"Shape__Area":93.61296575230611,"GeoRefNo":"3477521491","DateCreate":1114790400000,"BuildingBlockType":"Tower","BuildingCSUID":"3477521491T20050430","BuildingID":1108225685,"Status":"Active","BuildingNameEN":null,"BuildingNameTC":null,"BaseHeight":5.5,"TopHeight":34.299999999999997,"Storeys":10,"StoreysInBasement":null,"DateStamp":1599580800000}},{"type":"Feature","id":112146,"geometry":{"type":"Polygon","coordinates":[[[114.16346955314818,22.332489710864653],[114.16335251868183,22.332359850105899],[114.16338867856521,22.332331837992712],[114.1634916732791,22.332445722746208],[114.16350527933005,22.332460767456777],[114.16346955314818,22.332489710864653]]]},"properties":{"OBJECTID":112146,"Shape__Length":47.151903978435172,"Shape__Area":91.007101480483101,"GeoRefNo":"3488221484","DateCreate":1114790400000,"BuildingBlockType":"Tower","BuildingCSUID":"3488221484T20050430","BuildingID":1108225705,"Status":"Active","BuildingNameEN":null,"BuildingNameTC":null,"BaseHeight":6.0999999999999996,"TopHeight":26.199999999999999,"Storeys":6,"StoreysInBasement":null,"DateStamp":1599580800000}},{"type":"Feature","id":112212,"geometry":{"type":"Polygon","coordinates":[[[114.16244767528889,22.332511343385207],[114.16234021662913,22.332390637405759],[114.16237859161151,22.332360969056339],[114.16251183698908,22.332508205792895],[114.16249714126648,22.332519591603244],[114.16248389832819,22.33250481026235],[114.16245915953067,22.332524243413072],[114.16244767528889,22.332511343385207]]]},"properties":{"OBJECTID":112212,"Shape__Length":53.100466257337487,"Shape__Area":104.32523253046101,"GeoRefNo":"3478121489","DateCreate":1114790400000,"BuildingBlockType":"Tower","BuildingCSUID":"3478121489T20050430","BuildingID":1108225695,"Status":"Active","BuildingNameEN":"WING KAI BUILDING","BuildingNameTC":"永佳樓","BaseHeight":5.5999999999999996,"TopHeight":25.199999999999999,"Storeys":6,"StoreysInBasement":null,"DateStamp":1599580800000}},{"type":"Feature","id":112326,"geometry":{"type":"Polygon","coordinates":[[[114.1607766213733,22.332382845765146],[114.16079299175701,22.332401136025705],[114.16077267497131,22.332416572963915],[114.16075614971157,22.332398739452685],[114.1607766213733,22.332382845765146]]]},"properties":{"OBJECTID":112326,"Shape__Length":10.692161774249136,"Shape__Area":7.1415481197440513,"GeoRefNo":"3461021483","DateCreate":1114790400000,"BuildingBlockType":"Tower","BuildingCSUID":"3461021483T20050430","BuildingID":1108225740,"Status":"Active","BuildingNameEN":null,"BuildingNameTC":null,"BaseHeight":5.0999999999999996,"TopHeight":13.300000000000001,"Storeys":null,"StoreysInBasement":null,"DateStamp":1361808000000}},{"type":"Feature","id":112327,"geometry":{"type":"Polygon","coordinates":[[[114.16501305437015,22.332361820942282],[114.16488450487931,22.332218412590329],[114.16489232786964,22.332212223155711],[114.16490306465921,22.332224341630102],[114.16492572292022,22.332206799226995],[114.16494060513074,22.332223394371603],[114.16495566069132,22.332211536698363],[114.16499276993972,22.33225248054115],[114.16501127172312,22.332272894072734],[114.1650593210677,22.332326062038987],[114.16501305437015,22.332361820942282]]]},"properties":{"OBJECTID":112327,"Shape__Length":53.712866027186038,"Shape__Area":113.62398029917983,"GeoRefNo":"3504221469","DateCreate":1114790400000,"BuildingBlockType":"Tower","BuildingCSUID":"3504221469T20050430","BuildingID":1108225776,"Status":"Active","BuildingNameEN":null,"BuildingNameTC":null,"BaseHeight":8,"TopHeight":32.700000000000003,"Storeys":8,"StoreysInBasement":null,"DateStamp":1599580800000}},{"type":"Feature","id":112330,"geometry":{"type":"Polygon","coordinates":[[[114.16069367727002,22.332361713466373],[114.16060715651041,22.332264148738993],[114.16058809618526,22.332242655404336],[114.16063868205745,22.332203598241311],[114.16076990315239,22.332351490565387],[114.16074652974216,22.332369766502037],[114.16072019090619,22.332341312592856],[114.16069367727002,22.332361713466373]]]},"properties":{"OBJECTID":112330,"Shape__Length":55.947627438935889,"Shape__Area":129.04292486026199,"GeoRefNo":"3459921471","DateCreate":1114790400000,"BuildingBlockType":"Tower","BuildingCSUID":"3459921471T20050430","BuildingID":1108225774,"Status":"Active","BuildingNameEN":"BAO HUA BUILDING","BuildingNameTC":"保華大廈","BaseHeight":5,"TopHeight":46.5,"Storeys":13,"StoreysInBasement":null,"DateStamp":1599580800000}},{"type":"Feature","id":112332,"geometry":{"type":"Polygon","coordinates":[[[114.16384825410093,22.332190031597627],[114.1637347816142,22.332063720503708],[114.16381153993038,22.332004257517781],[114.16391843477399,22.332125425209888],[114.1639298911559,22.332138411193398],[114.1639058807734,22.33215741819993],[114.16391880465869,22.332171241165046],[114.16388692808742,22.332195928769991],[114.16387455564157,22.332182189921184],[114.1638550648928,22.332197612953799],[114.16384825410093,22.332190031597627]]]},"properties":{"OBJECTID":112332,"Shape__Length":63.001727956892722,"Shape__Area":205.18029801600665,"GeoRefNo":"3492421450","DateCreate":1114790400000,"BuildingBlockType":"Tower","BuildingCSUID":"3492421450T20050430","BuildingID":1108225858,"Status":"Active","BuildingNameEN":null,"BuildingNameTC":null,"BaseHeight":6.0999999999999996,"TopHeight":27.5,"Storeys":6,"StoreysInBasement":null,"DateStamp":1599580800000}},{"type":"Feature","id":112334,"geometry":{"type":"Polygon","coordinates":[[[114.16102420577479,22.332252832280602],[114.16098745459662,22.332211973445514],[114.16111055789629,22.332116730875246],[114.16114735555175,22.332157853651267],[114.16102420577479,22.332252832280602]]]},"properties":{"OBJECTID":112334,"Shape__Length":44.798756295237062,"Shape__Area":97.477047569671214,"GeoRefNo":"3463921459","DateCreate":1114790400000,"BuildingBlockType":"Tower","BuildingCSUID":"3463921459T20050430","BuildingID":1108225828,"Status":"Active","BuildingNameEN":null,"BuildingNameTC":null,"BaseHeight":5.0999999999999996,"TopHeight":24.699999999999999,"Storeys":6,"StoreysInBasement":1,"DateStamp":1599580800000}},{"type":"Feature","id":112337,"geometry":{"type":"Polygon","coordinates":[[[114.15923626716344,22.332153687152765],[114.15929813554169,22.332107722967745],[114.15931906191601,22.332131336945846],[114.15932075760763,22.3321344302833],[114.15932186843817,22.332136933950991],[114.15932278745311,22.332139504153329],[114.15932351018887,22.332142127976102],[114.15932403305553,22.332144792505193],[114.15932435353095,22.332147484646008],[114.15932447006365,22.3321501911234],[114.15932438197585,22.332152898481759],[114.15932408975449,22.332155593446156],[114.15932359476022,22.332158262651507],[114.15932289961555,22.332160892913439],[114.15932200762239,22.332163471228231],[114.15932092315037,22.332165984953612],[114.15931965173398,22.332168421627941],[114.15931819939294,22.332170769241177],[114.1593165735059,22.332173016144683],[114.15931478203387,22.332175151322005],[114.1593128338114,22.332177164117994],[114.15931073854659,22.332179044690374],[114.15930850643277,22.332180783738757],[114.15930614853683,22.332182372685256],[114.15930367650799,22.33218380367455],[114.15930110257777,22.332185069573786],[114.15929843955999,22.332186164243538],[114.15929570036548,22.332187082176542],[114.15929289868144,22.33218781894934],[114.15929004829208,22.332188370860816],[114.15928716327271,22.332188735203367],[114.15928425789261,22.332188910082074],[114.15928134651804,22.332188894776095],[114.15927844341813,22.33218868928693],[114.1592755630559,22.332188294699829],[114.15927271950612,22.33218771282246],[114.15926992703746,22.332186946726722],[114.15926719914206,22.332185999936044],[114.15926454950589,22.332184877418733],[114.15926199113555,22.332183584413894],[114.15925953674618,22.332182127605577],[114.15925719827632,22.332180513948614],[114.15923626716344,22.332153687152765]]]},"properties":{"OBJECTID":112337,"Shape__Length":26.998543121819964,"Shape__Area":50.901912689279207,"GeoRefNo":"3445621456","DateCreate":1114790400000,"BuildingBlockType":"Tower","BuildingCSUID":"3445621456T20050430","BuildingID":1108225863,"Status":"Active","BuildingNameEN":null,"BuildingNameTC":null,"BaseHeight":5.2999999999999998,"TopHeight":8.5,"Storeys":null,"StoreysInBasement":null,"DateStamp":1361808000000}},{"type":"Feature","id":112338,"geometry":{"type":"Polygon","coordinates":[[[114.16251183698908,22.332508205792895],[114.16237859161151,22.332360969056339],[114.16241788259003,22.332330592510775],[114.16250495326111,22.332428370435039],[114.16253636459378,22.332463625160216],[114.16251461479979,22.332480681283002],[114.16252769131633,22.332495922353544],[114.16251183698908,22.332508205792895]]]},"properties":{"OBJECTID":112338,"Shape__Length":52.922838717729064,"Shape__Area":103.96518658241118,"GeoRefNo":"3478321485","DateCreate":1114790400000,"BuildingBlockType":"Tower","BuildingCSUID":"3478321485T20050430","BuildingID":1108225701,"Status":"Active","BuildingNameEN":"Wing Kai Building","BuildingNameTC":"永佳樓","BaseHeight":5.5999999999999996,"TopHeight":27.5,"Storeys":6,"StoreysInBasement":null,"DateStamp":1599580800000}},{"type":"Feature","id":112401,"geometry":{"type":"Polygon","coordinates":[[[114.1634916732791,22.332445722746208],[114.16338867856521,22.332331837992712],[114.16346412199245,22.332273394074992],[114.16348571959857,22.332256662912627],[114.1635793115278,22.332184159550039],[114.16360712376435,22.332215397604667],[114.16364190072446,22.332254458238836],[114.16365877412308,22.332273410012224],[114.16370273574988,22.332322786559171],[114.16365745349205,22.33235830268401],[114.16363549770031,22.332333833354479],[114.16361802969524,22.332347433248902],[114.16364040037583,22.33237170782493],[114.16359376843995,22.332408289520615],[114.16357154660845,22.332383585726998],[114.1635511363213,22.332399458279987],[114.16357337774834,22.332424281101016],[114.16354705134327,22.332444947684749],[114.1635245876309,22.332420118339922],[114.1634916732791,22.332445722746208]]]},"properties":{"OBJECTID":112401,"Shape__Length":105.22107605940532,"Shape__Area":475.96567837735608,"GeoRefNo":"3489321475","DateCreate":1114790400000,"BuildingBlockType":"Tower","BuildingCSUID":"3489321475T20050430","BuildingID":1108225729,"Status":"Active","BuildingNameEN":null,"BuildingNameTC":"元安大廈","BaseHeight":6.0999999999999996,"TopHeight":41.200000000000003,"Storeys":11,"StoreysInBasement":null,"DateStamp":1599580800000}},{"type":"Feature","id":112465,"geometry":{"type":"Polygon","coordinates":[[[114.1564976768629,22.329923068933127],[114.15648512733992,22.329909196745117],[114.15672555043174,22.329720940818376],[114.15677713824724,22.32977796558465],[114.15653669153683,22.329966240006026],[114.1564976768629,22.329923068933127]]]},"properties":{"OBJECTID":112465,"Shape__Length":81.257978748991448,"Shape__Area":267.20781986369866,"GeoRefNo":"3418321201","DateCreate":1571414400000,"BuildingBlockType":"Temporary Structure","BuildingCSUID":"3418321201T20191019","BuildingID":1810192660,"Status":"Active","BuildingNameEN":null,"BuildingNameTC":null,"BaseHeight":4.9000000000000004,"TopHeight":7.9000000000000004,"Storeys":null,"StoreysInBasement":null,"DateStamp":1571414400000}},{"type":"Feature","id":112914,"geometry":{"type":"Polygon","coordinates":[[[114.15849487267268,22.332484051852617],[114.15848671535083,22.332490399697832],[114.15846251567677,22.332463346036498],[114.15844512118115,22.332443899781406],[114.15841954859097,22.33241531084953],[114.15829214923035,22.332272884988019],[114.15826172476859,22.332238871980277],[114.15829937970084,22.332208768246829],[114.15825438319519,22.33215887555351],[114.15827874949541,22.332140030260032],[114.15805227601528,22.331886671211919],[114.15806069727199,22.331880162042168],[114.15804234857615,22.331859637471062],[114.15815015018413,22.331775985218442],[114.15816830245194,22.331796989369074],[114.15817804551504,22.331789458896427],[114.15827899244255,22.331902342711949],[114.15840031556634,22.33203801176106],[114.15838234858947,22.332052030143895],[114.15842268358048,22.332096056820937],[114.15843204041767,22.332106270114782],[114.15838626037045,22.332141203141269],[114.15850458752354,22.332272909149143],[114.15854329392802,22.332315991915291],[114.15858638877701,22.332363959174465],[114.15861223675221,22.332392728903383],[114.15860403051353,22.33239911395507],[114.15862364597378,22.332420676759067],[114.15859363086594,22.332443916561004],[114.15851412093463,22.332505478988796],[114.15849487267268,22.332484051852617]]]},"properties":{"OBJECTID":112914,"Shape__Length":222.76035169536664,"Shape__Area":1439.6989319176407,"GeoRefNo":"3435721449","DateCreate":1114790400000,"BuildingBlockType":"Tower","BuildingCSUID":"3435721449T20050430","BuildingID":1108225702,"Status":"Active","BuildingNameEN":"Lai Fu House","BuildingNameTC":"麗芙樓","BaseHeight":4.7999999999999998,"TopHeight":39.899999999999999,"Storeys":13,"StoreysInBasement":null,"DateStamp":1786636800000}},{"type":"Feature","id":112917,"geometry":{"type":"Polygon","coordinates":[[[114.15985860323018,22.332397027135755],[114.1597863942319,22.332317129631107],[114.15976465650513,22.332293077374352],[114.15972127981235,22.332286194027635],[114.15971263379856,22.332292693416292],[114.15961965174905,22.332362590460409],[114.15952646347257,22.332258270297068],[114.15962547530953,22.332181168175126],[114.159631015511,22.332146210485185],[114.15952812156807,22.332034234518595],[114.15964397015226,22.33194438191687],[114.15971266717679,22.332019176298004],[114.15974576467021,22.332055211353438],[114.15978535018117,22.332056556020923],[114.15988360271501,22.331985415196819],[114.15997572944134,22.332088094733404],[114.15996535446611,22.332096224698034],[114.15988388495391,22.332160065199574],[114.15988027739397,22.332204318185862],[114.15997384503945,22.332308708805179],[114.15996283294923,22.332317148090809],[114.15985860323018,22.332397027135755]]]},"properties":{"OBJECTID":112917,"Shape__Length":192.69813322109684,"Shape__Area":1321.1919344110561,"GeoRefNo":"3450621459","DateCreate":1114790400000,"BuildingBlockType":"Tower","BuildingCSUID":"3450621459T20050430","BuildingID":1108225753,"Status":"Active","BuildingNameEN":"Yat Ching House","BuildingNameTC":"逸靜閣","BaseHeight":5.0999999999999996,"TopHeight":47.5,"Storeys":15,"StoreysInBasement":null,"DateStamp":1788105600000}},{"type":"Feature","id":112918,"geometry":{"type":"Polygon","coordinates":[[[114.1607766213733,22.332382845765146],[114.16079637592058,22.332367508829556],[114.16081256983951,22.33238575283417],[114.16079299175701,22.332401136025705],[114.1607766213733,22.332382845765146]]]},"properties":{"OBJECTID":112918,"Shape__Length":10.546321738977493,"Shape__Area":6.9513068964313396,"GeoRefNo":"3461221481","DateCreate":1114790400000,"BuildingBlockType":"Tower","BuildingCSUID":"3461221481T20050430","BuildingID":1108225749,"Status":"Active","BuildingNameEN":null,"BuildingNameTC":null,"BaseHeight":5.2000000000000002,"TopHeight":13.300000000000001,"Storeys":null,"StoreysInBasement":null,"DateStamp":1361808000000}},{"type":"Feature","id":112920,"geometry":{"type":"Polygon","coordinates":[[[114.16090917030904,22.332530603458945],[114.16081902297459,22.3324298847409],[114.16079742134708,22.332405749916241],[114.16081689454211,22.332390835129985],[114.16083894379398,22.332414622951084],[114.16085554938041,22.332401435065883],[114.16087477652339,22.332423005054736],[114.16089301360056,22.332443464363198],[114.16092132921096,22.33247523022251],[114.16094557215263,22.332502427197714],[114.16090917030904,22.332530603458945]]]},"properties":{"OBJECTID":112920,"Shape__Length":45.724070610242087,"Shape__Area":80.138266956745696,"GeoRefNo":"3461921488","DateCreate":1114790400000,"BuildingBlockType":"Tower","BuildingCSUID":"3461921488T20050430","BuildingID":1108225693,"Status":"Active","BuildingNameEN":null,"BuildingNameTC":null,"BaseHeight":5.2000000000000002,"TopHeight":29,"Storeys":6,"StoreysInBasement":null,"DateStamp":1599580800000}},{"type":"Feature","id":112990,"geometry":{"type":"Polygon","coordinates":[[[114.16348074623922,22.331987931673964],[114.16346068539774,22.331965607328893],[114.16337850491584,22.331874153982223],[114.16342227416096,22.33184088362303],[114.16353556355615,22.331965613488755],[114.16355413720802,22.33198606277368],[114.1635569972244,22.331989211610065],[114.16351190491058,22.332022606157086],[114.16351134061442,22.332021978214481],[114.1635097970985,22.332020260471239],[114.16348074623922,22.331987931673964]]]},"properties":{"OBJECTID":112990,"Shape__Length":54.690910020615682,"Shape__Area":126.19087418819903,"GeoRefNo":"3488721432","DateCreate":1114790400000,"BuildingBlockType":"Tower","BuildingCSUID":"3488721432T20050430","BuildingID":1108225943,"Status":"Active","BuildingNameEN":"Un Chau Street Substation","BuildingNameTC":"元州街變電站","BaseHeight":5.9000000000000004,"TopHeight":10.9,"Storeys":null,"StoreysInBasement":null,"DateStamp":1361808000000}},{"type":"Feature","id":113066,"geometry":{"type":"Polygon","coordinates":[[[114.16314892085897,22.33220774200548],[114.16320058834415,22.332266335046128],[114.1631914655425,22.332273371358049],[114.16312778442791,22.332322487283815],[114.16308393266654,22.332273362272598],[114.16299637443436,22.332175275047451],[114.16305540730264,22.332129162619243],[114.16313511025818,22.332218465646115],[114.16314892085897,22.33220774200548]]]},"properties":{"OBJECTID":113066,"Shape__Length":61.972422698877317,"Shape__Area":183.78209150884777,"GeoRefNo":"3484821463","DateCreate":1114790400000,"BuildingBlockType":"Tower","BuildingCSUID":"3484821463T20050430","BuildingID":1108225795,"Status":"Active","BuildingNameEN":"Tung Tak Building","BuildingNameTC":"同德大廈","BaseHeight":5.7000000000000002,"TopHeight":42.200000000000003,"Storeys":11,"StoreysInBasement":null,"DateStamp":1599580800000}},{"type":"Feature","id":113192,"geometry":{"type":"Polygon","coordinates":[[[114.1650593210677,22.332326062038987],[114.16501127172312,22.332272894072734],[114.16499276993972,22.33225248054115],[114.1650063756651,22.332241984930011],[114.16495459328941,22.332184447227863],[114.16497299985225,22.332170196604448],[114.16496174537779,22.332158274692436],[114.16497172643278,22.332150412496965],[114.16508237262182,22.332272899242515],[114.16510119403111,22.332293752847125],[114.1650593210677,22.332326062038987]]]},"properties":{"OBJECTID":113192,"Shape__Length":52.687710595126759,"Shape__Area":93.501196615115305,"GeoRefNo":"3504821468","DateCreate":1114790400000,"BuildingBlockType":"Tower","BuildingCSUID":"3504821468T20050430","BuildingID":1108225792,"Status":"Active","BuildingNameEN":null,"BuildingNameTC":null,"BaseHeight":7.7999999999999998,"TopHeight":29.5,"Storeys":6,"StoreysInBasement":null,"DateStamp":1599580800000}},{"type":"Feature","id":113193,"geometry":{"type":"Polygon","coordinates":[[[114.16497172643278,22.332150412496965],[114.16498242212315,22.332142334883489],[114.16499354264062,22.33215429200359],[114.16501090942701,22.332140846376074],[114.16506306961169,22.332198250345069],[114.16507669130868,22.332188162188892],[114.16511169738588,22.332228134432548],[114.16514195517725,22.332262301559545],[114.16510119403111,22.332293752847125],[114.16508237262182,22.332272899242515],[114.16497172643278,22.332150412496965]]]},"properties":{"OBJECTID":113193,"Shape__Length":52.414737592019371,"Shape__Area":92.687453648091221,"GeoRefNo":"3505321464","DateCreate":1114790400000,"BuildingBlockType":"Tower","BuildingCSUID":"3505321464T20050430","BuildingID":1108225809,"Status":"Active","BuildingNameEN":null,"BuildingNameTC":null,"BaseHeight":8,"TopHeight":29.5,"Storeys":6,"StoreysInBasement":null,"DateStamp":1599580800000}},{"type":"Feature","id":113346,"geometry":{"type":"Polygon","coordinates":[[[114.16102420577479,22.332252832280602],[114.16114735555175,22.332157853651267],[114.16124442783094,22.332266335362085],[114.16112189721092,22.332361442629072],[114.16105047419671,22.332282036665365],[114.16108925794285,22.332251866560512],[114.16110845610622,22.332273182669628],[114.16111698679188,22.332282654407901],[114.1611298054689,22.332273184739339],[114.1611316781739,22.332271801345605],[114.16109732527687,22.332233141894619],[114.16104392123616,22.332274751329322],[114.16102420577479,22.332252832280602]]]},"properties":{"OBJECTID":113346,"Shape__Length":87.499297314095287,"Shape__Area":241.42313894065481,"GeoRefNo":"3464721470","DateCreate":1114790400000,"BuildingBlockType":"Tower","BuildingCSUID":"3464721470T20050430","BuildingID":1108225777,"Status":"Active","BuildingNameEN":null,"BuildingNameTC":"金寶樓","BaseHeight":5.0999999999999996,"TopHeight":32.899999999999999,"Storeys":8,"StoreysInBasement":null,"DateStamp":1599580800000}},{"type":"Feature","id":113755,"geometry":{"type":"Polygon","coordinates":[[[114.16276185895994,22.332542644944958],[114.16268946240083,22.332461237721368],[114.1626615646189,22.332429895380209],[114.16265849497991,22.33242640379936],[114.16267688249859,22.332412077939946],[114.16274290382505,22.332484946924925],[114.16275785194236,22.332473166748734],[114.162824647189,22.332547809282669],[114.16279032486364,22.332574654225954],[114.16276185895994,22.332542644944958]]]},"properties":{"OBJECTID":113755,"Shape__Length":51.722756226758506,"Shape__Area":76.082536610365196,"GeoRefNo":"3481421496","DateCreate":1114790400000,"BuildingBlockType":"Tower","BuildingCSUID":"3481421496T20050430","BuildingID":1108225681,"Status":"Active","BuildingNameEN":null,"BuildingNameTC":null,"BaseHeight":6,"TopHeight":20.699999999999999,"Storeys":null,"StoreysInBasement":null,"DateStamp":1361808000000}},{"type":"Feature","id":114999,"geometry":{"type":"Polygon","coordinates":[[[114.16005442134313,22.328752395861844],[114.15992337199422,22.32860776891431],[114.15998799554001,22.328557028727332],[114.16003687549522,22.328518649843669],[114.16007169498471,22.328557037402845],[114.16016855875135,22.328663826999673],[114.16005442134313,22.328752395861844]]]},"properties":{"OBJECTID":114999,"Shape__Length":72.595335056997058,"Shape__Area":321.29934738368962,"GeoRefNo":"3453421066","DateCreate":1114790400000,"BuildingBlockType":"Tower","BuildingCSUID":"3453421066T20050430","BuildingID":1108228380,"Status":"Active","BuildingNameEN":"Hong Kong Nang Yan College of Higher Education","BuildingNameTC":"香港能仁專上學院","BaseHeight":4.0999999999999996,"TopHeight":32.100000000000001,"Storeys":7,"StoreysInBasement":null,"DateStamp":1599580800000}},{"type":"Feature","id":115004,"geometry":{"type":"Polygon","coordinates":[[[114.15999909272119,22.328510005010404],[114.15986588450974,22.328362268106392],[114.15992066918156,22.328319523316338],[114.16004938326992,22.32846227789889],[114.16005362652773,22.328466983994879],[114.16002451369641,22.32848994909552],[114.16001166960095,22.328475664540036],[114.16000254698501,22.328482685323824],[114.1600156720761,22.328497054254814],[114.15999909272119,22.328510005010404]]]},"properties":{"OBJECTID":115004,"Shape__Length":61.565679077404695,"Shape__Area":154.64759613332154,"GeoRefNo":"3452621043","DateCreate":1114790400000,"BuildingBlockType":"Tower","BuildingCSUID":"3452621043T20050430","BuildingID":1108228576,"Status":"Active","BuildingNameEN":"Hong Kong Nang Yan College of Higher Education","BuildingNameTC":"香港能仁專上學院","BaseHeight":4.0999999999999996,"TopHeight":27.5,"Storeys":6,"StoreysInBasement":null,"DateStamp":1599580800000}},{"type":"Feature","id":124760,"geometry":{"type":"Polygon","coordinates":[[[114.16471800647697,22.327985836161464],[114.164657484016,22.328032882960638],[114.16464717065632,22.328041127380519],[114.16463978486993,22.328032881630481],[114.16461577774146,22.328005851734666],[114.16468606894682,22.327950268529474],[114.16471800647697,22.327985836161464]]]},"properties":{"OBJECTID":124760,"Shape__Length":29.233484627845108,"Shape__Area":48.472080796292488,"GeoRefNo":"3500920996","DateCreate":1114790400000,"BuildingBlockType":"Tower","BuildingCSUID":"3500920996T20050430","BuildingID":1108228968,"Status":"Active","BuildingNameEN":null,"BuildingNameTC":null,"BaseHeight":5,"TopHeight":25.5,"Storeys":6,"StoreysInBasement":null,"DateStamp":1599580800000}},{"type":"Feature","id":125075,"geometry":{"type":"Polygon","coordinates":[[[114.15899198992361,22.328673349336864],[114.15901500443573,22.328699000441802],[114.15900009817182,22.328710571044287],[114.15900942839986,22.328720970155423],[114.15896948037995,22.328751978950169],[114.15896009841147,22.328741619926859],[114.15894519194434,22.328753190704813],[114.15893478947073,22.328741704911803],[114.1589220499756,22.328727638551236],[114.15893062127901,22.328720985312422],[114.15891983215208,22.328709072419404],[114.15892616741195,22.328704154792494],[114.15891537828669,22.328692241899176],[114.15895562412969,22.328661002057739],[114.15896635384566,22.328672960997881],[114.15897268900521,22.328668043459405],[114.15898341882021,22.328680002398421],[114.15899198992361,22.328673349336864]]]},"properties":{"OBJECTID":125075,"Shape__Length":36.059864020144637,"Shape__Area":64.268448957365649,"GeoRefNo":"3442421076","DateCreate":1114790400000,"BuildingBlockType":"Tower","BuildingCSUID":"3442421076T20050430","BuildingID":1108228379,"Status":"Active","BuildingNameEN":"Tak Fu Building","BuildingNameTC":"德富大廈","BaseHeight":11.1,"TopHeight":51.100000000000001,"Storeys":13,"StoreysInBasement":null,"DateStamp":1599580800000}},{"type":"Feature","id":127740,"geometry":{"type":"Polygon","coordinates":[[[114.16414662892159,22.332187578136331],[114.16418054196951,22.332161517087986],[114.16419912692562,22.332147235139953],[114.16422475153615,22.33217552605938],[114.16413622511064,22.332273448113732],[114.16410256193579,22.332310684063206],[114.16408072157552,22.332286323982586],[114.16406917284581,22.33227344284774],[114.16406592681329,22.332269822322903],[114.16408072408321,22.332258735109463],[114.16410064255162,22.332243810752029],[114.16409011303631,22.332231008535604],[114.16410195040224,22.332221911969153],[114.16410429448013,22.332220110642822],[114.16414662892159,22.332187578136331]]]},"properties":{"OBJECTID":127740,"Shape__Length":50.489143145713257,"Shape__Area":104.61477305785064,"GeoRefNo":"3495921460","DateCreate":1114790400000,"BuildingBlockType":"Tower","BuildingCSUID":"3495921460T20050430","BuildingID":1108225800,"Status":"Active","BuildingNameEN":null,"BuildingNameTC":null,"BaseHeight":7.7000000000000002,"TopHeight":37.299999999999997,"Storeys":10,"StoreysInBasement":null,"DateStamp":1599580800000}},{"type":"Feature","id":134847,"geometry":{"type":"Polygon","coordinates":[[[114.16143440197739,22.332478109508902],[114.16135628272045,22.33253874223022],[114.16135318654305,22.332541152105939],[114.16134056215012,22.332527234505751],[114.16127561978031,22.332577711663596],[114.16127171620965,22.332580750711038],[114.16121054526192,22.33251217536521],[114.16122123937224,22.332503916395318],[114.16133215056446,22.332418248331596],[114.1613613681084,22.332395681085444],[114.16136183262125,22.332396205354922],[114.16143440197739,22.332478109508902]]]},"properties":{"OBJECTID":134847,"Shape__Length":64.047456410214338,"Shape__Area":220.51633633258348,"GeoRefNo":"3466321492","DateCreate":1114790400000,"BuildingBlockType":"Tower","BuildingCSUID":"3466321492T20050430","BuildingID":1108225680,"Status":"Active","BuildingNameEN":"Tak Po Building","BuildingNameTC":"德寶大廈","BaseHeight":5.0999999999999996,"TopHeight":43.200000000000003,"Storeys":13,"StoreysInBasement":null,"DateStamp":1599580800000}},{"type":"Feature","id":134848,"geometry":{"type":"Polygon","coordinates":[[[114.16339971192069,22.332552323311702],[114.16327799563584,22.332417581083714],[114.16335251868183,22.332359850105899],[114.16346955314818,22.332489710864653],[114.16347377004796,22.332494392755063],[114.16339971192069,22.332552323311702]]]},"properties":{"OBJECTID":134848,"Shape__Length":58.890579305173816,"Shape__Area":194.25726595427398,"GeoRefNo":"3487621488","DateCreate":1114790400000,"BuildingBlockType":"Tower","BuildingCSUID":"3487621488T20050430","BuildingID":1108225688,"Status":"Active","BuildingNameEN":null,"BuildingNameTC":null,"BaseHeight":6.2999999999999998,"TopHeight":36.399999999999999,"Storeys":9,"StoreysInBasement":null,"DateStamp":1599580800000}},{"type":"Feature","id":135613,"geometry":{"type":"Polygon","coordinates":[[[114.15968926050228,22.333471070538049],[114.15967080581694,22.33345078066796],[114.15940609360817,22.333159795305466],[114.15971255681607,22.332923507196718],[114.16007596569571,22.332639392218578],[114.16035791927442,22.332954813471037],[114.16021357864983,22.333066223889162],[114.15971534756888,22.333450785378197],[114.15971249220668,22.333452914125807],[114.15968926050228,22.333471070538049]]]},"properties":{"OBJECTID":135613,"Shape__Length":270.00821143185846,"Shape__Area":4055.7394409921262,"GeoRefNo":"3452121554","DateCreate":1114790400000,"BuildingBlockType":"Tower","BuildingCSUID":"3452121554T20050430","BuildingID":1108225248,"Status":"Active","BuildingNameEN":"CLP Power Hong Kong Ltd Sham Shui Po Centre","BuildingNameTC":"中華電力有限公司深水埗中心","BaseHeight":4.9000000000000004,"TopHeight":44.899999999999999,"Storeys":9,"StoreysInBasement":1,"DateStamp":1599580800000}},{"type":"Feature","id":135614,"geometry":{"type":"Polygon","coordinates":[[[114.15811310392118,22.333371780955297],[114.15808498833681,22.333342950021812],[114.15809190455849,22.333337624947649],[114.15808012788892,22.333324740020256],[114.15810191194991,22.333307599611285],[114.15803107973105,22.333230608526492],[114.15810505096115,22.333172478044059],[114.1581011624569,22.333168181477468],[114.15813875402405,22.333138594597646],[114.15814268378126,22.333142904352741],[114.15818008010028,22.333113516474668],[114.15820226126479,22.333096085493388],[114.1582297945978,22.333074448137932],[114.15824053253419,22.333066009571635],[114.15827589344956,22.333038220933794],[114.15829699108943,22.333021641489211],[114.15833257458496,22.332993677580738],[114.1583284264465,22.332989171480445],[114.15836627892,22.332960446906931],[114.15846170922426,22.333064531290766],[114.15847967133904,22.333050026332835],[114.15849440899868,22.333066038494902],[114.15850217769784,22.333074479172108],[114.15852664419535,22.333101061640104],[114.15850825345679,22.333115295998557],[114.15858086885089,22.333194495866074],[114.15825609672568,22.333450624695097],[114.15824281141519,22.333460906020601],[114.15823352391554,22.333450622106323],[114.15815102831512,22.333360986926422],[114.15812907911466,22.333378293756425],[114.15811897731935,22.333367242413239],[114.15811310392118,22.333371780955297]]]},"properties":{"OBJECTID":135614,"Shape__Length":173.44708484105414,"Shape__Area":1582.2438571568352,"GeoRefNo":"3434921586","DateCreate":1114790400000,"BuildingBlockType":"Tower","BuildingCSUID":"3434921586T20050430","BuildingID":1108225251,"Status":"Active","BuildingNameEN":null,"BuildingNameTC":null,"BaseHeight":5.0999999999999996,"TopHeight":16.199999999999999,"Storeys":null,"StoreysInBasement":null,"DateStamp":1361808000000}},{"type":"Feature","id":135687,"geometry":{"type":"Polygon","coordinates":[[[114.15790978502775,22.329614137176574],[114.15786456478793,22.329564205863356],[114.15790028268826,22.329536372545068],[114.15788151938821,22.32951565455685],[114.1579187258494,22.329486661249362],[114.15793748905402,22.329507379233338],[114.15797023074408,22.329481865148001],[114.15795146744098,22.329461147167716],[114.15799016215739,22.329430994219194],[114.15800892536511,22.329451712195077],[114.15804315521581,22.329425038289219],[114.15808837518327,22.329474969192223],[114.15805414532898,22.329501643107438],[114.15807897471647,22.329529059219077],[114.15804028018617,22.329559212369045],[114.15801545080093,22.329531796251615],[114.15798270920445,22.329557310436247],[114.15800753858784,22.32958472646833],[114.15797033221601,22.32961371988614],[114.15794550283482,22.329586303758191],[114.15790978502775,22.329614137176574]]]},"properties":{"OBJECTID":135687,"Shape__Length":90.339864597149798,"Shape__Area":244.61472204825276,"GeoRefNo":"3431021170","DateCreate":1114790400000,"BuildingBlockType":"Tower","BuildingCSUID":"3431021170T20050430","BuildingID":1108227706,"Status":"Active","BuildingNameEN":"Po Wing Building Block B","BuildingNameTC":"寶榮大樓Ｂ座","BaseHeight":14,"TopHeight":45.200000000000003,"Storeys":10,"StoreysInBasement":null,"DateStamp":1599580800000}},{"type":"Feature","id":136015,"geometry":{"type":"Polygon","coordinates":[[[114.15945460842048,22.33381005174169],[114.15943376971282,22.333786481232313],[114.15950383667457,22.333731783663715],[114.15954656351623,22.333779775364125],[114.15950733733509,22.333810057386799],[114.15947600093716,22.333834248668545],[114.15945460842048,22.33381005174169]]]},"properties":{"OBJECTID":136015,"Shape__Length":32.618247858551548,"Shape__Area":64.857504663764885,"GeoRefNo":"3447721635","DateCreate":1114790400000,"BuildingBlockType":"Tower","BuildingCSUID":"3447721635T20050430","BuildingID":1108225090,"Status":"Active","BuildingNameEN":"KOWLOON TECHNICAL SCHOOL","BuildingNameTC":"九龍工業學校","BaseHeight":5.5,"TopHeight":9.4000000000000004,"Storeys":null,"StoreysInBasement":null,"DateStamp":1361808000000}},{"type":"Feature","id":136354,"geometry":{"type":"Polygon","coordinates":[[[114.15832165072875,22.328481592087645],[114.15827824357862,22.328433346106724],[114.15823132512608,22.328469834674351],[114.15819536462945,22.328429535175157],[114.15823557950098,22.328398258843809],[114.15818473802931,22.328341282118714],[114.15820091126139,22.328328704916476],[114.15819099115143,22.328317587759102],[114.15821876872864,22.32829600586809],[114.15827772874945,22.328362080200286],[114.15829035307668,22.328352262600358],[114.15834918562906,22.328418193937413],[114.15833656139708,22.328428011541849],[114.15835897813895,22.328452736495706],[114.15832165072875,22.328481592087645]]]},"properties":{"OBJECTID":136354,"Shape__Length":71.13761948205098,"Shape__Area":170.79213990538966,"GeoRefNo":"3434921037","DateCreate":1114790400000,"BuildingBlockType":"Tower","BuildingCSUID":"3434921037T20050430","BuildingID":1109261315,"Status":"Active","BuildingNameEN":"Kent Place","BuildingNameTC":"金濤閣","BaseHeight":18.899999999999999,"TopHeight":91.599999999999994,"Storeys":24,"StoreysInBasement":null,"DateStamp":1599580800000}},{"type":"Feature","id":136491,"geometry":{"type":"Polygon","coordinates":[[[114.15781719840341,22.334904816657655],[114.15778322471564,22.334934945716007],[114.15769510620413,22.334848948981474],[114.15772907988999,22.334818819941297],[114.15781719840341,22.334904816657655]]]},"properties":{"OBJECTID":136491,"Shape__Length":35.983466266086992,"Shape__Area":63.615589325570511,"GeoRefNo":"3429821758","DateCreate":1114790400000,"BuildingBlockType":"Tower","BuildingCSUID":"3429821758T20050430","BuildingID":1108224470,"Status":"Active","BuildingNameEN":null,"BuildingNameTC":null,"BaseHeight":5.0999999999999996,"TopHeight":7.7000000000000002,"Storeys":null,"StoreysInBasement":null,"DateStamp":1361808000000}},{"type":"Feature","id":136914,"geometry":{"type":"Polygon","coordinates":[[[114.16491982908259,22.333177668270906],[114.16498681659724,22.333125376013683],[114.16510132446842,22.333250539497101],[114.16503293904687,22.333303923044525],[114.16491982908259,22.333177668270906]]]},"properties":{"OBJECTID":136914,"Shape__Length":54.605719106789458,"Shape__Area":165.66704173988455,"GeoRefNo":"3504521573","DateCreate":1114790400000,"BuildingBlockType":"Tower","BuildingCSUID":"3504521573T20050430","BuildingID":1108225321,"Status":"Active","BuildingNameEN":"Shek Kip Mei Estate Block 24B Substation","BuildingNameTC":"石硤尾邨二十四座Ｂ變電站","BaseHeight":9.3000000000000007,"TopHeight":13.4,"Storeys":null,"StoreysInBasement":null,"DateStamp":1361808000000}},{"type":"Feature","id":136919,"geometry":{"type":"Polygon","coordinates":[[[114.16025708808169,22.333250772377557],[114.16029465018724,22.333221233037378],[114.16042286594075,22.333362343082097],[114.16040489149822,22.333376562435895],[114.16041569835485,22.333389590953271],[114.16039536831259,22.333405578706156],[114.16028780178999,22.333285156825344],[114.16025708808169,22.333250772377557]]]},"properties":{"OBJECTID":136919,"Shape__Length":54.81186032308878,"Shape__Area":110.51183051115365,"GeoRefNo":"3456421584","DateCreate":1114790400000,"BuildingBlockType":"Tower","BuildingCSUID":"3456421584T20050430","BuildingID":1108225283,"Status":"Active","BuildingNameEN":"Chit Tak Building","BuildingNameTC":"捷德樓","BaseHeight":5.4000000000000004,"TopHeight":25,"Storeys":6,"StoreysInBasement":null,"DateStamp":1599580800000}},{"type":"Feature","id":137546,"geometry":{"type":"Polygon","coordinates":[[[114.16187544340104,22.334712874090904],[114.161907386842,22.33468787750823],[114.16194868299594,22.334734177914498],[114.16179984554248,22.334850647785455],[114.16178066279183,22.334829789797041],[114.16176763776174,22.334815627377736],[114.16186041365744,22.334742547902163],[114.1618509286799,22.334732057468468],[114.16187544340104,22.334712874090904]]]},"properties":{"OBJECTID":137546,"Shape__Length":53.443421032088033,"Shape__Area":114.54243499828627,"GeoRefNo":"3472021747","DateCreate":1114790400000,"BuildingBlockType":"Tower","BuildingCSUID":"3472021747T20050430","BuildingID":1108224529,"Status":"Active","BuildingNameEN":null,"BuildingNameTC":"松鳴樓","BaseHeight":8.3000000000000007,"TopHeight":40.299999999999997,"Storeys":10,"StoreysInBasement":null,"DateStamp":1599580800000}},{"type":"Feature","id":137927,"geometry":{"type":"Polygon","coordinates":[[[114.16327799563584,22.332417581083714],[114.16339971192069,22.332552323311702],[114.16341099176898,22.332564810286737],[114.16338073968147,22.332588257755869],[114.16337066736389,22.332596064397528],[114.16336369148658,22.33258825634012],[114.16335193286507,22.332575094647407],[114.16323852638752,22.332448156675945],[114.16327799563584,22.332417581083714]]]},"properties":{"OBJECTID":137927,"Shape__Length":53.291577511271981,"Shape__Area":113.91746071579855,"GeoRefNo":"3487221495","DateCreate":1114790400000,"BuildingBlockType":"Tower","BuildingCSUID":"3487221495T20050430","BuildingID":1108225673,"Status":"Active","BuildingNameEN":null,"BuildingNameTC":null,"BaseHeight":6.2999999999999998,"TopHeight":27.600000000000001,"Storeys":6,"StoreysInBasement":null,"DateStamp":1599580800000}},{"type":"Feature","id":137932,"geometry":{"type":"Polygon","coordinates":[[[114.16250495326111,22.332428370435039],[114.16241788259003,22.332330592510775],[114.16249197200101,22.332273310980369],[114.16251751441256,22.332253563088969],[114.16253499144129,22.332273314780778],[114.16254392412088,22.332283409950676],[114.16254909333843,22.332279365699861],[114.16265418682997,22.332398055439313],[114.16264285346618,22.332406823682351],[114.16262216336898,22.33238386767113],[114.16259099489722,22.332407907951161],[114.16261228665874,22.332430527991203],[114.16258957070421,22.332448076657474],[114.16256917739427,22.332424671845882],[114.16255304729273,22.332437091085019],[114.16257398917462,22.332460126776784],[114.16256214566531,22.33246928183927],[114.16251706174333,22.332418507763876],[114.16250495326111,22.332428370435039]]]},"properties":{"OBJECTID":137932,"Shape__Length":84.160393260187661,"Shape__Area":262.73775357423727,"GeoRefNo":"3479021478","DateCreate":1114790400000,"BuildingBlockType":"Tower","BuildingCSUID":"3479021478T20050430","BuildingID":1108225712,"Status":"Active","BuildingNameEN":null,"BuildingNameTC":null,"BaseHeight":5.7000000000000002,"TopHeight":36.399999999999999,"Storeys":10,"StoreysInBasement":null,"DateStamp":1599580800000}},{"type":"Feature","id":137934,"geometry":{"type":"Polygon","coordinates":[[[114.16081902297459,22.3324298847409],[114.16090917030904,22.332530603458945],[114.16087192135397,22.332559435338851],[114.16086791010741,22.332554959207989],[114.16078205418606,22.332458559857336],[114.16081902297459,22.3324298847409]]]},"properties":{"OBJECTID":137934,"Shape__Length":38.972156557538781,"Shape__Area":72.208227421859476,"GeoRefNo":"3461621493","DateCreate":1114790400000,"BuildingBlockType":"Tower","BuildingCSUID":"3461621493T20050430","BuildingID":1108225686,"Status":"Active","BuildingNameEN":null,"BuildingNameTC":null,"BaseHeight":5.0999999999999996,"TopHeight":24.399999999999999,"Storeys":6,"StoreysInBasement":null,"DateStamp":1599580800000}},{"type":"Feature","id":137936,"geometry":{"type":"Polygon","coordinates":[[[114.16237463919893,22.33256696191604],[114.16226768138597,22.332446718751221],[114.16230343416967,22.332419076917152],[114.16241121001248,22.332539109177244],[114.16240616495091,22.332542973003623],[114.16243133069823,22.332570519863893],[114.16241310215382,22.332584637464119],[114.16238830522749,22.332556550514969],[114.16237463919893,22.33256696191604]]]},"properties":{"OBJECTID":137936,"Shape__Length":52.355673178656637,"Shape__Area":93.220535021934168,"GeoRefNo":"3477121494","DateCreate":1114790400000,"BuildingBlockType":"Tower","BuildingCSUID":"3477121494T20050430","BuildingID":1108225678,"Status":"Active","BuildingNameEN":null,"BuildingNameTC":null,"BaseHeight":5.5,"TopHeight":33.700000000000003,"Storeys":10,"StoreysInBasement":null,"DateStamp":1599580800000}},{"type":"Feature","id":137991,"geometry":{"type":"Polygon","coordinates":[[[114.15968926050228,22.333471070538049],[114.15951527303164,22.333605933392821],[114.15937640819666,22.333450749227929],[114.1593634701602,22.333436290600222],[114.15926020928313,22.333320894290264],[114.15923446428594,22.333292123595314],[114.15940609360817,22.333159795305466],[114.15967080581694,22.33345078066796],[114.15968926050228,22.333471070538049]]]},"properties":{"OBJECTID":137991,"Shape__Length":136.66558048724082,"Shape__Area":1045.8996114748227,"GeoRefNo":"3448021608","DateCreate":1114790400000,"BuildingBlockType":"Tower","BuildingCSUID":"3448021608T20050430","BuildingID":1108225191,"Status":"Active","BuildingNameEN":null,"BuildingNameTC":null,"BaseHeight":4.9000000000000004,"TopHeight":33.100000000000001,"Storeys":7,"StoreysInBasement":null,"DateStamp":1599580800000}},{"type":"Feature","id":138130,"geometry":{"type":"Polygon","coordinates":[[[114.1642664656932,22.332856875880907],[114.16427581911508,22.332849837178884],[114.16425395274635,22.332825221104265],[114.16427717122156,22.332807174207911],[114.16432621303028,22.332860015648183],[114.16434308896964,22.332846833387272],[114.16436267556703,22.33286848480618],[114.16431225715429,22.332907591274687],[114.16429059950934,22.332883604833274],[114.1642664656932,22.332856875880907]]]},"properties":{"OBJECTID":138130,"Shape__Length":35.123839748792598,"Shape__Area":51.008145868011304,"GeoRefNo":"3497321534","DateCreate":1114790400000,"BuildingBlockType":"Tower","BuildingCSUID":"3497321534T20050430","BuildingID":1108225523,"Status":"Active","BuildingNameEN":null,"BuildingNameTC":null,"BaseHeight":9,"TopHeight":26.5,"Storeys":5,"StoreysInBasement":null,"DateStamp":1599580800000}},{"type":"Feature","id":138131,"geometry":{"type":"Polygon","coordinates":[[[114.16303825089732,22.332819568123707],[114.16292532035622,22.332692445211801],[114.16300787420086,22.332628781541139],[114.16306687144636,22.332694367443498],[114.16312209026421,22.332755752701239],[114.16309263667698,22.332778172232683],[114.16311113557614,22.332799158789179],[114.16309932740836,22.3328082931232],[114.16308089404998,22.332787116025706],[114.16307259956912,22.332793424987582],[114.16309136317189,22.332814436944687],[114.16307964974959,22.332823481882546],[114.1630610112914,22.332802244712081],[114.16303825089732,22.332819568123707]]]},"properties":{"OBJECTID":138131,"Shape__Length":70.93095744829526,"Shape__Area":212.61313659098192,"GeoRefNo":"3484021519","DateCreate":1114790400000,"BuildingBlockType":"Tower","BuildingCSUID":"3484021519T20050430","BuildingID":1108225567,"Status":"Active","BuildingNameEN":null,"BuildingNameTC":null,"BaseHeight":6.2999999999999998,"TopHeight":35.200000000000003,"Storeys":9,"StoreysInBasement":null,"DateStamp":1599580800000}},{"type":"Feature","id":138340,"geometry":{"type":"Polygon","coordinates":[[[114.1626565277142,22.332899728808371],[114.16274563728626,22.332999164066933],[114.16275969151043,22.333014861969499],[114.16271990186308,22.333046243113504],[114.16271081624809,22.333053408628484],[114.16267356611009,22.333082786909458],[114.1625700146669,22.332966442388777],[114.1626565277142,22.332899728808371]]]},"properties":{"OBJECTID":138340,"Shape__Length":56.532773003049243,"Shape__Area":193.35286292545734,"GeoRefNo":"3480421549","DateCreate":1114790400000,"BuildingBlockType":"Tower","BuildingCSUID":"3480421549T20050430","BuildingID":1108225443,"Status":"Active","BuildingNameEN":null,"BuildingNameTC":null,"BaseHeight":6.0999999999999996,"TopHeight":36.299999999999997,"Storeys":10,"StoreysInBasement":null,"DateStamp":1599580800000}},{"type":"Feature","id":138358,"geometry":{"type":"Polygon","coordinates":[[[114.16415741936547,22.332865346291385],[114.16417142731572,22.33285437225225],[114.16417831211356,22.332862068107765],[114.16425222168009,22.332944684065055],[114.16425721994447,22.332950271040161],[114.1642522208314,22.33295414802171],[114.16422158709686,22.332977906088416],[114.16414823725009,22.332894003935873],[114.16416914067672,22.332877860790994],[114.16415741936547,22.332865346291385]]]},"properties":{"OBJECTID":138358,"Shape__Length":37.094524062611811,"Shape__Area":59.837278610399544,"GeoRefNo":"3496221541","DateCreate":1114790400000,"BuildingBlockType":"Tower","BuildingCSUID":"3496221541T20050430","BuildingID":1108225490,"Status":"Active","BuildingNameEN":"Cheung Hing Court","BuildingNameTC":"長興閣","BaseHeight":9.4000000000000004,"TopHeight":27.899999999999999,"Storeys":6,"StoreysInBasement":null,"DateStamp":1599580800000}},{"type":"Feature","id":138790,"geometry":{"type":"Polygon","coordinates":[[[114.16130372227362,22.33272671873884],[114.16136928671045,22.332799612889985],[114.161436289421,22.332873991958472],[114.1614017518465,22.332900772559203],[114.1612691331664,22.332753500480845],[114.16130372227362,22.33272671873884]]]},"properties":{"OBJECTID":138790,"Shape__Length":51.814063459566199,"Shape__Area":98.535232343092488,"GeoRefNo":"3467021530","DateCreate":1114790400000,"BuildingBlockType":"Tower","BuildingCSUID":"3467021530T20050430","BuildingID":1108225528,"Status":"Active","BuildingNameEN":"Wing Pont House","BuildingNameTC":"永邦樓","BaseHeight":5.5,"TopHeight":27.800000000000001,"Storeys":6,"StoreysInBasement":null,"DateStamp":1599580800000}},{"type":"Feature","id":138791,"geometry":{"type":"Polygon","coordinates":[[[114.16292477930308,22.332912660357895],[114.1628082150979,22.332782756087106],[114.16284774431983,22.332752268654311],[114.16296396534969,22.332882655191057],[114.16294286259588,22.332898820649465],[114.16295895584335,22.332916692640975],[114.16294431516037,22.332927997220818],[114.16292821639027,22.332910027335878],[114.16292477930308,22.332912660357895]]]},"properties":{"OBJECTID":138791,"Shape__Length":53.192003086138001,"Shape__Area":103.65595009342447,"GeoRefNo":"3482621530","DateCreate":1114790400000,"BuildingBlockType":"Tower","BuildingCSUID":"3482621530T20050430","BuildingID":1108225510,"Status":"Active","BuildingNameEN":null,"BuildingNameTC":null,"BaseHeight":6.2999999999999998,"TopHeight":40.600000000000001,"Storeys":10,"StoreysInBasement":null,"DateStamp":1599580800000}},{"type":"Feature","id":138792,"geometry":{"type":"Polygon","coordinates":[[[114.16296396534969,22.332882655191057],[114.16284774431983,22.332752268654311],[114.16288489214453,22.332723620445595],[114.1629901822478,22.332841198765145],[114.1629733752966,22.332854366261476],[114.16298782719721,22.332870330038801],[114.16296705083153,22.332886116424529],[114.16296396534969,22.332882655191057]]]},"properties":{"OBJECTID":138792,"Shape__Length":48.510248043404317,"Shape__Area":90.970319040041332,"GeoRefNo":"3483121527","DateCreate":1114790400000,"BuildingBlockType":"Tower","BuildingCSUID":"3483121527T20050430","BuildingID":1108225537,"Status":"Active","BuildingNameEN":"HUNG HING MANSION","BuildingNameTC":"鴻興大廈","BaseHeight":6.2999999999999998,"TopHeight":44.299999999999997,"Storeys":11,"StoreysInBasement":null,"DateStamp":1599580800000}}]}