{"type":"FeatureCollection","features":[{"type":"Feature","id":52977,"geometry":{"type":"Polygon","coordinates":[[[114.16049530485137,22.330233698153151],[114.1604307681296,22.330161096140611],[114.16045844028142,22.330139783874436],[114.16046576737202,22.330134134901545],[114.16058363740399,22.330265024097113],[114.16055891548892,22.330283985478186],[114.16055114294716,22.330275462718017],[114.16055732814517,22.330270627643046],[114.16051205726723,22.330220521421893],[114.16049530485137,22.330233698153151]]]},"properties":{"OBJECTID":52977,"Shape__Length":48.901474351020497,"Shape__Area":71.209508299969912,"GeoRefNo":"3458021239","DateCreate":1114790400000,"BuildingBlockType":"Tower","BuildingCSUID":"3458021239T20050430","BuildingID":1108227074,"Status":"Active","BuildingNameEN":null,"BuildingNameTC":null,"BaseHeight":4.4000000000000004,"TopHeight":22.699999999999999,"Storeys":5,"StoreysInBasement":null,"DateStamp":1599580800000}},{"type":"Feature","id":52994,"geometry":{"type":"Polygon","coordinates":[[[114.16290712342062,22.330010066167912],[114.16283169218597,22.329927021206835],[114.16284772635797,22.329914654214761],[114.16286660197734,22.329936324544263],[114.16290908440199,22.329903111277929],[114.16289008816975,22.329881980791132],[114.16290904524034,22.329867359378746],[114.16302749510933,22.329998854520131],[114.16295090694567,22.330058268850731],[114.16290712342062,22.330010066167912]]]},"properties":{"OBJECTID":52994,"Shape__Length":64.838181949550489,"Shape__Area":178.59495576194584,"GeoRefNo":"3483121213","DateCreate":1114790400000,"BuildingBlockType":"Tower","BuildingCSUID":"3483121213T20050430","BuildingID":1108227292,"Status":"Active","BuildingNameEN":"Wah Tong House","BuildingNameTC":"華通樓","BaseHeight":4.7000000000000002,"TopHeight":45.399999999999999,"Storeys":13,"StoreysInBasement":null,"DateStamp":1599580800000}},{"type":"Feature","id":52995,"geometry":{"type":"Polygon","coordinates":[[[114.16408577570327,22.330825216508835],[114.16401030791792,22.330742008015552],[114.16398223649279,22.330711057176472],[114.16398715545094,22.330707198437562],[114.16395659016364,22.33067431060741],[114.16397557286408,22.330659602109233],[114.16400573996371,22.330692687493478],[114.16401751887786,22.330683479670022],[114.16407011646568,22.330742012735417],[114.16408086085185,22.330753969619575],[114.16412064269011,22.330798240655305],[114.16408577570327,22.330825216508835]]]},"properties":{"OBJECTID":52995,"Shape__Length":52.187660879395921,"Shape__Area":90.084506516331615,"GeoRefNo":"3494621301","DateCreate":1114790400000,"BuildingBlockType":"Tower","BuildingCSUID":"3494621301T20050430","BuildingID":1108226673,"Status":"Active","BuildingNameEN":null,"BuildingNameTC":null,"BaseHeight":5.5999999999999996,"TopHeight":35.899999999999999,"Storeys":9,"StoreysInBasement":null,"DateStamp":1599580800000}},{"type":"Feature","id":52996,"geometry":{"type":"Polygon","coordinates":[[[114.1602629105605,22.330076146443332],[114.1601757440114,22.32997909360784],[114.16021068459354,22.329952430607072],[114.16021498255216,22.329957122706187],[114.16029862004524,22.330048431981542],[114.1602629105605,22.330076146443332]]]},"properties":{"OBJECTID":52996,"Shape__Length":37.418714877793185,"Shape__Area":66.055379072418447,"GeoRefNo":"3455321217","DateCreate":1114790400000,"BuildingBlockType":"Tower","BuildingCSUID":"3455321217T20050430","BuildingID":1108227269,"Status":"Active","BuildingNameEN":null,"BuildingNameTC":null,"BaseHeight":4.4000000000000004,"TopHeight":26.5,"Storeys":6,"StoreysInBasement":null,"DateStamp":1599580800000}},{"type":"Feature","id":52997,"geometry":{"type":"Polygon","coordinates":[[[114.16192824609233,22.329928390066819],[114.16194840250709,22.329913085171789],[114.16199708646137,22.329967962614504],[114.16201400700557,22.329954910094006],[114.16208264268374,22.330032470453901],[114.16204512992672,22.330061347651394],[114.16192824609233,22.329928390066819]]]},"properties":{"OBJECTID":52997,"Shape__Length":47.98521562124651,"Shape__Area":76.875753728480433,"GeoRefNo":"3473721216","DateCreate":1114790400000,"BuildingBlockType":"Tower","BuildingCSUID":"3473721216T20050430","BuildingID":1108227287,"Status":"Active","BuildingNameEN":null,"BuildingNameTC":null,"BaseHeight":4.4000000000000004,"TopHeight":18.199999999999999,"Storeys":null,"StoreysInBasement":null,"DateStamp":1361808000000}},{"type":"Feature","id":52998,"geometry":{"type":"Polygon","coordinates":[[[114.16168895375971,22.330058145846852],[114.16159122162331,22.329948004851577],[114.16162604544834,22.329921343701809],[114.16173845922924,22.330047244049197],[114.16172438839219,22.330058037264383],[114.16171048384504,22.330042562245595],[114.16168895375971,22.330058145846852]]]},"properties":{"OBJECTID":52998,"Shape__Length":45.508412735235659,"Shape__Area":78.319395374092579,"GeoRefNo":"3470021216","DateCreate":1114790400000,"BuildingBlockType":"Tower","BuildingCSUID":"3470021216T20050430","BuildingID":1108227293,"Status":"Active","BuildingNameEN":null,"BuildingNameTC":null,"BaseHeight":4.4000000000000004,"TopHeight":28.5,"Storeys":6,"StoreysInBasement":null,"DateStamp":1599580800000}},{"type":"Feature","id":52999,"geometry":{"type":"Polygon","coordinates":[[[114.16073331229489,22.330035059542286],[114.16069242249961,22.329988761279274],[114.16071064753706,22.329975010870498],[114.16069512970078,22.329957515191847],[114.16074061047598,22.32992248538795],[114.1607977559206,22.329982898603401],[114.16073331229489,22.330035059542286]]]},"properties":{"OBJECTID":52999,"Shape__Length":35.358934533139376,"Shape__Area":71.922602500840782,"GeoRefNo":"3460421216","DateCreate":1114790400000,"BuildingBlockType":"Tower","BuildingCSUID":"3460421216T20050430","BuildingID":1108227309,"Status":"Active","BuildingNameEN":null,"BuildingNameTC":null,"BaseHeight":4.2999999999999998,"TopHeight":24.699999999999999,"Storeys":6,"StoreysInBasement":null,"DateStamp":1599580800000}},{"type":"Feature","id":53001,"geometry":{"type":"Polygon","coordinates":[[[114.16033218908956,22.3300223785598],[114.16024918792525,22.32993055200453],[114.16025517012922,22.329925905027189],[114.16028161106993,22.329905365772806],[114.16036419354977,22.329997539585435],[114.16034061275273,22.330015840823904],[114.16033218908956,22.3300223785598]]]},"properties":{"OBJECTID":53001,"Shape__Length":35.218890150663199,"Shape__Area":57.434155514824745,"GeoRefNo":"3456021212","DateCreate":1114790400000,"BuildingBlockType":"Tower","BuildingCSUID":"3456021212T20050430","BuildingID":1108227318,"Status":"Active","BuildingNameEN":null,"BuildingNameTC":null,"BaseHeight":4.4000000000000004,"TopHeight":32.899999999999999,"Storeys":8,"StoreysInBasement":null,"DateStamp":1599580800000}},{"type":"Feature","id":53003,"geometry":{"type":"Polygon","coordinates":[[[114.16356833753944,22.329937714229629],[114.16365176161823,22.329873003003069],[114.16376947768194,22.33000450151626],[114.16378490730736,22.330021754241812],[114.16372624829943,22.330066871627629],[114.1636653987498,22.329999147442411],[114.16364049650414,22.330018692655347],[114.16356833753944,22.329937714229629]]]},"properties":{"OBJECTID":53003,"Shape__Length":65.245044564848044,"Shape__Area":207.17000511622467,"GeoRefNo":"3490621214","DateCreate":1114790400000,"BuildingBlockType":"Tower","BuildingCSUID":"3490621214T20050430","BuildingID":1108227279,"Status":"Active","BuildingNameEN":null,"BuildingNameTC":"鑽石樓","BaseHeight":4.7000000000000002,"TopHeight":43.5,"Storeys":13,"StoreysInBasement":null,"DateStamp":1599580800000}},{"type":"Feature","id":53028,"geometry":{"type":"Polygon","coordinates":[[[114.1636603098042,22.328595138319251],[114.16368253391106,22.328577937131818],[114.16370541962013,22.328603215771938],[114.16372166968488,22.328590291070196],[114.16377437582199,22.328648141813794],[114.16381247164163,22.328689956210727],[114.16377250859477,22.328720789640769],[114.16370763376598,22.328648136424011],[114.1636603098042,22.328595138319251]]]},"properties":{"OBJECTID":53028,"Shape__Length":46.745893147184617,"Shape__Area":87.145093621512203,"GeoRefNo":"3491521067","DateCreate":1114790400000,"BuildingBlockType":"Tower","BuildingCSUID":"3491521067T20050430","BuildingID":1108228405,"Status":"Active","BuildingNameEN":null,"BuildingNameTC":null,"BaseHeight":4.9000000000000004,"TopHeight":31.199999999999999,"Storeys":8,"StoreysInBasement":null,"DateStamp":1599580800000}},{"type":"Feature","id":53033,"geometry":{"type":"Polygon","coordinates":[[[114.16241213539388,22.330213804120842],[114.16229530808235,22.330082532908293],[114.16233161232117,22.330054474618681],[114.16237144955144,22.330099321340224],[114.16238979232868,22.330119971402009],[114.16244831441553,22.330185854703231],[114.16241213539388,22.330213804120842]]]},"properties":{"OBJECTID":53033,"Shape__Length":47.452612427475998,"Shape__Area":91.599666650827658,"GeoRefNo":"3477121230","DateCreate":1114790400000,"BuildingBlockType":"Tower","BuildingCSUID":"3477121230T20050430","BuildingID":1108227145,"Status":"Active","BuildingNameEN":null,"BuildingNameTC":null,"BaseHeight":4.5,"TopHeight":27.899999999999999,"Storeys":7,"StoreysInBasement":null,"DateStamp":1599580800000}},{"type":"Feature","id":53035,"geometry":{"type":"Polygon","coordinates":[[[114.16501067610371,22.330109510479815],[114.16489176664844,22.329977573353165],[114.16491208548652,22.3299616205184],[114.16489992367626,22.329947871825944],[114.16491401979361,22.329936997603273],[114.16504497506295,22.330082815415196],[114.16501067610371,22.330109510479815]]]},"properties":{"OBJECTID":53035,"Shape__Length":51.311947670050941,"Shape__Area":91.918957719245228,"GeoRefNo":"3504121221","DateCreate":1114790400000,"BuildingBlockType":"Tower","BuildingCSUID":"3504121221T20050430","BuildingID":1108227240,"Status":"Active","BuildingNameEN":"MAN CHEONG COURT","BuildingNameTC":"文昌閣","BaseHeight":5.2999999999999998,"TopHeight":36.799999999999997,"Storeys":10,"StoreysInBasement":null,"DateStamp":1599580800000}},{"type":"Feature","id":53036,"geometry":{"type":"Polygon","coordinates":[[[114.15872997023585,22.330136979656242],[114.15881863512824,22.330235962456005],[114.15876572304362,22.330277329998143],[114.15867415101538,22.330175240865906],[114.15872740415105,22.330134115139909],[114.15872997023585,22.330136979656242]]]},"properties":{"OBJECTID":53036,"Shape__Length":43.655344521768512,"Shape__Area":104.75742197925695,"GeoRefNo":"3440221241","DateCreate":1114790400000,"BuildingBlockType":"Tower","BuildingCSUID":"3440221241T20050430","BuildingID":1108227079,"Status":"Active","BuildingNameEN":null,"BuildingNameTC":null,"BaseHeight":4.2000000000000002,"TopHeight":12.1,"Storeys":null,"StoreysInBasement":null,"DateStamp":1361808000000}},{"type":"Feature","id":53038,"geometry":{"type":"Polygon","coordinates":[[[114.16104839761744,22.329929129648718],[114.16116462363273,22.330060667564045],[114.16112640220148,22.330090280111445],[114.16104909384399,22.330003646289857],[114.16106801898509,22.329989100585671],[114.16102836048343,22.329944533960415],[114.16104839761744,22.329929129648718]]]},"properties":{"OBJECTID":53038,"Shape__Length":48.062114637763003,"Shape__Area":81.301316885229014,"GeoRefNo":"3464221219","DateCreate":1114790400000,"BuildingBlockType":"Tower","BuildingCSUID":"3464221219T20050430","BuildingID":1108227253,"Status":"Active","BuildingNameEN":null,"BuildingNameTC":null,"BaseHeight":4.4000000000000004,"TopHeight":18.100000000000001,"Storeys":null,"StoreysInBasement":null,"DateStamp":1361808000000}},{"type":"Feature","id":53040,"geometry":{"type":"Polygon","coordinates":[[[114.15747252302431,22.330191541887672],[114.15741394588271,22.330127232530948],[114.1574614458908,22.330089778998417],[114.15751952909544,22.330153860076614],[114.15747252302431,22.330191541887672]]]},"properties":{"OBJECTID":53040,"Shape__Length":31.423587908804549,"Shape__Area":59.60428627816556,"GeoRefNo":"3426821234","DateCreate":1114790400000,"BuildingBlockType":"Tower","BuildingCSUID":"3426821234T20050430","BuildingID":1108227170,"Status":"Active","BuildingNameEN":null,"BuildingNameTC":null,"BaseHeight":4.7000000000000002,"TopHeight":8,"Storeys":null,"StoreysInBasement":null,"DateStamp":1361808000000}},{"type":"Feature","id":53065,"geometry":{"type":"Polygon","coordinates":[[[114.16183746948559,22.329956228489486],[114.16173257997677,22.329839782756427],[114.16176895791641,22.32981193465023],[114.16186334565062,22.329917571589586],[114.16187298984944,22.329928366464245],[114.16186030455933,22.329938337765331],[114.16186837673639,22.329947529747248],[114.16184954885946,22.329961966735485],[114.16184153635034,22.329953043147075],[114.16183746948559,22.329956228489486]]]},"properties":{"OBJECTID":53065,"Shape__Length":45.817120959549072,"Shape__Area":84.232025629197665,"GeoRefNo":"3471321204","DateCreate":1114790400000,"BuildingBlockType":"Tower","BuildingCSUID":"3471321204T20050430","BuildingID":1108227368,"Status":"Active","BuildingNameEN":null,"BuildingNameTC":null,"BaseHeight":4.2999999999999998,"TopHeight":34.399999999999999,"Storeys":9,"StoreysInBasement":null,"DateStamp":1599580800000}},{"type":"Feature","id":53067,"geometry":{"type":"Polygon","coordinates":[[[114.16180236284283,22.3299837582198],[114.16169681582751,22.329867161501987],[114.16173257997677,22.329839782756427],[114.16183746948559,22.329956228489486],[114.16183294694989,22.329959772845616],[114.16184094219584,22.329968556729732],[114.16182296177433,22.329982376011063],[114.16181529189143,22.329973646700946],[114.16180236284283,22.3299837582198]]]},"properties":{"OBJECTID":53067,"Shape__Length":45.750399618928753,"Shape__Area":83.079747576605641,"GeoRefNo":"3471021206","DateCreate":1114790400000,"BuildingBlockType":"Tower","BuildingCSUID":"3471021206T20050430","BuildingID":1108227352,"Status":"Active","BuildingNameEN":null,"BuildingNameTC":null,"BaseHeight":4.4000000000000004,"TopHeight":34.399999999999999,"Storeys":9,"StoreysInBasement":null,"DateStamp":1599580800000}},{"type":"Feature","id":53069,"geometry":{"type":"Polygon","coordinates":[[[114.16277063864511,22.329496703325237],[114.1626820472129,22.329397977978047],[114.16269968502534,22.329384145114918],[114.16271908806128,22.329405310067212],[114.16273462837088,22.329393289997505],[114.16280415217372,22.329470501283097],[114.16277063864511,22.329496703325237]]]},"properties":{"OBJECTID":53069,"Shape__Length":37.443843729388561,"Shape__Area":57.600900228268571,"GeoRefNo":"3481221155","DateCreate":1114790400000,"BuildingBlockType":"Tower","BuildingCSUID":"3481221155T20050430","BuildingID":1108227817,"Status":"Active","BuildingNameEN":null,"BuildingNameTC":null,"BaseHeight":4.4000000000000004,"TopHeight":25.699999999999999,"Storeys":6,"StoreysInBasement":null,"DateStamp":1599580800000}},{"type":"Feature","id":53089,"geometry":{"type":"Polygon","coordinates":[[[114.1607552655426,22.33012415184707],[114.16064174121945,22.329998625658252],[114.16067709606384,22.32997140766906],[114.16069242249961,22.329988761279274],[114.16073331229489,22.330035059542286],[114.16077515567761,22.330082437405022],[114.16077705852814,22.330084591929225],[114.16076285558619,22.33009552475086],[114.16077505023648,22.330108959401958],[114.1607552655426,22.33012415184707]]]},"properties":{"OBJECTID":53089,"Shape__Length":45.604260209331748,"Shape__Area":80.292620220349704,"GeoRefNo":"3460221222","DateCreate":1114790400000,"BuildingBlockType":"Tower","BuildingCSUID":"3460221222T20050430","BuildingID":1108227223,"Status":"Active","BuildingNameEN":null,"BuildingNameTC":null,"BaseHeight":4.4000000000000004,"TopHeight":24.100000000000001,"Storeys":6,"StoreysInBasement":null,"DateStamp":1599580800000}},{"type":"Feature","id":53091,"geometry":{"type":"Polygon","coordinates":[[[114.1599198677736,22.330074504203324],[114.15982438569196,22.329967379586297],[114.15985901163968,22.329940775146497],[114.15992234213535,22.330010671609838],[114.15992475577418,22.330013335431886],[114.15995319079313,22.330044718494896],[114.15996863783826,22.330061767313456],[114.15993309593729,22.330089336869413],[114.1599198677736,22.330074504203324]]]},"properties":{"OBJECTID":53091,"Shape__Length":44.461464032728614,"Shape__Area":82.35794942667556,"GeoRefNo":"3451821219","DateCreate":1114790400000,"BuildingBlockType":"Tower","BuildingCSUID":"3451821219T20050430","BuildingID":1108227255,"Status":"Active","BuildingNameEN":null,"BuildingNameTC":null,"BaseHeight":4.2000000000000002,"TopHeight":25.699999999999999,"Storeys":6,"StoreysInBasement":null,"DateStamp":1599580800000}},{"type":"Feature","id":53096,"geometry":{"type":"Polygon","coordinates":[[[114.16012982581485,22.330179434879156],[114.16001918205832,22.330059788725592],[114.16004815780532,22.330037336011586],[114.16007078898386,22.330062544966168],[114.16007861981285,22.330056511992158],[114.16016510656716,22.330152053179905],[114.16012982581485,22.330179434879156]]]},"properties":{"OBJECTID":53096,"Shape__Length":44.612197826536047,"Shape__Area":80.533133101273052,"GeoRefNo":"3453921228","DateCreate":1114790400000,"BuildingBlockType":"Tower","BuildingCSUID":"3453921228T20050430","BuildingID":1108227177,"Status":"Active","BuildingNameEN":null,"BuildingNameTC":null,"BaseHeight":4.2999999999999998,"TopHeight":32.899999999999999,"Storeys":9,"StoreysInBasement":null,"DateStamp":1599580800000}},{"type":"Feature","id":53100,"geometry":{"type":"Polygon","coordinates":[[[114.16176443219865,22.329428458295766],[114.16166076284367,22.32950896936806],[114.16159328940464,22.329561370130591],[114.16157549168527,22.329541316408339],[114.16165886140672,22.329476636090806],[114.16164693270626,22.329463941405724],[114.16173496802379,22.329395888562601],[114.16176443219865,22.329428458295766]]]},"properties":{"OBJECTID":53100,"Shape__Length":55.403227491460271,"Shape__Area":87.823492522179293,"GeoRefNo":"3470521157","DateCreate":1114790400000,"BuildingBlockType":"Tower","BuildingCSUID":"3470521157T20050430","BuildingID":1108227750,"Status":"Active","BuildingNameEN":null,"BuildingNameTC":null,"BaseHeight":4.2999999999999998,"TopHeight":19.899999999999999,"Storeys":null,"StoreysInBasement":null,"DateStamp":1361808000000}},{"type":"Feature","id":53102,"geometry":{"type":"Polygon","coordinates":[[[114.16176443219865,22.329428458295766],[114.16176833382569,22.329425427994721],[114.16180473052169,22.329466083716412],[114.16182663342106,22.329490549594759],[114.16185675427548,22.329524195094617],[114.16177069526471,22.329590882039863],[114.16170218158442,22.329643981898251],[114.16168489002305,22.329657372186151],[114.16160777975486,22.329570869498024],[114.16164121797506,22.329544900949568],[114.16164556069351,22.329549808214029],[114.16167588613411,22.329525942589452],[114.16166076284367,22.32950896936806],[114.16176443219865,22.329428458295766]]]},"properties":{"OBJECTID":53102,"Shape__Length":75.881423696929616,"Shape__Area":309.5312724855811,"GeoRefNo":"3470921168","DateCreate":1114790400000,"BuildingBlockType":"Tower","BuildingCSUID":"3470921168T20050430","BuildingID":1108227674,"Status":"Active","BuildingNameEN":"Yuk Chuen Building","BuildingNameTC":"玉泉樓","BaseHeight":4.2999999999999998,"TopHeight":44.600000000000001,"Storeys":12,"StoreysInBasement":null,"DateStamp":1599580800000}},{"type":"Feature","id":53110,"geometry":{"type":"Polygon","coordinates":[[[114.16320368428053,22.329483079116279],[114.16325922450055,22.329439563500028],[114.16328815439189,22.329472170659315],[114.16318361017225,22.329554372615807],[114.16318053747212,22.329550931163119],[114.16317056572261,22.329539857744649],[114.16314936887291,22.329556842031849],[114.16313289542957,22.329538542241188],[114.16320368428053,22.329483079116279]]]},"properties":{"OBJECTID":53110,"Shape__Length":43.418994371710376,"Shape__Area":73.835021482216547,"GeoRefNo":"3486021163","DateCreate":1114790400000,"BuildingBlockType":"Tower","BuildingCSUID":"3486021163T20050430","BuildingID":1108227753,"Status":"Active","BuildingNameEN":null,"BuildingNameTC":null,"BaseHeight":4.4000000000000004,"TopHeight":34.200000000000003,"Storeys":9,"StoreysInBasement":null,"DateStamp":1599580800000}},{"type":"Feature","id":53115,"geometry":{"type":"Polygon","coordinates":[[[114.15848131319562,22.329573907703612],[114.15846293958934,22.329553459118817],[114.15841239075105,22.329497201521043],[114.15840672094495,22.329490891298747],[114.15844457180083,22.329461255056447],[114.15847640786828,22.3294972087829],[114.158575223523,22.329608804803613],[114.15856031325771,22.329620265913167],[114.15854886208717,22.329607690619213],[114.15852700994101,22.329624765165523],[114.15848513163297,22.329578157476554],[114.15848131319562,22.329573907703612]]]},"properties":{"OBJECTID":53115,"Shape__Length":52.345224618895735,"Shape__Area":100.82263860410467,"GeoRefNo":"3437121164","DateCreate":1114790400000,"BuildingBlockType":"Tower","BuildingCSUID":"3437121164T20050430","BuildingID":1108227695,"Status":"Active","BuildingNameEN":"TANG TAT BUILDING","BuildingNameTC":"騰達樓","BaseHeight":3.8999999999999999,"TopHeight":30,"Storeys":8,"StoreysInBasement":null,"DateStamp":1599580800000}},{"type":"Feature","id":53125,"geometry":{"type":"Polygon","coordinates":[[[114.16534418958589,22.32952776183361],[114.16523143317764,22.329402744525222],[114.16526799225903,22.329374332678263],[114.1653392723008,22.329454088091794],[114.16536990771233,22.329488366109985],[114.165399434253,22.329521403422568],[114.16537745966231,22.329538680085822],[114.16536256647454,22.329522665551362],[114.16535762339983,22.329517350342208],[114.16534418958589,22.32952776183361]]]},"properties":{"OBJECTID":53125,"Shape__Length":52.048079400551131,"Shape__Area":97.290921813107047,"GeoRefNo":"3507621157","DateCreate":1114790400000,"BuildingBlockType":"Tower","BuildingCSUID":"3507621157T20050430","BuildingID":1108227777,"Status":"Active","BuildingNameEN":null,"BuildingNameTC":null,"BaseHeight":5.4000000000000004,"TopHeight":28.600000000000001,"Storeys":6,"StoreysInBasement":null,"DateStamp":1599580800000}},{"type":"Feature","id":53156,"geometry":{"type":"Polygon","coordinates":[[[114.15979155979655,22.330095829037944],[114.15972975777989,22.330144296797958],[114.1597128981744,22.330126146799053],[114.15967283117368,22.330083531579692],[114.15971290712031,22.33005283057317],[114.15973640049286,22.330034981849124],[114.15979155979655,22.330095829037944]]]},"properties":{"OBJECTID":53156,"Shape__Length":34.540506950532716,"Shape__Area":74.481752950129021,"GeoRefNo":"3449921229","DateCreate":1114790400000,"BuildingBlockType":"Tower","BuildingCSUID":"3449921229T20050430","BuildingID":1108227202,"Status":"Active","BuildingNameEN":null,"BuildingNameTC":null,"BaseHeight":4.0999999999999996,"TopHeight":25.100000000000001,"Storeys":6,"StoreysInBasement":null,"DateStamp":1599580800000}},{"type":"Feature","id":53157,"geometry":{"type":"Polygon","coordinates":[[[114.15988515185826,22.330101621763923],[114.15978869752469,22.329994800181275],[114.15979731292879,22.329988180676661],[114.15982438569196,22.329967379586297],[114.1599198677736,22.330074504203324],[114.15988515185826,22.330101621763923]]]},"properties":{"OBJECTID":53157,"Shape__Length":40.297413288477813,"Shape__Area":72.813597405640877,"GeoRefNo":"3451521222","DateCreate":1114790400000,"BuildingBlockType":"Tower","BuildingCSUID":"3451521222T20050430","BuildingID":1108227245,"Status":"Active","BuildingNameEN":null,"BuildingNameTC":null,"BaseHeight":4.2000000000000002,"TopHeight":25.699999999999999,"Storeys":6,"StoreysInBasement":null,"DateStamp":1599580800000}},{"type":"Feature","id":53167,"geometry":{"type":"Polygon","coordinates":[[[114.16223390240769,22.329573853634987],[114.16216872010422,22.329501958712591],[114.16233901397135,22.329369479841613],[114.1624437236753,22.329485882006907],[114.16239303812594,22.329525098676527],[114.1623324287214,22.329571993598879],[114.16227352274049,22.329617570547413],[114.16223390240769,22.329573853634987]]]},"properties":{"OBJECTID":53167,"Shape__Length":79.230539488775605,"Shape__Area":383.15239981260413,"GeoRefNo":"3476621158","DateCreate":1114790400000,"BuildingBlockType":"Tower","BuildingCSUID":"3476621158T20050430","BuildingID":1108227701,"Status":"Active","BuildingNameEN":"On Sheung Building","BuildingNameTC":"安順大廈","BaseHeight":4.2999999999999998,"TopHeight":44.200000000000003,"Storeys":13,"StoreysInBasement":null,"DateStamp":1599580800000}},{"type":"Feature","id":53169,"geometry":{"type":"Polygon","coordinates":[[[114.15871650869138,22.329445247902047],[114.15874977972774,22.329482215508502],[114.15873068681637,22.329497237377648],[114.1586899253459,22.32952930755453],[114.15867465134461,22.329512613715011],[114.15862345975975,22.329552825221707],[114.15861406727224,22.32954252668312],[114.15860487406042,22.329549440908707],[114.15859561116551,22.329539088922555],[114.15864954131489,22.329497228295825],[114.15871650869138,22.329445247902047]]]},"properties":{"OBJECTID":53169,"Shape__Length":43.170471915526861,"Shape__Area":65.870704209744275,"GeoRefNo":"3439421161","DateCreate":1114790400000,"BuildingBlockType":"Tower","BuildingCSUID":"3439421161T20050430","BuildingID":1108227758,"Status":"Active","BuildingNameEN":null,"BuildingNameTC":null,"BaseHeight":3.8999999999999999,"TopHeight":18.600000000000001,"Storeys":4,"StoreysInBasement":null,"DateStamp":1599580800000}},{"type":"Feature","id":53175,"geometry":{"type":"Polygon","coordinates":[[[114.16530661015317,22.329556886589188],[114.16519437823315,22.329431541753536],[114.16523143317764,22.329402744525222],[114.16534418958589,22.32952776183361],[114.16531179976691,22.329552864555794],[114.16530661015317,22.329556886589188]]]},"properties":{"OBJECTID":53175,"Shape__Length":46.149767055999547,"Shape__Area":90.458968513374174,"GeoRefNo":"3507321160","DateCreate":1114790400000,"BuildingBlockType":"Tower","BuildingCSUID":"3507321160T20050430","BuildingID":1108227754,"Status":"Active","BuildingNameEN":null,"BuildingNameTC":null,"BaseHeight":5.4000000000000004,"TopHeight":39.600000000000001,"Storeys":8,"StoreysInBasement":null,"DateStamp":1599580800000}},{"type":"Feature","id":53177,"geometry":{"type":"Polygon","coordinates":[[[114.16137791158133,22.329613229535493],[114.16128107370207,22.329505623136765],[114.16131697718498,22.329477754947145],[114.16141257405883,22.329586386268215],[114.16140190542123,22.329594631078233],[114.16141681932949,22.329611486906099],[114.16139985935062,22.32962464384488],[114.16138422155528,22.329608342063054],[114.16137791158133,22.329613229535493]]]},"properties":{"OBJECTID":53177,"Shape__Length":45.29128433595276,"Shape__Area":79.160796375853124,"GeoRefNo":"3466821167","DateCreate":1114790400000,"BuildingBlockType":"Tower","BuildingCSUID":"3466821167T20050430","BuildingID":1108227696,"Status":"Active","BuildingNameEN":null,"BuildingNameTC":null,"BaseHeight":4.2999999999999998,"TopHeight":33.600000000000001,"Storeys":9,"StoreysInBasement":null,"DateStamp":1599580800000}},{"type":"Feature","id":53178,"geometry":{"type":"Polygon","coordinates":[[[114.16521236850512,22.329520130626069],[114.1651578744535,22.329459910602093],[114.16519437823315,22.329431541753536],[114.16530661015317,22.329556886589188],[114.16530109971319,22.329561157211536],[114.16527076821323,22.329584664638748],[114.16521236850512,22.329520130626069]]]},"properties":{"OBJECTID":53178,"Shape__Length":45.829580211610008,"Shape__Area":87.654005683328123,"GeoRefNo":"3506821162","DateCreate":1114790400000,"BuildingBlockType":"Tower","BuildingCSUID":"3506821162T20050430","BuildingID":1108227734,"Status":"Active","BuildingNameEN":null,"BuildingNameTC":null,"BaseHeight":5.2000000000000002,"TopHeight":39.600000000000001,"Storeys":8,"StoreysInBasement":null,"DateStamp":1599580800000}},{"type":"Feature","id":53189,"geometry":{"type":"Polygon","coordinates":[[[114.1643991516468,22.329540047298167],[114.16426941104444,22.32939464797813],[114.16430081104629,22.329370463436362],[114.16442211244437,22.329505372792745],[114.16440041772964,22.329522046192302],[114.16440950354443,22.329532088265022],[114.1643991516468,22.329540047298167]]]},"properties":{"OBJECTID":53189,"Shape__Length":50.338252203467107,"Shape__Area":84.498828966622796,"GeoRefNo":"3497821157","DateCreate":1114790400000,"BuildingBlockType":"Tower","BuildingCSUID":"3497821157T20050430","BuildingID":1108227774,"Status":"Active","BuildingNameEN":null,"BuildingNameTC":null,"BaseHeight":4.9000000000000004,"TopHeight":27.100000000000001,"Storeys":6,"StoreysInBasement":null,"DateStamp":1599580800000}},{"type":"Feature","id":53218,"geometry":{"type":"Polygon","coordinates":[[[114.16093596364617,22.328586936221509],[114.160966058466,22.32861973752825],[114.16093807350607,22.328641491359861],[114.16092194974796,22.328623645886189],[114.16091450600915,22.328629074613403],[114.16081524823387,22.328521532887105],[114.16085061094452,22.3284941238588],[114.16093596364617,22.328586936221509]]]},"properties":{"OBJECTID":53218,"Shape__Length":46.052751870142799,"Shape__Area":83.984102778784518,"GeoRefNo":"3462021059","DateCreate":1114790400000,"BuildingBlockType":"Tower","BuildingCSUID":"3462021059T20050430","BuildingID":1108228465,"Status":"Active","BuildingNameEN":null,"BuildingNameTC":"樂豐樓","BaseHeight":4.0999999999999996,"TopHeight":24,"Storeys":6,"StoreysInBasement":null,"DateStamp":1599580800000}},{"type":"Feature","id":53240,"geometry":{"type":"Polygon","coordinates":[[[114.16141257405883,22.329586386268215],[114.16131697718498,22.329477754947145],[114.16135098002175,22.32945137471776],[114.16144589757104,22.329560553840114],[114.16143692648525,22.329567503015223],[114.16145192417473,22.329584255718643],[114.16143799847492,22.329595066713608],[114.16142306446801,22.329578256851402],[114.16141257405883,22.329586386268215]]]},"properties":{"OBJECTID":53240,"Shape__Length":44.964317335333845,"Shape__Area":74.693630211303002,"GeoRefNo":"3467221164","DateCreate":1114790400000,"BuildingBlockType":"Tower","BuildingCSUID":"3467221164T20050430","BuildingID":1108227724,"Status":"Active","BuildingNameEN":null,"BuildingNameTC":null,"BaseHeight":4.2999999999999998,"TopHeight":33.600000000000001,"Storeys":9,"StoreysInBasement":null,"DateStamp":1599580800000}},{"type":"Feature","id":53286,"geometry":{"type":"Polygon","coordinates":[[[114.16373667016826,22.328748440655104],[114.16364738404154,22.328649489192884],[114.16366567358148,22.328635432227482],[114.16364207666011,22.328609240261006],[114.1636603098042,22.328595138319251],[114.16370763376598,22.328648136424011],[114.16377250859477,22.328720789640769],[114.16373667016826,22.328748440655104]]]},"properties":{"OBJECTID":53286,"Shape__Length":45.863271082887621,"Shape__Area":78.347559174021981,"GeoRefNo":"3491121071","DateCreate":1114790400000,"BuildingBlockType":"Tower","BuildingCSUID":"3491121071T20050430","BuildingID":1108228384,"Status":"Active","BuildingNameEN":null,"BuildingNameTC":null,"BaseHeight":4.9000000000000004,"TopHeight":30.100000000000001,"Storeys":8,"StoreysInBasement":null,"DateStamp":1599580800000}},{"type":"Feature","id":53288,"geometry":{"type":"Polygon","coordinates":[[[114.1634457925141,22.328674166261411],[114.16342251204945,22.328648113089343],[114.16335940549254,22.328577490405724],[114.16339582291501,22.328549174510023],[114.16348326821257,22.32864528394526],[114.16346339082236,22.328660607117907],[114.16348686858228,22.328689225166755],[114.16347511155189,22.328698346442795],[114.16345024186612,22.328670734645645],[114.1634457925141,22.328674166261411]]]},"properties":{"OBJECTID":53288,"Shape__Length":45.562598418330687,"Shape__Area":75.635326129073704,"GeoRefNo":"3488221064","DateCreate":1114790400000,"BuildingBlockType":"Tower","BuildingCSUID":"3488221064T20050430","BuildingID":1108228421,"Status":"Active","BuildingNameEN":null,"BuildingNameTC":null,"BaseHeight":4.5999999999999996,"TopHeight":36.799999999999997,"Storeys":9,"StoreysInBasement":null,"DateStamp":1599580800000}},{"type":"Feature","id":53290,"geometry":{"type":"Polygon","coordinates":[[[114.16179559338001,22.32864969040028],[114.16167744187386,22.328518925572261],[114.16171173298838,22.328492537253666],[114.16179908109443,22.328588681724103],[114.16183018438254,22.328622917201375],[114.16181959709171,22.328631118429719],[114.16178846148088,22.32859688782397],[114.16177492556592,22.328607347234495],[114.16180606204925,22.328641578836233],[114.16179559338001,22.32864969040028]]]},"properties":{"OBJECTID":53290,"Shape__Length":56.972359991414194,"Shape__Area":78.175257129432964,"GeoRefNo":"3470921058","DateCreate":1114790400000,"BuildingBlockType":"Tower","BuildingCSUID":"3470921058T20050430","BuildingID":1108228459,"Status":"Active","BuildingNameEN":null,"BuildingNameTC":null,"BaseHeight":4.0999999999999996,"TopHeight":29.699999999999999,"Storeys":8,"StoreysInBasement":null,"DateStamp":1599580800000}},{"type":"Feature","id":53291,"geometry":{"type":"Polygon","coordinates":[[[114.16206724242008,22.328699548028542],[114.16202100595183,22.328647991096968],[114.16198191855887,22.328604405922821],[114.16198861239191,22.328599241493386],[114.16201630429093,22.328577880374144],[114.16207894265762,22.328647996380109],[114.16210139053092,22.328673124034548],[114.16206724242008,22.328699548028542]]]},"properties":{"OBJECTID":53291,"Shape__Length":36.612745922487086,"Shape__Area":62.947680338419644,"GeoRefNo":"3473921066","DateCreate":1114790400000,"BuildingBlockType":"Tower","BuildingCSUID":"3473921066T20050430","BuildingID":1108228419,"Status":"Active","BuildingNameEN":null,"BuildingNameTC":null,"BaseHeight":4.2999999999999998,"TopHeight":31.199999999999999,"Storeys":9,"StoreysInBasement":null,"DateStamp":1599580800000}},{"type":"Feature","id":53299,"geometry":{"type":"Polygon","coordinates":[[[114.16144879986351,22.330854861492845],[114.16143657276849,22.330841352568825],[114.16136242224069,22.330898625674291],[114.16131017424236,22.330840561174927],[114.16132197254564,22.33083152973612],[114.16140250328776,22.330769998433876],[114.16140397679987,22.330768872641237],[114.16143943175312,22.330741784267321],[114.16146171401398,22.330724760123235],[114.16147681760353,22.330741787813285],[114.16150084982537,22.330768881832824],[114.16152522175118,22.330796358687163],[114.16144879986351,22.330854861492845]]]},"properties":{"OBJECTID":53299,"Shape__Length":60.947848331879079,"Shape__Area":188.28832919857996,"GeoRefNo":"3468121304","DateCreate":1114790400000,"BuildingBlockType":"Tower","BuildingCSUID":"3468121304T20050430","BuildingID":1108226633,"Status":"Active","BuildingNameEN":"Kweilin Mansion","BuildingNameTC":"桂林大廈","BaseHeight":4.5,"TopHeight":33.200000000000003,"Storeys":9,"StoreysInBasement":null,"DateStamp":1599580800000}},{"type":"Feature","id":53304,"geometry":{"type":"Polygon","coordinates":[[[114.16062353418855,22.330691588166729],[114.16071704743457,22.330794917277373],[114.16073580666404,22.330815646402886],[114.16072638560711,22.330822983085422],[114.16070732457015,22.33080246985002],[114.16068126978907,22.33082270867223],[114.16069999813506,22.330843563052898],[114.16068874106907,22.330852339476689],[114.16065683405557,22.33081712976125],[114.16064875760104,22.330823396178605],[114.16068032824178,22.330858891409097],[114.16066711799623,22.330869200939144],[114.16064844810285,22.33084820396769],[114.16062491350337,22.330866485111983],[114.16064367978525,22.330887469543196],[114.16063494407662,22.330894282876308],[114.16062192431278,22.330879869037766],[114.16052251432865,22.330769814747892],[114.16056208814985,22.330739160894037],[114.16058278985122,22.330723130166472],[114.16062194592516,22.33069281779251],[114.16062353418855,22.330691588166729]]]},"properties":{"OBJECTID":53304,"Shape__Length":85.224416430840634,"Shape__Area":217.8649371357501,"GeoRefNo":"3459321304","DateCreate":1114790400000,"BuildingBlockType":"Tower","BuildingCSUID":"3459321304T20050430","BuildingID":1108226637,"Status":"Active","BuildingNameEN":null,"BuildingNameTC":"永泰樓","BaseHeight":4.4000000000000004,"TopHeight":34.5,"Storeys":10,"StoreysInBasement":null,"DateStamp":1599580800000}},{"type":"Feature","id":53340,"geometry":{"type":"Polygon","coordinates":[[[114.1615958198266,22.328581775752784],[114.16165575502279,22.328647957313585],[114.16169378826282,22.32868995416856],[114.16170397743809,22.328701208401213],[114.16168146400027,22.32871846573109],[114.16169181757812,22.328729984395352],[114.161670394843,22.328746561370991],[114.16158204391412,22.328647950395958],[114.16155257706815,22.328615061666142],[114.1615958198266,22.328581775752784]]]},"properties":{"OBJECTID":53340,"Shape__Length":49.571354460088685,"Shape__Area":105.53368435712687,"GeoRefNo":"3469721068","DateCreate":1114790400000,"BuildingBlockType":"Tower","BuildingCSUID":"3469721068T20050430","BuildingID":1108228387,"Status":"Active","BuildingNameEN":null,"BuildingNameTC":null,"BaseHeight":4.2000000000000002,"TopHeight":29.699999999999999,"Storeys":8,"StoreysInBasement":null,"DateStamp":1599580800000}},{"type":"Feature","id":53341,"geometry":{"type":"Polygon","coordinates":[[[114.16199962247511,22.328751872643917],[114.16191358340308,22.328657124893319],[114.16192039246779,22.328651873964361],[114.16194965446333,22.328629295768636],[114.16196663623046,22.328647986120259],[114.16203567714589,22.328723973331279],[114.16199962247511,22.328751872643917]]]},"properties":{"OBJECTID":53341,"Shape__Length":37.121880116549562,"Shape__Area":66.312933970395093,"GeoRefNo":"3473221072","DateCreate":1114790400000,"BuildingBlockType":"Tower","BuildingCSUID":"3473221072T20050430","BuildingID":1108228381,"Status":"Active","BuildingNameEN":null,"BuildingNameTC":null,"BaseHeight":4.2000000000000002,"TopHeight":31.199999999999999,"Storeys":9,"StoreysInBasement":null,"DateStamp":1599580800000}},{"type":"Feature","id":53343,"geometry":{"type":"Polygon","coordinates":[[[114.16291123733248,22.32853357771733],[114.16303552735928,22.328436649898816],[114.16312969466468,22.32854151272063],[114.16300504014684,22.328638237210246],[114.16291123733248,22.32853357771733]]]},"properties":{"OBJECTID":53343,"Shape__Length":63.651860156724055,"Shape__Area":252.57828725149901,"GeoRefNo":"3483621058","DateCreate":1114790400000,"BuildingBlockType":"Tower","BuildingCSUID":"3483621058T20050430","BuildingID":1108228468,"Status":"Active","BuildingNameEN":null,"BuildingNameTC":null,"BaseHeight":4.2999999999999998,"TopHeight":35.799999999999997,"Storeys":10,"StoreysInBasement":null,"DateStamp":1599580800000}},{"type":"Feature","id":53353,"geometry":{"type":"Polygon","coordinates":[[[114.1608933767469,22.328676224737638],[114.16087569614554,22.328689977570814],[114.16085458611838,22.328666894041628],[114.16083845907541,22.328679637314302],[114.16083194392475,22.32867262315872],[114.16074337388943,22.328577268313566],[114.16077805021511,22.328550377317779],[114.1608933767469,22.328676224737638]]]},"properties":{"OBJECTID":53353,"Shape__Length":45.856051372550951,"Shape__Area":76.806696995544584,"GeoRefNo":"3461321065","DateCreate":1114790400000,"BuildingBlockType":"Tower","BuildingCSUID":"3461321065T20050430","BuildingID":1108228425,"Status":"Active","BuildingNameEN":null,"BuildingNameTC":null,"BaseHeight":4.2000000000000002,"TopHeight":25.600000000000001,"Storeys":6,"StoreysInBasement":null,"DateStamp":1599580800000}},{"type":"Feature","id":53371,"geometry":{"type":"Polygon","coordinates":[[[114.16528557154668,22.330967295602679],[114.16527424007374,22.330976541207448],[114.16527032522879,22.330978991195902],[114.16526808647752,22.33097994936152],[114.16526574786296,22.330980672273292],[114.16526333782667,22.33098115126397],[114.16526088578065,22.330981380375416],[114.16525842171909,22.330981356900601],[114.16525597553877,22.330981081112562],[114.1652535772334,22.330980556354795],[114.1652512561169,22.330979789041088],[114.1652490403381,22.330978788565261],[114.16524695697794,22.330977567030228],[114.1652450314669,22.330976139428593],[114.16524328739101,22.330974523191063],[114.16524174600643,22.330972737915513],[114.1652396520235,22.33096968181701],[114.16523858668204,22.330967617801431],[114.16523773140192,22.330965470990435],[114.16523709355876,22.33096325971664],[114.16523667868383,22.330961003034957],[114.16523649027,22.330958720180803],[114.16523652996575,22.330956430840928],[114.16523679738118,22.330954154611714],[114.16523729028216,22.330951910908691],[114.16523800449313,22.330949719147352],[114.16523893370314,22.33094759793023],[114.16524007014526,22.330945565588834],[114.16524140391715,22.330943639461186],[114.16523913134503,22.330942752585877],[114.16523704002476,22.330941545137854],[114.16523517965258,22.330940046740992],[114.16523359681788,22.330938294694942],[114.16523233092649,22.330936332710515],[114.16523141361843,22.330934209826079],[114.1652308677002,22.330931979052771],[114.16522951973171,22.330928334936058],[114.16523085701908,22.330927327941311],[114.16523239321047,22.330926171053157],[114.16524073970422,22.330919885823675],[114.16526079815057,22.33094109774477],[114.16528557154668,22.330967295602679]]]},"properties":{"OBJECTID":53371,"Shape__Length":19.462944345139164,"Shape__Area":19.938492605749023,"GeoRefNo":"3507121324","DateCreate":1114790400000,"BuildingBlockType":"Tower","BuildingCSUID":"3507121324T20050430","BuildingID":1108226571,"Status":"Active","BuildingNameEN":null,"BuildingNameTC":null,"BaseHeight":5.7999999999999998,"TopHeight":10.4,"Storeys":null,"StoreysInBasement":null,"DateStamp":1361808000000}},{"type":"Feature","id":53407,"geometry":{"type":"Polygon","coordinates":[[[114.15881288824606,22.328673123178188],[114.15868067596931,22.328527557811775],[114.15871906961647,22.328497727495197],[114.1587590269796,22.328541750181863],[114.15879641655823,22.328582943742365],[114.15883265929121,22.328622873697746],[114.15881511370073,22.328636681317377],[114.15883375487498,22.328656932485654],[114.15881288824606,22.328673123178188]]]},"properties":{"OBJECTID":53407,"Shape__Length":52.514056088025505,"Shape__Area":101.70706393490197,"GeoRefNo":"3440021058","DateCreate":1114790400000,"BuildingBlockType":"Tower","BuildingCSUID":"3440021058T20050430","BuildingID":1108228442,"Status":"Active","BuildingNameEN":"HYATT COURT","BuildingNameTC":"海逸閣","BaseHeight":3.7999999999999998,"TopHeight":35.899999999999999,"Storeys":9,"StoreysInBasement":null,"DateStamp":1599580800000}},{"type":"Feature","id":53410,"geometry":{"type":"Polygon","coordinates":[[[114.16467859972114,22.328713769831676],[114.16461765786362,22.32864636214655],[114.1645702221775,22.328593893581399],[114.16455975958499,22.328582115011624],[114.16456905846341,22.328574889803171],[114.16459888514241,22.328607897215981],[114.1646092571566,22.328599858340294],[114.16457977964708,22.32856657913517],[114.16459544988001,22.328554443484663],[114.16467730060288,22.328646366629499],[114.16471337870584,22.328686836641698],[114.16467859972114,22.328713769831676]]]},"properties":{"OBJECTID":53410,"Shape__Length":57.029913654121827,"Shape__Area":83.297865759872579,"GeoRefNo":"3500821067","DateCreate":1114790400000,"BuildingBlockType":"Tower","BuildingCSUID":"3500821067T20050430","BuildingID":1108228413,"Status":"Active","BuildingNameEN":"Wing Wah Building","BuildingNameTC":"榮華樓","BaseHeight":5.0999999999999996,"TopHeight":51.600000000000001,"Storeys":15,"StoreysInBasement":null,"DateStamp":1599580800000}},{"type":"Feature","id":53411,"geometry":{"type":"Polygon","coordinates":[[[114.16172859489942,22.328643148015807],[114.16164170171891,22.328546451691647],[114.16167744187386,22.328518925572261],[114.16179559338001,22.32864969040028],[114.16178746458797,22.328655960664157],[114.16178016956984,22.328647968913561],[114.16175625724308,22.328621772760332],[114.16172859489942,22.328643148015807]]]},"properties":{"OBJECTID":53411,"Shape__Length":47.412708229642142,"Shape__Area":72.421030889016279,"GeoRefNo":"3470621062","DateCreate":1114790400000,"BuildingBlockType":"Tower","BuildingCSUID":"3470621062T20050430","BuildingID":1108228454,"Status":"Active","BuildingNameEN":null,"BuildingNameTC":null,"BaseHeight":4.2000000000000002,"TopHeight":29.699999999999999,"Storeys":8,"StoreysInBasement":null,"DateStamp":1599580800000}},{"type":"Feature","id":53412,"geometry":{"type":"Polygon","coordinates":[[[114.1638532672238,22.328542456812539],[114.16392261992313,22.328488588323612],[114.1639842146936,22.32855744753779],[114.16394437888759,22.328588184574173],[114.16389737354666,22.328624445669131],[114.16386665674085,22.328648149220747],[114.16384296781816,22.32866642947068],[114.16383283649992,22.328674243725931],[114.16380921720697,22.328648144616526],[114.16378121681092,22.328617204396657],[114.16386254335863,22.32855272469692],[114.1638532672238,22.328542456812539]]]},"properties":{"OBJECTID":53412,"Shape__Length":60.238694420073699,"Shape__Area":183.62553556253292,"GeoRefNo":"3492921060","DateCreate":1114790400000,"BuildingBlockType":"Tower","BuildingCSUID":"3492921060T20050430","BuildingID":1108228441,"Status":"Active","BuildingNameEN":null,"BuildingNameTC":null,"BaseHeight":4.9000000000000004,"TopHeight":34,"Storeys":9,"StoreysInBasement":null,"DateStamp":1599580800000}},{"type":"Feature","id":53413,"geometry":{"type":"Polygon","coordinates":[[[114.16464088718671,22.328742974888378],[114.16455211845914,22.328644114449538],[114.16457394262342,22.328627209944948],[114.16455457929834,22.328606169205525],[114.1645702221775,22.328593893581399],[114.16461765786362,22.32864636214655],[114.16467859972114,22.328713769831676],[114.16464088718671,22.328742974888378]]]},"properties":{"OBJECTID":53413,"Shape__Length":44.766634587188179,"Shape__Area":78.206728023534325,"GeoRefNo":"3500421070","DateCreate":1114790400000,"BuildingBlockType":"Tower","BuildingCSUID":"3500421070T20050430","BuildingID":1108228389,"Status":"Active","BuildingNameEN":"Wing Wah Building","BuildingNameTC":"榮華樓","BaseHeight":5.0999999999999996,"TopHeight":51.600000000000001,"Storeys":15,"StoreysInBasement":null,"DateStamp":1599580800000}},{"type":"Feature","id":53415,"geometry":{"type":"Polygon","coordinates":[[[114.16079903047029,22.328698022668167],[114.16078401796736,22.328709607782908],[114.16081196669079,22.328739461322751],[114.16079764136697,22.32875059831871],[114.1606808831213,22.328625717864803],[114.16071093696721,22.328602418518287],[114.16079903047029,22.328698022668167]]]},"properties":{"OBJECTID":53415,"Shape__Length":44.619478336466699,"Shape__Area":63.906586249464183,"GeoRefNo":"3460621070","DateCreate":1114790400000,"BuildingBlockType":"Tower","BuildingCSUID":"3460621070T20050430","BuildingID":1108228382,"Status":"Active","BuildingNameEN":null,"BuildingNameTC":"明德大廈","BaseHeight":4.2000000000000002,"TopHeight":27.300000000000001,"Storeys":13,"StoreysInBasement":null,"DateStamp":1599580800000}},{"type":"Feature","id":53418,"geometry":{"type":"Polygon","coordinates":[[[114.16016855875135,22.328663826999673],[114.16007169498471,22.328557037402845],[114.16003687549522,22.328518649843669],[114.16007177467223,22.328491246807218],[114.16013170818565,22.32855704359666],[114.16020395579838,22.328636359056535],[114.16016855875135,22.328663826999673]]]},"properties":{"OBJECTID":53418,"Shape__Length":51.551956984226436,"Shape__Area":99.492980453536845,"GeoRefNo":"3454121060","DateCreate":1114790400000,"BuildingBlockType":"Tower","BuildingCSUID":"3454121060T20050430","BuildingID":1108228449,"Status":"Active","BuildingNameEN":null,"BuildingNameTC":null,"BaseHeight":4.2000000000000002,"TopHeight":26.100000000000001,"Storeys":6,"StoreysInBasement":null,"DateStamp":1599580800000}},{"type":"Feature","id":53435,"geometry":{"type":"Polygon","coordinates":[[[114.16177019947961,22.330939615327345],[114.16178024330225,22.330951033263144],[114.16175908141871,22.330967877123712],[114.16168715892965,22.33088687387086],[114.16170850034746,22.33086947492642],[114.16171443375249,22.33087622015028],[114.16177019947961,22.330939615327345]]]},"properties":{"OBJECTID":53435,"Shape__Length":29.097052231518987,"Shape__Area":33.736057702431083,"GeoRefNo":"3470821319","DateCreate":1114790400000,"BuildingBlockType":"Tower","BuildingCSUID":"3470821319T20050430","BuildingID":1108226584,"Status":"Active","BuildingNameEN":"MTR SHAM SHUI PO STATION","BuildingNameTC":"港鐵深水埗站","BaseHeight":4.5999999999999996,"TopHeight":8,"Storeys":null,"StoreysInBasement":null,"DateStamp":1361808000000}},{"type":"Feature","id":53438,"geometry":{"type":"Polygon","coordinates":[[[114.1644346038461,22.330820437217348],[114.16440250557008,22.33084525901516],[114.16436202724698,22.330876564661452],[114.16434749703117,22.33086094316549],[114.1643313058205,22.330873390935487],[114.16431857674091,22.330859464615958],[114.16434858240234,22.330836289309929],[114.16438516803608,22.330808037600956],[114.16444521570827,22.330761653818804],[114.16447192771105,22.330791574806966],[114.1644346038461,22.330820437217348]]]},"properties":{"OBJECTID":53438,"Shape__Length":42.462185449004153,"Shape__Area":68.031101365487785,"GeoRefNo":"3498521305","DateCreate":1114790400000,"BuildingBlockType":"Tower","BuildingCSUID":"3498521305T20050430","BuildingID":1108226642,"Status":"Active","BuildingNameEN":null,"BuildingNameTC":null,"BaseHeight":5.5,"TopHeight":25.699999999999999,"Storeys":6,"StoreysInBasement":null,"DateStamp":1599580800000}},{"type":"Feature","id":53439,"geometry":{"type":"Polygon","coordinates":[[[114.15855097740251,22.330977355252038],[114.15846685154985,22.330885417224309],[114.1584261670363,22.330881532349345],[114.15830413797737,22.330972723795188],[114.15827911894799,22.330945766273956],[114.15820640168889,22.330867414571276],[114.15832736918719,22.330775499907663],[114.1583332140389,22.330732605312932],[114.1582534103046,22.33064581798633],[114.15836061250282,22.330563108665842],[114.15844356324608,22.330650901672232],[114.15848773608982,22.330654152087877],[114.15860403898928,22.330565570236057],[114.15870109278784,22.330670879147807],[114.1585832347979,22.33076351752052],[114.15857769352895,22.330804348580177],[114.15865689032269,22.330896197769913],[114.15855097740251,22.330977355252038]]]},"properties":{"OBJECTID":53439,"Shape__Length":192.97029594710546,"Shape__Area":1305.3879085825138,"GeoRefNo":"3437121303","DateCreate":1114790400000,"BuildingBlockType":"Tower","BuildingCSUID":"3437121303T20050430","BuildingID":1108226576,"Status":"Active","BuildingNameEN":"Lai Lim House","BuildingNameTC":"麗廉樓","BaseHeight":5.2000000000000002,"TopHeight":47.5,"Storeys":15,"StoreysInBasement":null,"DateStamp":1786636800000}},{"type":"Feature","id":53483,"geometry":{"type":"Polygon","coordinates":[[[114.16405323897506,22.330850391027788],[114.16395020900077,22.330736100320514],[114.16396043541054,22.330728100308459],[114.16392982111959,22.33069506310364],[114.16394697164355,22.330681773257684],[114.16397729909015,22.330714930543326],[114.16398223649279,22.330711057176472],[114.16401030791792,22.330742008015552],[114.16408577570327,22.330825216508835],[114.16405323897506,22.330850391027788]]]},"properties":{"OBJECTID":53483,"Shape__Length":51.410415846810928,"Shape__Area":82.670487414570061,"GeoRefNo":"3494321304","DateCreate":1114790400000,"BuildingBlockType":"Tower","BuildingCSUID":"3494321304T20050430","BuildingID":1108226656,"Status":"Active","BuildingNameEN":null,"BuildingNameTC":null,"BaseHeight":5.5999999999999996,"TopHeight":35.899999999999999,"Storeys":9,"StoreysInBasement":null,"DateStamp":1599580800000}},{"type":"Feature","id":53485,"geometry":{"type":"Polygon","coordinates":[[[114.1604124038856,22.330907690585764],[114.1605253060708,22.330821744213658],[114.16052773982153,22.330824463837466],[114.16053930354205,22.330815599407494],[114.16055188225212,22.330829704633484],[114.16048822115393,22.330878845360189],[114.16050317714647,22.330895465575555],[114.16044323259845,22.330942344497917],[114.16041839527642,22.330914434959812],[114.1604124038856,22.330907690585764]]]},"properties":{"OBJECTID":53485,"Shape__Length":42.964792278677642,"Shape__Area":59.939460159987384,"GeoRefNo":"3457721316","DateCreate":1114790400000,"BuildingBlockType":"Tower","BuildingCSUID":"3457721316T20050430","BuildingID":1108226607,"Status":"Active","BuildingNameEN":null,"BuildingNameTC":null,"BaseHeight":4.4000000000000004,"TopHeight":25.399999999999999,"Storeys":6,"StoreysInBasement":null,"DateStamp":1599580800000}},{"type":"Feature","id":53493,"geometry":{"type":"Polygon","coordinates":[[[114.16163258295134,22.330652072106695],[114.16160210413356,22.33061828457539],[114.16164719544524,22.330583412157289],[114.1616889229665,22.330551185733988],[114.16171913690354,22.330584881473857],[114.16163258295134,22.330652072106695]]]},"properties":{"OBJECTID":53493,"Shape__Length":32.984741246817798,"Shape__Area":56.624276635439621,"GeoRefNo":"3470121283","DateCreate":1114790400000,"BuildingBlockType":"Tower","BuildingCSUID":"3470121283T20050430","BuildingID":1108226763,"Status":"Active","BuildingNameEN":null,"BuildingNameTC":null,"BaseHeight":4.2999999999999998,"TopHeight":32.399999999999999,"Storeys":8,"StoreysInBasement":null,"DateStamp":1599580800000}},{"type":"Feature","id":53496,"geometry":{"type":"Polygon","coordinates":[[[114.16200896562276,22.330089186897968],[114.16194039643828,22.330011722869859],[114.16195774140542,22.329998336714269],[114.16190870085623,22.329943230843668],[114.16192824609233,22.329928390066819],[114.16204512992672,22.330061347651394],[114.16200896562276,22.330089186897968]]]},"properties":{"OBJECTID":53496,"Shape__Length":47.811186183198799,"Shape__Area":74.334613816723234,"GeoRefNo":"3473321219","DateCreate":1114790400000,"BuildingBlockType":"Tower","BuildingCSUID":"3473321219T20050430","BuildingID":1108227257,"Status":"Active","BuildingNameEN":null,"BuildingNameTC":null,"BaseHeight":4.5,"TopHeight":18.199999999999999,"Storeys":null,"StoreysInBasement":null,"DateStamp":1361808000000}},{"type":"Feature","id":53497,"geometry":{"type":"Polygon","coordinates":[[[114.16359148137707,22.330125289807704],[114.16348283143435,22.330004032955845],[114.16356833753944,22.329937714229629],[114.16364049650414,22.330018692655347],[114.16367721018719,22.33005989351723],[114.16365703937166,22.330075284145519],[114.16368120661488,22.330101501527405],[114.16363394443084,22.330137876122851],[114.16361031559276,22.330110932628831],[114.16359148137707,22.330125289807704]]]},"properties":{"OBJECTID":53497,"Shape__Length":65.714100141456015,"Shape__Area":224.67173573847691,"GeoRefNo":"3489821221","DateCreate":1114790400000,"BuildingBlockType":"Tower","BuildingCSUID":"3489821221T20050430","BuildingID":1108227208,"Status":"Active","BuildingNameEN":null,"BuildingNameTC":"協興大廈","BaseHeight":4.5999999999999996,"TopHeight":42.799999999999997,"Storeys":13,"StoreysInBasement":null,"DateStamp":1599580800000}},{"type":"Feature","id":58341,"geometry":{"type":"Polygon","coordinates":[[[114.16005462920218,22.329574364630933],[114.16002090344108,22.329600499436232],[114.15992930369035,22.329498196705728],[114.15990728679118,22.329473607743374],[114.15992963022319,22.329456293570694],[114.15994998185467,22.329479213595249],[114.15996146891894,22.329470317409339],[114.15998548775273,22.329497142725366],[114.16005462920218,22.329574364630933]]]},"properties":{"OBJECTID":58341,"Shape__Length":45.632775036901656,"Shape__Area":77.650246908994873,"GeoRefNo":"3452721164","DateCreate":1114790400000,"BuildingBlockType":"Tower","BuildingCSUID":"3452721164T20050430","BuildingID":1109609229,"Status":"Active","BuildingNameEN":null,"BuildingNameTC":null,"BaseHeight":4.2000000000000002,"TopHeight":32.399999999999999,"Storeys":9,"StoreysInBasement":null,"DateStamp":1599580800000}},{"type":"Feature","id":58345,"geometry":{"type":"Polygon","coordinates":[[[114.15967301159104,22.329404391870241],[114.15970872159841,22.329376719528323],[114.15971298903466,22.329381485598351],[114.15979854794129,22.329477044049348],[114.15979692949023,22.329478327215401],[114.15979341990082,22.329481115309928],[114.15981697886164,22.329507452048006],[114.15979894788875,22.329521548519736],[114.15977705856186,22.329496898145184],[114.15976457916273,22.329506661149459],[114.15971298079309,22.329449032371524],[114.15967301159104,22.329404391870241]]]},"properties":{"OBJECTID":58345,"Shape__Length":46.12141645784358,"Shape__Area":78.907882226080474,"GeoRefNo":"3449821153","DateCreate":1114790400000,"BuildingBlockType":"Tower","BuildingCSUID":"3449821153T20050430","BuildingID":1109609265,"Status":"Active","BuildingNameEN":null,"BuildingNameTC":null,"BaseHeight":3.8999999999999999,"TopHeight":30.899999999999999,"Storeys":8,"StoreysInBasement":null,"DateStamp":1599580800000}},{"type":"Feature","id":59344,"geometry":{"type":"Polygon","coordinates":[[[114.16056049886542,22.33401965789302],[114.16043063619043,22.333872544544121],[114.16043108071307,22.333872198176138],[114.16066644159905,22.333688824325996],[114.16066742859397,22.333688055290079],[114.16079877430478,22.333834953129742],[114.16071620309725,22.333898811807213],[114.16070238020184,22.333883388823661],[114.16060609824288,22.33395785646681],[114.1606200593378,22.333973492142363],[114.16056049886542,22.33401965789302]]]},"properties":{"OBJECTID":59344,"Shape__Length":110.47908381675772,"Shape__Area":644.36679679469069,"GeoRefNo":"3459321643","DateCreate":1443110400000,"BuildingBlockType":"Podium","BuildingCSUID":"3459321643P20150925","BuildingID":1810146034,"Status":"Active","BuildingNameEN":null,"BuildingNameTC":null,"BaseHeight":5.7999999999999998,"TopHeight":21.199999999999999,"Storeys":3,"StoreysInBasement":null,"DateStamp":1599580800000}},{"type":"Feature","id":59345,"geometry":{"type":"Polygon","coordinates":[[[114.16050685484126,22.333909157597315],[114.16047515113937,22.333873800319804],[114.16052956752216,22.333831344205027],[114.16052190329896,22.333822913750435],[114.16060013735547,22.333761805541503],[114.16060785972465,22.333770236991626],[114.16066206122457,22.33372767271424],[114.16069410798589,22.333763019153309],[114.16064379896719,22.333802286765984],[114.16066018534835,22.333820343778598],[114.16064726720114,22.333830609263039],[114.16066022231351,22.33384492013942],[114.16065919537473,22.333854516561388],[114.16060600969456,22.333895938119163],[114.16059602638032,22.333894973556681],[114.16058999167365,22.333888091561235],[114.16057868475016,22.333896898582616],[114.16055544876627,22.333871121897243],[114.16050685484126,22.333909157597315]]]},"properties":{"OBJECTID":59345,"Shape__Length":73.037430609738777,"Shape__Area":197.84479453688951,"GeoRefNo":"3459021642","DateCreate":1443110400000,"BuildingBlockType":"Tower","BuildingCSUID":"3459021642T20150925","BuildingID":1810146044,"Status":"Active","BuildingNameEN":"High One Grand","BuildingNameTC":"曉盈","BaseHeight":21.199999999999999,"TopHeight":110.2,"Storeys":28,"StoreysInBasement":null,"DateStamp":1599580800000}},{"type":"Feature","id":61171,"geometry":{"type":"Polygon","coordinates":[[[114.16136231992148,22.331892559026684],[114.16122952947295,22.331746860189508],[114.16126702275743,22.331717966117438],[114.16127348408683,22.331725110107584],[114.16129822044526,22.331752459696663],[114.16139902751902,22.331863916712489],[114.16136231992148,22.331892559026684]]]},"properties":{"OBJECTID":61171,"Shape__Length":52.226343107154264,"Shape__Area":105.16981744430515,"GeoRefNo":"3466421417","DateCreate":1114790400000,"BuildingBlockType":"Tower","BuildingCSUID":"3466421417T20050430","BuildingID":1108225998,"Status":"Active","BuildingNameEN":"Chow Har Building","BuildingNameTC":"秋霞樓","BaseHeight":4.9000000000000004,"TopHeight":26.699999999999999,"Storeys":6,"StoreysInBasement":null,"DateStamp":1599580800000}},{"type":"Feature","id":61298,"geometry":{"type":"Polygon","coordinates":[[[114.16371940394922,22.334111387346642],[114.16371915232585,22.33411158274798],[114.16381359429356,22.334216397261493],[114.16381580793963,22.334218854027373],[114.16373671020337,22.334280265247038],[114.16341206704153,22.333919965410026],[114.16344267685507,22.333896170381632],[114.16344150146534,22.333894865907801],[114.16343561549056,22.333888333423612],[114.16343436681132,22.333886697780997],[114.16343341595685,22.333884872841995],[114.1634327908907,22.333882912276032],[114.16343250999536,22.333880873741165],[114.16343258153168,22.333878817188431],[114.16343300339582,22.333876803098754],[114.16343376318126,22.333874890704262],[114.16343483854355,22.333873136246353],[114.16343619785746,22.333871591321675],[114.16346490562067,22.333849364110971],[114.16347211635687,22.333857392347703],[114.16347347382963,22.333858903636553],[114.16348406268334,22.333850672233908],[114.16360444046839,22.33398427180671],[114.16360607136055,22.333982999892569],[114.16361572808593,22.333975469178256],[114.1636180778013,22.333974677896933],[114.16362052350759,22.333974270700107],[114.1636230028475,22.333974257969938],[114.16362545260624,22.333974640030995],[114.16362781032318,22.333975407142006],[114.16363001588448,22.333976539744231],[114.16363201305577,22.33397800896012],[114.16363375091589,22.333979777329617],[114.16365567394574,22.334004409653812],[114.16370808681792,22.333963526519465],[114.16370849298745,22.333963209669353],[114.16355644820246,22.333794504189843],[114.16355639404328,22.333794444132071],[114.16356713947209,22.333786091004548],[114.16356583518764,22.333784638871119],[114.16355878867429,22.333776793611445],[114.16355872539157,22.333776723167755],[114.16358730109162,22.333754598150428],[114.1635886902083,22.333753369582585],[114.16359026831999,22.333752395627968],[114.16359198928731,22.333751704762165],[114.16359380279421,22.33375131718407],[114.16359565581907,22.333751244225336],[114.16359749418484,22.333751488019065],[114.16359926414309,22.333752041437435],[114.1636009139454,22.333752888300115],[114.16360239535639,22.333754003847314],[114.16360366506393,22.333755355463698],[114.16360468594549,22.333756903631951],[114.16361173411039,22.333764750786184],[114.16364227425218,22.333741009897381],[114.16396708036898,22.334101406553476],[114.16388822186548,22.33416263210805],[114.16388365859154,22.334157568840372],[114.16379155303254,22.334055371074577],[114.16371940394922,22.334111387346642]]]},"properties":{"OBJECTID":61298,"Shape__Length":251.89522496474984,"Shape__Area":1273.7663323674317,"GeoRefNo":"3491021646","DateCreate":1382025600000,"BuildingBlockType":"Tower","BuildingCSUID":"3491021646T20131018","BuildingID":1108224856,"Status":"Active","BuildingNameEN":"YHA Mei Ho House Youth Hostel","BuildingNameTC":"ＹＨＡ美荷樓青年旅舍","BaseHeight":15.6,"TopHeight":31.5,"Storeys":null,"StoreysInBasement":null,"DateStamp":1386345600000}},{"type":"Feature","id":61299,"geometry":{"type":"Polygon","coordinates":[[[114.16400870167178,22.334068699473132],[114.16400890908886,22.334068930762651],[114.16398821737685,22.334084995786675],[114.16395536986012,22.334048549108868],[114.16395651449233,22.334047656256256],[114.16397611176609,22.334032369946442],[114.16400870167178,22.334068699473132]]]},"properties":{"OBJECTID":61299,"Shape__Length":16.104959136067546,"Shape__Area":14.663626561319663,"GeoRefNo":"3494021667","DateCreate":1382025600000,"BuildingBlockType":"Tower","BuildingCSUID":"3494021667T20131018","BuildingID":1810106359,"Status":"Active","BuildingNameEN":"YHA MEI HO HOUSE YOUTH HOSTEL","BuildingNameTC":"YHA 美荷樓青年旅舍","BaseHeight":15.6,"TopHeight":18.800000000000001,"Storeys":null,"StoreysInBasement":null,"DateStamp":1386345600000}},{"type":"Feature","id":61457,"geometry":{"type":"Polygon","coordinates":[[[114.161971456844,22.334187256264514],[114.16203974698816,22.334264552698116],[114.16208320712711,22.33431374422878],[114.16192131822669,22.334438983706811],[114.16184576173023,22.334354054179965],[114.16182776536307,22.334333825285317],[114.16183157634086,22.334295618438134],[114.161971456844,22.334187256264514]]]},"properties":{"OBJECTID":61457,"Shape__Length":77.937846118189981,"Shape__Area":389.15367371783907,"GeoRefNo":"3473121696","DateCreate":1114790400000,"BuildingBlockType":"Tower","BuildingCSUID":"3473121696T20050430","BuildingID":1108224764,"Status":"Active","BuildingNameEN":"Celebrity Commercial Centre","BuildingNameTC":"名人商業中心","BaseHeight":7.0999999999999996,"TopHeight":48,"Storeys":9,"StoreysInBasement":null,"DateStamp":1599580800000}},{"type":"Feature","id":61458,"geometry":{"type":"Polygon","coordinates":[[[114.16122952947295,22.331746860189508],[114.16136231992148,22.331892559026684],[114.16132586266978,22.331921006024952],[114.16119397314209,22.331774261504158],[114.16122952947295,22.331746860189508]]]},"properties":{"OBJECTID":61458,"Shape__Length":51.993288436037801,"Shape__Area":102.22028567944537,"GeoRefNo":"3465921418","DateCreate":1114790400000,"BuildingBlockType":"Tower","BuildingCSUID":"3465921418T20050430","BuildingID":1108225987,"Status":"Active","BuildingNameEN":"Mill Reef House","BuildingNameTC":"萬利大廈","BaseHeight":4.9000000000000004,"TopHeight":24.399999999999999,"Storeys":6,"StoreysInBasement":null,"DateStamp":1599580800000}},{"type":"Feature","id":66694,"geometry":{"type":"Polygon","coordinates":[[[114.15912941053982,22.335144350273779],[114.1592381872558,22.335059919274062],[114.15926734559352,22.33509244235637],[114.15913543449729,22.335194743084198],[114.15912296220444,22.335180754893905],[114.15914602064566,22.335163055043594],[114.15912941053982,22.335144350273779]]]},"properties":{"OBJECTID":66694,"Shape__Length":44.754246420679905,"Shape__Area":74.618718396211349,"GeoRefNo":"3444621785","DateCreate":1114790400000,"BuildingBlockType":"Tower","BuildingCSUID":"3444621785T20050430","BuildingID":1108224317,"Status":"Active","BuildingNameEN":null,"BuildingNameTC":null,"BaseHeight":5.7000000000000002,"TopHeight":26.899999999999999,"Storeys":6,"StoreysInBasement":null,"DateStamp":1599580800000}},{"type":"Feature","id":66701,"geometry":{"type":"Polygon","coordinates":[[[114.15907965661387,22.335132185882362],[114.15921123076434,22.335029852110566],[114.1592381872558,22.335059919274062],[114.15912941053982,22.335144350273779],[114.15911564934547,22.335128853655117],[114.15909272385633,22.335146841410499],[114.15907965661387,22.335132185882362]]]},"properties":{"OBJECTID":66701,"Shape__Length":44.020923052553762,"Shape__Area":69.621082541310102,"GeoRefNo":"3444721779","DateCreate":1114790400000,"BuildingBlockType":"Tower","BuildingCSUID":"3444721779T20050430","BuildingID":1108224342,"Status":"Active","BuildingNameEN":null,"BuildingNameTC":null,"BaseHeight":5.2000000000000002,"TopHeight":26.899999999999999,"Storeys":6,"StoreysInBasement":null,"DateStamp":1599580800000}},{"type":"Feature","id":66704,"geometry":{"type":"Polygon","coordinates":[[[114.15862276024539,22.335377111791246],[114.15865627635645,22.335351549811445],[114.15861652961178,22.335307993859001],[114.15864993061662,22.335280664132],[114.15868138981308,22.335314798270527],[114.15869380804273,22.335304477531441],[114.15866332889325,22.335270920829913],[114.1586982113184,22.335243257488816],[114.15873893595321,22.335287619329097],[114.15877707165184,22.335257995525186],[114.15879459817492,22.335277403463206],[114.15880475983354,22.335288655969698],[114.1587668531868,22.335318531848927],[114.15877147557465,22.335324731222709],[114.15875384294628,22.335339247353112],[114.15875931236063,22.335347051735742],[114.15871613152261,22.335379348112152],[114.15871052800428,22.335372685629487],[114.15868918886358,22.335388321220051],[114.15868272513553,22.335381424748231],[114.15864977173219,22.335407057505943],[114.15862276024539,22.335377111791246]]]},"properties":{"OBJECTID":66704,"Shape__Length":76.288533002614926,"Shape__Area":169.42623513662173,"GeoRefNo":"3439421803","DateCreate":1114790400000,"BuildingBlockType":"Tower","BuildingCSUID":"3439421803T20050430","BuildingID":1108224212,"Status":"Active","BuildingNameEN":"Fuk Wing Street 238","BuildingNameTC":"福榮街２３８號","BaseHeight":10.300000000000001,"TopHeight":50.299999999999997,"Storeys":12,"StoreysInBasement":null,"DateStamp":1599580800000}},{"type":"Feature","id":66705,"geometry":{"type":"Polygon","coordinates":[[[114.15924465150222,22.335274124349333],[114.15935411925602,22.335189228995933],[114.1593820430804,22.335220374941652],[114.15927246424846,22.335305444591665],[114.15925779786909,22.335288928606115],[114.15923531251009,22.335306759929178],[114.15922192708494,22.335291747760742],[114.15924465150222,22.335274124349333]]]},"properties":{"OBJECTID":66705,"Shape__Length":44.499172593701402,"Shape__Area":72.566816116665407,"GeoRefNo":"3445621799","DateCreate":1114790400000,"BuildingBlockType":"Tower","BuildingCSUID":"3445621799T20050430","BuildingID":1108224253,"Status":"Active","BuildingNameEN":null,"BuildingNameTC":null,"BaseHeight":5.7999999999999998,"TopHeight":30.100000000000001,"Storeys":6,"StoreysInBasement":null,"DateStamp":1599580800000}},{"type":"Feature","id":66706,"geometry":{"type":"Polygon","coordinates":[[[114.15913543449729,22.335194743084198],[114.15926734559352,22.33509244235637],[114.15929540438567,22.335123738871701],[114.15918657264328,22.335208721129529],[114.15917239263601,22.335192752893501],[114.15914927675072,22.335210267704699],[114.15913543449729,22.335194743084198]]]},"properties":{"OBJECTID":66706,"Shape__Length":44.440481491570566,"Shape__Area":73.287496605883561,"GeoRefNo":"3444521791","DateCreate":1114790400000,"BuildingBlockType":"Tower","BuildingCSUID":"3444521791T20050430","BuildingID":1108224306,"Status":"Active","BuildingNameEN":null,"BuildingNameTC":null,"BaseHeight":5.7000000000000002,"TopHeight":26.899999999999999,"Storeys":6,"StoreysInBasement":null,"DateStamp":1599580800000}},{"type":"Feature","id":66707,"geometry":{"type":"Polygon","coordinates":[[[114.15918657264328,22.335208721129529],[114.15929540438567,22.335123738871701],[114.15932382152509,22.335155435114078],[114.15919170441221,22.335257851907592],[114.15917936177622,22.335244009218421],[114.15920198052061,22.335226072079145],[114.15918657264328,22.335208721129529]]]},"properties":{"OBJECTID":66707,"Shape__Length":44.469862105229893,"Shape__Area":72.71043088577504,"GeoRefNo":"3444721797","DateCreate":1114790400000,"BuildingBlockType":"Tower","BuildingCSUID":"3444721797T20050430","BuildingID":1108224283,"Status":"Active","BuildingNameEN":null,"BuildingNameTC":null,"BaseHeight":5.7999999999999998,"TopHeight":30.100000000000001,"Storeys":6,"StoreysInBasement":null,"DateStamp":1599580800000}},{"type":"Feature","id":66762,"geometry":{"type":"Polygon","coordinates":[[[114.15919170441221,22.335257851907592],[114.15932382152509,22.335155435114078],[114.15935411925602,22.335189228995933],[114.15924465150222,22.335274124349333],[114.15922752201841,22.335254834622997],[114.15920481913896,22.335272560531443],[114.15919170441221,22.335257851907592]]]},"properties":{"OBJECTID":66762,"Shape__Length":45.21097731960964,"Shape__Area":77.958919519198943,"GeoRefNo":"3445721792","DateCreate":1114790400000,"BuildingBlockType":"Tower","BuildingCSUID":"3445721792T20050430","BuildingID":1108224271,"Status":"Active","BuildingNameEN":null,"BuildingNameTC":null,"BaseHeight":5.7999999999999998,"TopHeight":30.100000000000001,"Storeys":6,"StoreysInBasement":null,"DateStamp":1599580800000}},{"type":"Feature","id":69959,"geometry":{"type":"Polygon","coordinates":[[[114.16122151099123,22.331132431162139],[114.16118535201879,22.331159874591808],[114.16116879141239,22.331141282276811],[114.16116200780569,22.331133666493294],[114.16106768144968,22.33102776800272],[114.16110193280811,22.331001442580316],[114.16116201522314,22.331067258218933],[114.16116879884727,22.331074689146526],[114.16122151099123,22.331132431162139]]]},"properties":{"OBJECTID":69959,"Shape__Length":47.41370105767551,"Shape__Area":89.213960886544371,"GeoRefNo":"3464521336","DateCreate":1114790400000,"BuildingBlockType":"Tower","BuildingCSUID":"3464521336T20050430","BuildingID":1108226467,"Status":"Active","BuildingNameEN":null,"BuildingNameTC":null,"BaseHeight":4.5,"TopHeight":34,"Storeys":6,"StoreysInBasement":null,"DateStamp":1599580800000}},{"type":"Feature","id":69965,"geometry":{"type":"Polygon","coordinates":[[[114.16103746985694,22.331272111454954],[114.16101640024351,22.331288102469063],[114.16099486840781,22.331264363123353],[114.1609789777922,22.331276558995047],[114.16088285368214,22.331169833202324],[114.16092070916417,22.33114073262421],[114.16101610093433,22.33124806752641],[114.161035596975,22.331270004166978],[114.16103746985694,22.331272111454954]]]},"properties":{"OBJECTID":69965,"Shape__Length":47.717826580256116,"Shape__Area":86.94655918206567,"GeoRefNo":"3462821351","DateCreate":1114790400000,"BuildingBlockType":"Tower","BuildingCSUID":"3462821351T20050430","BuildingID":1108226391,"Status":"Active","BuildingNameEN":null,"BuildingNameTC":null,"BaseHeight":4.5999999999999996,"TopHeight":36,"Storeys":9,"StoreysInBasement":null,"DateStamp":1599580800000}},{"type":"Feature","id":69966,"geometry":{"type":"Polygon","coordinates":[[[114.16110697056023,22.331219363093471],[114.1610910387173,22.331231454759347],[114.1610691537858,22.331207350192365],[114.16104817182537,22.331223453559662],[114.16103560381339,22.331209270530245],[114.16095292653965,22.331115968782726],[114.16098950883809,22.331087848604096],[114.16103561167313,22.33113946594532],[114.16108522611241,22.331195014806873],[114.16110697056023,22.331219363093471]]]},"properties":{"OBJECTID":69966,"Shape__Length":47.663231359660763,"Shape__Area":83.344576856288953,"GeoRefNo":"3463421346","DateCreate":1114790400000,"BuildingBlockType":"Tower","BuildingCSUID":"3463421346T20050430","BuildingID":1108226428,"Status":"Active","BuildingNameEN":null,"BuildingNameTC":null,"BaseHeight":4.5999999999999996,"TopHeight":39,"Storeys":10,"StoreysInBasement":null,"DateStamp":1599580800000}},{"type":"Feature","id":69967,"geometry":{"type":"Polygon","coordinates":[[[114.16138026759407,22.331273612507584],[114.16127997678836,22.331161181573602],[114.16126028291633,22.331139101447171],[114.16130358644179,22.331105558708394],[114.16142375748636,22.331240218578969],[114.16138026759407,22.331273612507584]]]},"properties":{"OBJECTID":69967,"Shape__Length":50.351273881132528,"Shape__Area":112.47688321177215,"GeoRefNo":"3466921351","DateCreate":1114790400000,"BuildingBlockType":"Tower","BuildingCSUID":"3466921351T20050430","BuildingID":1108226400,"Status":"Active","BuildingNameEN":"Lan Fong Building","BuildingNameTC":"蘭芳華廈","BaseHeight":4.5,"TopHeight":44.899999999999999,"Storeys":12,"StoreysInBasement":null,"DateStamp":1599580800000}},{"type":"Feature","id":69971,"geometry":{"type":"Polygon","coordinates":[[[114.16447570756164,22.331144910681079],[114.16449456786367,22.331130261625159],[114.16442572962701,22.331054349187834],[114.16444575975513,22.331038910502627],[114.16455134133388,22.331156115343116],[114.16458216727941,22.331190334818771],[114.1645439134515,22.331219955841714],[114.16447570756164,22.331144910681079]]]},"properties":{"OBJECTID":69971,"Shape__Length":54.096834105270162,"Shape__Area":85.336820340592951,"GeoRefNo":"3499421345","DateCreate":1114790400000,"BuildingBlockType":"Tower","BuildingCSUID":"3499421345T20050430","BuildingID":1108226432,"Status":"Active","BuildingNameEN":null,"BuildingNameTC":null,"BaseHeight":5.9000000000000004,"TopHeight":21.100000000000001,"Storeys":4,"StoreysInBasement":null,"DateStamp":1599580800000}},{"type":"Feature","id":70022,"geometry":{"type":"Polygon","coordinates":[[[114.16403324293222,22.331311317814372],[114.16391852160886,22.331182061864556],[114.16391133972246,22.331173969981801],[114.16394669492291,22.331146597492388],[114.16401294471939,22.331220478769222],[114.16399632853366,22.331233339440033],[114.16406557174237,22.331312943791417],[114.16405112623571,22.331324168387695],[114.16403679189014,22.331308558981142],[114.16403324293222,22.331311317814372]]]},"properties":{"OBJECTID":70022,"Shape__Length":53.372275818537616,"Shape__Area":78.105203773081939,"GeoRefNo":"3493821350","DateCreate":1114790400000,"BuildingBlockType":"Tower","BuildingCSUID":"3493821350T20050430","BuildingID":1108226374,"Status":"Active","BuildingNameEN":null,"BuildingNameTC":null,"BaseHeight":5.7999999999999998,"TopHeight":26.899999999999999,"Storeys":7,"StoreysInBasement":null,"DateStamp":1599580800000}},{"type":"Feature","id":70023,"geometry":{"type":"Polygon","coordinates":[[[114.16356173370937,22.330980118551295],[114.16362723829063,22.331052318522218],[114.16364072952888,22.331042140981609],[114.1636216936019,22.331021231919728],[114.16363314950424,22.331012271265262],[114.16371909985769,22.331108914040257],[114.16370558345193,22.33111937162359],[114.16366807946105,22.331148388354837],[114.16359169636613,22.331207485571412],[114.16345796001475,22.331059322127608],[114.16356173370937,22.330980118551295]]]},"properties":{"OBJECTID":70023,"Shape__Length":83.041407095833108,"Shape__Area":336.00467691437126,"GeoRefNo":"3489621340","DateCreate":1114790400000,"BuildingBlockType":"Tower","BuildingCSUID":"3489621340T20050430","BuildingID":1108226440,"Status":"Active","BuildingNameEN":null,"BuildingNameTC":null,"BaseHeight":5.7000000000000002,"TopHeight":32.100000000000001,"Storeys":8,"StoreysInBasement":null,"DateStamp":1599580800000}},{"type":"Feature","id":70024,"geometry":{"type":"Polygon","coordinates":[[[114.16082270231615,22.3312173509761],[114.16087252665672,22.331272897755582],[114.16087607984539,22.331270176739821],[114.16088412463337,22.331278761098776],[114.16083764846208,22.331314192067371],[114.16082524161648,22.33132365046643],[114.16081913674206,22.331315829199735],[114.16081777263402,22.331316788654494],[114.16079486997745,22.331333457474596],[114.16076429322464,22.33129923658192],[114.16074543498117,22.331277948729049],[114.16079276390377,22.331240830958603],[114.16082270231615,22.3312173509761]]]},"properties":{"OBJECTID":70024,"Shape__Length":40.22504415950749,"Shape__Area":93.082970150866359,"GeoRefNo":"3461321358","DateCreate":1114790400000,"BuildingBlockType":"Tower","BuildingCSUID":"3461321358T20050430","BuildingID":1108226369,"Status":"Active","BuildingNameEN":null,"BuildingNameTC":null,"BaseHeight":4.5999999999999996,"TopHeight":36.700000000000003,"Storeys":10,"StoreysInBasement":null,"DateStamp":1599580800000}},{"type":"Feature","id":70027,"geometry":{"type":"Polygon","coordinates":[[[114.16267931389865,22.331162919859047],[114.16261768189227,22.331094474400281],[114.16256304424475,22.331033796646103],[114.1625980694248,22.331006656958934],[114.16271377537197,22.331136215281784],[114.16267931389865,22.331162919859047]]]},"properties":{"OBJECTID":70027,"Shape__Length":46.621580020541614,"Shape__Area":86.887400750121827,"GeoRefNo":"3480221339","DateCreate":1114790400000,"BuildingBlockType":"Tower","BuildingCSUID":"3480221339T20050430","BuildingID":1108226465,"Status":"Active","BuildingNameEN":null,"BuildingNameTC":null,"BaseHeight":5.4000000000000004,"TopHeight":39.399999999999999,"Storeys":8,"StoreysInBasement":null,"DateStamp":1599580800000}},{"type":"Feature","id":70028,"geometry":{"type":"Polygon","coordinates":[[[114.16386890460356,22.33099301054169],[114.16375900914979,22.330871738255254],[114.16374710415762,22.330858600868954],[114.16378829046606,22.330826902693197],[114.16377631973889,22.330813994409546],[114.16380223757901,22.33079392909784],[114.1638511162818,22.330847025614752],[114.16386308160988,22.330837590427567],[114.16381982408241,22.330790837084848],[114.16383885475264,22.330776254763965],[114.16384414768325,22.330782211940406],[114.16385812438305,22.330771294273777],[114.16385279483573,22.330765575773132],[114.16387841733392,22.330745971978498],[114.16390272732851,22.330773217468391],[114.16391487640158,22.330763718445741],[114.16401766205652,22.330877916953561],[114.16393558544422,22.330941419633831],[114.16391854254503,22.330954605725339],[114.16386890460356,22.33099301054169]]]},"properties":{"OBJECTID":70028,"Shape__Length":98.037472634181455,"Shape__Area":386.7539360485863,"GeoRefNo":"3492921314","DateCreate":1114790400000,"BuildingBlockType":"Tower","BuildingCSUID":"3492921314T20050430","BuildingID":1108226562,"Status":"Active","BuildingNameEN":"Fuk Wing House","BuildingNameTC":"福榮大樓","BaseHeight":5.7000000000000002,"TopHeight":38.600000000000001,"Storeys":10,"StoreysInBasement":null,"DateStamp":1599580800000}},{"type":"Feature","id":70031,"geometry":{"type":"Polygon","coordinates":[[[114.16080816213743,22.331010799649118],[114.16074963877823,22.330946190429003],[114.1606940480963,22.330884815511116],[114.16071066202126,22.330871939555291],[114.16076617708147,22.330933385621069],[114.16078289856461,22.330920439139767],[114.16084091394458,22.330985298625645],[114.16081676319862,22.331004103329811],[114.16080816213743,22.331010799649118]]]},"properties":{"OBJECTID":70031,"Shape__Length":45.344748620585293,"Shape__Area":61.159534346128979,"GeoRefNo":"3461021322","DateCreate":1114790400000,"BuildingBlockType":"Tower","BuildingCSUID":"3461021322T20050430","BuildingID":1108226550,"Status":"Active","BuildingNameEN":null,"BuildingNameTC":null,"BaseHeight":4.5,"TopHeight":22.800000000000001,"Storeys":6,"StoreysInBasement":null,"DateStamp":1599580800000}},{"type":"Feature","id":70083,"geometry":{"type":"Polygon","coordinates":[[[114.16383766296796,22.331017182093699],[114.16372812456561,22.330895604039842],[114.16375900914979,22.330871738255254],[114.16386890460356,22.33099301054169],[114.16383766296796,22.331017182093699]]]},"properties":{"OBJECTID":70083,"Shape__Length":43.453801486049606,"Shape__Area":73.092200313033231,"GeoRefNo":"3492021321","DateCreate":1114790400000,"BuildingBlockType":"Tower","BuildingCSUID":"3492021321T20050430","BuildingID":1108226546,"Status":"Active","BuildingNameEN":null,"BuildingNameTC":null,"BaseHeight":5.7000000000000002,"TopHeight":29.600000000000001,"Storeys":8,"StoreysInBasement":null,"DateStamp":1599580800000}},{"type":"Feature","id":70085,"geometry":{"type":"Polygon","coordinates":[[[114.16424214825734,22.331129534398869],[114.16412931023542,22.331005222262487],[114.16416317923832,22.330978992519146],[114.1642292561757,22.33105305575209],[114.1642713764392,22.331100267468923],[114.16428504784217,22.331115590805286],[114.16426818298513,22.331128685738193],[114.16428253002942,22.331144569384346],[114.16426988063276,22.331154380853455],[114.16424537705508,22.331127019723048],[114.16424214825734,22.331129534398869]]]},"properties":{"OBJECTID":70085,"Shape__Length":52.849744564647715,"Shape__Area":90.7966034374777,"GeoRefNo":"3496021332","DateCreate":1114790400000,"BuildingBlockType":"Tower","BuildingCSUID":"3496021332T20050430","BuildingID":1108226469,"Status":"Active","BuildingNameEN":null,"BuildingNameTC":null,"BaseHeight":5.7000000000000002,"TopHeight":26,"Storeys":6,"StoreysInBasement":null,"DateStamp":1599580800000}},{"type":"Feature","id":70086,"geometry":{"type":"Polygon","coordinates":[[[114.16071469829723,22.330973242850991],[114.16077319348297,22.331038018062774],[114.16073332857077,22.331069051944983],[114.16066813840526,22.330993593686667],[114.1606853256846,22.330980219483333],[114.16066572586818,22.330958355485727],[114.16068651401383,22.330942033878948],[114.16071469829723,22.330973242850991]]]},"properties":{"OBJECTID":70086,"Shape__Length":38.22071225363522,"Shape__Area":65.015630970449607,"GeoRefNo":"3460221328","DateCreate":1114790400000,"BuildingBlockType":"Tower","BuildingCSUID":"3460221328T20050430","BuildingID":1108226520,"Status":"Active","BuildingNameEN":null,"BuildingNameTC":null,"BaseHeight":4.4000000000000004,"TopHeight":27.800000000000001,"Storeys":6,"StoreysInBasement":null,"DateStamp":1599580800000}},{"type":"Feature","id":70087,"geometry":{"type":"Polygon","coordinates":[[[114.16274127801887,22.331105880791995],[114.16267787270951,22.331036149156418],[114.16269132706002,22.331025695897669],[114.16267835504546,22.331009145412473],[114.16269225367827,22.330998632500275],[114.16268690070143,22.330992696051482],[114.16267750149943,22.330999818011712],[114.1626311077342,22.330948617330353],[114.16262780178371,22.330944976361788],[114.16264445802403,22.330932397227269],[114.16264761052783,22.330935868678061],[114.16266813388366,22.330958468238418],[114.16277688457347,22.331078220594243],[114.16274127801887,22.331105880791995]]]},"properties":{"OBJECTID":70087,"Shape__Length":54.211953136530973,"Shape__Area":73.285088836247255,"GeoRefNo":"3480921333","DateCreate":1114790400000,"BuildingBlockType":"Tower","BuildingCSUID":"3480921333T20050430","BuildingID":1108226497,"Status":"Active","BuildingNameEN":null,"BuildingNameTC":"永裕大廈","BaseHeight":5.2000000000000002,"TopHeight":23.5,"Storeys":null,"StoreysInBasement":null,"DateStamp":1361808000000}},{"type":"Feature","id":70088,"geometry":{"type":"Polygon","coordinates":[[[114.16437401034116,22.331020872648828],[114.16433155807628,22.330973875950757],[114.16426498837389,22.330900179542791],[114.16426909219263,22.330897005882438],[114.16429785911021,22.33087472740722],[114.16436432669462,22.330948513287126],[114.1643473231496,22.330961673238061],[114.16438955078532,22.331008851068297],[114.16437401034116,22.331020872648828]]]},"properties":{"OBJECTID":70088,"Shape__Length":43.683196356169731,"Shape__Area":61.147172360270439,"GeoRefNo":"3497521320","DateCreate":1114790400000,"BuildingBlockType":"Tower","BuildingCSUID":"3497521320T20050430","BuildingID":1108226543,"Status":"Active","BuildingNameEN":null,"BuildingNameTC":null,"BaseHeight":5.7000000000000002,"TopHeight":24.899999999999999,"Storeys":6,"StoreysInBasement":null,"DateStamp":1599580800000}},{"type":"Feature","id":70128,"geometry":{"type":"Polygon","coordinates":[[[114.164598153889,22.330945195477966],[114.16460265007606,22.330941711909226],[114.16464874001247,22.33099343072039],[114.16463930565837,22.33100073665441],[114.16471646777921,22.331086302051098],[114.16468375102832,22.331111643567528],[114.16456042578703,22.330974426424291],[114.1645722239991,22.330965285388558],[114.164598153889,22.330945195477966]]]},"properties":{"OBJECTID":70128,"Shape__Length":50.925250195631172,"Shape__Area":96.11180465259622,"GeoRefNo":"3500721332","DateCreate":1114790400000,"BuildingBlockType":"Tower","BuildingCSUID":"3500721332T20050430","BuildingID":1108226496,"Status":"Active","BuildingNameEN":"Nam Cheong Street Public Toilet","BuildingNameTC":"南昌街公廁","BaseHeight":5.7000000000000002,"TopHeight":15.699999999999999,"Storeys":null,"StoreysInBasement":null,"DateStamp":1361808000000}},{"type":"Feature","id":70129,"geometry":{"type":"Polygon","coordinates":[[[114.1636542899038,22.330941774035892],[114.16376961048611,22.33106983421446],[114.1637362308412,22.33109565997685],[114.16360257160295,22.33094862647259],[114.16361834382518,22.330936398003921],[114.16363605925959,22.330955975489985],[114.1636542899038,22.330941774035892]]]},"properties":{"OBJECTID":70129,"Shape__Length":51.694475060862381,"Shape__Area":89.489620403875421,"GeoRefNo":"3491021330","DateCreate":1114790400000,"BuildingBlockType":"Tower","BuildingCSUID":"3491021330T20050430","BuildingID":1108226501,"Status":"Active","BuildingNameEN":null,"BuildingNameTC":null,"BaseHeight":5.7000000000000002,"TopHeight":25.5,"Storeys":6,"StoreysInBasement":null,"DateStamp":1599580800000}},{"type":"Feature","id":70177,"geometry":{"type":"Polygon","coordinates":[[[114.16060069397608,22.331118953177704],[114.16062189860436,22.331102367567052],[114.160681198283,22.331055984655432],[114.16068770380285,22.331063233970433],[114.16067275981668,22.331074339734929],[114.16068034234682,22.331082901842876],[114.16066679164047,22.331093411004829],[114.16068132051107,22.331109776137115],[114.16062980892391,22.331151333342781],[114.16062189396371,22.331142530714938],[114.160606342595,22.331125235234875],[114.16060069397608,22.331118953177704]]]},"properties":{"OBJECTID":70177,"Shape__Length":30.94670143772144,"Shape__Area":38.566971128142477,"GeoRefNo":"3459621339","DateCreate":1114790400000,"BuildingBlockType":"Tower","BuildingCSUID":"3459621339T20050430","BuildingID":1108226471,"Status":"Active","BuildingNameEN":null,"BuildingNameTC":null,"BaseHeight":4.4000000000000004,"TopHeight":25.600000000000001,"Storeys":null,"StoreysInBasement":null,"DateStamp":1361808000000}},{"type":"Feature","id":74163,"geometry":{"type":"Polygon","coordinates":[[[114.15968712424588,22.331474784113105],[114.15970883297574,22.331499063498633],[114.15963852172126,22.331557748688827],[114.15961584785268,22.331534210692535],[114.15963137965352,22.331521261134291],[114.15968712424588,22.331474784113105]]]},"properties":{"OBJECTID":74163,"Shape__Length":26.588652189058809,"Shape__Area":34.259386488831154,"GeoRefNo":"3449421385","DateCreate":1273507200000,"BuildingBlockType":"Open-sided Structure","BuildingCSUID":"3449421385T20100511","BuildingID":1109609210,"Status":"Active","BuildingNameEN":"YAT CHING HOUSE (BLK C)","BuildingNameTC":"逸靜閣(C座)","BaseHeight":null,"TopHeight":null,"Storeys":null,"StoreysInBasement":null,"DateStamp":1274889600000}},{"type":"Feature","id":74850,"geometry":{"type":"Polygon","coordinates":[[[114.16084264903296,22.334597835202313],[114.16087137702476,22.334629669374024],[114.16083004836534,22.334661519756697],[114.16082135303269,22.334651940887117],[114.16080807313169,22.334661402626164],[114.1607888284725,22.334639320148192],[114.16084264903296,22.334597835202313]]]},"properties":{"OBJECTID":74850,"Shape__Length":23.591354031254745,"Shape__Area":30.852124757012117,"GeoRefNo":"3461521731","DateCreate":1114790400000,"BuildingBlockType":"Tower","BuildingCSUID":"3461521731T20050430","BuildingID":1108224660,"Status":"Active","BuildingNameEN":"ON NING BUILDING","BuildingNameTC":"安寧大廈","BaseHeight":6.5,"TopHeight":10.6,"Storeys":10,"StoreysInBasement":null,"DateStamp":1599580800000}},{"type":"Feature","id":74867,"geometry":{"type":"Polygon","coordinates":[[[114.16101166081366,22.334709349436075],[114.16090187304424,22.334587344162404],[114.16092042788779,22.334573031346181],[114.16093358699682,22.334588588800383],[114.16093973894799,22.334584891382342],[114.1609689833072,22.334618163255364],[114.16097533897033,22.334613091492372],[114.16099359239745,22.334634108062719],[114.16100474890006,22.334626121245833],[114.1610518377164,22.334678281665518],[114.16101166081366,22.334709349436075]]]},"properties":{"OBJECTID":74867,"Shape__Length":46.03828812065592,"Shape__Area":73.123118369287468,"GeoRefNo":"3463321733","DateCreate":1114790400000,"BuildingBlockType":"Tower","BuildingCSUID":"3463321733T20050430","BuildingID":1108224620,"Status":"Active","BuildingNameEN":null,"BuildingNameTC":null,"BaseHeight":6.5,"TopHeight":24.800000000000001,"Storeys":4,"StoreysInBasement":null,"DateStamp":1599580800000}}]}