{"type":"FeatureCollection","features":[{"type":"Feature","id":139487,"geometry":{"type":"Polygon","coordinates":[[[114.16193057322239,22.333028659823281],[114.16201357810844,22.333122207254615],[114.16200534903189,22.33312898557703],[114.16203326712881,22.333160913573039],[114.16200086762451,22.333186044518694],[114.16193056488778,22.333107120021552],[114.16188014882654,22.333050520920402],[114.16189941280932,22.333035632626164],[114.16188513227353,22.333019405978121],[114.16190722274663,22.333002343560679],[114.16193057322239,22.333028659823281]]]},"properties":{"OBJECTID":139487,"Shape__Length":54.597418713317914,"Shape__Area":109.3557190751692,"GeoRefNo":"3473021560","DateCreate":1114790400000,"BuildingBlockType":"Tower","BuildingCSUID":"3473021560T20050430","BuildingID":1108225378,"Status":"Active","BuildingNameEN":"Yen Chow Street Public Toilet","BuildingNameTC":"欽州街公廁","BaseHeight":5.7000000000000002,"TopHeight":15.9,"Storeys":3,"StoreysInBasement":null,"DateStamp":1783612800000}},{"type":"Feature","id":139727,"geometry":{"type":"Polygon","coordinates":[[[114.15701254072151,22.334553016752601],[114.15690122790315,22.334426857135288],[114.15692250010757,22.334410613018893],[114.15703381283511,22.334536772712148],[114.15701254072151,22.334553016752601]]]},"properties":{"OBJECTID":139727,"Shape__Length":41.818097480044656,"Shape__Area":51.241910435351876,"GeoRefNo":"3421721715","DateCreate":1114790400000,"BuildingBlockType":"Tower","BuildingCSUID":"3421721715T20050430","BuildingID":1108224714,"Status":"Active","BuildingNameEN":null,"BuildingNameTC":null,"BaseHeight":4.4000000000000004,"TopHeight":12.5,"Storeys":null,"StoreysInBasement":null,"DateStamp":1361808000000}},{"type":"Feature","id":140437,"geometry":{"type":"Polygon","coordinates":[[[114.16442769088506,22.332819589569102],[114.16437769228517,22.332858124003145],[114.1643573880294,22.332835679645918],[114.1643739622515,22.332822734320946],[114.16432632958174,22.332768868935887],[114.16435309528154,22.33274803718119],[114.16437713697337,22.332774807744908],[114.16438305829625,22.332770200978825],[114.16442769088506,22.332819589569102]]]},"properties":{"OBJECTID":140437,"Shape__Length":35.288784435934488,"Shape__Area":52.945899577699571,"GeoRefNo":"3498021528","DateCreate":1114790400000,"BuildingBlockType":"Tower","BuildingCSUID":"3498021528T20050430","BuildingID":1108225552,"Status":"Active","BuildingNameEN":null,"BuildingNameTC":null,"BaseHeight":9,"TopHeight":26.399999999999999,"Storeys":6,"StoreysInBasement":null,"DateStamp":1599580800000}},{"type":"Feature","id":140439,"geometry":{"type":"Polygon","coordinates":[[[114.16313900216976,22.332813686923039],[114.16325359407216,22.332724947461077],[114.16338565041364,22.332872604379268],[114.16326470863052,22.332967090823356],[114.16319100670729,22.332884217513694],[114.16320721488157,22.332871445935389],[114.16318942875991,22.332852210659972],[114.16317969746473,22.332859518017461],[114.16313900216976,22.332813686923039]]]},"properties":{"OBJECTID":140439,"Shape__Length":77.679786003332083,"Shape__Area":334.3018456699939,"GeoRefNo":"3486721529","DateCreate":1114790400000,"BuildingBlockType":"Tower","BuildingCSUID":"3486721529T20050430","BuildingID":1108225497,"Status":"Active","BuildingNameEN":"Kin Sun Building","BuildingNameTC":"建新大廈","BaseHeight":8.0999999999999996,"TopHeight":45.399999999999999,"Storeys":12,"StoreysInBasement":null,"DateStamp":1599580800000}},{"type":"Feature","id":140660,"geometry":{"type":"Polygon","coordinates":[[[114.16530878122327,22.332954830277298],[114.16529184599567,22.332967522544884],[114.16526926987882,22.332942622635521],[114.16523331722462,22.33297108183357],[114.16521701244201,22.332951067276877],[114.16526884878894,22.332910879125986],[114.16530878122327,22.332954830277298]]]},"properties":{"OBJECTID":140660,"Shape__Length":26.815586193262192,"Shape__Area":27.397669206204341,"GeoRefNo":"3507221542","DateCreate":1114790400000,"BuildingBlockType":"Tower","BuildingCSUID":"3507221542T20050430","BuildingID":1108225494,"Status":"Active","BuildingNameEN":null,"BuildingNameTC":null,"BaseHeight":9.1999999999999993,"TopHeight":11.4,"Storeys":null,"StoreysInBasement":null,"DateStamp":1361808000000}},{"type":"Feature","id":140662,"geometry":{"type":"Polygon","coordinates":[[[114.16274563728626,22.332999164066933],[114.1626565277142,22.332899728808371],[114.16277001600109,22.332812212604281],[114.16284791954266,22.33290014350262],[114.16282847123425,22.3329151689782],[114.16286106804158,22.332951658491929],[114.16278311177258,22.333010874652636],[114.16276182403203,22.332986692075838],[114.16274563728626,22.332999164066933]]]},"properties":{"OBJECTID":140662,"Shape__Length":65.992517027486926,"Shape__Area":248.90644658102232,"GeoRefNo":"3481421540","DateCreate":1114790400000,"BuildingBlockType":"Tower","BuildingCSUID":"3481421540T20050430","BuildingID":1108225476,"Status":"Active","BuildingNameEN":null,"BuildingNameTC":null,"BaseHeight":6.2000000000000002,"TopHeight":33.200000000000003,"Storeys":9,"StoreysInBasement":null,"DateStamp":1599580800000}},{"type":"Feature","id":140663,"geometry":{"type":"Polygon","coordinates":[[[114.16049041015131,22.332791046764616],[114.16050834043386,22.332811088149285],[114.16053805332869,22.332787789445131],[114.16055395416677,22.332805580742249],[114.16049542712655,22.33285051300253],[114.16046181981135,22.332813017084888],[114.16049041015131,22.332791046764616]]]},"properties":{"OBJECTID":140663,"Shape__Length":26.496571169239385,"Shape__Area":30.814784097347417,"GeoRefNo":"3458021529","DateCreate":1114790400000,"BuildingBlockType":"Tower","BuildingCSUID":"3458021529T20050430","BuildingID":1108225557,"Status":"Active","BuildingNameEN":null,"BuildingNameTC":null,"BaseHeight":5,"TopHeight":20.5,"Storeys":4,"StoreysInBasement":null,"DateStamp":1599580800000}},{"type":"Feature","id":140894,"geometry":{"type":"Polygon","coordinates":[[[114.16284791954266,22.33290014350262],[114.16277001600109,22.332812212604281],[114.1628082150979,22.332782756087106],[114.16292477930308,22.332912660357895],[114.16292088702417,22.332915645081833],[114.16293719033065,22.332933492349735],[114.16292267186247,22.332944712411816],[114.16290648952418,22.332926668015347],[114.16288560207275,22.332942667863858],[114.16284791954266,22.33290014350262]]]},"properties":{"OBJECTID":140894,"Shape__Length":53.018057315148397,"Shape__Area":101.84935934703589,"GeoRefNo":"3482221534","DateCreate":1114790400000,"BuildingBlockType":"Tower","BuildingCSUID":"3482221534T20050430","BuildingID":1108225502,"Status":"Active","BuildingNameEN":null,"BuildingNameTC":null,"BaseHeight":6.2999999999999998,"TopHeight":40.600000000000001,"Storeys":10,"StoreysInBasement":null,"DateStamp":1599580800000}},{"type":"Feature","id":140896,"geometry":{"type":"Polygon","coordinates":[[[114.161436289421,22.332873991958472],[114.16136928671045,22.332799612889985],[114.16130372227362,22.33272671873884],[114.16134353975067,22.332695888719122],[114.16137236238836,22.33272783199806],[114.16147561114225,22.33284350177075],[114.161436289421,22.332873991958472]]]},"properties":{"OBJECTID":140896,"Shape__Length":53.149331563544074,"Shape__Area":113.08416590812077,"GeoRefNo":"3467021527","DateCreate":1114790400000,"BuildingBlockType":"Tower","BuildingCSUID":"3467021527T20050430","BuildingID":1108225546,"Status":"Active","BuildingNameEN":"Wing Pont House","BuildingNameTC":null,"BaseHeight":5.4000000000000004,"TopHeight":27.800000000000001,"Storeys":6,"StoreysInBasement":null,"DateStamp":1599580800000}},{"type":"Feature","id":141322,"geometry":{"type":"Polygon","coordinates":[[[114.16471655311508,22.332863177733234],[114.1650137340052,22.332633065200771],[114.1650543151049,22.332676825466756],[114.16508494870736,22.332654494163567],[114.16515176221507,22.332727418573953],[114.16478871506591,22.333011499267791],[114.16478566409261,22.333008042315967],[114.16470996089548,22.33306618222279],[114.16470623710303,22.333061992207078],[114.16436890966799,22.333321472406276],[114.16433067706711,22.333279060057492],[114.16430743243977,22.333253274154142],[114.16425790466342,22.333198331528187],[114.16459179068011,22.332938142666656],[114.16461107404278,22.332959162975566],[114.16464980465801,22.332929436411689],[114.16463116711958,22.33290812067537],[114.16466857970863,22.332878449455325],[114.16467994894799,22.332891532547173],[114.16471655311508,22.332863177733234]]]},"properties":{"OBJECTID":141322,"Shape__Length":251.801637465895,"Shape__Area":1797.8597361039394,"GeoRefNo":"3501721543","DateCreate":1114790400000,"BuildingBlockType":"Tower","BuildingCSUID":"3501721543T20050430","BuildingID":1108225314,"Status":"Active","BuildingNameEN":"Shek Kip Mei Estate Block 21","BuildingNameTC":"石硤尾邨第二十一座","BaseHeight":8.6999999999999993,"TopHeight":43.5,"Storeys":13,"StoreysInBasement":null,"DateStamp":1786636800000}},{"type":"Feature","id":141900,"geometry":{"type":"Polygon","coordinates":[[[114.16359510590108,22.328575381675901],[114.16349885736757,22.328469048322919],[114.16350808843897,22.328461875817986],[114.16353185970218,22.328443389274423],[114.16361580952541,22.328535988616082],[114.16360996688913,22.328540525827538],[114.16362203943929,22.328554297459135],[114.16359510590108,22.328575381675901]]]},"properties":{"OBJECTID":141900,"Shape__Length":39.617349436300962,"Shape__Area":66.693264407838214,"GeoRefNo":"3489721052","DateCreate":1114790400000,"BuildingBlockType":"Tower","BuildingCSUID":"3489721052T20050430","BuildingID":1108228519,"Status":"Active","BuildingNameEN":null,"BuildingNameTC":null,"BaseHeight":4.7999999999999998,"TopHeight":30.399999999999999,"Storeys":8,"StoreysInBasement":null,"DateStamp":1599580800000}},{"type":"Feature","id":141902,"geometry":{"type":"Polygon","coordinates":[[[114.16085061094452,22.3284941238588],[114.16089878436827,22.328456792734713],[114.16099088911218,22.328557129834426],[114.16101408678909,22.328582400847615],[114.1609791536338,22.328609558270923],[114.16094943785049,22.328576805136734],[114.16093596364617,22.328586936221509],[114.16085061094452,22.3284941238588]]]},"properties":{"OBJECTID":141902,"Shape__Length":49.497242738693664,"Shape__Area":109.59881515167589,"GeoRefNo":"3462521054","DateCreate":1114790400000,"BuildingBlockType":"Tower","BuildingCSUID":"3462521054T20050430","BuildingID":1108228492,"Status":"Active","BuildingNameEN":null,"BuildingNameTC":null,"BaseHeight":4.2999999999999998,"TopHeight":24,"Storeys":6,"StoreysInBasement":null,"DateStamp":1599580800000}},{"type":"Feature","id":141904,"geometry":{"type":"Polygon","coordinates":[[[114.16015299021434,22.32845078200258],[114.16014059592524,22.328437209745687],[114.160136537836,22.328432766099805],[114.16015046527889,22.32842186165842],[114.16016594693768,22.328438753965056],[114.16017797145997,22.328429808691499],[114.16019624933752,22.328449672705837],[114.16020559465498,22.328442279693277],[114.16021816653671,22.328456230344852],[114.16030784802498,22.328555746703952],[114.16027331915907,22.328582546314951],[114.1602500407856,22.328557055744373],[114.16015299021434,22.32845078200258]]]},"properties":{"OBJECTID":141904,"Shape__Length":52.872015561143847,"Shape__Area":91.533441543200794,"GeoRefNo":"3455321051","DateCreate":1114790400000,"BuildingBlockType":"Tower","BuildingCSUID":"3455321051T20050430","BuildingID":1108228515,"Status":"Active","BuildingNameEN":null,"BuildingNameTC":null,"BaseHeight":4.0999999999999996,"TopHeight":28.899999999999999,"Storeys":7,"StoreysInBasement":null,"DateStamp":1599580800000}},{"type":"Feature","id":142299,"geometry":{"type":"Polygon","coordinates":[[[114.16459544988001,22.328554443484663],[114.16461210472401,22.328541467249782],[114.16464158630687,22.328574813546652],[114.16466296226399,22.328558275367033],[114.1646828609698,22.328542842868853],[114.16465269842983,22.328509912657491],[114.16466965651254,22.328496761065445],[114.16469105959895,22.328521001118936],[114.16478779870687,22.328629204846891],[114.16471337870584,22.328686836641698],[114.16467730060288,22.328646366629499],[114.16459544988001,22.328554443484663]]]},"properties":{"OBJECTID":142299,"Shape__Length":67.692472690415798,"Shape__Area":163.4917502955372,"GeoRefNo":"3501421063","DateCreate":1114790400000,"BuildingBlockType":"Tower","BuildingCSUID":"3501421063T20050430","BuildingID":1108228432,"Status":"Active","BuildingNameEN":"Wing Wah Building","BuildingNameTC":"榮華樓","BaseHeight":5.0999999999999996,"TopHeight":51.600000000000001,"Storeys":15,"StoreysInBasement":null,"DateStamp":1599580800000}},{"type":"Feature","id":142332,"geometry":{"type":"Polygon","coordinates":[[[114.16489995157129,22.328542352016282],[114.16481355353677,22.328445638552797],[114.16484965923286,22.32841745586909],[114.16493578545351,22.328514601678084],[114.16489995157129,22.328542352016282]]]},"properties":{"OBJECTID":142332,"Shape__Length":37.528919181495667,"Shape__Area":67.296856596529381,"GeoRefNo":"3503021048","DateCreate":1114790400000,"BuildingBlockType":"Tower","BuildingCSUID":"3503021048T20050430","BuildingID":1108228546,"Status":"Active","BuildingNameEN":null,"BuildingNameTC":null,"BaseHeight":5.0999999999999996,"TopHeight":24.899999999999999,"Storeys":6,"StoreysInBasement":null,"DateStamp":1599580800000}},{"type":"Feature","id":142336,"geometry":{"type":"Polygon","coordinates":[[[114.16020395579838,22.328636359056535],[114.16013170818565,22.32855704359666],[114.16007177467223,22.328491246807218],[114.16010379449237,22.328466108155908],[114.16018697592607,22.328557049281052],[114.16023645786083,22.328611147100599],[114.16020395579838,22.328636359056535]]]},"properties":{"OBJECTID":142336,"Shape__Length":50.828097402194402,"Shape__Area":91.425789324582254,"GeoRefNo":"3454521057","DateCreate":1114790400000,"BuildingBlockType":"Tower","BuildingCSUID":"3454521057T20050430","BuildingID":1108228469,"Status":"Active","BuildingNameEN":"Yee King House","BuildingNameTC":"怡景樓","BaseHeight":4.0999999999999996,"TopHeight":24,"Storeys":6,"StoreysInBasement":null,"DateStamp":1599580800000}},{"type":"Feature","id":142338,"geometry":{"type":"Polygon","coordinates":[[[114.16030784802498,22.328555746703952],[114.16021816653671,22.328456230344852],[114.16025501705305,22.328428202191045],[114.16034462183028,22.328527208836146],[114.16032082674307,22.328545671520214],[114.16030784802498,22.328555746703952]]]},"properties":{"OBJECTID":142338,"Shape__Length":38.550097506646367,"Shape__Area":70.609336161355188,"GeoRefNo":"3455721049","DateCreate":1114790400000,"BuildingBlockType":"Tower","BuildingCSUID":"3455721049T20050430","BuildingID":1108228535,"Status":"Active","BuildingNameEN":"Ying Tat Building","BuildingNameTC":"盈達樓","BaseHeight":4.0999999999999996,"TopHeight":26.899999999999999,"Storeys":6,"StoreysInBasement":null,"DateStamp":1599580800000}},{"type":"Feature","id":142499,"geometry":{"type":"Polygon","coordinates":[[[114.16169378826282,22.32868995416856],[114.16165575502279,22.328647957313585],[114.1615958198266,22.328581775752784],[114.16164170171891,22.328546451691647],[114.16172859489942,22.328643148015807],[114.16173931757341,22.328655080492876],[114.16169378826282,22.32868995416856]]]},"properties":{"OBJECTID":142499,"Shape__Length":43.554424984441134,"Shape__Area":95.681103881856544,"GeoRefNo":"3470121065","DateCreate":1114790400000,"BuildingBlockType":"Tower","BuildingCSUID":"3470121065T20050430","BuildingID":1108228427,"Status":"Active","BuildingNameEN":null,"BuildingNameTC":null,"BaseHeight":4.0999999999999996,"TopHeight":29.699999999999999,"Storeys":8,"StoreysInBasement":null,"DateStamp":1599580800000}},{"type":"Feature","id":142502,"geometry":{"type":"Polygon","coordinates":[[[114.16079764136697,22.32875059831871],[114.1607827721263,22.328762197715758],[114.16075514474564,22.328731889332339],[114.16073222743904,22.328749574720451],[114.16064501254228,22.328653554583635],[114.1606808831213,22.328625717864803],[114.16079764136697,22.32875059831871]]]},"properties":{"OBJECTID":142502,"Shape__Length":46.528432810681643,"Shape__Area":77.075253321470001,"GeoRefNo":"3460221073","DateCreate":1114790400000,"BuildingBlockType":"Tower","BuildingCSUID":"3460221073T20050430","BuildingID":1108228369,"Status":"Active","BuildingNameEN":null,"BuildingNameTC":"明德大廈","BaseHeight":4.2999999999999998,"TopHeight":44.899999999999999,"Storeys":13,"StoreysInBasement":null,"DateStamp":1599580800000}},{"type":"Feature","id":142503,"geometry":{"type":"Polygon","coordinates":[[[114.16341288972903,22.32869951410596],[114.16336647764435,22.328648108444451],[114.16332610012887,22.328603386536539],[114.16335940549254,22.328577490405724],[114.16342251204945,22.328648113089343],[114.1634457925141,22.328674166261411],[114.16344064093423,22.328678136673993],[114.16346531520418,22.328705970247615],[114.16345261539384,22.328715835112853],[114.16342769806138,22.328688103562804],[114.16341288972903,22.32869951410596]]]},"properties":{"OBJECTID":142503,"Shape__Length":44.667187618497344,"Shape__Area":68.585094618737543,"GeoRefNo":"3487821067","DateCreate":1114790400000,"BuildingBlockType":"Tower","BuildingCSUID":"3487821067T20050430","BuildingID":1108228410,"Status":"Active","BuildingNameEN":null,"BuildingNameTC":null,"BaseHeight":4.5999999999999996,"TopHeight":34.799999999999997,"Storeys":9,"StoreysInBasement":null,"DateStamp":1599580800000}},{"type":"Feature","id":142506,"geometry":{"type":"Polygon","coordinates":[[[114.16183929969,22.328714410141142],[114.16180745704658,22.328679990825083],[114.16182203544079,22.32866876616648],[114.16185306363445,22.328703804360661],[114.16184566522746,22.32870951190894],[114.16183929969,22.328714410141142]]]},"properties":{"OBJECTID":142506,"Shape__Length":13.846660222148312,"Shape__Area":9.5294596995117811,"GeoRefNo":"3471921073","DateCreate":1114790400000,"BuildingBlockType":"Tower","BuildingCSUID":"3471921073T20050430","BuildingID":1108228412,"Status":"Active","BuildingNameEN":null,"BuildingNameTC":null,"BaseHeight":4.2999999999999998,"TopHeight":32.5,"Storeys":9,"StoreysInBasement":null,"DateStamp":1599580800000}},{"type":"Feature","id":142507,"geometry":{"type":"Polygon","coordinates":[[[114.161907448131,22.328661836306654],[114.16187583573503,22.328627308567697],[114.16188873648434,22.32861738279772],[114.16192039246779,22.328651873964361],[114.16191358340308,22.328657124893319],[114.161907448131,22.328661836306654]]]},"properties":{"OBJECTID":142507,"Shape__Length":13.500175672863332,"Shape__Area":8.6769522166204105,"GeoRefNo":"3472521067","DateCreate":1114790400000,"BuildingBlockType":"Tower","BuildingCSUID":"3472521067T20050430","BuildingID":1108228451,"Status":"Active","BuildingNameEN":null,"BuildingNameTC":null,"BaseHeight":4.2999999999999998,"TopHeight":32.5,"Storeys":9,"StoreysInBasement":null,"DateStamp":1599580800000}},{"type":"Feature","id":142530,"geometry":{"type":"Polygon","coordinates":[[[114.16374284851541,22.328574784198455],[114.16372787820671,22.328558246905892],[114.16376047676746,22.328533183797028],[114.16374655786458,22.328517851993261],[114.16386609065751,22.328425391847631],[114.16389483270214,22.328457523878924],[114.16374284851541,22.328574784198455]]]},"properties":{"OBJECTID":142530,"Shape__Length":49.958636651722642,"Shape__Area":84.313182178584114,"GeoRefNo":"3492321050","DateCreate":1114790400000,"BuildingBlockType":"Tower","BuildingCSUID":"3492321050T20050430","BuildingID":1108228521,"Status":"Active","BuildingNameEN":null,"BuildingNameTC":null,"BaseHeight":5,"TopHeight":36.299999999999997,"Storeys":9,"StoreysInBasement":null,"DateStamp":1599580800000}},{"type":"Feature","id":142532,"geometry":{"type":"Polygon","coordinates":[[[114.16119816110309,22.328529872897278],[114.16117152531956,22.328500298053303],[114.16129277682741,22.328405768807517],[114.16131116745558,22.32842563848666],[114.16133463918023,22.328407016777945],[114.16134292178224,22.328416104865799],[114.16133832608857,22.328419716569968],[114.16119816110309,22.328529872897278]]]},"properties":{"OBJECTID":142532,"Shape__Length":47.493799999564899,"Shape__Area":73.390488062817724,"GeoRefNo":"3465721047","DateCreate":1114790400000,"BuildingBlockType":"Tower","BuildingCSUID":"3465721047T20050430","BuildingID":1108228556,"Status":"Active","BuildingNameEN":null,"BuildingNameTC":null,"BaseHeight":4.2000000000000002,"TopHeight":18.899999999999999,"Storeys":4,"StoreysInBasement":null,"DateStamp":1599580800000}},{"type":"Feature","id":142534,"geometry":{"type":"Polygon","coordinates":[[[114.15886283469813,22.328531966789676],[114.15882546481991,22.328490758075016],[114.15878552851581,22.328446719242045],[114.158813679849,22.328424218699993],[114.15882067948576,22.328418780176492],[114.15892150986369,22.328530212861164],[114.15890021507289,22.328546659444665],[114.15890957995377,22.32855691308287],[114.15893159290786,22.328581015163518],[114.15891734210497,22.328592073254995],[114.15888545477765,22.328556910413749],[114.15886283469813,22.328531966789676]]]},"properties":{"OBJECTID":142534,"Shape__Length":51.70724448289495,"Shape__Area":86.052880497340524,"GeoRefNo":"3441121050","DateCreate":1114790400000,"BuildingBlockType":"Tower","BuildingCSUID":"3441121050T20050430","BuildingID":1108228509,"Status":"Active","BuildingNameEN":null,"BuildingNameTC":null,"BaseHeight":3.7999999999999998,"TopHeight":29.100000000000001,"Storeys":8,"StoreysInBasement":null,"DateStamp":1599580800000}},{"type":"Feature","id":142538,"geometry":{"type":"Polygon","coordinates":[[[114.16126132921197,22.328600007421933],[114.1612802623295,22.328585152213019],[114.16135924927575,22.328523177906657],[114.16139183588376,22.328558460706024],[114.16129248532928,22.328634604862859],[114.1612802583532,22.328621027471634],[114.16126132921197,22.328600007421933]]]},"properties":{"OBJECTID":142538,"Shape__Length":36.606965985383539,"Shape__Area":67.126629899000321,"GeoRefNo":"3466621060","DateCreate":1114790400000,"BuildingBlockType":"Tower","BuildingCSUID":"3466621060T20050430","BuildingID":1108228473,"Status":"Active","BuildingNameEN":null,"BuildingNameTC":null,"BaseHeight":4.2999999999999998,"TopHeight":16.300000000000001,"Storeys":null,"StoreysInBasement":null,"DateStamp":1361808000000}},{"type":"Feature","id":142540,"geometry":{"type":"Polygon","coordinates":[[[114.16119816110309,22.328529872897278],[114.16133832608857,22.328419716569968],[114.16135620873516,22.328439103149474],[114.16133044960739,22.328458978719741],[114.16134482062255,22.328474692767838],[114.16123921669842,22.32855715391122],[114.1612295376964,22.328564711669021],[114.16122272954988,22.328557152324485],[114.16119816110309,22.328529872897278]]]},"properties":{"OBJECTID":142540,"Shape__Length":48.002739235659106,"Shape__Area":88.007218014217187,"GeoRefNo":"3466021051","DateCreate":1114790400000,"BuildingBlockType":"Tower","BuildingCSUID":"3466021051T20050430","BuildingID":1108228527,"Status":"Active","BuildingNameEN":null,"BuildingNameTC":null,"BaseHeight":4.2999999999999998,"TopHeight":24.5,"Storeys":6,"StoreysInBasement":null,"DateStamp":1599580800000}},{"type":"Feature","id":142541,"geometry":{"type":"Polygon","coordinates":[[[114.16284970655988,22.32846492463047],[114.16295161043207,22.32838688620285],[114.16297484656472,22.328369076627613],[114.16303552735928,22.328436649898816],[114.16291123733248,22.32853357771733],[114.16284970655988,22.32846492463047]]]},"properties":{"OBJECTID":142541,"Shape__Length":53.05624874123113,"Shape__Area":164.09354044351593,"GeoRefNo":"3483221047","DateCreate":1114790400000,"BuildingBlockType":"Tower","BuildingCSUID":"3483221047T20050430","BuildingID":1108228553,"Status":"Active","BuildingNameEN":null,"BuildingNameTC":null,"BaseHeight":4.2000000000000002,"TopHeight":25.899999999999999,"Storeys":6,"StoreysInBasement":null,"DateStamp":1599580800000}},{"type":"Feature","id":142542,"geometry":{"type":"Polygon","coordinates":[[[114.16135924927575,22.328523177906657],[114.1612802623295,22.328585152213019],[114.16126132921197,22.328600007421933],[114.1612295376964,22.328564711669021],[114.16123921669842,22.32855715391122],[114.16134482062255,22.328474692767838],[114.16135969574079,22.328490957999328],[114.16138554399755,22.328470894055013],[114.16140248319158,22.328489255839035],[114.16137007297309,22.328514685404201],[114.16135924927575,22.328523177906657]]]},"properties":{"OBJECTID":142542,"Shape__Length":48.140474257743975,"Shape__Area":88.219042254594825,"GeoRefNo":"3466321056","DateCreate":1114790400000,"BuildingBlockType":"Tower","BuildingCSUID":"3466321056T20050430","BuildingID":1108228503,"Status":"Active","BuildingNameEN":null,"BuildingNameTC":null,"BaseHeight":4.2999999999999998,"TopHeight":24.5,"Storeys":6,"StoreysInBasement":null,"DateStamp":1599580800000}},{"type":"Feature","id":142544,"geometry":{"type":"Polygon","coordinates":[[[114.16140248319158,22.328489255839035],[114.16140662321831,22.328486007480411],[114.16141591927079,22.328496203984436],[114.16140712338138,22.328502946284846],[114.16141363190151,22.3285104239567],[114.16138573287667,22.328531836427736],[114.16137007297309,22.328514685404201],[114.16140248319158,22.328489255839035]]]},"properties":{"OBJECTID":142544,"Shape__Length":14.863995858999489,"Shape__Area":11.140639146285691,"GeoRefNo":"3467321053","DateCreate":1114790400000,"BuildingBlockType":"Tower","BuildingCSUID":"3467321053T20050430","BuildingID":1108228554,"Status":"Active","BuildingNameEN":null,"BuildingNameTC":null,"BaseHeight":4.2999999999999998,"TopHeight":7.2000000000000002,"Storeys":null,"StoreysInBasement":null,"DateStamp":1361808000000}},{"type":"Feature","id":142725,"geometry":{"type":"Polygon","coordinates":[[[114.16201630429093,22.328577880374144],[114.16204054695118,22.328559180700033],[114.16205134147242,22.328550857743799],[114.1621357744215,22.328646517636823],[114.16210139053092,22.328673124034548],[114.16207894265762,22.328647996380109],[114.16201630429093,22.328577880374144]]]},"properties":{"OBJECTID":142725,"Shape__Length":36.716782744448729,"Shape__Area":63.726276053603229,"GeoRefNo":"3474321063","DateCreate":1114790400000,"BuildingBlockType":"Tower","BuildingCSUID":"3474321063T20050430","BuildingID":1108228443,"Status":"Active","BuildingNameEN":null,"BuildingNameTC":null,"BaseHeight":4.2000000000000002,"TopHeight":31.199999999999999,"Storeys":9,"StoreysInBasement":null,"DateStamp":1599580800000}},{"type":"Feature","id":142763,"geometry":{"type":"Polygon","coordinates":[[[114.16217038758759,22.328619733801506],[114.16208493612427,22.32852493327422],[114.16211122790223,22.328504611702304],[114.16211855901176,22.328498990919584],[114.16220434160888,22.328593460036899],[114.16217038758759,22.328619733801506]]]},"properties":{"OBJECTID":142763,"Shape__Length":36.444789338833708,"Shape__Area":61.98595523405077,"GeoRefNo":"3474921057","DateCreate":1114790400000,"BuildingBlockType":"Tower","BuildingCSUID":"3474921057T20050430","BuildingID":1108228485,"Status":"Active","BuildingNameEN":null,"BuildingNameTC":null,"BaseHeight":4.2000000000000002,"TopHeight":30.800000000000001,"Storeys":9,"StoreysInBasement":null,"DateStamp":1599580800000}},{"type":"Feature","id":142766,"geometry":{"type":"Polygon","coordinates":[[[114.16366214667048,22.328522870316377],[114.16356654595131,22.328416418574253],[114.16357506644161,22.328409793080095],[114.16359945545969,22.328390828317282],[114.16368339094046,22.328483319527262],[114.16367939929727,22.328486419132069],[114.16369167019747,22.328499741683736],[114.16366214667048,22.328522870316377]]]},"properties":{"OBJECTID":142766,"Shape__Length":39.63865052614311,"Shape__Area":67.419398431305481,"GeoRefNo":"3490421047","DateCreate":1114790400000,"BuildingBlockType":"Tower","BuildingCSUID":"3490421047T20050430","BuildingID":1108228560,"Status":"Active","BuildingNameEN":null,"BuildingNameTC":null,"BaseHeight":4.7999999999999998,"TopHeight":30.399999999999999,"Storeys":8,"StoreysInBasement":null,"DateStamp":1599580800000}},{"type":"Feature","id":142767,"geometry":{"type":"Polygon","coordinates":[[[114.16023645786083,22.328611147100599],[114.16018697592607,22.328557049281052],[114.16010379449237,22.328466108155908],[114.16011891781235,22.328454231427383],[114.16013112731359,22.328467582507869],[114.16015299021434,22.32845078200258],[114.1602500407856,22.328557055744373],[114.16027331915907,22.328582546314951],[114.16023645786083,22.328611147100599]]]},"properties":{"OBJECTID":142767,"Shape__Length":52.081331076758346,"Shape__Area":98.80928597553239,"GeoRefNo":"3454921054","DateCreate":1114790400000,"BuildingBlockType":"Tower","BuildingCSUID":"3454921054T20050430","BuildingID":1108228489,"Status":"Active","BuildingNameEN":null,"BuildingNameTC":null,"BaseHeight":4.0999999999999996,"TopHeight":26.100000000000001,"Storeys":6,"StoreysInBasement":null,"DateStamp":1599580800000}},{"type":"Feature","id":142926,"geometry":{"type":"Polygon","coordinates":[[[114.16186611363287,22.328536884071688],[114.16189260046582,22.328516417070581],[114.16192353932595,22.328550699112906],[114.16189712024602,22.328571138943158],[114.16186611363287,22.328536884071688]]]},"properties":{"OBJECTID":142926,"Shape__Length":17.003094350606133,"Shape__Area":17.568625229768379,"GeoRefNo":"3472521057","DateCreate":1114790400000,"BuildingBlockType":"Tower","BuildingCSUID":"3472521057T20050430","BuildingID":1108228524,"Status":"Active","BuildingNameEN":null,"BuildingNameTC":null,"BaseHeight":4.2000000000000002,"TopHeight":31.699999999999999,"Storeys":8,"StoreysInBasement":null,"DateStamp":1599580800000}},{"type":"Feature","id":142927,"geometry":{"type":"Polygon","coordinates":[[[114.16354807186849,22.328588782917748],[114.16346451793424,22.32849575570517],[114.16349061595464,22.328475464055543],[114.16349885736757,22.328469048322919],[114.16359510590108,22.328575381675901],[114.16356867917466,22.328596063346154],[114.16355603798939,22.328582544159211],[114.16354807186849,22.328588782917748]]]},"properties":{"OBJECTID":142927,"Shape__Length":40.043963846302468,"Shape__Area":69.298911299994884,"GeoRefNo":"3489421056","DateCreate":1114790400000,"BuildingBlockType":"Tower","BuildingCSUID":"3489421056T20050430","BuildingID":1108228505,"Status":"Active","BuildingNameEN":null,"BuildingNameTC":null,"BaseHeight":4.7999999999999998,"TopHeight":30.399999999999999,"Storeys":8,"StoreysInBasement":null,"DateStamp":1599580800000}},{"type":"Feature","id":144090,"geometry":{"type":"Polygon","coordinates":[[[114.16179908109443,22.328588681724103],[114.16171173298838,22.328492537253666],[114.16174539815806,22.328466620356249],[114.16183231818489,22.328562998661376],[114.16182451585838,22.328569027660187],[114.16179908109443,22.328588681724103]]]},"properties":{"OBJECTID":144090,"Shape__Length":36.824621131713634,"Shape__Area":62.38126494655539,"GeoRefNo":"3471321056","DateCreate":1114790400000,"BuildingBlockType":"Tower","BuildingCSUID":"3471321056T20050430","BuildingID":1108228511,"Status":"Active","BuildingNameEN":null,"BuildingNameTC":null,"BaseHeight":4.2000000000000002,"TopHeight":29.699999999999999,"Storeys":8,"StoreysInBasement":null,"DateStamp":1599580800000}},{"type":"Feature","id":144095,"geometry":{"type":"Polygon","coordinates":[[[114.16374284851541,22.328574784198455],[114.16389483270214,22.328457523878924],[114.16392261992313,22.328488588323612],[114.1638532672238,22.328542456812539],[114.16380378745968,22.328580890621563],[114.16378898009592,22.328564580286354],[114.16375665211592,22.328590042303567],[114.16374284851541,22.328574784198455]]]},"properties":{"OBJECTID":144095,"Shape__Length":49.701246228709969,"Shape__Area":81.404389479846401,"GeoRefNo":"3492621053","DateCreate":1114790400000,"BuildingBlockType":"Tower","BuildingCSUID":"3492621053T20050430","BuildingID":1108228510,"Status":"Active","BuildingNameEN":null,"BuildingNameTC":null,"BaseHeight":4.9000000000000004,"TopHeight":36.299999999999997,"Storeys":9,"StoreysInBasement":null,"DateStamp":1599580800000}},{"type":"Feature","id":144096,"geometry":{"type":"Polygon","coordinates":[[[114.16455036111758,22.328490622833208],[114.16446400420425,22.328396298678637],[114.16449929201663,22.328368844146429],[114.16450262247793,22.32836625298329],[114.16460718742704,22.328482762934588],[114.16460611312525,22.328483597550459],[114.1646015302334,22.328487158054429],[114.16461615141375,22.328503469746494],[114.16461607288205,22.328503530787319],[114.16460232197053,22.328514230631512],[114.16458764041334,22.328497945032051],[114.16456948027104,22.328512053405284],[114.16455038761404,22.328490651733087],[114.16455036111758,22.328490622833208]]]},"properties":{"OBJECTID":144096,"Shape__Length":48.558380810292448,"Shape__Area":90.213308169423158,"GeoRefNo":"3499621045","DateCreate":1114790400000,"BuildingBlockType":"Tower","BuildingCSUID":"3499621045T20050430","BuildingID":1108228568,"Status":"Active","BuildingNameEN":null,"BuildingNameTC":null,"BaseHeight":4.7000000000000002,"TopHeight":36.399999999999999,"Storeys":10,"StoreysInBasement":null,"DateStamp":1599580800000}},{"type":"Feature","id":144097,"geometry":{"type":"Polygon","coordinates":[[[114.1631232746398,22.328373424289151],[114.16314849425056,22.328401802502373],[114.16321430571178,22.328475856396302],[114.16318083270475,22.328501832584795],[114.16314647049396,22.328528493751339],[114.16303411330581,22.328402070136317],[114.16306063633921,22.328381639069331],[114.16310215348571,22.328349657796696],[114.1631232746398,22.328373424289151]]]},"properties":{"OBJECTID":144097,"Shape__Length":54.498593781926012,"Shape__Area":165.16263492147075,"GeoRefNo":"3484921044","DateCreate":1114790400000,"BuildingBlockType":"Tower","BuildingCSUID":"3484921044T20050430","BuildingID":1108228557,"Status":"Active","BuildingNameEN":null,"BuildingNameTC":"富裕大廈","BaseHeight":4.5,"TopHeight":17.699999999999999,"Storeys":10,"StoreysInBasement":null,"DateStamp":1599580800000}},{"type":"Feature","id":144306,"geometry":{"type":"Polygon","coordinates":[[[114.16361580952541,22.328535988616082],[114.16353185970218,22.328443389274423],[114.16355743671201,22.32842350223159],[114.16356654595131,22.328416418574253],[114.16366214667048,22.328522870316377],[114.1636363568584,22.328543079117861],[114.16362414373836,22.328529497208411],[114.16361580952541,22.328535988616082]]]},"properties":{"OBJECTID":144306,"Shape__Length":39.98694722138876,"Shape__Area":68.839930836455153,"GeoRefNo":"3490021050","DateCreate":1114790400000,"BuildingBlockType":"Tower","BuildingCSUID":"3490021050T20050430","BuildingID":1108228544,"Status":"Active","BuildingNameEN":null,"BuildingNameTC":null,"BaseHeight":4.7999999999999998,"TopHeight":30.399999999999999,"Storeys":8,"StoreysInBasement":null,"DateStamp":1599580800000}},{"type":"Feature","id":144307,"geometry":{"type":"Polygon","coordinates":[[[114.16197482138429,22.328609868414581],[114.16194349893513,22.328575195051862],[114.16195756776793,22.32856434880588],[114.16198861239191,22.328599241493386],[114.16198191855887,22.328604405922821],[114.16197482138429,22.328609868414581]]]},"properties":{"OBJECTID":144307,"Shape__Length":13.758508382777215,"Shape__Area":9.3475689962501374,"GeoRefNo":"3473121061","DateCreate":1114790400000,"BuildingBlockType":"Tower","BuildingCSUID":"3473121061T20050430","BuildingID":1108228491,"Status":"Active","BuildingNameEN":null,"BuildingNameTC":null,"BaseHeight":4.2999999999999998,"TopHeight":33.600000000000001,"Storeys":9,"StoreysInBasement":null,"DateStamp":1599580800000}},{"type":"Feature","id":144308,"geometry":{"type":"Polygon","coordinates":[[[114.16183231818489,22.328562998661376],[114.16174539815806,22.328466620356249],[114.16177905846143,22.328440708418125],[114.16186611363287,22.328536884071688],[114.1618413654852,22.328556007658914],[114.16183231818489,22.328562998661376]]]},"properties":{"OBJECTID":144308,"Shape__Length":36.881848586503764,"Shape__Area":62.859757152615771,"GeoRefNo":"3471621052","DateCreate":1114790400000,"BuildingBlockType":"Tower","BuildingCSUID":"3471621052T20050430","BuildingID":1108228528,"Status":"Active","BuildingNameEN":null,"BuildingNameTC":null,"BaseHeight":4.2000000000000002,"TopHeight":29.699999999999999,"Storeys":8,"StoreysInBasement":null,"DateStamp":1599580800000}},{"type":"Feature","id":144313,"geometry":{"type":"Polygon","coordinates":[[[114.16186611363287,22.328536884071688],[114.16177905846143,22.328440708418125],[114.16181482050001,22.328413176761433],[114.16190183676314,22.328509279967243],[114.16189260046582,22.328516417070581],[114.16186611363287,22.328536884071688]]]},"properties":{"OBJECTID":144313,"Shape__Length":37.404236883696797,"Shape__Area":66.574408534496726,"GeoRefNo":"3471921049","DateCreate":1114790400000,"BuildingBlockType":"Tower","BuildingCSUID":"3471921049T20050430","BuildingID":1108228551,"Status":"Active","BuildingNameEN":null,"BuildingNameTC":null,"BaseHeight":4.2000000000000002,"TopHeight":29.699999999999999,"Storeys":8,"StoreysInBasement":null,"DateStamp":1599580800000}},{"type":"Feature","id":144314,"geometry":{"type":"Polygon","coordinates":[[[114.16204054695118,22.328559180700033],[114.16200933603102,22.328524459046378],[114.16202667032103,22.328511105299679],[114.16205768777635,22.328545956069789],[114.16205134147242,22.328550857743799],[114.16204054695118,22.328559180700033]]]},"properties":{"OBJECTID":144314,"Shape__Length":14.635341308103854,"Shape__Area":11.558297359666907,"GeoRefNo":"3473921055","DateCreate":1114790400000,"BuildingBlockType":"Tower","BuildingCSUID":"3473921055T20050430","BuildingID":1108228533,"Status":"Active","BuildingNameEN":null,"BuildingNameTC":null,"BaseHeight":4.2999999999999998,"TopHeight":33.600000000000001,"Storeys":9,"StoreysInBasement":null,"DateStamp":1599580800000}},{"type":"Feature","id":144315,"geometry":{"type":"Polygon","coordinates":[[[114.16182451585838,22.328569027660187],[114.16183231818489,22.328562998661376],[114.1618413654852,22.328556007658914],[114.16187254779851,22.328590145876095],[114.16185571370011,22.32860317464166],[114.16182451585838,22.328569027660187]]]},"properties":{"OBJECTID":144315,"Shape__Length":14.436088572422733,"Shape__Area":11.19436443033058,"GeoRefNo":"3472021060","DateCreate":1114790400000,"BuildingBlockType":"Tower","BuildingCSUID":"3472021060T20050430","BuildingID":1108228499,"Status":"Active","BuildingNameEN":null,"BuildingNameTC":null,"BaseHeight":4.2999999999999998,"TopHeight":32.200000000000003,"Storeys":8,"StoreysInBasement":null,"DateStamp":1599580800000}},{"type":"Feature","id":144316,"geometry":{"type":"Polygon","coordinates":[[[114.15892150986369,22.328530212861164],[114.15882067948576,22.328418780176492],[114.15883013872633,22.328411430602724],[114.15885610386195,22.328392468715688],[114.15898682291422,22.328538159934357],[114.15897206324976,22.328549612520916],[114.15894129978442,22.328514928254631],[114.15892150986369,22.328530212861164]]]},"properties":{"OBJECTID":144316,"Shape__Length":51.424665609387219,"Shape__Area":84.405229560770309,"GeoRefNo":"3441521047","DateCreate":1114790400000,"BuildingBlockType":"Tower","BuildingCSUID":"3441521047T20050430","BuildingID":1108228540,"Status":"Active","BuildingNameEN":null,"BuildingNameTC":null,"BaseHeight":3.7999999999999998,"TopHeight":29.100000000000001,"Storeys":8,"StoreysInBasement":null,"DateStamp":1599580800000}},{"type":"Feature","id":144321,"geometry":{"type":"Polygon","coordinates":[[[114.16211855901176,22.328498990919584],[114.16212538728095,22.328493732849473],[114.16215287974934,22.328472520060995],[114.16223772521158,22.328567627538366],[114.16220434160888,22.328593460036899],[114.16211855901176,22.328498990919584]]]},"properties":{"OBJECTID":144321,"Shape__Length":36.447163904762903,"Shape__Area":62.057740737311214,"GeoRefNo":"3475321054","DateCreate":1114790400000,"BuildingBlockType":"Tower","BuildingCSUID":"3475321054T20050430","BuildingID":1108228508,"Status":"Active","BuildingNameEN":null,"BuildingNameTC":null,"BaseHeight":4.2000000000000002,"TopHeight":31.199999999999999,"Storeys":null,"StoreysInBasement":null,"DateStamp":1361808000000}},{"type":"Feature","id":144472,"geometry":{"type":"Polygon","coordinates":[[[114.1621357744215,22.328646517636823],[114.16205134147242,22.328550857743799],[114.16205768777635,22.328545956069789],[114.16208493612427,22.32852493327422],[114.16217038758759,22.328619733801506],[114.1621357744215,22.328646517636823]]]},"properties":{"OBJECTID":144472,"Shape__Length":36.541934885954738,"Shape__Area":62.58962481777381,"GeoRefNo":"3474621060","DateCreate":1114790400000,"BuildingBlockType":"Tower","BuildingCSUID":"3474621060T20050430","BuildingID":1108228461,"Status":"Active","BuildingNameEN":null,"BuildingNameTC":null,"BaseHeight":4.2000000000000002,"TopHeight":30.800000000000001,"Storeys":9,"StoreysInBasement":null,"DateStamp":1599580800000}},{"type":"Feature","id":144474,"geometry":{"type":"Polygon","coordinates":[[[114.16348326821257,22.32864528394526],[114.16339582291501,22.328549174510023],[114.16346451793424,22.32849575570517],[114.16354807186849,22.328588782917748],[114.16357601909571,22.328619898818463],[114.1635081624819,22.328672644779523],[114.16348326821257,22.32864528394526]]]},"properties":{"OBJECTID":144474,"Shape__Length":54.161188355440387,"Shape__Area":164.20956626858614,"GeoRefNo":"3488821060","DateCreate":1114790400000,"BuildingBlockType":"Tower","BuildingCSUID":"3488821060T20050430","BuildingID":1108228444,"Status":"Active","BuildingNameEN":null,"BuildingNameTC":null,"BaseHeight":4.7000000000000002,"TopHeight":27,"Storeys":4,"StoreysInBasement":null,"DateStamp":1599580800000}},{"type":"Feature","id":144475,"geometry":{"type":"Polygon","coordinates":[[[114.16203567714589,22.328723973331279],[114.16196663623046,22.328647986120259],[114.16194965446333,22.328629295768636],[114.16197482138429,22.328609868414581],[114.16198191855887,22.328604405922821],[114.16202100595183,22.328647991096968],[114.16206724242008,22.328699548028542],[114.16203567714589,22.328723973331279]]]},"properties":{"OBJECTID":144475,"Shape__Length":35.996697766399073,"Shape__Area":58.657669444202767,"GeoRefNo":"3473521068","DateCreate":1114790400000,"BuildingBlockType":"Tower","BuildingCSUID":"3473521068T20050430","BuildingID":1108228401,"Status":"Active","BuildingNameEN":null,"BuildingNameTC":null,"BaseHeight":4.2000000000000002,"TopHeight":31.199999999999999,"Storeys":9,"StoreysInBasement":null,"DateStamp":1599580800000}},{"type":"Feature","id":144476,"geometry":{"type":"Polygon","coordinates":[[[114.16338299358145,22.328728643569573],[114.163311255197,22.328648103847929],[114.1632937977146,22.328628504578774],[114.16332610012887,22.328603386536539],[114.16336647764435,22.328648108444451],[114.16341288972903,22.32869951410596],[114.16343793198422,22.328727250815966],[114.16342150629924,22.328740024392815],[114.16339968353817,22.328716303576844],[114.16338299358145,22.328728643569573]]]},"properties":{"OBJECTID":144476,"Shape__Length":44.510858194680139,"Shape__Area":71.013163132027202,"GeoRefNo":"3487521071","DateCreate":1114790400000,"BuildingBlockType":"Tower","BuildingCSUID":"3487521071T20050430","BuildingID":1108228392,"Status":"Active","BuildingNameEN":null,"BuildingNameTC":null,"BaseHeight":4.5999999999999996,"TopHeight":24.600000000000001,"Storeys":6,"StoreysInBasement":null,"DateStamp":1599580800000}},{"type":"Feature","id":144477,"geometry":{"type":"Polygon","coordinates":[[[114.15969569325395,22.328495089283717],[114.15986588450974,22.328362268106392],[114.15999909272119,22.328510005010404],[114.16000278830822,22.328514103744048],[114.15998528565923,22.328527855595741],[114.15995961713918,22.328499595686928],[114.15993855274552,22.328515790026124],[114.15984496928392,22.328417213408258],[114.15983740664933,22.328423107961481],[114.15992910502162,22.328523040509907],[114.15991118681971,22.328536833941243],[114.15993750360417,22.328565397894618],[114.15990401556326,22.328591709432263],[114.15987727715618,22.328562894650133],[114.15985700584743,22.328578473898176],[114.15976562065045,22.328479131130074],[114.1597563320115,22.328486379272636],[114.15985710657536,22.32859634498276],[114.15987746832863,22.328580961346674],[114.15989435113967,22.328599302692311],[114.15983307168423,22.328647449698988],[114.15969569325395,22.328495089283717]]]},"properties":{"OBJECTID":144477,"Shape__Length":169.62796650283002,"Shape__Area":431.94395239315651,"GeoRefNo":"3451221051","DateCreate":1114790400000,"BuildingBlockType":"Tower","BuildingCSUID":"3451221051T20050430","BuildingID":1108228460,"Status":"Active","BuildingNameEN":"Tin Hau Temple","BuildingNameTC":"天后廟","BaseHeight":4.0999999999999996,"TopHeight":11.4,"Storeys":null,"StoreysInBasement":null,"DateStamp":1361808000000}},{"type":"Feature","id":144507,"geometry":{"type":"Polygon","coordinates":[[[114.16190920506533,22.328503586230298],[114.16193487248465,22.328483752371337],[114.16196550226935,22.328518227360956],[114.16193983076847,22.328538087954868],[114.16190920506533,22.328503586230298]]]},"properties":{"OBJECTID":144507,"Shape__Length":16.785025774419218,"Shape__Area":17.034417773337854,"GeoRefNo":"3472921052","DateCreate":1114790400000,"BuildingBlockType":"Tower","BuildingCSUID":"3472921052T20050430","BuildingID":1108228549,"Status":"Active","BuildingNameEN":null,"BuildingNameTC":null,"BaseHeight":4.2000000000000002,"TopHeight":31.699999999999999,"Storeys":8,"StoreysInBasement":null,"DateStamp":1599580800000}},{"type":"Feature","id":144515,"geometry":{"type":"Polygon","coordinates":[[[114.1604469033287,22.32844784254036],[114.16031538212329,22.328303180908218],[114.16033254145896,22.328289668386297],[114.16034958056504,22.328308882868299],[114.16036672339152,22.328295416487375],[114.1604800580358,22.328422109716815],[114.1604469033287,22.32844784254036]]]},"properties":{"OBJECTID":144515,"Shape__Length":51.067627383584529,"Shape__Area":88.795066684729761,"GeoRefNo":"3457021035","DateCreate":1114790400000,"BuildingBlockType":"Tower","BuildingCSUID":"3457021035T20050430","BuildingID":1108228639,"Status":"Active","BuildingNameEN":null,"BuildingNameTC":null,"BaseHeight":4.2000000000000002,"TopHeight":34,"Storeys":9,"StoreysInBasement":null,"DateStamp":1599580800000}},{"type":"Feature","id":144516,"geometry":{"type":"Polygon","coordinates":[[[114.16008921230649,22.328438990154439],[114.15995637277163,22.328291660189393],[114.15998931553706,22.328265951555355],[114.16008446510411,22.328371480177829],[114.16011783786929,22.328408493213701],[114.16010467760451,22.328418833139338],[114.16010891941079,22.328423506181831],[114.16008921230649,22.328438990154439]]]},"properties":{"OBJECTID":144516,"Shape__Length":51.436119895134645,"Shape__Area":93.095921248866972,"GeoRefNo":"3453221034","DateCreate":1114790400000,"BuildingBlockType":"Tower","BuildingCSUID":"3453221034T20050430","BuildingID":1108228646,"Status":"Active","BuildingNameEN":null,"BuildingNameTC":null,"BaseHeight":4.0999999999999996,"TopHeight":33.799999999999997,"Storeys":10,"StoreysInBasement":null,"DateStamp":1599580800000}},{"type":"Feature","id":144519,"geometry":{"type":"Polygon","coordinates":[[[114.16004938326992,22.32846227789889],[114.15992066918156,22.328319523316338],[114.15995637277163,22.328291660189393],[114.16008921230649,22.328438990154439],[114.16006772794761,22.328455870430339],[114.16006348604466,22.328451197386798],[114.16004938326992,22.32846227789889]]]},"properties":{"OBJECTID":144519,"Shape__Length":52.204868849648342,"Shape__Area":100.98472187125924,"GeoRefNo":"3452921037","DateCreate":1114790400000,"BuildingBlockType":"Tower","BuildingCSUID":"3452921037T20050430","BuildingID":1108228630,"Status":"Active","BuildingNameEN":null,"BuildingNameTC":null,"BaseHeight":4.2000000000000002,"TopHeight":33.799999999999997,"Storeys":10,"StoreysInBasement":null,"DateStamp":1599580800000}},{"type":"Feature","id":144521,"geometry":{"type":"Polygon","coordinates":[[[114.16196731788776,22.328458681029893],[114.1618811575881,22.328362108437492],[114.16191471746828,22.328336262023608],[114.16203275109849,22.32846618547196],[114.16201970417384,22.328476282731028],[114.16198915621172,22.328441805952849],[114.1619757470081,22.328452167590715],[114.16196731788776,22.328458681029893]]]},"properties":{"OBJECTID":144521,"Shape__Length":46.844701932750311,"Shape__Area":71.721224469027675,"GeoRefNo":"3472921041","DateCreate":1114790400000,"BuildingBlockType":"Tower","BuildingCSUID":"3472921041T20050430","BuildingID":1108228609,"Status":"Active","BuildingNameEN":null,"BuildingNameTC":null,"BaseHeight":4.2999999999999998,"TopHeight":29.699999999999999,"Storeys":8,"StoreysInBasement":null,"DateStamp":1599580800000}},{"type":"Feature","id":144522,"geometry":{"type":"Polygon","coordinates":[[[114.16202659555903,22.328412875565483],[114.16203527871606,22.328406165821498],[114.16204477865136,22.328398825004019],[114.16207579374142,22.328432898960077],[114.16205762394587,22.32844694880372],[114.16202659555903,22.328412875565483]]]},"properties":{"OBJECTID":144522,"Shape__Length":14.758695424141345,"Shape__Area":12.037926086450808,"GeoRefNo":"3474121043","DateCreate":1114790400000,"BuildingBlockType":"Tower","BuildingCSUID":"3474121043T20050430","BuildingID":1108228641,"Status":"Active","BuildingNameEN":null,"BuildingNameTC":null,"BaseHeight":4.2999999999999998,"TopHeight":31.199999999999999,"Storeys":8,"StoreysInBasement":null,"DateStamp":1599580800000}},{"type":"Feature","id":144524,"geometry":{"type":"Polygon","coordinates":[[[114.16149019964347,22.328482420607106],[114.16140239047172,22.328386179207662],[114.16141280983271,22.328378084460944],[114.16144216166336,22.328355281141889],[114.16153023546148,22.328451369928253],[114.16149019964347,22.328482420607106]]]},"properties":{"OBJECTID":144524,"Shape__Length":38.67075308927501,"Shape__Area":74.85216683035425,"GeoRefNo":"3468121043","DateCreate":1114790400000,"BuildingBlockType":"Tower","BuildingCSUID":"3468121043T20050430","BuildingID":1108228601,"Status":"Active","BuildingNameEN":null,"BuildingNameTC":null,"BaseHeight":4.2000000000000002,"TopHeight":31.199999999999999,"Storeys":9,"StoreysInBasement":null,"DateStamp":1599580800000}},{"type":"Feature","id":144525,"geometry":{"type":"Polygon","coordinates":[[[114.16153023546148,22.328451369928253],[114.16144216166336,22.328355281141889],[114.16147220678781,22.32833193929908],[114.16147923446842,22.328326479531732],[114.16156709324882,22.328422789166154],[114.16153023546148,22.328451369928253]]]},"properties":{"OBJECTID":144525,"Shape__Length":37.891026282134249,"Shape__Area":69.360646461257545,"GeoRefNo":"3468421039","DateCreate":1114790400000,"BuildingBlockType":"Tower","BuildingCSUID":"3468421039T20050430","BuildingID":1108228635,"Status":"Active","BuildingNameEN":null,"BuildingNameTC":null,"BaseHeight":4.2000000000000002,"TopHeight":31.199999999999999,"Storeys":9,"StoreysInBasement":null,"DateStamp":1599580800000}},{"type":"Feature","id":144526,"geometry":{"type":"Polygon","coordinates":[[[114.16041377831506,22.328473545739723],[114.16029989794544,22.328348010491215],[114.1603168898321,22.328334645423418],[114.16029965366833,22.328315561409891],[114.16031538212329,22.328303180908218],[114.1604469033287,22.32844784254036],[114.16041377831506,22.328473545739723]]]},"properties":{"OBJECTID":144526,"Shape__Length":50.790273095759005,"Shape__Area":86.589518825668051,"GeoRefNo":"3456721039","DateCreate":1114790400000,"BuildingBlockType":"Tower","BuildingCSUID":"3456721039T20050430","BuildingID":1108228614,"Status":"Active","BuildingNameEN":null,"BuildingNameTC":null,"BaseHeight":4.2000000000000002,"TopHeight":34,"Storeys":9,"StoreysInBasement":null,"DateStamp":1599580800000}},{"type":"Feature","id":145350,"geometry":{"type":"Polygon","coordinates":[[[114.16254495182594,22.327975432706385],[114.16247165530835,22.328032704067784],[114.16246779644872,22.328035689779014],[114.1624651430764,22.328032703490759],[114.16240882069135,22.327969799744867],[114.16248762588248,22.327908580275771],[114.16252993031104,22.327875716297235],[114.16257888211129,22.327930243576873],[114.16253479066638,22.327964388850347],[114.16254495182594,22.327975432706385]]]},"properties":{"OBJECTID":145350,"Shape__Length":51.514955092477116,"Shape__Area":144.63692583628173,"GeoRefNo":"3478420994","DateCreate":1114790400000,"BuildingBlockType":"Tower","BuildingCSUID":"3478420994T20050430","BuildingID":1108228970,"Status":"Active","BuildingNameEN":null,"BuildingNameTC":"恆達大廈","BaseHeight":4.0999999999999996,"TopHeight":47,"Storeys":14,"StoreysInBasement":null,"DateStamp":1599580800000}},{"type":"Feature","id":145351,"geometry":{"type":"Polygon","coordinates":[[[114.16295499215484,22.327992871797388],[114.16287908259807,22.327908555561965],[114.16284469519999,22.327870359907518],[114.16291361901212,22.327816585456041],[114.16298376792449,22.327894678388883],[114.16302386092765,22.327939311681224],[114.16298376044172,22.327970498365033],[114.16295499215484,22.327992871797388]]]},"properties":{"OBJECTID":145351,"Shape__Length":53.92218371678787,"Shape__Area":163.88926403022285,"GeoRefNo":"3483020985","DateCreate":1114790400000,"BuildingBlockType":"Tower","BuildingCSUID":"3483020985T20050430","BuildingID":1108229009,"Status":"Active","BuildingNameEN":null,"BuildingNameTC":null,"BaseHeight":4.5,"TopHeight":26.899999999999999,"Storeys":6,"StoreysInBasement":null,"DateStamp":1599580800000}},{"type":"Feature","id":145571,"geometry":{"type":"Polygon","coordinates":[[[114.15992892166283,22.32789778603993],[114.1600279368111,22.327821400657662],[114.16013153959459,22.32793550566765],[114.16003508154553,22.328015726846974],[114.15992892166283,22.32789778603993]]]},"properties":{"OBJECTID":145571,"Shape__Length":60.155588404684451,"Shape__Area":223.05674129480383,"GeoRefNo":"3453220986","DateCreate":1114790400000,"BuildingBlockType":"Tower","BuildingCSUID":"3453220986T20050430","BuildingID":1108228992,"Status":"Active","BuildingNameEN":"Ka Po Building","BuildingNameTC":"嘉寶大廈","BaseHeight":4.0999999999999996,"TopHeight":36.700000000000003,"Storeys":11,"StoreysInBasement":null,"DateStamp":1599580800000}},{"type":"Feature","id":145775,"geometry":{"type":"Polygon","coordinates":[[[114.16092706073637,22.327878869444785],[114.1610295081792,22.327993533843973],[114.16099309750271,22.328021910347527],[114.16087879475691,22.327895421376127],[114.16090511744714,22.327875197712281],[114.16088824063914,22.327856591242565],[114.16089944132953,22.327847979784799],[114.16092706073637,22.327878869444785]]]},"properties":{"OBJECTID":145775,"Shape__Length":51.86295749602251,"Shape__Area":94.401672194796689,"GeoRefNo":"3462620988","DateCreate":1114790400000,"BuildingBlockType":"Tower","BuildingCSUID":"3462620988T20050430","BuildingID":1108228984,"Status":"Active","BuildingNameEN":null,"BuildingNameTC":null,"BaseHeight":4.0999999999999996,"TopHeight":24.5,"Storeys":6,"StoreysInBasement":null,"DateStamp":1599580800000}},{"type":"Feature","id":145786,"geometry":{"type":"Polygon","coordinates":[[[114.15961555379783,22.328019176496415],[114.15950183114064,22.327894705855062],[114.15953455041173,22.327869317151588],[114.15964761409145,22.327993848205459],[114.15961555379783,22.328019176496415]]]},"properties":{"OBJECTID":145786,"Shape__Length":44.863464965116954,"Shape__Area":78.808560374102598,"GeoRefNo":"3448520990","DateCreate":1114790400000,"BuildingBlockType":"Tower","BuildingCSUID":"3448520990T20050430","BuildingID":1108228989,"Status":"Active","BuildingNameEN":null,"BuildingNameTC":null,"BaseHeight":4,"TopHeight":29.199999999999999,"Storeys":8,"StoreysInBasement":null,"DateStamp":1599580800000}},{"type":"Feature","id":145787,"geometry":{"type":"Polygon","coordinates":[[[114.16175129964874,22.327975526889595],[114.16186664269235,22.327884792483939],[114.16189914033612,22.327921284913003],[114.16179578364986,22.328001855988781],[114.16177476441321,22.327978006792307],[114.16175183226399,22.327996149001642],[114.16174094285356,22.327983564861949],[114.16175129964874,22.327975526889595]]]},"properties":{"OBJECTID":145787,"Shape__Length":44.395960763561092,"Shape__Area":77.896377681835844,"GeoRefNo":"3471720990","DateCreate":1114790400000,"BuildingBlockType":"Tower","BuildingCSUID":"3471720990T20050430","BuildingID":1108229002,"Status":"Active","BuildingNameEN":null,"BuildingNameTC":null,"BaseHeight":4.0999999999999996,"TopHeight":33.600000000000001,"Storeys":9,"StoreysInBasement":null,"DateStamp":1599580800000}},{"type":"Feature","id":145789,"geometry":{"type":"Polygon","coordinates":[[[114.16433230162532,22.327983988210867],[114.16424377540396,22.327887085714668],[114.164280985953,22.327857981670277],[114.16437537391103,22.327961055285908],[114.16436404215361,22.327970099719384],[114.16438530967001,22.327993587827535],[114.16437449949279,22.328002085861073],[114.16434774688352,22.327972189768118],[114.16433230162532,22.327983988210867]]]},"properties":{"OBJECTID":145789,"Shape__Length":46.84899339843151,"Shape__Area":78.339920135255625,"GeoRefNo":"3497320988","DateCreate":1114790400000,"BuildingBlockType":"Tower","BuildingCSUID":"3497320988T20050430","BuildingID":1108229001,"Status":"Active","BuildingNameEN":null,"BuildingNameTC":null,"BaseHeight":5,"TopHeight":33.600000000000001,"Storeys":9,"StoreysInBasement":null,"DateStamp":1599580800000}},{"type":"Feature","id":146035,"geometry":{"type":"Polygon","coordinates":[[[114.16336700406043,22.328003501586245],[114.16330411655859,22.327935395085706],[114.16334404623159,22.327905149475807],[114.1633965182648,22.327963564106842],[114.16336974120011,22.327984427141679],[114.16337876094342,22.327994371286653],[114.16336700406043,22.328003501586245]]]},"properties":{"OBJECTID":146035,"Shape__Length":30.294084218060334,"Shape__Area":46.698595391080396,"GeoRefNo":"3487420990","DateCreate":1114790400000,"BuildingBlockType":"Tower","BuildingCSUID":"3487420990T20050430","BuildingID":1108229000,"Status":"Active","BuildingNameEN":null,"BuildingNameTC":"基發樓","BaseHeight":4.7999999999999998,"TopHeight":36.799999999999997,"Storeys":10,"StoreysInBasement":null,"DateStamp":1599580800000}},{"type":"Feature","id":146036,"geometry":{"type":"Polygon","coordinates":[[[114.16292196322203,22.328018558812705],[114.16284630908855,22.327934837970552],[114.16287908259807,22.327908555561965],[114.16295499215484,22.327992871797388],[114.16292196322203,22.328018558812705]]]},"properties":{"OBJECTID":146036,"Shape__Length":33.183745205992885,"Shape__Area":54.000710053821436,"GeoRefNo":"3482620990","DateCreate":1114790400000,"BuildingBlockType":"Tower","BuildingCSUID":"3482620990T20050430","BuildingID":1108228990,"Status":"Active","BuildingNameEN":null,"BuildingNameTC":null,"BaseHeight":4.5,"TopHeight":24.300000000000001,"Storeys":6,"StoreysInBasement":null,"DateStamp":1599580800000}},{"type":"Feature","id":146481,"geometry":{"type":"Polygon","coordinates":[[[114.16186452125082,22.328080218655359],[114.16184393200568,22.328096221928948],[114.16182268518601,22.328072734934661],[114.16183284220762,22.328064831042877],[114.16184320017075,22.328056770217465],[114.16185800560767,22.328073051381736],[114.16186452125082,22.328080218655359]]]},"properties":{"OBJECTID":146481,"Shape__Length":12.319800130329057,"Shape__Area":9.3835810828950166,"GeoRefNo":"3472021005","DateCreate":1114790400000,"BuildingBlockType":"Tower","BuildingCSUID":"3472021005T20050430","BuildingID":1108228927,"Status":"Active","BuildingNameEN":null,"BuildingNameTC":null,"BaseHeight":4.2000000000000002,"TopHeight":29.100000000000001,"Storeys":null,"StoreysInBasement":null,"DateStamp":1361808000000}},{"type":"Feature","id":146482,"geometry":{"type":"Polygon","coordinates":[[[114.15956040204412,22.328017793826767],[114.15947019929074,22.327919250579548],[114.15950183114064,22.327894705855062],[114.15961555379783,22.328019176496415],[114.1595982673028,22.328032424062286],[114.15958403677851,22.328043639166918],[114.15957395342404,22.328032421475637],[114.15956040204412,22.328017793826767]]]},"properties":{"OBJECTID":146482,"Shape__Length":44.652752850891702,"Shape__Area":76.557889666921056,"GeoRefNo":"3448220993","DateCreate":1114790400000,"BuildingBlockType":"Tower","BuildingCSUID":"3448220993T20050430","BuildingID":1108228964,"Status":"Active","BuildingNameEN":null,"BuildingNameTC":null,"BaseHeight":3.8999999999999999,"TopHeight":29.800000000000001,"Storeys":8,"StoreysInBasement":null,"DateStamp":1599580800000}},{"type":"Feature","id":146485,"geometry":{"type":"Polygon","coordinates":[[[114.16189197733634,22.328110420727032],[114.16199194363503,22.328032660862895],[114.16199574522653,22.328029764379941],[114.16199832511951,22.328032661446951],[114.16202724136308,22.328064897317144],[114.16190298740216,22.328161516427162],[114.1618940961576,22.328151695479622],[114.1619099309318,22.328139342195374],[114.16188720907371,22.328114128516429],[114.16189197733634,22.328110420727032]]]},"properties":{"OBJECTID":146485,"Shape__Length":43.514509357105268,"Shape__Area":76.863040986028082,"GeoRefNo":"3473121006","DateCreate":1114790400000,"BuildingBlockType":"Tower","BuildingCSUID":"3473121006T20050430","BuildingID":1108228878,"Status":"Active","BuildingNameEN":null,"BuildingNameTC":null,"BaseHeight":4.0999999999999996,"TopHeight":29.5,"Storeys":7,"StoreysInBasement":null,"DateStamp":1599580800000}},{"type":"Feature","id":146486,"geometry":{"type":"Polygon","coordinates":[[[114.16154592740938,22.328161129061847],[114.16143544462319,22.328039334581632],[114.16144407575983,22.328032609783001],[114.16162420835418,22.327890276140408],[114.16165447847803,22.327924049751957],[114.16173309342257,22.328011763305529],[114.16171681888521,22.328024623508725],[114.1617239098331,22.328032636104396],[114.16172893123534,22.328038031353234],[114.1617111064626,22.32805265743249],[114.16170079436715,22.328041259421013],[114.16161239535232,22.328109768448339],[114.16162300827247,22.3281209802829],[114.16157055536098,22.328161631857302],[114.16156020445817,22.328150091330748],[114.16154592740938,22.328161129061847]]]},"properties":{"OBJECTID":146486,"Shape__Length":93.026739847223283,"Shape__Area":467.1436119120217,"GeoRefNo":"3469620995","DateCreate":1114790400000,"BuildingBlockType":"Tower","BuildingCSUID":"3469620995T20050430","BuildingID":1108228877,"Status":"Active","BuildingNameEN":"Man On Building","BuildingNameTC":"萬安大廈","BaseHeight":4,"TopHeight":49.399999999999999,"Storeys":15,"StoreysInBasement":null,"DateStamp":1599580800000}},{"type":"Feature","id":146737,"geometry":{"type":"Polygon","coordinates":[[[114.16185800560767,22.328073051381736],[114.16184320017075,22.328056770217465],[114.16183284220762,22.328064831042877],[114.16182677340802,22.328058123195152],[114.16181635375841,22.328065731942747],[114.16180316021227,22.328051144971454],[114.1618244496669,22.328034423113863],[114.16182670488635,22.328032645652055],[114.16192760278147,22.327953245868589],[114.16195964342931,22.327989225035097],[114.1619066197203,22.328032653029545],[114.16185800560767,22.328073051381736]]]},"properties":{"OBJECTID":146737,"Shape__Length":44.156045647610874,"Shape__Area":81.870952906745927,"GeoRefNo":"3472420997","DateCreate":1114790400000,"BuildingBlockType":"Tower","BuildingCSUID":"3472420997T20050430","BuildingID":1108228939,"Status":"Active","BuildingNameEN":null,"BuildingNameTC":null,"BaseHeight":4.0999999999999996,"TopHeight":29.600000000000001,"Storeys":7,"StoreysInBasement":null,"DateStamp":1599580800000}},{"type":"Feature","id":146738,"geometry":{"type":"Polygon","coordinates":[[[114.16416049288719,22.328126534481129],[114.16407548678039,22.32803283820801],[114.16406797290789,22.328024521080216],[114.16409912532468,22.328000222949086],[114.16412905498693,22.328032842414455],[114.16419544576388,22.328106107769525],[114.16419157023834,22.328109151587146],[114.16421285803106,22.328132668075131],[114.16419594148759,22.328145887804133],[114.16417081626892,22.328118407400392],[114.16416049288719,22.328126534481129]]]},"properties":{"OBJECTID":146738,"Shape__Length":45.920607439233194,"Shape__Area":71.648862082615508,"GeoRefNo":"3495120999","DateCreate":1114790400000,"BuildingBlockType":"Tower","BuildingCSUID":"3495120999T20050430","BuildingID":1108228897,"Status":"Active","BuildingNameEN":null,"BuildingNameTC":null,"BaseHeight":5,"TopHeight":30.899999999999999,"Storeys":8,"StoreysInBasement":null,"DateStamp":1599580800000}},{"type":"Feature","id":146740,"geometry":{"type":"Polygon","coordinates":[[[114.15947019929074,22.327919250579548],[114.15956040204412,22.328017793826767],[114.15954167734674,22.328032418036273],[114.15952377275511,22.328047027069477],[114.15951047850406,22.328032414705593],[114.15943317841186,22.327947976963802],[114.15947019929074,22.327919250579548]]]},"properties":{"OBJECTID":146740,"Shape__Length":38.673481964230163,"Shape__Area":71.285235015187027,"GeoRefNo":"3447820995","DateCreate":1114790400000,"BuildingBlockType":"Tower","BuildingCSUID":"3447820995T20050430","BuildingID":1108228959,"Status":"Active","BuildingNameEN":null,"BuildingNameTC":null,"BaseHeight":4,"TopHeight":25.899999999999999,"Storeys":6,"StoreysInBasement":null,"DateStamp":1599580800000}},{"type":"Feature","id":146741,"geometry":{"type":"Polygon","coordinates":[[[114.16426784828698,22.328049219088509],[114.16425248823856,22.328032852039655],[114.16417032556652,22.327944534110252],[114.1642060845252,22.327916565475629],[114.16420787647124,22.32791851884037],[114.16429682899417,22.328015485596222],[114.16428641941704,22.328023791484004],[114.16429478556931,22.32803285531633],[114.16431397835126,22.328053646740592],[114.16429234353387,22.328070429674383],[114.16427073211436,22.328046979726977],[114.16426784828698,22.328049219088509]]]},"properties":{"OBJECTID":146741,"Shape__Length":47.034391437875676,"Shape__Area":81.622705911295611,"GeoRefNo":"3496520994","DateCreate":1114790400000,"BuildingBlockType":"Tower","BuildingCSUID":"3496520994T20050430","BuildingID":1108228943,"Status":"Active","BuildingNameEN":null,"BuildingNameTC":null,"BaseHeight":5,"TopHeight":31.100000000000001,"Storeys":8,"StoreysInBasement":null,"DateStamp":1599580800000}},{"type":"Feature","id":146742,"geometry":{"type":"Polygon","coordinates":[[[114.16186452125082,22.328080218655359],[114.16185800560767,22.328073051381736],[114.1619066197203,22.328032653029545],[114.16195964342931,22.327989225035097],[114.16199574522653,22.328029764379941],[114.16199194363503,22.328032660862895],[114.16189197733634,22.328110420727032],[114.16186452125082,22.328080218655359]]]},"properties":{"OBJECTID":146742,"Shape__Length":39.173064759672165,"Shape__Area":78.655129024470554,"GeoRefNo":"3473020997","DateCreate":1114790400000,"BuildingBlockType":"Tower","BuildingCSUID":"3473020997T20050430","BuildingID":1108228921,"Status":"Active","BuildingNameEN":null,"BuildingNameTC":null,"BaseHeight":4.2000000000000002,"TopHeight":29.5,"Storeys":7,"StoreysInBasement":null,"DateStamp":1599580800000}},{"type":"Feature","id":146743,"geometry":{"type":"Polygon","coordinates":[[[114.15979324266868,22.328039055783393],[114.15980172487426,22.328032445564407],[114.15980772788087,22.328027800862277],[114.1597880572066,22.328006460427069],[114.15991183323361,22.327910971349105],[114.16001809677206,22.328028961665499],[114.16001362793446,22.328032467687578],[114.15989225274876,22.328126691004798],[114.15988062629089,22.328135718296831],[114.15979324266868,22.328039055783393]]]},"properties":{"OBJECTID":146743,"Shape__Length":71.103225456715123,"Shape__Area":309.30246273107525,"GeoRefNo":"3451821003","DateCreate":1114790400000,"BuildingBlockType":"Tower","BuildingCSUID":"3451821003T20050430","BuildingID":1108228904,"Status":"Active","BuildingNameEN":"KA PO BUILDING","BuildingNameTC":"嘉寶大廈","BaseHeight":4.0999999999999996,"TopHeight":35.5,"Storeys":11,"StoreysInBasement":null,"DateStamp":1599580800000}},{"type":"Feature","id":146744,"geometry":{"type":"Polygon","coordinates":[[[114.16255636836185,22.328134111920274],[114.16266409482382,22.328051379814038],[114.16267144468212,22.328059583026537],[114.16268788550651,22.328046723735383],[114.16271065127904,22.328071889985946],[114.16265634028268,22.328114443771955],[114.16258763358768,22.328168860657129],[114.16255636836185,22.328134111920274]]]},"properties":{"OBJECTID":146744,"Shape__Length":43.058055919643387,"Shape__Area":78.78156088498163,"GeoRefNo":"3480021009","DateCreate":1114790400000,"BuildingBlockType":"Tower","BuildingCSUID":"3480021009T20050430","BuildingID":1108228871,"Status":"Active","BuildingNameEN":null,"BuildingNameTC":"梅芳樓","BaseHeight":4.2000000000000002,"TopHeight":27,"Storeys":6,"StoreysInBasement":null,"DateStamp":1599580800000}},{"type":"Feature","id":146746,"geometry":{"type":"Polygon","coordinates":[[[114.15958726312836,22.328073779266518],[114.15956479084403,22.328092126751081],[114.15955167079444,22.328077700258635],[114.15957391230411,22.328058961817284],[114.15958726312836,22.328073779266518]]]},"properties":{"OBJECTID":146746,"Shape__Length":10.405186137307739,"Shape__Area":6.5292301953004639,"GeoRefNo":"3448521005","DateCreate":1114790400000,"BuildingBlockType":"Tower","BuildingCSUID":"3448521005T20050430","BuildingID":1108228931,"Status":"Active","BuildingNameEN":null,"BuildingNameTC":null,"BaseHeight":4,"TopHeight":7.2000000000000002,"Storeys":null,"StoreysInBasement":null,"DateStamp":1361808000000}},{"type":"Feature","id":146995,"geometry":{"type":"Polygon","coordinates":[[[114.16337876094342,22.327994371286653],[114.16336974120011,22.327984427141679],[114.1633965182648,22.327963564106842],[114.16342729530494,22.327939576093559],[114.16348898376151,22.328007241664796],[114.16349092263958,22.328009368346439],[114.16346077123725,22.328032788670352],[114.16343352581569,22.328054787002003],[114.16342998047729,22.328050875833654],[114.16341336174973,22.328032784752963],[114.16337876094342,22.327994371286653]]]},"properties":{"OBJECTID":146995,"Shape__Length":35.824309751314836,"Shape__Area":78.675129110808456,"GeoRefNo":"3488220995","DateCreate":1114790400000,"BuildingBlockType":"Tower","BuildingCSUID":"3488220995T20050430","BuildingID":1108228954,"Status":"Active","BuildingNameEN":null,"BuildingNameTC":"基發樓","BaseHeight":4.7000000000000002,"TopHeight":37.399999999999999,"Storeys":10,"StoreysInBasement":null,"DateStamp":1599580800000}},{"type":"Feature","id":146997,"geometry":{"type":"Polygon","coordinates":[[[114.1628236115008,22.328094907458443],[114.16276530434985,22.328032729814559],[114.16273686816723,22.32800299188699],[114.16275016627588,22.327993126677409],[114.16272569066292,22.327966381014743],[114.16274669741259,22.327949900940549],[114.16276160175086,22.327966232421819],[114.16282229276149,22.328032734749602],[114.1628563266345,22.328069438525006],[114.1628236115008,22.328094907458443]]]},"properties":{"OBJECTID":146997,"Shape__Length":43.81308975102931,"Shape__Area":71.239018717268692,"GeoRefNo":"3481921002","DateCreate":1114790400000,"BuildingBlockType":"Tower","BuildingCSUID":"3481921002T20050430","BuildingID":1108228929,"Status":"Active","BuildingNameEN":null,"BuildingNameTC":null,"BaseHeight":4.4000000000000004,"TopHeight":27.800000000000001,"Storeys":6,"StoreysInBasement":null,"DateStamp":1599580800000}},{"type":"Feature","id":147480,"geometry":{"type":"Polygon","coordinates":[[[114.1581537644403,22.328257182592271],[114.15811257443046,22.328213071112984],[114.15812148848381,22.328206389148519],[114.15818151463087,22.328159713182696],[114.15821684978262,22.328199085895879],[114.15818885963755,22.32822076348657],[114.15819448857719,22.328226626969748],[114.1581537644403,22.328257182592271]]]},"properties":{"OBJECTID":147480,"Shape__Length":31.401821893254731,"Shape__Area":56.543543228253085,"GeoRefNo":"3434021020","DateCreate":1114790400000,"BuildingBlockType":"Tower","BuildingCSUID":"3434021020T20050430","BuildingID":1108228793,"Status":"Active","BuildingNameEN":null,"BuildingNameTC":null,"BaseHeight":3.7999999999999998,"TopHeight":21.899999999999999,"Storeys":5,"StoreysInBasement":null,"DateStamp":1599580800000}},{"type":"Feature","id":147482,"geometry":{"type":"Polygon","coordinates":[[[114.16332073825512,22.328142142225158],[114.16321956715718,22.328032768595776],[114.16320234052861,22.32801476160742],[114.1632513366536,22.327976566707445],[114.1632529506854,22.327975308520983],[114.16327301979354,22.327997250819095],[114.16328824196098,22.328013893833624],[114.16330551190447,22.328032775789818],[114.16335597111119,22.328088228684912],[114.1633477864022,22.328094626986246],[114.16336196086641,22.328110210618934],[114.16334561873434,22.328122869417314],[114.16333149910646,22.328107351801364],[114.16332077088694,22.328115748628747],[114.1633350622449,22.328131046636109],[114.16332073825512,22.328142142225158]]]},"properties":{"OBJECTID":147482,"Shape__Length":55.26511931110722,"Shape__Area":119.32420384883937,"GeoRefNo":"3486420998","DateCreate":1114790400000,"BuildingBlockType":"Tower","BuildingCSUID":"3486420998T20050430","BuildingID":1108228899,"Status":"Active","BuildingNameEN":null,"BuildingNameTC":"榮生樓","BaseHeight":4.5999999999999996,"TopHeight":34.5,"Storeys":9,"StoreysInBasement":null,"DateStamp":1599580800000}},{"type":"Feature","id":147483,"geometry":{"type":"Polygon","coordinates":[[[114.16273686816723,22.32800299188699],[114.16276530434985,22.328032729814559],[114.1628236115008,22.328094907458443],[114.16278944792559,22.328121496232814],[114.16270750204268,22.328032724788599],[114.16268005602298,22.328002182041303],[114.16269864857048,22.327987596018094],[114.16272230277019,22.328013797249639],[114.16273686816723,22.32800299188699]]]},"properties":{"OBJECTID":147483,"Shape__Length":43.713555394015685,"Shape__Area":70.979511633399454,"GeoRefNo":"3481521005","DateCreate":1114790400000,"BuildingBlockType":"Tower","BuildingCSUID":"3481521005T20050430","BuildingID":1108228914,"Status":"Active","BuildingNameEN":null,"BuildingNameTC":null,"BaseHeight":4.2999999999999998,"TopHeight":27.800000000000001,"Storeys":6,"StoreysInBasement":null,"DateStamp":1599580800000}},{"type":"Feature","id":147667,"geometry":{"type":"Polygon","coordinates":[[[114.16107546512539,22.333368880869251],[114.16111714083891,22.333415167082535],[114.16110273162246,22.333425942416017],[114.16119119539006,22.333526337958752],[114.16113587156636,22.33356761887978],[114.16106217116119,22.333484811254397],[114.16103203365904,22.333450919086488],[114.16100646404917,22.333422306815788],[114.16107289699086,22.333366028672515],[114.16107546512539,22.333368880869251]]]},"properties":{"OBJECTID":147667,"Shape__Length":60.836387984817897,"Shape__Area":168.59529651255727,"GeoRefNo":"3464521605","DateCreate":1114790400000,"BuildingBlockType":"Tower","BuildingCSUID":"3464521605T20050430","BuildingID":1108225212,"Status":"Active","BuildingNameEN":null,"BuildingNameTC":"九福大廈","BaseHeight":5.7000000000000002,"TopHeight":36.799999999999997,"Storeys":9,"StoreysInBasement":null,"DateStamp":1599580800000}},{"type":"Feature","id":147725,"geometry":{"type":"Polygon","coordinates":[[[114.16043195590623,22.328152570634288],[114.16040817894796,22.328126255993826],[114.16052067061013,22.328038878746902],[114.16055876437004,22.328081130268718],[114.16046122363413,22.328156894456356],[114.1604468580137,22.328140995293236],[114.16043195590623,22.328152570634288]]]},"properties":{"OBJECTID":147725,"Shape__Length":42.40165088000542,"Shape__Area":87.57529490024362,"GeoRefNo":"3458021007","DateCreate":1114790400000,"BuildingBlockType":"Tower","BuildingCSUID":"3458021007T20050430","BuildingID":1108228881,"Status":"Active","BuildingNameEN":null,"BuildingNameTC":null,"BaseHeight":4.0999999999999996,"TopHeight":25.199999999999999,"Storeys":6,"StoreysInBasement":null,"DateStamp":1599580800000}},{"type":"Feature","id":147726,"geometry":{"type":"Polygon","coordinates":[[[114.16175684377157,22.328110805472065],[114.16172654950836,22.328077953720186],[114.1617432679398,22.328065024202552],[114.16177322924733,22.328098075676937],[114.16176384822937,22.328105363751224],[114.16175684377157,22.328110805472065]]]},"properties":{"OBJECTID":147726,"Shape__Length":14.019966361319927,"Shape__Area":10.631819983245245,"GeoRefNo":"3471021006","DateCreate":1114790400000,"BuildingBlockType":"Tower","BuildingCSUID":"3471021006T20050430","BuildingID":1108228920,"Status":"Active","BuildingNameEN":null,"BuildingNameTC":null,"BaseHeight":4.0999999999999996,"TopHeight":33.5,"Storeys":9,"StoreysInBasement":null,"DateStamp":1599580800000}},{"type":"Feature","id":147727,"geometry":{"type":"Polygon","coordinates":[[[114.16052067061013,22.328038878746902],[114.16040817894796,22.328126255993826],[114.16036853566077,22.328082381483458],[114.16038194767205,22.328071963808174],[114.1603707220273,22.328059539925658],[114.16035730991928,22.328069957690357],[114.16030918694889,22.328016698351867],[114.16040017342939,22.327945760798897],[114.1604395478186,22.32794890182975],[114.16052067061013,22.328038878746902]]]},"properties":{"OBJECTID":147727,"Shape__Length":63.852284441329275,"Shape__Area":232.24348714035412,"GeoRefNo":"3457121003","DateCreate":1114790400000,"BuildingBlockType":"Tower","BuildingCSUID":"3457121003T20050430","BuildingID":1108228911,"Status":"Active","BuildingNameEN":"Joyful Garden","BuildingNameTC":"愉翠苑","BaseHeight":4.2000000000000002,"TopHeight":49.899999999999999,"Storeys":18,"StoreysInBasement":null,"DateStamp":1599580800000}},{"type":"Feature","id":147728,"geometry":{"type":"Polygon","coordinates":[[[114.16087391622231,22.328056046730811],[114.16090360215385,22.328032557578062],[114.16094549869959,22.327998270121387],[114.16097576513,22.328032564652609],[114.16097875884171,22.32803588856174],[114.16097003788184,22.328042746076402],[114.16090722237811,22.328091866026757],[114.16087391622231,22.328056046730811]]]},"properties":{"OBJECTID":147728,"Shape__Length":30.032121562292225,"Shape__Area":51.381777804419023,"GeoRefNo":"3462421001","DateCreate":1114790400000,"BuildingBlockType":"Tower","BuildingCSUID":"3462421001T20050430","BuildingID":1108228933,"Status":"Active","BuildingNameEN":null,"BuildingNameTC":null,"BaseHeight":4.0999999999999996,"TopHeight":24.899999999999999,"Storeys":6,"StoreysInBasement":null,"DateStamp":1599580800000}},{"type":"Feature","id":147729,"geometry":{"type":"Polygon","coordinates":[[[114.16419544576388,22.328106107769525],[114.16412905498693,22.328032842414455],[114.16409912532468,22.328000222949086],[114.16413534142612,22.327971896755031],[114.16419141831267,22.328032847289222],[114.16422834575167,22.328073117631689],[114.16421604607635,22.328082800441777],[114.16424104876899,22.328110632841277],[114.16422061189446,22.32812661159452],[114.16419894600669,22.328103358771166],[114.16419544576388,22.328106107769525]]]},"properties":{"OBJECTID":147729,"Shape__Length":47.28744940044831,"Shape__Area":83.798835764721957,"GeoRefNo":"3495620997","DateCreate":1114790400000,"BuildingBlockType":"Tower","BuildingCSUID":"3495620997T20050430","BuildingID":1108228913,"Status":"Active","BuildingNameEN":null,"BuildingNameTC":null,"BaseHeight":4.9000000000000004,"TopHeight":30,"Storeys":8,"StoreysInBasement":null,"DateStamp":1599580800000}},{"type":"Feature","id":147815,"geometry":{"type":"Polygon","coordinates":[[[114.16179578364986,22.328001855988781],[114.16189914033612,22.327921284913003],[114.16192760278147,22.327953245868589],[114.16182670488635,22.328032645652055],[114.1618244496669,22.328034423113863],[114.16182291951989,22.328032645301629],[114.16179578364986,22.328001855988781]]]},"properties":{"OBJECTID":147815,"Shape__Length":37.068370113954487,"Shape__Area":64.351884296144519,"GeoRefNo":"3472020994","DateCreate":1114790400000,"BuildingBlockType":"Tower","BuildingCSUID":"3472020994T20050430","BuildingID":1108228972,"Status":"Active","BuildingNameEN":null,"BuildingNameTC":null,"BaseHeight":4.0999999999999996,"TopHeight":33.600000000000001,"Storeys":9,"StoreysInBasement":null,"DateStamp":1599580800000}},{"type":"Feature","id":147817,"geometry":{"type":"Polygon","coordinates":[[[114.1610295081792,22.327993533843973],[114.16092706073637,22.327878869444785],[114.16094005861619,22.32786835406176],[114.16091270777123,22.327837620027278],[114.1609286491866,22.32782515721761],[114.16095473445301,22.327853664183287],[114.16095736071264,22.327851466034957],[114.16106194064687,22.327968256873977],[114.1610295081792,22.327993533843973]]]},"properties":{"OBJECTID":147817,"Shape__Length":50.550464051349444,"Shape__Area":81.649571035563795,"GeoRefNo":"3463020986","DateCreate":1114790400000,"BuildingBlockType":"Tower","BuildingCSUID":"3463020986T20050430","BuildingID":1108229008,"Status":"Active","BuildingNameEN":null,"BuildingNameTC":null,"BaseHeight":4.0999999999999996,"TopHeight":33.399999999999999,"Storeys":8,"StoreysInBasement":null,"DateStamp":1599580800000}},{"type":"Feature","id":147818,"geometry":{"type":"Polygon","coordinates":[[[114.15964761409145,22.327993848205459],[114.15953455041173,22.327869317151588],[114.15956440450844,22.327846151375951],[114.15967332731421,22.327965639382967],[114.15967750998969,22.327970228807491],[114.15966086444269,22.327983379278866],[114.15967809855704,22.32800230306794],[114.15966500251169,22.328013000576341],[114.15964761409145,22.327993848205459]]]},"properties":{"OBJECTID":147818,"Shape__Length":49.639564419212235,"Shape__Area":77.496007489582922,"GeoRefNo":"3448920988","DateCreate":1114790400000,"BuildingBlockType":"Tower","BuildingCSUID":"3448920988T20050430","BuildingID":1108228995,"Status":"Active","BuildingNameEN":null,"BuildingNameTC":null,"BaseHeight":4,"TopHeight":29.399999999999999,"Storeys":8,"StoreysInBasement":null,"DateStamp":1599580800000}},{"type":"Feature","id":147975,"geometry":{"type":"Polygon","coordinates":[[[114.15935785405435,22.328114757707272],[114.1593000992773,22.328050267228416],[114.15932395442465,22.328032394667673],[114.15934123831602,22.328019217659651],[114.15934895363277,22.328013332447217],[114.15940084798913,22.327973042032195],[114.15941304574595,22.327963608188565],[114.15945644092942,22.328011705946263],[114.15943062559917,22.328032406153426],[114.15940734376835,22.328050793625138],[114.15942033316091,22.32806513360228],[114.15935785405435,22.328114757707272]]]},"properties":{"OBJECTID":147975,"Shape__Length":48.529300305767208,"Shape__Area":124.21497833633984,"GeoRefNo":"3446321003","DateCreate":1114790400000,"BuildingBlockType":"Tower","BuildingCSUID":"3446321003T20050430","BuildingID":1108228917,"Status":"Active","BuildingNameEN":null,"BuildingNameTC":null,"BaseHeight":3.8999999999999999,"TopHeight":35.299999999999997,"Storeys":9,"StoreysInBasement":null,"DateStamp":1599580800000}},{"type":"Feature","id":147976,"geometry":{"type":"Polygon","coordinates":[[[114.16429682899417,22.328015485596222],[114.16420787647124,22.32791851884037],[114.1642060845252,22.327916565475629],[114.16424377540396,22.327887085714668],[114.16433230162532,22.327983988210867],[114.16434382549249,22.327996602297311],[114.16431917870644,22.328014856085002],[114.16433519623489,22.32803285843654],[114.16433738116761,22.328035209537063],[114.16432445712543,22.328045468187682],[114.16431276436153,22.328032856705754],[114.16429682899417,22.328015485596222]]]},"properties":{"OBJECTID":147976,"Shape__Length":47.690719433727359,"Shape__Area":85.389935774383829,"GeoRefNo":"3496920991","DateCreate":1114790400000,"BuildingBlockType":"Tower","BuildingCSUID":"3496920991T20050430","BuildingID":1108228961,"Status":"Active","BuildingNameEN":null,"BuildingNameTC":null,"BaseHeight":4.9000000000000004,"TopHeight":27.199999999999999,"Storeys":6,"StoreysInBasement":null,"DateStamp":1599580800000}},{"type":"Feature","id":147979,"geometry":{"type":"Polygon","coordinates":[[[114.16289043193973,22.328042902379625],[114.16288078957348,22.328032739794427],[114.16277992858728,22.327923830449343],[114.16279880019944,22.327909025356693],[114.16281325157924,22.327925879213414],[114.16282755799058,22.327914087499629],[114.16284630908855,22.327934837970552],[114.16292196322203,22.328018558812705],[114.16290372647929,22.328032741766762],[114.16289043193973,22.328042902379625]]]},"properties":{"OBJECTID":147979,"Shape__Length":43.654945755924373,"Shape__Area":71.178254651718419,"GeoRefNo":"3482320993","DateCreate":1114790400000,"BuildingBlockType":"Tower","BuildingCSUID":"3482320993T20050430","BuildingID":1108228967,"Status":"Active","BuildingNameEN":null,"BuildingNameTC":null,"BaseHeight":4.4000000000000004,"TopHeight":33.299999999999997,"Storeys":8,"StoreysInBasement":null,"DateStamp":1599580800000}}]}