{"type":"FeatureCollection","features":[{"type":"Feature","id":180365,"geometry":{"type":"Polygon","coordinates":[[[114.16016408899947,22.328332521503992],[114.16005667161842,22.328213387083384],[114.16009058761904,22.32818691914737],[114.16015227904657,22.328255339949408],[114.16019015593797,22.328297348521374],[114.16017900106914,22.328306054123313],[114.16019888540234,22.328328107406605],[114.16019516714462,22.328331009274194],[114.16020821981738,22.328345485646377],[114.16019709590579,22.328354225749525],[114.16017195430071,22.328326341690403],[114.16016408899947,22.328332521503992]]]},"properties":{"OBJECTID":180365,"Shape__Length":51.611742574806676,"Shape__Area":83.642276201260046,"GeoRefNo":"3454221024","DateCreate":1114790400000,"BuildingBlockType":"Tower","BuildingCSUID":"3454221024T20050430","BuildingID":1108228713,"Status":"Active","BuildingNameEN":null,"BuildingNameTC":null,"BaseHeight":4.0999999999999996,"TopHeight":30,"Storeys":8,"StoreysInBasement":null,"DateStamp":1599580800000}},{"type":"Feature","id":180368,"geometry":{"type":"Polygon","coordinates":[[[114.16174798427636,22.328282516605011],[114.16166021411622,22.328185877007403],[114.1616882099384,22.328164127114576],[114.16169582829674,22.328158208368261],[114.16178298407787,22.328255377262753],[114.16174798427636,22.328282516605011]]]},"properties":{"OBJECTID":180368,"Shape__Length":37.498477742527996,"Shape__Area":66.375671466846853,"GeoRefNo":"3470621020","DateCreate":1114790400000,"BuildingBlockType":"Tower","BuildingCSUID":"3470621020T20050430","BuildingID":1108228765,"Status":"Active","BuildingNameEN":null,"BuildingNameTC":null,"BaseHeight":4.0999999999999996,"TopHeight":31.199999999999999,"Storeys":9,"StoreysInBasement":null,"DateStamp":1599580800000}},{"type":"Feature","id":180369,"geometry":{"type":"Polygon","coordinates":[[[114.16008446510411,22.328371480177829],[114.15998931553706,22.328265951555355],[114.16002417115079,22.328238750357308],[114.16012382591963,22.328348534364437],[114.16016116421584,22.328389667733273],[114.1601537483677,22.328395494406408],[114.16014005707447,22.328380411470132],[114.16013115801735,22.328387403476707],[114.1601032827015,22.328356694990788],[114.16008446510411,22.328371480177829]]]},"properties":{"OBJECTID":180369,"Shape__Length":53.188252663081215,"Shape__Area":83.815242801708621,"GeoRefNo":"3453621031","DateCreate":1114790400000,"BuildingBlockType":"Tower","BuildingCSUID":"3453621031T20050430","BuildingID":1108228680,"Status":"Active","BuildingNameEN":null,"BuildingNameTC":null,"BaseHeight":4.0999999999999996,"TopHeight":17.300000000000001,"Storeys":null,"StoreysInBasement":null,"DateStamp":1361808000000}},{"type":"Feature","id":180370,"geometry":{"type":"Polygon","coordinates":[[[114.16132549538391,22.328351618597519],[114.16131477885438,22.328339949425093],[114.16133377956963,22.328325242768972],[114.16135208746277,22.32831107228056],[114.16136297368497,22.328322554443361],[114.16132549538391,22.328351618597519]]]},"properties":{"OBJECTID":180370,"Shape__Length":13.421494384074331,"Shape__Area":8.5079758441602316,"GeoRefNo":"3466821033","DateCreate":1114790400000,"BuildingBlockType":"Tower","BuildingCSUID":"3466821033T20050430","BuildingID":1108228715,"Status":"Active","BuildingNameEN":null,"BuildingNameTC":null,"BaseHeight":4.2999999999999998,"TopHeight":7.2000000000000002,"Storeys":null,"StoreysInBasement":null,"DateStamp":1361808000000}},{"type":"Feature","id":180371,"geometry":{"type":"Polygon","coordinates":[[[114.16335925783503,22.328363385086273],[114.16324701653906,22.328237392836279],[114.16328227755335,22.328210060840441],[114.16339599815899,22.328334871898321],[114.16335925783503,22.328363385086273]]]},"properties":{"OBJECTID":180371,"Shape__Length":45.896662255912759,"Shape__Area":87.492630510039518,"GeoRefNo":"3487121026","DateCreate":1114790400000,"BuildingBlockType":"Tower","BuildingCSUID":"3487121026T20050430","BuildingID":1108228702,"Status":"Active","BuildingNameEN":"Mee King Building","BuildingNameTC":null,"BaseHeight":4.5999999999999996,"TopHeight":24.199999999999999,"Storeys":6,"StoreysInBasement":null,"DateStamp":1599580800000}},{"type":"Feature","id":180372,"geometry":{"type":"Polygon","coordinates":[[[114.16333660929075,22.328191472482885],[114.16337104761038,22.32816550076631],[114.16347134518327,22.328276412045678],[114.16343689086335,22.328303146234102],[114.16333660929075,22.328191472482885]]]},"properties":{"OBJECTID":180372,"Shape__Length":41.353410611917823,"Shape__Area":73.885843932865583,"GeoRefNo":"3487921020","DateCreate":1114790400000,"BuildingBlockType":"Tower","BuildingCSUID":"3487921020T20050430","BuildingID":1108228756,"Status":"Active","BuildingNameEN":"Mee King Building","BuildingNameTC":null,"BaseHeight":4.7000000000000002,"TopHeight":27.600000000000001,"Storeys":6,"StoreysInBasement":null,"DateStamp":1599580800000}},{"type":"Feature","id":180373,"geometry":{"type":"Polygon","coordinates":[[[114.16012382591963,22.328348534364437],[114.16002417115079,22.328238750357308],[114.16005667161842,22.328213387083384],[114.16016408899947,22.328332521503992],[114.16015880035745,22.328336676834972],[114.16018404097819,22.328364483062646],[114.16017069239697,22.328374971075934],[114.16013717459889,22.328338046354983],[114.16012382591963,22.328348534364437]]]},"properties":{"OBJECTID":180373,"Shape__Length":51.196983045448931,"Shape__Area":79.668119819851285,"GeoRefNo":"3453921027","DateCreate":1114790400000,"BuildingBlockType":"Tower","BuildingCSUID":"3453921027T20050430","BuildingID":1108228691,"Status":"Active","BuildingNameEN":null,"BuildingNameTC":null,"BaseHeight":4.2000000000000002,"TopHeight":30,"Storeys":8,"StoreysInBasement":null,"DateStamp":1599580800000}},{"type":"Feature","id":180374,"geometry":{"type":"Polygon","coordinates":[[[114.15944144722251,22.328208097876395],[114.15951942341906,22.328147081055725],[114.1596004535554,22.328236787322918],[114.15963497090682,22.328210044474705],[114.15969719938346,22.328279244575089],[114.15958398690321,22.32836725656275],[114.15944144722251,22.328208097876395]]]},"properties":{"OBJECTID":180374,"Shape__Length":76.231053709594164,"Shape__Area":288.23593453198112,"GeoRefNo":"3448021024","DateCreate":1114790400000,"BuildingBlockType":"Tower","BuildingCSUID":"3448021024T20050430","BuildingID":1108228698,"Status":"Active","BuildingNameEN":"Kweilin Mansion","BuildingNameTC":"桂林大廈","BaseHeight":4,"TopHeight":34.600000000000001,"Storeys":8,"StoreysInBasement":null,"DateStamp":1599580800000}},{"type":"Feature","id":180530,"geometry":{"type":"Polygon","coordinates":[[[114.16513673260083,22.330442270570089],[114.16502252644895,22.330317016966209],[114.16506412770356,22.33028481025303],[114.16508952439361,22.330313522573164],[114.16512961598212,22.33035884815817],[114.16517402513266,22.330409054892549],[114.16519437930492,22.330432066278217],[114.16517419033718,22.330447653869733],[114.16515566134947,22.330427819391225],[114.16513673260083,22.330442270570089]]]},"properties":{"OBJECTID":180530,"Shape__Length":53.016839959012017,"Shape__Area":106.98585306744287,"GeoRefNo":"3505521258","DateCreate":1114790400000,"BuildingBlockType":"Tower","BuildingCSUID":"3505521258T20050430","BuildingID":1108226925,"Status":"Active","BuildingNameEN":null,"BuildingNameTC":null,"BaseHeight":5.5,"TopHeight":25.199999999999999,"Storeys":6,"StoreysInBasement":null,"DateStamp":1599580800000}},{"type":"Feature","id":180538,"geometry":{"type":"Polygon","coordinates":[[[114.1615167274884,22.330252846628433],[114.16163041301188,22.330380594552025],[114.16159443589891,22.330408289413793],[114.16150756471713,22.330312539445252],[114.1615227723488,22.330300873912105],[114.16151157192293,22.330288729520444],[114.16149630122753,22.330300124400068],[114.16147947374346,22.330281559632919],[114.1615167274884,22.330252846628433]]]},"properties":{"OBJECTID":180538,"Shape__Length":50.543340512658389,"Shape__Area":86.330587706139909,"GeoRefNo":"3469021254","DateCreate":1114790400000,"BuildingBlockType":"Tower","BuildingCSUID":"3469021254T20050430","BuildingID":1108226959,"Status":"Active","BuildingNameEN":null,"BuildingNameTC":null,"BaseHeight":4.4000000000000004,"TopHeight":24.699999999999999,"Storeys":6,"StoreysInBasement":null,"DateStamp":1599580800000}},{"type":"Feature","id":180539,"geometry":{"type":"Polygon","coordinates":[[[114.16210313802731,22.330395595278326],[114.16201570665385,22.330298626944177],[114.16205097113506,22.330271380472517],[114.1621373608991,22.33036916027195],[114.16213349031976,22.330372147959999],[114.16213954933056,22.330378880988803],[114.1621637086082,22.330405727484884],[114.16214694072079,22.33041868087831],[114.16213954602787,22.330410418399687],[114.16211682018825,22.330385025773239],[114.16210313802731,22.330395595278326]]]},"properties":{"OBJECTID":180539,"Shape__Length":47.048530109385283,"Shape__Area":76.06369989541038,"GeoRefNo":"3474421256","DateCreate":1114790400000,"BuildingBlockType":"Tower","BuildingCSUID":"3474421256T20050430","BuildingID":1108226954,"Status":"Active","BuildingNameEN":null,"BuildingNameTC":null,"BaseHeight":4.5,"TopHeight":32,"Storeys":8,"StoreysInBasement":null,"DateStamp":1599580800000}},{"type":"Feature","id":180542,"geometry":{"type":"Polygon","coordinates":[[[114.16203381245147,22.330449151332424],[114.16194665416273,22.330351995421424],[114.1619818464481,22.33032479266636],[114.1620692572355,22.330421767067083],[114.16206516658342,22.330424928210896],[114.16209520188029,22.330458647163855],[114.16207931309324,22.330470923697693],[114.16204922139707,22.330437246458011],[114.16203381245147,22.330449151332424]]]},"properties":{"OBJECTID":180542,"Shape__Length":47.179423067644876,"Shape__Area":76.623084462778706,"GeoRefNo":"3473721261","DateCreate":1114790400000,"BuildingBlockType":"Tower","BuildingCSUID":"3473721261T20050430","BuildingID":1108226901,"Status":"Active","BuildingNameEN":null,"BuildingNameTC":null,"BaseHeight":4.5,"TopHeight":31.5,"Storeys":8,"StoreysInBasement":null,"DateStamp":1599580800000}},{"type":"Feature","id":180570,"geometry":{"type":"Polygon","coordinates":[[[114.16125470366991,22.328380621388167],[114.16116911009937,22.328286608099909],[114.16114725171344,22.328262599442347],[114.16116911466993,22.328245663250435],[114.1611841610723,22.328234007483431],[114.16128098781171,22.328339831317965],[114.16130576961376,22.328366915873687],[114.161293820068,22.328376182275463],[114.16128034717772,22.328360843078045],[114.16125470366991,22.328380621388167]]]},"properties":{"OBJECTID":180570,"Shape__Length":48.631269622073461,"Shape__Area":88.594985730192803,"GeoRefNo":"3465621031","DateCreate":1114790400000,"BuildingBlockType":"Tower","BuildingCSUID":"3465621031T20050430","BuildingID":1108228687,"Status":"Active","BuildingNameEN":null,"BuildingNameTC":null,"BaseHeight":4.2000000000000002,"TopHeight":26.5,"Storeys":6,"StoreysInBasement":null,"DateStamp":1599580800000}},{"type":"Feature","id":180574,"geometry":{"type":"Polygon","coordinates":[[[114.16139287428794,22.328393572273033],[114.16136218106489,22.328360233035578],[114.16138182906424,22.328345062444228],[114.16141280983271,22.328378084460944],[114.16140239047172,22.328386179207662],[114.16139287428794,22.328393572273033]]]},"properties":{"OBJECTID":180574,"Shape__Length":15.020824523905706,"Shape__Area":12.884546459048224,"GeoRefNo":"3467221037","DateCreate":1114790400000,"BuildingBlockType":"Tower","BuildingCSUID":"3467221037T20050430","BuildingID":1108228679,"Status":"Active","BuildingNameEN":null,"BuildingNameTC":null,"BaseHeight":4.2999999999999998,"TopHeight":33.399999999999999,"Storeys":9,"StoreysInBasement":null,"DateStamp":1599580800000}},{"type":"Feature","id":180575,"geometry":{"type":"Polygon","coordinates":[[[114.161354971826,22.328282445242529],[114.16125900348796,22.32817603463624],[114.16129312231222,22.328149586515732],[114.16139573188254,22.328260575699161],[114.16138149692961,22.328271672389324],[114.16136024340871,22.328288293861831],[114.161354971826,22.328282445242529]]]},"properties":{"OBJECTID":180575,"Shape__Length":41.787111985810263,"Shape__Area":75.805647207467089,"GeoRefNo":"3466721020","DateCreate":1114790400000,"BuildingBlockType":"Tower","BuildingCSUID":"3466721020T20050430","BuildingID":1108228764,"Status":"Active","BuildingNameEN":null,"BuildingNameTC":null,"BaseHeight":4.2000000000000002,"TopHeight":32.799999999999997,"Storeys":9,"StoreysInBasement":null,"DateStamp":1599580800000}},{"type":"Feature","id":180578,"geometry":{"type":"Polygon","coordinates":[[[114.16131969323415,22.328309809236789],[114.16122298908689,22.328203926105857],[114.16125900348796,22.32817603463624],[114.161354971826,22.328282445242529],[114.16131969323415,22.328309809236789]]]},"properties":{"OBJECTID":180578,"Shape__Length":40.327367442242533,"Shape__Area":73.529584098011725,"GeoRefNo":"3466321024","DateCreate":1114790400000,"BuildingBlockType":"Tower","BuildingCSUID":"3466321024T20050430","BuildingID":1108228751,"Status":"Active","BuildingNameEN":null,"BuildingNameTC":null,"BaseHeight":4.0999999999999996,"TopHeight":23.699999999999999,"Storeys":6,"StoreysInBasement":null,"DateStamp":1599580800000}},{"type":"Feature","id":180582,"geometry":{"type":"Polygon","coordinates":[[[114.16475546794277,22.328377673761363],[114.16464588908235,22.328254788657212],[114.16468176585848,22.328226875736572],[114.16476306507307,22.328318132704513],[114.164800335842,22.328359968392721],[114.16480042988978,22.328360074057539],[114.16478071458862,22.328375409956895],[114.16478068837907,22.328375430273748],[114.16477188304199,22.328365317531819],[114.16475546794277,22.328377673761363]]]},"properties":{"OBJECTID":180582,"Shape__Length":47.924030429319963,"Shape__Area":89.057663092716552,"GeoRefNo":"3501521029","DateCreate":1114790400000,"BuildingBlockType":"Tower","BuildingCSUID":"3501521029T20050430","BuildingID":1108228690,"Status":"Active","BuildingNameEN":null,"BuildingNameTC":null,"BaseHeight":4.9000000000000004,"TopHeight":36.200000000000003,"Storeys":9,"StoreysInBasement":null,"DateStamp":1599580800000}},{"type":"Feature","id":180726,"geometry":{"type":"Polygon","coordinates":[[[114.16301628445366,22.329694231694255],[114.16292505153092,22.329592639137211],[114.16295742441623,22.329567483068562],[114.16304924055304,22.329668773674587],[114.16304613417999,22.329671173287814],[114.16307230717943,22.329700795100763],[114.16305308919092,22.329715842392687],[114.16302672827698,22.329686164029233],[114.16301628445366,22.329694231694255]]]},"properties":{"OBJECTID":180726,"Shape__Length":46.589044766017722,"Shape__Area":75.257670813828966,"GeoRefNo":"3483721177","DateCreate":1114790400000,"BuildingBlockType":"Tower","BuildingCSUID":"3483721177T20050430","BuildingID":1108227612,"Status":"Active","BuildingNameEN":null,"BuildingNameTC":null,"BaseHeight":4.4000000000000004,"TopHeight":32.799999999999997,"Storeys":9,"StoreysInBasement":null,"DateStamp":1599580800000}},{"type":"Feature","id":180763,"geometry":{"type":"Polygon","coordinates":[[[114.16026184521695,22.32831261412095],[114.16012463658841,22.328160438845973],[114.160158685642,22.328133958447033],[114.16022021946539,22.328202204465658],[114.1601973943708,22.328220055770924],[114.16021528668084,22.328239899425213],[114.16022123057007,22.328235250818679],[114.16027887545168,22.328299183589252],[114.16026184521695,22.32831261412095]]]},"properties":{"OBJECTID":180763,"Shape__Length":54.711737523010093,"Shape__Area":70.693892572446089,"GeoRefNo":"3454821017","DateCreate":1114790400000,"BuildingBlockType":"Tower","BuildingCSUID":"3454821017T20050430","BuildingID":1108228749,"Status":"Active","BuildingNameEN":null,"BuildingNameTC":null,"BaseHeight":4.2000000000000002,"TopHeight":24.300000000000001,"Storeys":5,"StoreysInBasement":null,"DateStamp":1599580800000}},{"type":"Feature","id":180929,"geometry":{"type":"Polygon","coordinates":[[[114.16521236850512,22.329520130626069],[114.16520062655276,22.329529369786215],[114.16527892145857,22.329616151792447],[114.16521295700464,22.329668012605168],[114.16513392951427,22.329580472487645],[114.16511957748713,22.329564574464527],[114.16507983963315,22.32952055616558],[114.16511091997762,22.329496401154657],[114.1651578744535,22.329459910602093],[114.16521236850512,22.329520130626069]]]},"properties":{"OBJECTID":180929,"Shape__Length":63.543731192295077,"Shape__Area":203.32748555936064,"GeoRefNo":"3506221171","DateCreate":1114790400000,"BuildingBlockType":"Tower","BuildingCSUID":"3506221171T20050430","BuildingID":1108227661,"Status":"Active","BuildingNameEN":null,"BuildingNameTC":"福華樓","BaseHeight":5.2000000000000002,"TopHeight":36.700000000000003,"Storeys":10,"StoreysInBasement":null,"DateStamp":1599580800000}},{"type":"Feature","id":180935,"geometry":{"type":"Polygon","coordinates":[[[114.16405986404416,22.329615515690779],[114.16395260067158,22.329698525893932],[114.16392031757513,22.329663036657102],[114.16396187586771,22.329631051560412],[114.16404626687435,22.329566100352697],[114.16406586439626,22.329588034745001],[114.16404744763648,22.329601852794625],[114.16405986404416,22.329615515690779]]]},"properties":{"OBJECTID":180935,"Shape__Length":43.939425239023855,"Shape__Area":81.427537646539449,"GeoRefNo":"3494121176","DateCreate":1114790400000,"BuildingBlockType":"Tower","BuildingCSUID":"3494121176T20050430","BuildingID":1108227629,"Status":"Active","BuildingNameEN":null,"BuildingNameTC":null,"BaseHeight":4.5999999999999996,"TopHeight":28.5,"Storeys":6,"StoreysInBasement":null,"DateStamp":1599580800000}},{"type":"Feature","id":180936,"geometry":{"type":"Polygon","coordinates":[[[114.16132298413723,22.329684276102135],[114.1613079511293,22.329667440844116],[114.16128014581976,22.329636302083973],[114.16121160795028,22.329559547369758],[114.16124658526746,22.329532399115052],[114.16128015315932,22.32957008660027],[114.16134280972668,22.329640432441373],[114.16133126604467,22.329649367641437],[114.16134616324746,22.329666289758553],[114.16132298413723,22.329684276102135]]]},"properties":{"OBJECTID":180936,"Shape__Length":45.264282169903893,"Shape__Area":80.302925230071367,"GeoRefNo":"3466121174","DateCreate":1114790400000,"BuildingBlockType":"Tower","BuildingCSUID":"3466121174T20050430","BuildingID":1108227646,"Status":"Active","BuildingNameEN":null,"BuildingNameTC":null,"BaseHeight":4.2999999999999998,"TopHeight":33.600000000000001,"Storeys":9,"StoreysInBasement":null,"DateStamp":1599580800000}},{"type":"Feature","id":180937,"geometry":{"type":"Polygon","coordinates":[[[114.16449138491053,22.329755256116407],[114.16442258780199,22.329678525858757],[114.16444271424503,22.329662784383149],[114.16438393036643,22.329596487002682],[114.1643923231305,22.329590081622335],[114.16438469977759,22.329581584703472],[114.16439623752449,22.329572742390631],[114.16453124385501,22.329724303120898],[114.16449138491053,22.329755256116407]]]},"properties":{"OBJECTID":180937,"Shape__Length":54.320555602466669,"Shape__Area":86.636089214697705,"GeoRefNo":"3498921183","DateCreate":1114790400000,"BuildingBlockType":"Tower","BuildingCSUID":"3498921183T20050430","BuildingID":1108227571,"Status":"Active","BuildingNameEN":null,"BuildingNameTC":null,"BaseHeight":5.0999999999999996,"TopHeight":20.800000000000001,"Storeys":null,"StoreysInBasement":null,"DateStamp":1361808000000}},{"type":"Feature","id":180940,"geometry":{"type":"Polygon","coordinates":[[[114.16308246621529,22.329643107335439],[114.16299094490046,22.329541435230979],[114.16302603661372,22.329514166495041],[114.16313297414432,22.329634046893297],[114.16311743915028,22.329646379278842],[114.16312758493794,22.329657513490975],[114.16310872603883,22.329672279697874],[114.16308246621529,22.329643107335439]]]},"properties":{"OBJECTID":180940,"Shape__Length":47.119874899682429,"Shape__Area":84.782665504326488,"GeoRefNo":"3484421171","DateCreate":1114790400000,"BuildingBlockType":"Tower","BuildingCSUID":"3484421171T20050430","BuildingID":1108227658,"Status":"Active","BuildingNameEN":null,"BuildingNameTC":null,"BaseHeight":4.4000000000000004,"TopHeight":27.300000000000001,"Storeys":6,"StoreysInBasement":null,"DateStamp":1599580800000}},{"type":"Feature","id":180941,"geometry":{"type":"Polygon","coordinates":[[[114.16216872010422,22.329501958712591],[114.16223390240769,22.329573853634987],[114.16222046999711,22.329584358243675],[114.16224527574391,22.329611861763315],[114.16225243142279,22.329606111280381],[114.16228936568221,22.329646626424921],[114.16227840827692,22.329655265903167],[114.16229225756356,22.329670323565789],[114.16224755147412,22.329705239097397],[114.16213963232488,22.329586343264026],[114.16210677738491,22.329550146519228],[114.16213963879231,22.329524582204957],[114.16216872010422,22.329501958712591]]]},"properties":{"OBJECTID":180941,"Shape__Length":63.540168544126239,"Shape__Area":169.60781587437995,"GeoRefNo":"3475721175","DateCreate":1114790400000,"BuildingBlockType":"Tower","BuildingCSUID":"3475721175T20050430","BuildingID":1108227621,"Status":"Active","BuildingNameEN":"Chun Hing Building","BuildingNameTC":"振興大樓","BaseHeight":4.4000000000000004,"TopHeight":32.700000000000003,"Storeys":9,"StoreysInBasement":null,"DateStamp":1599580800000}},{"type":"Feature","id":181127,"geometry":{"type":"Polygon","coordinates":[[[114.16127069447097,22.329696308586662],[114.16117437575731,22.329588453743789],[114.16121160795028,22.329559547369758],[114.16128014581976,22.329636302083973],[114.1613079511293,22.329667440844116],[114.16132298413723,22.329684276102135],[114.16129763539213,22.329703939484581],[114.16128256054805,22.329687116050302],[114.16128013997948,22.329688991289498],[114.16127069447097,22.329696308586662]]]},"properties":{"OBJECTID":181127,"Shape__Length":45.895952907281796,"Shape__Area":85.829078213729417,"GeoRefNo":"3465821176","DateCreate":1114790400000,"BuildingBlockType":"Tower","BuildingCSUID":"3465821176T20050430","BuildingID":1108227623,"Status":"Active","BuildingNameEN":null,"BuildingNameTC":null,"BaseHeight":4.4000000000000004,"TopHeight":33.600000000000001,"Storeys":9,"StoreysInBasement":null,"DateStamp":1599580800000}},{"type":"Feature","id":181354,"geometry":{"type":"Polygon","coordinates":[[[114.16278937243949,22.328397606433999],[114.16289047146579,22.328319170177206],[114.16290862039783,22.328339271469758],[114.16293206493104,22.328321435639442],[114.16296230635264,22.32835511210455],[114.16293904206722,22.328372965744855],[114.16295161043207,22.32838688620285],[114.16284970655988,22.32846492463047],[114.16278937243949,22.328397606433999]]]},"properties":{"OBJECTID":181354,"Shape__Length":52.871761577688751,"Shape__Area":147.54136513763177,"GeoRefNo":"3482621039","DateCreate":1114790400000,"BuildingBlockType":"Tower","BuildingCSUID":"3482621039T20050430","BuildingID":1108228624,"Status":"Active","BuildingNameEN":null,"BuildingNameTC":"永昌樓","BaseHeight":4.2000000000000002,"TopHeight":26.199999999999999,"Storeys":6,"StoreysInBasement":null,"DateStamp":1599580800000}},{"type":"Feature","id":181355,"geometry":{"type":"Polygon","coordinates":[[[114.16110866625363,22.328292504909296],[114.16116910189872,22.328360072534178],[114.16120046502668,22.328395136894951],[114.16118889200553,22.328404266240998],[114.16121390795693,22.328431928429296],[114.16116908996104,22.328467014155486],[114.16116711003073,22.328468564154235],[114.16115875851587,22.328459514882333],[114.16114648327967,22.328468929433523],[114.16110193413442,22.328419971042717],[114.16103668478574,22.328348262040226],[114.16104068987664,22.328345178576203],[114.16110866625363,22.328292504909296]]]},"properties":{"OBJECTID":181355,"Shape__Length":56.769008298957758,"Shape__Area":171.68966047451778,"GeoRefNo":"3464721041","DateCreate":1114790400000,"BuildingBlockType":"Tower","BuildingCSUID":"3464721041T20050430","BuildingID":1108228620,"Status":"Active","BuildingNameEN":null,"BuildingNameTC":null,"BaseHeight":4.2000000000000002,"TopHeight":35.600000000000001,"Storeys":9,"StoreysInBasement":null,"DateStamp":1599580800000}},{"type":"Feature","id":181357,"geometry":{"type":"Polygon","coordinates":[[[114.16368339094046,22.328483319527262],[114.16359945545969,22.328390828317282],[114.16364507210012,22.328355361253987],[114.16374444596843,22.328466154437692],[114.1637195836295,22.328485479684783],[114.16370343264282,22.328467690474724],[114.16368339094046,22.328483319527262]]]},"properties":{"OBJECTID":181357,"Shape__Length":44.118365314785478,"Shape__Area":90.184788778789567,"GeoRefNo":"3490821044","DateCreate":1114790400000,"BuildingBlockType":"Tower","BuildingCSUID":"3490821044T20050430","BuildingID":1108228598,"Status":"Active","BuildingNameEN":null,"BuildingNameTC":null,"BaseHeight":4.7999999999999998,"TopHeight":30.399999999999999,"Storeys":8,"StoreysInBasement":null,"DateStamp":1599580800000}},{"type":"Feature","id":181361,"geometry":{"type":"Polygon","coordinates":[[[114.16203527871606,22.328406165821498],[114.16194864941748,22.328310151582585],[114.16198385379811,22.328283047796312],[114.16206985271735,22.328379449552031],[114.16204477865136,22.328398825004019],[114.16203527871606,22.328406165821498]]]},"properties":{"OBJECTID":181361,"Shape__Length":37.092111964997883,"Shape__Area":64.791058240524336,"GeoRefNo":"3473621035","DateCreate":1114790400000,"BuildingBlockType":"Tower","BuildingCSUID":"3473621035T20050430","BuildingID":1108228666,"Status":"Active","BuildingNameEN":null,"BuildingNameTC":null,"BaseHeight":4.2000000000000002,"TopHeight":29.699999999999999,"Storeys":8,"StoreysInBasement":null,"DateStamp":1599580800000}},{"type":"Feature","id":181386,"geometry":{"type":"Polygon","coordinates":[[[114.15962872956297,22.328203035717799],[114.15960731763705,22.328219581267387],[114.15957419666607,22.328183194062248],[114.15959580769108,22.32816649456667],[114.15962872956297,22.328203035717799]]]},"properties":{"OBJECTID":181386,"Shape__Length":16.321683973441075,"Shape__Area":15.210558421673278,"GeoRefNo":"3448821018","DateCreate":1114790400000,"BuildingBlockType":"Tower","BuildingCSUID":"3448821018T20050430","BuildingID":1108228826,"Status":"Active","BuildingNameEN":"KWEILIN MANSION","BuildingNameTC":"桂林大廈","BaseHeight":4.2000000000000002,"TopHeight":7.2999999999999998,"Storeys":null,"StoreysInBasement":null,"DateStamp":1361808000000}},{"type":"Feature","id":181557,"geometry":{"type":"Polygon","coordinates":[[[114.16069829209671,22.330418799179043],[114.16062198749113,22.330333066418969],[114.16061036112173,22.330320003512345],[114.16058588821905,22.33029250691251],[114.16060369241174,22.330278853914074],[114.16062199148726,22.330298479651436],[114.16062880379192,22.330305785892804],[114.16064700493131,22.330291774776466],[114.16073470158987,22.330390606432378],[114.16072465617344,22.330398388983323],[114.16069829209671,22.330418799179043]]]},"properties":{"OBJECTID":181557,"Shape__Length":45.987371733869097,"Shape__Area":79.007489894782594,"GeoRefNo":"3459821255","DateCreate":1114790400000,"BuildingBlockType":"Tower","BuildingCSUID":"3459821255T20050430","BuildingID":1108226953,"Status":"Active","BuildingNameEN":null,"BuildingNameTC":null,"BaseHeight":4.4000000000000004,"TopHeight":35.5,"Storeys":9,"StoreysInBasement":null,"DateStamp":1599580800000}},{"type":"Feature","id":181558,"geometry":{"type":"Polygon","coordinates":[[[114.16322106864777,22.330455441051772],[114.1631908491027,22.330421090151063],[114.16326635777982,22.330362690115024],[114.16329718595844,22.33039687841195],[114.16322106864777,22.330455441051772]]]},"properties":{"OBJECTID":181558,"Shape__Length":30.148834414803225,"Shape__Area":50.003263595018005,"GeoRefNo":"3486321263","DateCreate":1114790400000,"BuildingBlockType":"Tower","BuildingCSUID":"3486321263T20050430","BuildingID":1108226919,"Status":"Active","BuildingNameEN":"MTR SHAM SHUI PO STATION","BuildingNameTC":"港鐵深水埗站","BaseHeight":5.0999999999999996,"TopHeight":30.199999999999999,"Storeys":11,"StoreysInBasement":null,"DateStamp":1599580800000}},{"type":"Feature","id":181560,"geometry":{"type":"Polygon","coordinates":[[[114.16203275109849,22.32846618547196],[114.16191471746828,22.328336262023608],[114.16194864941748,22.328310151582585],[114.16203527871606,22.328406165821498],[114.16202659555903,22.328412875565483],[114.16201350796658,22.328422988714237],[114.16204465400456,22.328456985025092],[114.16203275109849,22.32846618547196]]]},"properties":{"OBJECTID":181560,"Shape__Length":46.71201619892058,"Shape__Area":70.500903002315354,"GeoRefNo":"3473321037","DateCreate":1114790400000,"BuildingBlockType":"Tower","BuildingCSUID":"3473321037T20050430","BuildingID":1108228623,"Status":"Active","BuildingNameEN":null,"BuildingNameTC":null,"BaseHeight":4.2000000000000002,"TopHeight":29.699999999999999,"Storeys":8,"StoreysInBasement":null,"DateStamp":1599580800000}},{"type":"Feature","id":181561,"geometry":{"type":"Polygon","coordinates":[[[114.16193487248465,22.328483752371337],[114.16184887654782,22.328386961598277],[114.1618811575881,22.328362108437492],[114.16196731788776,22.328458681029893],[114.1619569884478,22.328466662847834],[114.16193487248465,22.328483752371337]]]},"properties":{"OBJECTID":181561,"Shape__Length":36.465592748657315,"Shape__Area":60.208341408799349,"GeoRefNo":"3472621043","DateCreate":1114790400000,"BuildingBlockType":"Tower","BuildingCSUID":"3472621043T20050430","BuildingID":1108228599,"Status":"Active","BuildingNameEN":null,"BuildingNameTC":null,"BaseHeight":4.2000000000000002,"TopHeight":29.699999999999999,"Storeys":8,"StoreysInBasement":null,"DateStamp":1599580800000}},{"type":"Feature","id":181562,"geometry":{"type":"Polygon","coordinates":[[[114.16156709324882,22.328422789166154],[114.16147923446842,22.328326479531732],[114.16148902584816,22.328318872643052],[114.16151618232392,22.328297774889666],[114.16160379638124,22.328394336525001],[114.16156709324882,22.328422789166154]]]},"properties":{"OBJECTID":181562,"Shape__Length":37.862228084505375,"Shape__Area":69.118673459471466,"GeoRefNo":"3468821036","DateCreate":1114790400000,"BuildingBlockType":"Tower","BuildingCSUID":"3468821036T20050430","BuildingID":1108228654,"Status":"Active","BuildingNameEN":null,"BuildingNameTC":null,"BaseHeight":4.2000000000000002,"TopHeight":31.199999999999999,"Storeys":9,"StoreysInBasement":null,"DateStamp":1599580800000}},{"type":"Feature","id":181566,"geometry":{"type":"Polygon","coordinates":[[[114.16190183676314,22.328509279967243],[114.16181482050001,22.328413176761433],[114.16184887654782,22.328386961598277],[114.16193487248465,22.328483752371337],[114.16190920506533,22.328503586230298],[114.16190183676314,22.328509279967243]]]},"properties":{"OBJECTID":181566,"Shape__Length":36.798386457364103,"Shape__Area":62.442015828207232,"GeoRefNo":"3472221046","DateCreate":1114790400000,"BuildingBlockType":"Tower","BuildingCSUID":"3472221046T20050430","BuildingID":1108228577,"Status":"Active","BuildingNameEN":null,"BuildingNameTC":null,"BaseHeight":4.2000000000000002,"TopHeight":29.699999999999999,"Storeys":8,"StoreysInBasement":null,"DateStamp":1599580800000}},{"type":"Feature","id":181568,"geometry":{"type":"Polygon","coordinates":[[[114.16325231183203,22.328446366328755],[114.16313970150345,22.328320558198779],[114.16315928766905,22.328305380794248],[114.16318042659726,22.328329064380135],[114.16319573659128,22.3283171853029],[114.16328784422009,22.328418795767135],[114.16325231183203,22.328446366328755]]]},"properties":{"OBJECTID":181568,"Shape__Length":45.703871326251289,"Shape__Area":78.432099066906886,"GeoRefNo":"3486121037","DateCreate":1114790400000,"BuildingBlockType":"Tower","BuildingCSUID":"3486121037T20050430","BuildingID":1108228642,"Status":"Active","BuildingNameEN":null,"BuildingNameTC":null,"BaseHeight":4.5,"TopHeight":26.100000000000001,"Storeys":6,"StoreysInBasement":null,"DateStamp":1599580800000}},{"type":"Feature","id":181571,"geometry":{"type":"Polygon","coordinates":[[[114.16120046502668,22.328395136894951],[114.16116910189872,22.328360072534178],[114.16110866625363,22.328292504909296],[114.16114725171344,22.328262599442347],[114.16116911009937,22.328286608099909],[114.16125470366991,22.328380621388167],[114.16122846013684,22.328400881418077],[114.16124239022317,22.328416064253972],[114.16122868770134,22.328426690036753],[114.16122535477473,22.32842296378719],[114.16120046502668,22.328395136894951]]]},"properties":{"OBJECTID":181571,"Shape__Length":49.193557732298643,"Shape__Area":93.898999802522795,"GeoRefNo":"3465221034","DateCreate":1114790400000,"BuildingBlockType":"Tower","BuildingCSUID":"3465221034T20050430","BuildingID":1108228651,"Status":"Active","BuildingNameEN":null,"BuildingNameTC":null,"BaseHeight":4.2000000000000002,"TopHeight":26.5,"Storeys":6,"StoreysInBasement":null,"DateStamp":1599580800000}},{"type":"Feature","id":181572,"geometry":{"type":"Polygon","coordinates":[[[114.16211122790223,22.328504611702304],[114.16207950276502,22.328470396901889],[114.16209389017212,22.328459313710404],[114.16212538728095,22.328493732849473],[114.16211855901176,22.328498990919584],[114.16211122790223,22.328504611702304]]]},"properties":{"OBJECTID":181572,"Shape__Length":13.825594661350122,"Shape__Area":9.5489572543785624,"GeoRefNo":"3474621050","DateCreate":1114790400000,"BuildingBlockType":"Tower","BuildingCSUID":"3474621050T20050430","BuildingID":1108228582,"Status":"Active","BuildingNameEN":null,"BuildingNameTC":null,"BaseHeight":4.2000000000000002,"TopHeight":33.600000000000001,"Storeys":9,"StoreysInBasement":null,"DateStamp":1599580800000}},{"type":"Feature","id":181575,"geometry":{"type":"Polygon","coordinates":[[[114.16504355202234,22.328431145550052],[114.16495109378091,22.328328298686671],[114.16492476055097,22.328299006505681],[114.16496680098506,22.328266237506991],[114.1649794448419,22.328280427828016],[114.16502861996076,22.3283356174978],[114.16503832514596,22.328346518570996],[114.16508508117124,22.328398984693887],[114.16504355202234,22.328431145550052]]]},"properties":{"OBJECTID":181575,"Shape__Length":49.386387700457448,"Shape__Area":107.03335241924812,"GeoRefNo":"3504721038","DateCreate":1114790400000,"BuildingBlockType":"Tower","BuildingCSUID":"3504721038T20050430","BuildingID":1108228649,"Status":"Active","BuildingNameEN":null,"BuildingNameTC":null,"BaseHeight":5.2000000000000002,"TopHeight":26.199999999999999,"Storeys":6,"StoreysInBasement":null,"DateStamp":1599580800000}},{"type":"Feature","id":181614,"geometry":{"type":"Polygon","coordinates":[[[114.16128098781171,22.328339831317965],[114.1611841610723,22.328234007483431],[114.16122298908689,22.328203926105857],[114.16131969323415,22.328309809236789],[114.16128098781171,22.328339831317965]]]},"properties":{"OBJECTID":181614,"Shape__Length":41.172394492614302,"Shape__Area":79.989418105716595,"GeoRefNo":"3466021028","DateCreate":1114790400000,"BuildingBlockType":"Tower","BuildingCSUID":"3466021028T20050430","BuildingID":1108228719,"Status":"Active","BuildingNameEN":null,"BuildingNameTC":null,"BaseHeight":4.2000000000000002,"TopHeight":26,"Storeys":6,"StoreysInBasement":null,"DateStamp":1599580800000}},{"type":"Feature","id":181617,"geometry":{"type":"Polygon","coordinates":[[[114.16278937243949,22.328397606433999],[114.16275900847636,22.328363727641086],[114.16288376710386,22.328267651742308],[114.16291378585784,22.32830108021766],[114.16289047146579,22.328319170177206],[114.16278937243949,22.328397606433999]]]},"properties":{"OBJECTID":181617,"Shape__Length":43.082557914088213,"Shape__Area":81.001997059124704,"GeoRefNo":"3482121033","DateCreate":1114790400000,"BuildingBlockType":"Tower","BuildingCSUID":"3482121033T20050430","BuildingID":1108228674,"Status":"Active","BuildingNameEN":null,"BuildingNameTC":"綽餘樓","BaseHeight":4.2000000000000002,"TopHeight":26.300000000000001,"Storeys":6,"StoreysInBasement":null,"DateStamp":1599580800000}},{"type":"Feature","id":181618,"geometry":{"type":"Polygon","coordinates":[[[114.16160379638124,22.328394336525001],[114.16151618232392,22.328297774889666],[114.16149858388295,22.328278379143143],[114.16152648502349,22.328257417458971],[114.16154356662457,22.328276497625133],[114.16155319957227,22.32826901633301],[114.16164154790067,22.328365049638016],[114.16160379638124,22.328394336525001]]]},"properties":{"OBJECTID":181618,"Shape__Length":43.602490784035631,"Shape__Area":80.445285789278344,"GeoRefNo":"3469221032","DateCreate":1114790400000,"BuildingBlockType":"Tower","BuildingCSUID":"3469221032T20050430","BuildingID":1108228677,"Status":"Active","BuildingNameEN":null,"BuildingNameTC":null,"BaseHeight":4.2000000000000002,"TopHeight":31.199999999999999,"Storeys":9,"StoreysInBasement":null,"DateStamp":1599580800000}},{"type":"Feature","id":181763,"geometry":{"type":"Polygon","coordinates":[[[114.16020795546756,22.329835204155426],[114.16012144292772,22.329739138849245],[114.16014972719647,22.329717406865974],[114.16015495132461,22.329713392948296],[114.16026363476576,22.329832947966171],[114.16024503193817,22.329847353455008],[114.16022279145696,22.329823786685299],[114.16020795546756,22.329835204155426]]]},"properties":{"OBJECTID":181763,"Shape__Length":43.643852730780033,"Shape__Area":71.328187590484362,"GeoRefNo":"3454821193","DateCreate":1114790400000,"BuildingBlockType":"Tower","BuildingCSUID":"3454821193T20050430","BuildingID":1108227476,"Status":"Active","BuildingNameEN":null,"BuildingNameTC":null,"BaseHeight":4.2000000000000002,"TopHeight":24.199999999999999,"Storeys":6,"StoreysInBasement":null,"DateStamp":1599580800000}},{"type":"Feature","id":181765,"geometry":{"type":"Polygon","coordinates":[[[114.16441765090804,22.32981762020594],[114.16430415009397,22.329691641526793],[114.16428352263148,22.329668735664015],[114.16430487638762,22.329652057287234],[114.16431761065672,22.329666413556296],[114.16433728738478,22.329650836144747],[114.16435976818407,22.329632952896901],[114.16434719160826,22.329619034084672],[114.1643601671306,22.329608904936823],[114.16442258780199,22.329678525858757],[114.16449138491053,22.329755256116407],[114.16449571978211,22.329760090968833],[114.16441765090804,22.32981762020594]]]},"properties":{"OBJECTID":181765,"Shape__Length":67.974108650002847,"Shape__Area":211.05935254403371,"GeoRefNo":"3498221188","DateCreate":1114790400000,"BuildingBlockType":"Tower","BuildingCSUID":"3498221188T20050430","BuildingID":1108227504,"Status":"Active","BuildingNameEN":null,"BuildingNameTC":null,"BaseHeight":5.0999999999999996,"TopHeight":33.600000000000001,"Storeys":9,"StoreysInBasement":null,"DateStamp":1599580800000}},{"type":"Feature","id":181766,"geometry":{"type":"Polygon","coordinates":[[[114.16287440258897,22.329819052445167],[114.16280452382978,22.329742469510155],[114.16277453773974,22.329709606518257],[114.16280301858113,22.329687467260957],[114.16290383031667,22.329796011458011],[114.16287440258897,22.329819052445167]]]},"properties":{"OBJECTID":181766,"Shape__Length":39.568574415295288,"Shape__Area":61.860742198588014,"GeoRefNo":"3482221190","DateCreate":1114790400000,"BuildingBlockType":"Tower","BuildingCSUID":"3482221190T20050430","BuildingID":1108227503,"Status":"Active","BuildingNameEN":"YING WAI BUILDING","BuildingNameTC":"英偉樓","BaseHeight":4.5,"TopHeight":27,"Storeys":6,"StoreysInBasement":null,"DateStamp":1599580800000}},{"type":"Feature","id":181770,"geometry":{"type":"Polygon","coordinates":[[[114.16540371352772,22.329806312925452],[114.16536254700254,22.329760870744334],[114.16530830368255,22.329700993591334],[114.1653472563855,22.329670340236099],[114.1653625530095,22.329687386634632],[114.16544218028483,22.329776122240606],[114.16540371352772,22.329806312925452]]]},"properties":{"OBJECTID":181770,"Shape__Length":40.952224626744986,"Shape__Area":79.639996476843834,"GeoRefNo":"3508221188","DateCreate":1114790400000,"BuildingBlockType":"Tower","BuildingCSUID":"3508221188T20050430","BuildingID":1108227513,"Status":"Active","BuildingNameEN":null,"BuildingNameTC":null,"BaseHeight":5.4000000000000004,"TopHeight":25.5,"Storeys":6,"StoreysInBasement":null,"DateStamp":1599580800000}},{"type":"Feature","id":181812,"geometry":{"type":"Polygon","coordinates":[[[114.16138149692961,22.328271672389324],[114.16139573188254,22.328260575699161],[114.16141028931344,22.328249227536617],[114.1614301497502,22.328270484982049],[114.16140115624232,22.328292952124631],[114.16138149692961,22.328271672389324]]]},"properties":{"OBJECTID":181812,"Shape__Length":13.983380433470352,"Shape__Area":12.072625060129056,"GeoRefNo":"3467421026","DateCreate":1114790400000,"BuildingBlockType":"Tower","BuildingCSUID":"3467421026T20050430","BuildingID":1108228761,"Status":"Active","BuildingNameEN":null,"BuildingNameTC":null,"BaseHeight":4.2000000000000002,"TopHeight":7.4000000000000004,"Storeys":null,"StoreysInBasement":null,"DateStamp":1361808000000}},{"type":"Feature","id":181813,"geometry":{"type":"Polygon","coordinates":[[[114.16015227904657,22.328255339949408],[114.16009058761904,22.32818691914737],[114.16012463658841,22.328160438845973],[114.16026184521695,22.32831261412095],[114.16024481497892,22.328326044650829],[114.16018705227941,22.328261981274025],[114.16019299626758,22.328257332487912],[114.16017510415263,22.328237488650586],[114.16015227904657,22.328255339949408]]]},"properties":{"OBJECTID":181813,"Shape__Length":54.755888704705391,"Shape__Area":70.773173782301498,"GeoRefNo":"3454521019","DateCreate":1114790400000,"BuildingBlockType":"Tower","BuildingCSUID":"3454521019T20050430","BuildingID":1108228738,"Status":"Active","BuildingNameEN":null,"BuildingNameTC":null,"BaseHeight":4.0999999999999996,"TopHeight":24.300000000000001,"Storeys":5,"StoreysInBasement":null,"DateStamp":1599580800000}},{"type":"Feature","id":181815,"geometry":{"type":"Polygon","coordinates":[[[114.16164154790067,22.328365049638016],[114.16155319957227,22.32826901633301],[114.16156278747623,22.328261573054821],[114.16159053064563,22.328240013971513],[114.16167794259863,22.328336837977261],[114.16164154790067,22.328365049638016]]]},"properties":{"OBJECTID":181815,"Shape__Length":37.890416370101306,"Shape__Area":69.231025161316225,"GeoRefNo":"3469521029","DateCreate":1114790400000,"BuildingBlockType":"Tower","BuildingCSUID":"3469521029T20050430","BuildingID":1108228700,"Status":"Active","BuildingNameEN":null,"BuildingNameTC":null,"BaseHeight":4.2000000000000002,"TopHeight":31.199999999999999,"Storeys":9,"StoreysInBasement":null,"DateStamp":1599580800000}},{"type":"Feature","id":181818,"geometry":{"type":"Polygon","coordinates":[[[114.16332320671606,22.328391358384589],[114.16321034057408,22.328265812890873],[114.16324701653906,22.328237392836279],[114.16335925783503,22.328363385086273],[114.16332320671606,22.328391358384589]]]},"properties":{"OBJECTID":181818,"Shape__Length":45.998468149236132,"Shape__Area":88.379922200237985,"GeoRefNo":"3486521027","DateCreate":1114790400000,"BuildingBlockType":"Tower","BuildingCSUID":"3486521027T20050430","BuildingID":1108228683,"Status":"Active","BuildingNameEN":"Mee King Building","BuildingNameTC":null,"BaseHeight":4.5,"TopHeight":24.199999999999999,"Storeys":6,"StoreysInBasement":null,"DateStamp":1599580800000}},{"type":"Feature","id":181989,"geometry":{"type":"Polygon","coordinates":[[[114.16113242702534,22.329803445375052],[114.16103602163408,22.32969585531],[114.16107127529521,22.329668494089113],[114.16116761487254,22.329776181567166],[114.1611605881768,22.329781624432908],[114.16117563456206,22.329798571143058],[114.16116215575576,22.329809022649695],[114.16116183453362,22.329809271772397],[114.16114653284085,22.329792523347894],[114.16113242702534,22.329803445375052]]]},"properties":{"OBJECTID":181989,"Shape__Length":45.306740088998623,"Shape__Area":77.8249656860946,"GeoRefNo":"3464321188","DateCreate":1114790400000,"BuildingBlockType":"Tower","BuildingCSUID":"3464321188T20050430","BuildingID":1108227510,"Status":"Active","BuildingNameEN":null,"BuildingNameTC":null,"BaseHeight":4.4000000000000004,"TopHeight":33.600000000000001,"Storeys":9,"StoreysInBasement":null,"DateStamp":1599580800000}},{"type":"Feature","id":181993,"geometry":{"type":"Polygon","coordinates":[[[114.16324412876283,22.329830792641726],[114.16315002904855,22.329724808851712],[114.16318517905583,22.329697139580514],[114.16328050012649,22.329802576289612],[114.16324412876283,22.329830792641726]]]},"properties":{"OBJECTID":181993,"Shape__Length":40.100814609807415,"Shape__Area":73.316948250584915,"GeoRefNo":"3486021190","DateCreate":1114790400000,"BuildingBlockType":"Tower","BuildingCSUID":"3486021190T20050430","BuildingID":1108227493,"Status":"Active","BuildingNameEN":null,"BuildingNameTC":null,"BaseHeight":4.7000000000000002,"TopHeight":24.300000000000001,"Storeys":6,"StoreysInBasement":null,"DateStamp":1599580800000}},{"type":"Feature","id":181996,"geometry":{"type":"Polygon","coordinates":[[[114.16438387800009,22.329844280320998],[114.16425004729149,22.329694862880007],[114.16427299636219,22.329676945635359],[114.16429399443032,22.329699794906375],[114.16430415009397,22.329691641526793],[114.16441765090804,22.32981762020594],[114.16438387800009,22.329844280320998]]]},"properties":{"OBJECTID":181996,"Shape__Length":52.100312522402234,"Shape__Area":92.906556614365172,"GeoRefNo":"3497721192","DateCreate":1114790400000,"BuildingBlockType":"Tower","BuildingCSUID":"3497721192T20050430","BuildingID":1108227480,"Status":"Active","BuildingNameEN":null,"BuildingNameTC":null,"BaseHeight":5,"TopHeight":34.600000000000001,"Storeys":9,"StoreysInBasement":null,"DateStamp":1599580800000}},{"type":"Feature","id":181999,"geometry":{"type":"Polygon","coordinates":[[[114.16109856540754,22.329829682797577],[114.16100229776818,22.329722038633019],[114.16103602163408,22.32969585531],[114.16113242702534,22.329803445375052],[114.16112136898319,22.32981201423625],[114.16113663747201,22.329828818017354],[114.16112174640693,22.329840373643471],[114.16110654985367,22.329823494281975],[114.16109856540754,22.329829682797577]]]},"properties":{"OBJECTID":181999,"Shape__Length":44.967947546153873,"Shape__Area":75.148675012174209,"GeoRefNo":"3463921191","DateCreate":1114790400000,"BuildingBlockType":"Tower","BuildingCSUID":"3463921191T20050430","BuildingID":1108227483,"Status":"Active","BuildingNameEN":null,"BuildingNameTC":null,"BaseHeight":4.4000000000000004,"TopHeight":33.600000000000001,"Storeys":9,"StoreysInBasement":null,"DateStamp":1599580800000}},{"type":"Feature","id":182000,"geometry":{"type":"Polygon","coordinates":[[[114.1628348464881,22.329850016888905],[114.16280451644988,22.329816284047553],[114.16273571671877,22.329739765473981],[114.16277453773974,22.329709606518257],[114.16280452382978,22.329742469510155],[114.16287440258897,22.329819052445167],[114.1628348464881,22.329850016888905]]]},"properties":{"OBJECTID":182000,"Shape__Length":42.350550939033596,"Shape__Area":83.799520029080639,"GeoRefNo":"3481921194","DateCreate":1114790400000,"BuildingBlockType":"Tower","BuildingCSUID":"3481921194T20050430","BuildingID":1108227472,"Status":"Active","BuildingNameEN":null,"BuildingNameTC":"英偉樓","BaseHeight":4.5,"TopHeight":24.100000000000001,"Storeys":6,"StoreysInBasement":null,"DateStamp":1599580800000}},{"type":"Feature","id":182038,"geometry":{"type":"Polygon","coordinates":[[[114.16413579437808,22.328170948575682],[114.16402914028517,22.328053821723422],[114.16405742722957,22.328032836785894],[114.16406797290789,22.328024521080216],[114.16407548678039,22.32803283820801],[114.16416049288719,22.328126534481129],[114.16418547094862,22.328154070503345],[114.16416616932577,22.328169159374102],[114.16415422926995,22.32815624136359],[114.16413579437808,22.328170948575682]]]},"properties":{"OBJECTID":182038,"Shape__Length":47.906302328410476,"Shape__Area":91.749316660914047,"GeoRefNo":"3495221008","DateCreate":1114790400000,"BuildingBlockType":"Tower","BuildingCSUID":"3495221008T20050430","BuildingID":1108228868,"Status":"Active","BuildingNameEN":null,"BuildingNameTC":"萬興大廈","BaseHeight":5,"TopHeight":37.299999999999997,"Storeys":10,"StoreysInBasement":null,"DateStamp":1599580800000}},{"type":"Feature","id":182039,"geometry":{"type":"Polygon","coordinates":[[[114.16032955162692,22.328259218938516],[114.16019273458568,22.328107478131155],[114.16022486435116,22.328082490367027],[114.16028654057808,22.328150749469827],[114.16026330449053,22.328168883761052],[114.16027934580724,22.32818667492862],[114.16029050066032,22.328177969319636],[114.16033389125759,22.328226092939314],[114.16031901815066,22.328237700421692],[114.16033473464536,22.328255131501162],[114.16032955162692,22.328259218938516]]]},"properties":{"OBJECTID":182039,"Shape__Length":55.492080050620743,"Shape__Area":66.299522002147199,"GeoRefNo":"3455521011","DateCreate":1114790400000,"BuildingBlockType":"Tower","BuildingCSUID":"3455521011T20050430","BuildingID":1108228791,"Status":"Active","BuildingNameEN":null,"BuildingNameTC":null,"BaseHeight":4.2000000000000002,"TopHeight":24,"Storeys":5,"StoreysInBasement":null,"DateStamp":1599580800000}},{"type":"Feature","id":182043,"geometry":{"type":"Polygon","coordinates":[[[114.16139573188254,22.328260575699161],[114.16129312231222,22.328149586515732],[114.16132934675399,22.32812152861673],[114.16139422369176,22.328192481066221],[114.16143118811105,22.328232906922828],[114.16141028931344,22.328249227536617],[114.16139573188254,22.328260575699161]]]},"properties":{"OBJECTID":182043,"Shape__Length":42.027293518229143,"Shape__Area":77.957111777645764,"GeoRefNo":"3467021018","DateCreate":1114790400000,"BuildingBlockType":"Tower","BuildingCSUID":"3467021018T20050430","BuildingID":1108228789,"Status":"Active","BuildingNameEN":null,"BuildingNameTC":null,"BaseHeight":4.0999999999999996,"TopHeight":32.799999999999997,"Storeys":9,"StoreysInBasement":null,"DateStamp":1599580800000}},{"type":"Feature","id":182046,"geometry":{"type":"Polygon","coordinates":[[[114.16181777845813,22.328228391955601],[114.16173037222414,22.328131371248062],[114.16175684377157,22.328110805472065],[114.16176384822937,22.328105363751224],[114.16185157286716,22.32820218688126],[114.16181777845813,22.328228391955601]]]},"properties":{"OBJECTID":182046,"Shape__Length":37.066341162820365,"Shape__Area":63.269998526989951,"GeoRefNo":"3471321014","DateCreate":1114790400000,"BuildingBlockType":"Tower","BuildingCSUID":"3471321014T20050430","BuildingID":1108228813,"Status":"Active","BuildingNameEN":null,"BuildingNameTC":null,"BaseHeight":4.2000000000000002,"TopHeight":31.199999999999999,"Storeys":9,"StoreysInBasement":null,"DateStamp":1599580800000}},{"type":"Feature","id":182169,"geometry":{"type":"Polygon","coordinates":[[[114.1619731086908,22.333207575843005],[114.16193055070993,22.33324058610647],[114.16185897269175,22.33329896789078],[114.16182442196137,22.333260678924312],[114.16175705658797,22.333182780498397],[114.16172256722172,22.333146665627279],[114.16176177746875,22.333113958985773],[114.16178417029691,22.333138943711514],[114.16181972475724,22.333111223853731],[114.16183885878777,22.333132582582898],[114.16184968578818,22.333124398267348],[114.16190392937683,22.333184863991782],[114.16193055885584,22.3331639030371],[114.1619322153833,22.333162599083483],[114.1619731086908,22.333207575843005]]]},"properties":{"OBJECTID":182169,"Shape__Length":74.855598290645531,"Shape__Area":252.68157989642324,"GeoRefNo":"3471821571","DateCreate":1114790400000,"BuildingBlockType":"Tower","BuildingCSUID":"3471821571T20050430","BuildingID":1108225326,"Status":"Active","BuildingNameEN":"Precious Blood Nursery","BuildingNameTC":"寶血幼兒園","BaseHeight":5.9000000000000004,"TopHeight":23,"Storeys":5,"StoreysInBasement":null,"DateStamp":1599580800000}},{"type":"Feature","id":182206,"geometry":{"type":"Polygon","coordinates":[[[114.16418082432945,22.329767647150234],[114.16408449876916,22.32984352214536],[114.16395260067158,22.329698525893932],[114.16405986404416,22.329615515690779],[114.16407792099228,22.329601541562994],[114.16409338875272,22.329618859102613],[114.16406457080421,22.329641191092414],[114.16408341600552,22.329661719632348],[114.16411212228805,22.32963983292851],[114.1641209833912,22.32964975380921],[114.16411072523145,22.32965775256573],[114.164147595361,22.329698642321912],[114.1641298356667,22.329712165944809],[114.16413893847016,22.329721034690163],[114.16418082432945,22.329767647150234]]]},"properties":{"OBJECTID":182206,"Shape__Length":83.168486110806668,"Shape__Area":301.25159756574902,"GeoRefNo":"3494921186","DateCreate":1114790400000,"BuildingBlockType":"Tower","BuildingCSUID":"3494921186T20050430","BuildingID":1108227482,"Status":"Active","BuildingNameEN":"Po Cheung Building","BuildingNameTC":"寶昌大樓","BaseHeight":4.7999999999999998,"TopHeight":45.600000000000001,"Storeys":13,"StoreysInBasement":null,"DateStamp":1599580800000}},{"type":"Feature","id":182207,"geometry":{"type":"Polygon","coordinates":[[[114.16544218028483,22.329776122240606],[114.1653625530095,22.329687386634632],[114.1653472563855,22.329670340236099],[114.16534049795051,22.329662808521928],[114.16536255643034,22.329645539094361],[114.16536831810019,22.329641028274235],[114.16536255732581,22.329634584545822],[114.16535700056764,22.329628368944146],[114.16535175057096,22.329632463038728],[114.16533205231308,22.329611316261584],[114.16535310929288,22.329594724419085],[114.16536255972542,22.329605229552456],[114.16537251951944,22.32961630102908],[114.16538384132937,22.32962888657854],[114.16541608672877,22.329603647921743],[114.16543202850073,22.329621382128451],[114.16551779530432,22.329716775836562],[114.16548814678852,22.329740045395816],[114.16547061870367,22.329753802351455],[114.16544218028483,22.329776122240606]]]},"properties":{"OBJECTID":182207,"Shape__Length":64.359819204170705,"Shape__Area":178.93986036126233,"GeoRefNo":"3508821182","DateCreate":1114790400000,"BuildingBlockType":"Tower","BuildingCSUID":"3508821182T20050430","BuildingID":1108227546,"Status":"Active","BuildingNameEN":null,"BuildingNameTC":null,"BaseHeight":5.4000000000000004,"TopHeight":42.600000000000001,"Storeys":12,"StoreysInBasement":null,"DateStamp":1599580800000}},{"type":"Feature","id":182208,"geometry":{"type":"Polygon","coordinates":[[[114.16026363476576,22.329832947966171],[114.16015495132461,22.329713392948296],[114.16016309179994,22.32970713821069],[114.16018723471156,22.329688588262503],[114.16027366020579,22.329783751099168],[114.16025733904203,22.329796494382641],[114.1602792407659,22.329820844516174],[114.16026363476576,22.329832947966171]]]},"properties":{"OBJECTID":182208,"Shape__Length":43.252244958357252,"Shape__Area":66.916025116052325,"GeoRefNo":"3455221191","DateCreate":1114790400000,"BuildingBlockType":"Tower","BuildingCSUID":"3455221191T20050430","BuildingID":1108227492,"Status":"Active","BuildingNameEN":null,"BuildingNameTC":null,"BaseHeight":4.2000000000000002,"TopHeight":24.199999999999999,"Storeys":6,"StoreysInBasement":null,"DateStamp":1599580800000}},{"type":"Feature","id":182209,"geometry":{"type":"Polygon","coordinates":[[[114.16295216944414,22.329794860773386],[114.16283216534255,22.3296648181894],[114.16283890356159,22.32965958211685],[114.16286212664482,22.32964153622919],[114.16298111750957,22.329772194951754],[114.16295216944414,22.329794860773386]]]},"properties":{"OBJECTID":182209,"Shape__Length":45.862279975610278,"Shape__Area":75.11961354520524,"GeoRefNo":"3482821185","DateCreate":1114790400000,"BuildingBlockType":"Tower","BuildingCSUID":"3482821185T20050430","BuildingID":1108227525,"Status":"Active","BuildingNameEN":null,"BuildingNameTC":null,"BaseHeight":4.5,"TopHeight":24.800000000000001,"Storeys":6,"StoreysInBasement":null,"DateStamp":1599580800000}},{"type":"Feature","id":182210,"geometry":{"type":"Polygon","coordinates":[[[114.16152781743452,22.329779261539532],[114.1614374375939,22.329677607632089],[114.16144865383865,22.329668914503362],[114.16142486917163,22.32964242843488],[114.16144688782644,22.329625348727305],[114.16156167468797,22.3297530331476],[114.16152781743452,22.329779261539532]]]},"properties":{"OBJECTID":182210,"Shape__Length":45.859154517274646,"Shape__Area":77.02150501292077,"GeoRefNo":"3468321184","DateCreate":1114790400000,"BuildingBlockType":"Tower","BuildingCSUID":"3468321184T20050430","BuildingID":1108227541,"Status":"Active","BuildingNameEN":null,"BuildingNameTC":null,"BaseHeight":4.4000000000000004,"TopHeight":33.700000000000003,"Storeys":9,"StoreysInBasement":null,"DateStamp":1599580800000}},{"type":"Feature","id":182212,"geometry":{"type":"Polygon","coordinates":[[[114.16027366020579,22.329783751099168],[114.16018723471156,22.329688588262503],[114.16021664736697,22.329665989176405],[114.16022178480273,22.329662041893378],[114.16032991760734,22.329781541273057],[114.16031336095332,22.329794381075128],[114.16029141333166,22.329769889703115],[114.16027366020579,22.329783751099168]]]},"properties":{"OBJECTID":182212,"Shape__Length":43.84889284642459,"Shape__Area":71.246843307807296,"GeoRefNo":"3455521188","DateCreate":1114790400000,"BuildingBlockType":"Tower","BuildingCSUID":"3455521188T20050430","BuildingID":1108227526,"Status":"Active","BuildingNameEN":null,"BuildingNameTC":null,"BaseHeight":4.2999999999999998,"TopHeight":27,"Storeys":6,"StoreysInBasement":null,"DateStamp":1599580800000}},{"type":"Feature","id":182214,"geometry":{"type":"Polygon","coordinates":[[[114.16120408380927,22.32974791195851],[114.16116216771779,22.329701918043995],[114.16110666562571,22.32964101619859],[114.16114141679833,22.329614043860719],[114.1611621749289,22.329637351545308],[114.16123755048527,22.329721984495556],[114.16122963002181,22.32972813635967],[114.16124486687842,22.329744870592226],[114.16123087338885,22.329755728431365],[114.16121554353983,22.329739019925725],[114.16120408380927,22.32974791195851]]]},"properties":{"OBJECTID":182214,"Shape__Length":45.042905183114804,"Shape__Area":75.573411920788871,"GeoRefNo":"3465021182","DateCreate":1114790400000,"BuildingBlockType":"Tower","BuildingCSUID":"3465021182T20050430","BuildingID":1108227568,"Status":"Active","BuildingNameEN":null,"BuildingNameTC":null,"BaseHeight":4.4000000000000004,"TopHeight":33.600000000000001,"Storeys":9,"StoreysInBasement":null,"DateStamp":1599580800000}},{"type":"Feature","id":182215,"geometry":{"type":"Polygon","coordinates":[[[114.16233091449178,22.329673315158136],[114.16241958485546,22.329771168707822],[114.16235269359723,22.329823466255839],[114.16226443502256,22.329725440764918],[114.16233091449178,22.329673315158136]]]},"properties":{"OBJECTID":182215,"Shape__Length":46.290741636879886,"Shape__Area":127.20033800652308,"GeoRefNo":"3477321191","DateCreate":1114790400000,"BuildingBlockType":"Tower","BuildingCSUID":"3477321191T20050430","BuildingID":1108227500,"Status":"Active","BuildingNameEN":null,"BuildingNameTC":null,"BaseHeight":4.2999999999999998,"TopHeight":23.600000000000001,"Storeys":6,"StoreysInBasement":null,"DateStamp":1599580800000}},{"type":"Feature","id":186287,"geometry":{"type":"Polygon","coordinates":[[[114.16044284439636,22.332605182975527],[114.16034469891977,22.332680903460545],[114.1602925022143,22.332622091009259],[114.16025843559025,22.332583698535935],[114.16022784358319,22.332549225682808],[114.16023085633825,22.332518612326755],[114.16024488405633,22.332507768036908],[114.16027848261595,22.332481799524999],[114.16030997458057,22.332457456295614],[114.16037367684879,22.332408228056462],[114.16040965375869,22.332380417520241],[114.16044050496667,22.332356570882137],[114.16047279290943,22.332331613621811],[114.16055300983163,22.332420383266722],[114.1605796518614,22.332449094153198],[114.1605795450764,22.332449175417707],[114.16047896312728,22.332526864407594],[114.16041587243254,22.332575605098064],[114.16044284439636,22.332605182975527]]]},"properties":{"OBJECTID":186287,"Shape__Length":111.11972669847538,"Shape__Area":647.63037350017692,"GeoRefNo":"3457021495","DateCreate":1142006400000,"BuildingBlockType":"Podium","BuildingCSUID":"3457021495P20060311","BuildingID":1108245655,"Status":"Active","BuildingNameEN":"SOUTH OCEAN BUILDING","BuildingNameTC":"南洋大廈","BaseHeight":4.9000000000000004,"TopHeight":17.800000000000001,"Storeys":3,"StoreysInBasement":null,"DateStamp":1599580800000}},{"type":"Feature","id":186288,"geometry":{"type":"Polygon","coordinates":[[[114.16182231125613,22.333035984921235],[114.16175497836134,22.333089520974596],[114.16168527153778,22.333013169960072],[114.16166175448059,22.332987403518473],[114.16163831507752,22.332961727386472],[114.16162135912589,22.332943149894799],[114.16168956551913,22.332890571218961],[114.16182231125613,22.333035984921235]]]},"properties":{"OBJECTID":186288,"Shape__Length":60.640904592214646,"Shape__Area":193.40749798900509,"GeoRefNo":"3470721548","DateCreate":1142006400000,"BuildingBlockType":"Podium","BuildingCSUID":"3470721548P20060311","BuildingID":1108245638,"Status":"Active","BuildingNameEN":"SUN RAY CREST","BuildingNameTC":"新麗華軒","BaseHeight":5.5,"TopHeight":10.300000000000001,"Storeys":null,"StoreysInBasement":null,"DateStamp":1369670400000}},{"type":"Feature","id":186787,"geometry":{"type":"Polygon","coordinates":[[[114.1579635895079,22.330286872705567],[114.15792777805537,22.330316108563888],[114.1577886024651,22.330165264124087],[114.15782493906984,22.330134383437024],[114.1579635895079,22.330286872705567]]]},"properties":{"OBJECTID":186787,"Shape__Length":54.109157462664967,"Shape__Area":110.05037952471034,"GeoRefNo":"3431121243","DateCreate":1410710400000,"BuildingBlockType":"Open-sided Structure","BuildingCSUID":"3431121243T20140915","BuildingID":1810133011,"Status":"Active","BuildingNameEN":null,"BuildingNameTC":null,"BaseHeight":4.7000000000000002,"TopHeight":8.1999999999999993,"Storeys":null,"StoreysInBasement":null,"DateStamp":1410710400000}},{"type":"Feature","id":186989,"geometry":{"type":"Polygon","coordinates":[[[114.15968672620627,22.329032828349838],[114.15963973452419,22.329069421166498],[114.1595870796332,22.329010776112202],[114.15959587011379,22.3290039954402],[114.15958168844553,22.328988095860399],[114.15959776700686,22.328975360474502],[114.15959011106597,22.328966915522962],[114.15957380500174,22.328979486256365],[114.15956191380685,22.328965993749733],[114.15955072964724,22.328974550841746],[114.15953000851492,22.328951718322966],[114.15951560900157,22.328962892674276],[114.15949556488201,22.328940319401134],[114.15952544592453,22.328917006620816],[114.15951924501003,22.328910170800278],[114.15955137385254,22.328884898257286],[114.15957677135161,22.328913159103625],[114.1595936346929,22.328900363206326],[114.15955038666769,22.328851970567239],[114.15957437176789,22.328833522375902],[114.1595613000683,22.328819224215248],[114.15957362939288,22.328809161755647],[114.15955353575082,22.328786843056132],[114.15958131850574,22.328765622698551],[114.15962457336074,22.328814390461055],[114.1596046898627,22.328829981367637],[114.15961500832223,22.328841598684235],[114.15960672613822,22.328847998591719],[114.15961753262475,22.328859807227762],[114.15961641175969,22.328873592836423],[114.15963105921341,22.328874675713433],[114.15963253690003,22.328856869455795],[114.15963906842921,22.328857336126795],[114.15964559448477,22.328865244810586],[114.159681466999,22.328837139834736],[114.15971803796681,22.328877640719931],[114.15973473050234,22.328896314296617],[114.15973109018137,22.328899074923257],[114.15971182827573,22.328914032503231],[114.15974436948076,22.328950444088875],[114.15975399848865,22.328943005438003],[114.15977414659363,22.32896490022241],[114.1597186229001,22.329008056314748],[114.15969955943171,22.328986832610539],[114.15968893431382,22.328995143778076],[114.15967892561966,22.328983959064111],[114.15966696484482,22.328993254783704],[114.15967314906871,22.329000140174639],[114.15965473441578,22.329014462535792],[114.15966282874426,22.32902345947992],[114.15967202052212,22.329016450733768],[114.15968672620627,22.329032828349838]]]},"properties":{"OBJECTID":186989,"Shape__Length":142.9266504821413,"Shape__Area":389.50998164609979,"GeoRefNo":"3449221103","DateCreate":1411401600000,"BuildingBlockType":"Tower","BuildingCSUID":"3449221103T20140923","BuildingID":1810133409,"Status":"Active","BuildingNameEN":"Trinity Towers Tower 1","BuildingNameTC":"丰滙第一座","BaseHeight":27.199999999999999,"TopHeight":126,"Storeys":33,"StoreysInBasement":null,"DateStamp":1599580800000}},{"type":"Feature","id":187000,"geometry":{"type":"Polygon","coordinates":[[[114.15882794899312,22.328877590811725],[114.15878989314145,22.32883504232732],[114.15880488332047,22.328823321123558],[114.15879215891411,22.328808960447883],[114.15880474801595,22.32879910099291],[114.15879222224866,22.328785188165952],[114.15879359584149,22.328774545053513],[114.15882496978756,22.328750149168904],[114.15883565661277,22.328751381946692],[114.15884530869273,22.328761858946581],[114.15888829889991,22.328728516926127],[114.15890547024821,22.328715151846268],[114.15893040770204,22.328743294713775],[114.15889605824491,22.328770475050696],[114.15890631394542,22.328782023411847],[114.15889516495616,22.328790888405639],[114.15893339255493,22.328832542766452],[114.15889070207979,22.328865026474627],[114.15887148705662,22.328843685709909],[114.15882794899312,22.328877590811725]]]},"properties":{"OBJECTID":187000,"Shape__Length":62.555368681063541,"Shape__Area":151.84626856327594,"GeoRefNo":"3441221085","DateCreate":1411401600000,"BuildingBlockType":"Tower","BuildingCSUID":"3441221085T20140923","BuildingID":1810133400,"Status":"Active","BuildingNameEN":"Trinity Towers Tower 3","BuildingNameTC":"丰滙第三座","BaseHeight":25.600000000000001,"TopHeight":98.200000000000003,"Storeys":24,"StoreysInBasement":null,"DateStamp":1599580800000}},{"type":"Feature","id":187001,"geometry":{"type":"Polygon","coordinates":[[[114.15912988088446,22.329109372315727],[114.15911062670904,22.329123871974112],[114.15909373556909,22.329104925949579],[114.15907568321991,22.32911902929273],[114.1590581256886,22.329099600235899],[114.15906523660813,22.329094000247661],[114.15905139488297,22.329079138543872],[114.15910988660926,22.329033709646051],[114.15912051894158,22.329045436027293],[114.15912977519397,22.329038475181036],[114.15911263308254,22.329019256949092],[114.15908170957425,22.329043177658292],[114.15907527605013,22.329036007212313],[114.15904861202564,22.329056646938604],[114.15902518148023,22.329030540020295],[114.15920056894298,22.328895132498346],[114.15922406115145,22.328920339049276],[114.15919082380377,22.328945915466363],[114.15920520363397,22.328961805800454],[114.15925010790195,22.328927409301436],[114.15930191868331,22.328986397807526],[114.15927373463337,22.32900788908092],[114.15925822085738,22.328990484923644],[114.15923225421747,22.329010929604983],[114.15921248208998,22.329026442450882],[114.15922085646902,22.329035879507821],[114.1592293113597,22.329033372542856],[114.15925775901282,22.329064904105291],[114.1592529068335,22.329068982242131],[114.15926900419225,22.32908706872356],[114.15925014681538,22.329101778312317],[114.1592338372561,22.329083804688317],[114.15920884006577,22.329103705558861],[114.15918846052008,22.329119679527487],[114.15918508976357,22.329116046879363],[114.1591618903343,22.329090421787761],[114.15916779488168,22.329085803739432],[114.15915701383871,22.329074060999801],[114.15914708793625,22.329081697623351],[114.15914266012472,22.329076557835243],[114.1591176288304,22.329095864295013],[114.15912988088446,22.329109372315727]]]},"properties":{"OBJECTID":187001,"Shape__Length":135.97144863353125,"Shape__Area":351.6081750717982,"GeoRefNo":"3444321107","DateCreate":1411401600000,"BuildingBlockType":"Tower","BuildingCSUID":"3444321107T20140923","BuildingID":1810133405,"Status":"Active","BuildingNameEN":"Trinity Towers Tower 2","BuildingNameTC":"丰滙第二座","BaseHeight":29.300000000000001,"TopHeight":128.09999999999999,"Storeys":34,"StoreysInBasement":null,"DateStamp":1599580800000}},{"type":"Feature","id":187965,"geometry":{"type":"Polygon","coordinates":[[[114.16449852156477,22.32815506053408],[114.1644610947626,22.328184776432931],[114.16437049547909,22.328085785256402],[114.16435922504172,22.328073159632339],[114.16437816192921,22.328058360140609],[114.16436488949135,22.32804380398531],[114.16438463067239,22.328028868192796],[114.16449852156477,22.32815506053408]]]},"properties":{"OBJECTID":187965,"Shape__Length":46.813394682948783,"Shape__Area":88.448196292545447,"GeoRefNo":"3498521009","DateCreate":1114790400000,"BuildingBlockType":"Tower","BuildingCSUID":"3498521009T20050430","BuildingID":1108228855,"Status":"Active","BuildingNameEN":null,"BuildingNameTC":null,"BaseHeight":5.0999999999999996,"TopHeight":26.600000000000001,"Storeys":6,"StoreysInBasement":null,"DateStamp":1599580800000}},{"type":"Feature","id":195823,"geometry":{"type":"Polygon","coordinates":[[[114.15910901814522,22.33094329842978],[114.15907700978032,22.330907326121476],[114.15911680136169,22.330879182153353],[114.1591460336127,22.330915018692309],[114.15910901814522,22.33094329842978]]]},"properties":{"OBJECTID":195823,"Shape__Length":20.236784973722465,"Shape__Area":25.584875497794329,"GeoRefNo":"3443821319","DateCreate":1314633600000,"BuildingBlockType":"Tower","BuildingCSUID":"3443821319T20110830","BuildingID":1810072236,"Status":"Active","BuildingNameEN":null,"BuildingNameTC":null,"BaseHeight":5,"TopHeight":7.5,"Storeys":null,"StoreysInBasement":null,"DateStamp":1527004800000}},{"type":"Feature","id":204749,"geometry":{"type":"Polygon","coordinates":[[[114.16146242888949,22.333116314857598],[114.16149814552246,22.333155998062615],[114.16154696542051,22.333210240330832],[114.16156713629685,22.333232674189659],[114.16154606149682,22.333248681432899],[114.16141658842255,22.333104264614803],[114.161415038418,22.333102535743642],[114.16143563087236,22.333086546984035],[114.16146242888949,22.333116314857598]]]},"properties":{"OBJECTID":204749,"Shape__Length":47.743469009693648,"Shape__Area":58.706185752214367,"GeoRefNo":"3468321568","DateCreate":1195660800000,"BuildingBlockType":"Temporary Structure","BuildingCSUID":"3468321568T20071122","BuildingID":1108225348,"Status":"Active","BuildingNameEN":"WING LEE MANSION","BuildingNameTC":"榮利大廈","BaseHeight":null,"TopHeight":null,"Storeys":null,"StoreysInBasement":null,"DateStamp":1579795200000}},{"type":"Feature","id":206302,"geometry":{"type":"Polygon","coordinates":[[[114.16060021035624,22.335244819608242],[114.16062768134883,22.335274231694129],[114.16063520182394,22.335268154867926],[114.16067312728731,22.335310672169769],[114.16069842734518,22.335339035396455],[114.16071508030154,22.335357704609539],[114.16074085645739,22.335386512090825],[114.16063909262631,22.335465606281559],[114.16062176520028,22.335446263041533],[114.16059673630541,22.335418322371101],[114.16057099132522,22.335389582238236],[114.16053401524394,22.335348556588691],[114.16050641767397,22.335317496123295],[114.16060021035624,22.335244819608242]]]},"properties":{"OBJECTID":206302,"Shape__Length":69.96252741377225,"Shape__Area":287.32734772012043,"GeoRefNo":"3459421811","DateCreate":1570550400000,"BuildingBlockType":"Podium","BuildingCSUID":"3459421811P20191009","BuildingID":1810192231,"Status":"Active","BuildingNameEN":null,"BuildingNameTC":null,"BaseHeight":6.5,"TopHeight":17,"Storeys":3,"StoreysInBasement":null,"DateStamp":1599580800000}},{"type":"Feature","id":208598,"geometry":{"type":"Polygon","coordinates":[[[114.15852700994101,22.329624765165523],[114.15853822379503,22.329637245884037],[114.15854304003453,22.329642606439556],[114.15847599764595,22.329694702072359],[114.15843101496696,22.329644962754017],[114.15841882883745,22.329631488192351],[114.15839164467944,22.329601429336094],[114.15833936972486,22.329543626567393],[114.15839866387417,22.329497199960617],[114.15840672094495,22.329490891298747],[114.15841239075105,22.329497201521043],[114.15846293958934,22.329553459118817],[114.15848131319562,22.329573907703612],[114.15848513163297,22.329578157476554],[114.15852700994101,22.329624765165523]]]},"properties":{"OBJECTID":208598,"Shape__Length":61.828047488164046,"Shape__Area":197.66433239950339,"GeoRefNo":"3437321177","DateCreate":1151337600000,"BuildingBlockType":"Podium","BuildingCSUID":"3437321177P20060627","BuildingID":1108245754,"Status":"Active","BuildingNameEN":"CHI FUNG COURT","BuildingNameTC":"置豐閣","BaseHeight":3.8999999999999999,"TopHeight":9.5,"Storeys":1,"StoreysInBasement":null,"DateStamp":1599580800000}},{"type":"Feature","id":208600,"geometry":{"type":"Polygon","coordinates":[[[114.16457396197782,22.33210976019291],[114.16463838011875,22.332181187910081],[114.16467866939432,22.332225865215587],[114.16472161811996,22.332273495709249],[114.16474172881055,22.332295793712547],[114.16472990506273,22.332304967899386],[114.16463803313313,22.332376221319667],[114.16461067214335,22.332345614623687],[114.16450054888809,22.332222456263821],[114.16448919298574,22.332209740342762],[114.16456344843101,22.332121544304549],[114.16457396197782,22.33210976019291]]]},"properties":{"OBJECTID":208600,"Shape__Length":78.878779966047631,"Shape__Area":352.68618050185711,"GeoRefNo":"3500421466","DateCreate":1142006400000,"BuildingBlockType":"Podium","BuildingCSUID":"3500421466P20060311","BuildingID":1108245670,"Status":"Active","BuildingNameEN":"DELIGHT COURT","BuildingNameTC":"樂意居","BaseHeight":7.7000000000000002,"TopHeight":20.600000000000001,"Storeys":3,"StoreysInBasement":null,"DateStamp":1599580800000}},{"type":"Feature","id":210778,"geometry":{"type":"Polygon","coordinates":[[[114.15930969753489,22.328965756179642],[114.15928235486375,22.328935231926568],[114.15931143592196,22.328912684350747],[114.15927539326385,22.328872447846759],[114.15930745686158,22.328847587681398],[114.15934349952252,22.328887824178388],[114.15936087324326,22.328874353595136],[114.15932470700353,22.328834212993396],[114.15935677077796,22.328809352637567],[114.15939293692335,22.328849493322558],[114.15941555300576,22.328831958180047],[114.15942151829822,22.328827333085012],[114.15944886097864,22.328857857224747],[114.15940941247516,22.32888844327875],[114.15942417116177,22.328905213393707],[114.15936824414524,22.328948575852419],[114.15935348546076,22.328931805732456],[114.15930969753489,22.328965756179642]]]},"properties":{"OBJECTID":210778,"Shape__Length":74.126215608759125,"Shape__Area":149.99790295403096,"GeoRefNo":"3446421095","DateCreate":1114790400000,"BuildingBlockType":"Tower","BuildingCSUID":"3446421095T20050430","BuildingID":1109261417,"Status":"Active","BuildingNameEN":"City Regalia","BuildingNameTC":"嘉裕居","BaseHeight":16.300000000000001,"TopHeight":77.099999999999994,"Storeys":20,"StoreysInBasement":null,"DateStamp":1599580800000}},{"type":"Feature","id":211042,"geometry":{"type":"Polygon","coordinates":[[[114.1610005380562,22.333001755974088],[114.16103539754643,22.333041080232316],[114.16104237466851,22.333048950881185],[114.16096660325056,22.33310760991553],[114.16090109958598,22.333034376331398],[114.16097667353586,22.332975870737371],[114.1609787562859,22.332978129669527],[114.1610005380562,22.333001755974088]]]},"properties":{"OBJECTID":211042,"Shape__Length":41.383975336187426,"Shape__Area":107.24261146097695,"GeoRefNo":"3462921554","DateCreate":1234281600000,"BuildingBlockType":"Tower","BuildingCSUID":"3462921554T20090211","BuildingID":1108225428,"Status":"Active","BuildingNameEN":"VISTA","BuildingNameTC":"海峯","BaseHeight":15.9,"TopHeight":25.600000000000001,"Storeys":null,"StoreysInBasement":null,"DateStamp":1274198400000}},{"type":"Feature","id":211079,"geometry":{"type":"Polygon","coordinates":[[[114.16391935090654,22.332052657500046],[114.16390106509147,22.33203227384211],[114.16390926271801,22.332025908839896],[114.16388146081522,22.331994917372018],[114.16396562665297,22.331929685356762],[114.16399336634693,22.331960607540978],[114.16400230921187,22.331953663913435],[114.16402059503142,22.33197404756017],[114.16401165216608,22.331980991188701],[114.16392754853341,22.332046292496923],[114.16391935090654,22.332052657500046]]]},"properties":{"OBJECTID":211079,"Shape__Length":41.980824555602659,"Shape__Area":90.330465006494762,"GeoRefNo":"3493621437","DateCreate":1252857600000,"BuildingBlockType":"Tower","BuildingCSUID":"3493621437T20090914","BuildingID":1108225928,"Status":"Active","BuildingNameEN":"Court Regence","BuildingNameTC":"富匯居","BaseHeight":21,"TopHeight":77,"Storeys":18,"StoreysInBasement":null,"DateStamp":1599580800000}},{"type":"Feature","id":211441,"geometry":{"type":"Polygon","coordinates":[[[114.15731443695185,22.33236972530338],[114.15726590262474,22.332369719451563],[114.15726590942637,22.332320954322331],[114.15731444373661,22.332320960174119],[114.15731443695185,22.33236972530338]]]},"properties":{"OBJECTID":211441,"Shape__Length":20.800000000745058,"Shape__Area":27.000000001862645,"GeoRefNo":"3425021477","DateCreate":1205683200000,"BuildingBlockType":"Tower","BuildingCSUID":"3425021477T20080317","BuildingID":1108225773,"Status":"Active","BuildingNameEN":null,"BuildingNameTC":null,"BaseHeight":5.0999999999999996,"TopHeight":8.6999999999999993,"Storeys":null,"StoreysInBasement":null,"DateStamp":1678951331000}},{"type":"Feature","id":211925,"geometry":{"type":"Polygon","coordinates":[[[114.1625010578768,22.33101270576352],[114.16245693030504,22.331046851902261],[114.16244269279723,22.33103075940739],[114.16248661826167,22.330996718189944],[114.1625010578768,22.33101270576352]]]},"properties":{"OBJECTID":211925,"Shape__Length":16.423018566354287,"Shape__Area":13.633027400526249,"GeoRefNo":"3478521331","DateCreate":1114790400000,"BuildingBlockType":"Tower","BuildingCSUID":"3478521331T20050430","BuildingID":1108226529,"Status":"Active","BuildingNameEN":"TAK WONG BUILDING","BuildingNameTC":"德旺大廈","BaseHeight":5.2000000000000002,"TopHeight":7.9000000000000004,"Storeys":null,"StoreysInBasement":null,"DateStamp":1274198400000}},{"type":"Feature","id":211932,"geometry":{"type":"Polygon","coordinates":[[[114.16357502867167,22.330969971252436],[114.16358724105528,22.330960650252536],[114.16362046176718,22.330998005073784],[114.16360883598317,22.331007109209445],[114.16357502867167,22.330969971252436]]]},"properties":{"OBJECTID":211932,"Shape__Length":13.95073461555665,"Shape__Area":8.5867219110423196,"GeoRefNo":"3490021326","DateCreate":1114790400000,"BuildingBlockType":"Tower","BuildingCSUID":"3490021326T20050430","BuildingID":1108226553,"Status":"Active","BuildingNameEN":null,"BuildingNameTC":null,"BaseHeight":5.7000000000000002,"TopHeight":8.4000000000000004,"Storeys":null,"StoreysInBasement":null,"DateStamp":1274198400000}},{"type":"Feature","id":211944,"geometry":{"type":"Polygon","coordinates":[[[114.16154720874073,22.331145425240461],[114.16144840565237,22.331035627234559],[114.16142596312446,22.331010716592534],[114.16143884951327,22.331000374911479],[114.16148788825204,22.331055083842358],[114.16155962590297,22.331135122608142],[114.16154720874073,22.331145425240461]]]},"properties":{"OBJECTID":211944,"Shape__Length":42.351616781277045,"Shape__Area":33.680424264920447,"GeoRefNo":"3468321336","DateCreate":1195660800000,"BuildingBlockType":"Temporary Structure","BuildingCSUID":"3468321336T20071122","BuildingID":1108226475,"Status":"Active","BuildingNameEN":"KWAI CHEUNG BUILDING","BuildingNameTC":"桂祥大廈","BaseHeight":null,"TopHeight":null,"Storeys":null,"StoreysInBasement":null,"DateStamp":1274198400000}},{"type":"Feature","id":211954,"geometry":{"type":"Polygon","coordinates":[[[114.16524073970422,22.330919885823675],[114.16523239321047,22.330926171053157],[114.16523085701908,22.330927327941311],[114.16522951973171,22.330928334936058],[114.1652308677002,22.330931979052771],[114.16523141361843,22.330934209826079],[114.16523233092649,22.330936332710515],[114.16523359681788,22.330938294694942],[114.16523517965258,22.330940046740992],[114.16523704002476,22.330941545137854],[114.16523913134503,22.330942752585877],[114.16524140391715,22.330943639461186],[114.16524007014526,22.330945565588834],[114.16523893370314,22.33094759793023],[114.16523800449313,22.330949719147352],[114.16523729028216,22.330951910908691],[114.16523679738118,22.330954154611714],[114.16523652996575,22.330956430840928],[114.16523649027,22.330958720180803],[114.16523667868383,22.330961003034957],[114.16523709355876,22.33096325971664],[114.16523773140192,22.330965470990435],[114.16523858668204,22.330967617801431],[114.1652396520235,22.33096968181701],[114.16524174600643,22.330972737915513],[114.16524328739101,22.330974523191063],[114.1652450314669,22.330976139428593],[114.16524695697794,22.330977567030228],[114.1652490403381,22.330978788565261],[114.1652512561169,22.330979789041088],[114.1652535772334,22.330980556354795],[114.16525597553877,22.330981081112562],[114.16525842171909,22.330981356900601],[114.16526088578065,22.330981380375416],[114.16526333782667,22.33098115126397],[114.16526574786296,22.330980672273292],[114.16526808647752,22.33097994936152],[114.16527032522879,22.330978991195902],[114.16527424007374,22.330976541207448],[114.16528557154668,22.330967295602679],[114.16531256408942,22.330997338384481],[114.16527474714751,22.331026127082453],[114.16523495085411,22.331056422562991],[114.16519697166986,22.33108533476932],[114.16516829593427,22.331053509120423],[114.16511024597061,22.330989082481157],[114.16511027383089,22.330989060358238],[114.16515867634345,22.330950640443035],[114.165223168547,22.330900755988445],[114.16524073970422,22.330919885823675]]]},"properties":{"OBJECTID":211954,"Shape__Length":64.08687092906051,"Shape__Area":194.97286631302669,"GeoRefNo":"3506621329","DateCreate":1200931200000,"BuildingBlockType":"Open-sided Structure","BuildingCSUID":"3506621329T20080122","BuildingID":1108226506,"Status":"Active","BuildingNameEN":null,"BuildingNameTC":null,"BaseHeight":null,"TopHeight":null,"Storeys":null,"StoreysInBasement":null,"DateStamp":1274198400000}},{"type":"Feature","id":211989,"geometry":{"type":"Polygon","coordinates":[[[114.16546157582111,22.330795108942109],[114.16546112266916,22.330795609385174],[114.16545901883242,22.330797932986833],[114.1653986344563,22.330864623376808],[114.16539368899828,22.330870085355773],[114.16539327564716,22.330870541822495],[114.16537357430596,22.33087068166931],[114.16535809780494,22.330869976640692],[114.16535235414109,22.330869714979301],[114.16535723207018,22.330841354422027],[114.1653342251097,22.330815267776142],[114.1654428961147,22.330730826776342],[114.16544420945971,22.330735346403848],[114.16545200073972,22.330762158206248],[114.16546157582111,22.330795108942109]]]},"properties":{"OBJECTID":211989,"Shape__Length":44.017698138022574,"Shape__Area":104.08597013008672,"GeoRefNo":"3508521307","DateCreate":1195660800000,"BuildingBlockType":"Open-sided Structure","BuildingCSUID":"3508521307T20071122","BuildingID":1108226646,"Status":"Active","BuildingNameEN":null,"BuildingNameTC":null,"BaseHeight":null,"TopHeight":null,"Storeys":null,"StoreysInBasement":null,"DateStamp":1274198400000}},{"type":"Feature","id":212023,"geometry":{"type":"Polygon","coordinates":[[[114.16368311494726,22.33019168062566],[114.16367322698332,22.33018055685509],[114.16370679356406,22.330154766698293],[114.16371642537214,22.330165853601358],[114.16368311494726,22.33019168062566]]]},"properties":{"OBJECTID":212023,"Shape__Length":12.129096783487784,"Shape__Area":7.1099029760652934,"GeoRefNo":"3491021237","DateCreate":1114790400000,"BuildingBlockType":"Tower","BuildingCSUID":"3491021237T20050430","BuildingID":1108227171,"Status":"Active","BuildingNameEN":null,"BuildingNameTC":null,"BaseHeight":5.2000000000000002,"TopHeight":12.199999999999999,"Storeys":null,"StoreysInBasement":null,"DateStamp":1274198400000}},{"type":"Feature","id":212036,"geometry":{"type":"Polygon","coordinates":[[[114.16355868785357,22.330875135534988],[114.163596408354,22.330918119852601],[114.16358229319715,22.330929075052349],[114.16354455405815,22.330886122337017],[114.16355868785357,22.330875135534988]]]},"properties":{"OBJECTID":212036,"Shape__Length":16.0790864108831,"Shape__Area":11.645769625906954,"GeoRefNo":"3489821318","DateCreate":1114790400000,"BuildingBlockType":"Tower","BuildingCSUID":"3489821318T20050430","BuildingID":1108226614,"Status":"Active","BuildingNameEN":"FUK ON BUILDING","BuildingNameTC":"福安大廈","BaseHeight":5.7000000000000002,"TopHeight":8.3000000000000007,"Storeys":null,"StoreysInBasement":null,"DateStamp":1274198400000}},{"type":"Feature","id":212537,"geometry":{"type":"Polygon","coordinates":[[[114.1569480209731,22.329201207016116],[114.15696781985719,22.329185816995249],[114.15700082429457,22.329222219795014],[114.1569643466791,22.329250558264736],[114.15697703485007,22.329264773957085],[114.15693476163972,22.329298100384662],[114.15693928897269,22.329303203851865],[114.15693002487914,22.329310494820163],[114.15693743977165,22.329318853264024],[114.15690712240428,22.329342713307291],[114.15689589893819,22.329330070917283],[114.15684305691353,22.329271226278284],[114.15685058832089,22.329265656149868],[114.15684128278107,22.329255211584748],[114.15684125000519,22.329254982836034],[114.15685518272977,22.329244122658707],[114.15683334364323,22.329220282658085],[114.15691181756544,22.329159125652659],[114.1569480209731,22.329201207016116]]]},"properties":{"OBJECTID":212537,"Shape__Length":62.537716910004413,"Shape__Area":183.89800087368343,"GeoRefNo":"3421121134","DateCreate":1235577600000,"BuildingBlockType":"Tower","BuildingCSUID":"3421121134T20090226","BuildingID":1108227945,"Status":"Active","BuildingNameEN":"The Prominence","BuildingNameTC":"時尚華庭","BaseHeight":19.300000000000001,"TopHeight":84.299999999999997,"Storeys":20,"StoreysInBasement":null,"DateStamp":1599580800000}},{"type":"Feature","id":212814,"geometry":{"type":"Polygon","coordinates":[[[114.16535310929288,22.329594724419085],[114.16536256119284,22.329587278288802],[114.16536538135715,22.329585056513366],[114.16538519384545,22.329606429871919],[114.16537251951944,22.32961630102908],[114.16536255972542,22.329605229552456],[114.16535310929288,22.329594724419085]]]},"properties":{"OBJECTID":212814,"Shape__Length":9.6005557239272683,"Shape__Area":5.2415076084489973,"GeoRefNo":"3508321173","DateCreate":1114790400000,"BuildingBlockType":"Tower","BuildingCSUID":"3508321173T20050430","BuildingID":1108227703,"Status":"Active","BuildingNameEN":null,"BuildingNameTC":null,"BaseHeight":5.5,"TopHeight":8.8000000000000007,"Storeys":null,"StoreysInBasement":null,"DateStamp":1274198400000}},{"type":"Feature","id":212828,"geometry":{"type":"Polygon","coordinates":[[[114.16227352274049,22.329617570547413],[114.1623324287214,22.329571993598879],[114.16236284059026,22.329605963228378],[114.16230455687442,22.32965178759121],[114.16229549711464,22.329641792091167],[114.16227352274049,22.329617570547413]]]},"properties":{"OBJECTID":212828,"Shape__Length":25.607714468635571,"Shape__Area":38.806439483818778,"GeoRefNo":"3476821175","DateCreate":1114790400000,"BuildingBlockType":"Tower","BuildingCSUID":"3476821175T20050430","BuildingID":1108227677,"Status":"Active","BuildingNameEN":"ON SHEUNG BUILDING","BuildingNameTC":"安順大廈","BaseHeight":4.4000000000000004,"TopHeight":13.6,"Storeys":null,"StoreysInBasement":null,"DateStamp":1274198400000}},{"type":"Feature","id":212840,"geometry":{"type":"Polygon","coordinates":[[[114.16241645761245,22.32960622826684],[114.16243927362763,22.329588335110643],[114.16245025555209,22.329599811879159],[114.16242737018381,22.329618162700672],[114.16241645761245,22.32960622826684]]]},"properties":{"OBJECTID":212840,"Shape__Length":9.6233812079066521,"Shape__Area":5.3146626058360278,"GeoRefNo":"3478021174","DateCreate":1114790400000,"BuildingBlockType":"Tower","BuildingCSUID":"3478021174T20050430","BuildingID":1108227699,"Status":"Active","BuildingNameEN":"TUNG SHING BUILDING","BuildingNameTC":"東成大廈","BaseHeight":4.4000000000000004,"TopHeight":11.6,"Storeys":null,"StoreysInBasement":null,"DateStamp":1274198400000}},{"type":"Feature","id":212841,"geometry":{"type":"Polygon","coordinates":[[[114.16445653936624,22.329571488142278],[114.16443667108253,22.329549372171407],[114.16446325041699,22.329529059905173],[114.16448301200128,22.329551453464866],[114.16445653936624,22.329571488142278]]]},"properties":{"OBJECTID":212841,"Shape__Length":13.459458241698728,"Shape__Area":11.294782592771897,"GeoRefNo":"3498921167","DateCreate":1114790400000,"BuildingBlockType":"Tower","BuildingCSUID":"3498921167T20050430","BuildingID":1108227746,"Status":"Active","BuildingNameEN":"FOOK WAN MANSION","BuildingNameTC":"福運大廈","BaseHeight":5.0999999999999996,"TopHeight":8.9000000000000004,"Storeys":13,"StoreysInBasement":null,"DateStamp":1599580800000}},{"type":"Feature","id":212857,"geometry":{"type":"Polygon","coordinates":[[[114.16260895947474,22.329455276410854],[114.16263045668497,22.329438427227675],[114.16264150590055,22.329450665899639],[114.16262004443712,22.329467250220404],[114.16260895947474,22.329455276410854]]]},"properties":{"OBJECTID":212857,"Shape__Length":9.2898684902915232,"Shape__Area":5.0770690904246587,"GeoRefNo":"3480021158","DateCreate":1114790400000,"BuildingBlockType":"Tower","BuildingCSUID":"3480021158T20050430","BuildingID":1108227846,"Status":"Active","BuildingNameEN":"TUNG SHING BUILDING","BuildingNameTC":"東成大廈","BaseHeight":4.4000000000000004,"TopHeight":12.300000000000001,"Storeys":null,"StoreysInBasement":null,"DateStamp":1274198400000}},{"type":"Feature","id":212858,"geometry":{"type":"Polygon","coordinates":[[[114.16450770751065,22.329532763753281],[114.16448854313552,22.329509730786466],[114.16451777925073,22.329487388186863],[114.16453805140706,22.329509799298041],[114.16450770751065,22.329532763753281]]]},"properties":{"OBJECTID":212858,"Shape__Length":14.396571937532151,"Shape__Area":12.817910803114632,"GeoRefNo":"3499421163","DateCreate":1114790400000,"BuildingBlockType":"Tower","BuildingCSUID":"3499421163T20050430","BuildingID":1108227780,"Status":"Active","BuildingNameEN":"FOOK WAN MANSION","BuildingNameTC":"福運大廈","BaseHeight":5.0999999999999996,"TopHeight":8.9000000000000004,"Storeys":13,"StoreysInBasement":null,"DateStamp":1599580800000}}]}