{"type":"FeatureCollection","features":[{"type":"Feature","id":147981,"geometry":{"type":"Polygon","coordinates":[[[114.16252711936592,22.328101604114106],[114.16260185512185,22.328044014074823],[114.16261815596955,22.328061942028121],[114.16265606695139,22.328032720298907],[114.16266926950121,22.328022435797607],[114.16267896862236,22.32803272229998],[114.16268289459123,22.328037026528996],[114.16268065822037,22.328038733836738],[114.16266409482382,22.328051379814038],[114.16255636836185,22.328134111920274],[114.16252711936592,22.328101604114106]]]},"properties":{"OBJECTID":147981,"Shape__Length":43.175228191773869,"Shape__Area":61.621712524193654,"GeoRefNo":"3479521005","DateCreate":1114790400000,"BuildingBlockType":"Tower","BuildingCSUID":"3479521005T20050430","BuildingID":1108228906,"Status":"Active","BuildingNameEN":null,"BuildingNameTC":null,"BaseHeight":4.0999999999999996,"TopHeight":19,"Storeys":null,"StoreysInBasement":null,"DateStamp":1361808000000}},{"type":"Feature","id":147983,"geometry":{"type":"Polygon","coordinates":[[[114.15935785405435,22.328114757707272],[114.15942033316091,22.32806513360228],[114.15945399836447,22.328038394583633],[114.15948240467446,22.328070219509669],[114.15938615351666,22.328146356873731],[114.15935785405435,22.328114757707272]]]},"properties":{"OBJECTID":147983,"Shape__Length":35.174839526992628,"Shape__Area":59.465755364692335,"GeoRefNo":"3446921007","DateCreate":1114790400000,"BuildingBlockType":"Tower","BuildingCSUID":"3446921007T20050430","BuildingID":1108228896,"Status":"Active","BuildingNameEN":null,"BuildingNameTC":null,"BaseHeight":3.8999999999999999,"TopHeight":23.800000000000001,"Storeys":6,"StoreysInBasement":null,"DateStamp":1599580800000}},{"type":"Feature","id":147984,"geometry":{"type":"Polygon","coordinates":[[[114.16422834575167,22.328073117631689],[114.16419141831267,22.328032847289222],[114.16413534142612,22.327971896755031],[114.16417032556652,22.327944534110252],[114.16425248823856,22.328032852039655],[114.16426784828698,22.328049219088509],[114.16426322870159,22.328052872775867],[114.1642847698308,22.328076484005067],[114.16426634314338,22.328090892049524],[114.16424057417409,22.328063490804762],[114.16422834575167,22.328073117631689]]]},"properties":{"OBJECTID":147984,"Shape__Length":47.010728616170226,"Shape__Area":80.531581595242386,"GeoRefNo":"3496120996","DateCreate":1114790400000,"BuildingBlockType":"Tower","BuildingCSUID":"3496120996T20050430","BuildingID":1108228934,"Status":"Active","BuildingNameEN":null,"BuildingNameTC":null,"BaseHeight":5,"TopHeight":31.100000000000001,"Storeys":8,"StoreysInBasement":null,"DateStamp":1599580800000}},{"type":"Feature","id":148226,"geometry":{"type":"Polygon","coordinates":[[[114.1628563266345,22.328069438525006],[114.16282229276149,22.328032734749602],[114.16276160175086,22.327966232421819],[114.16277823907934,22.327952748944377],[114.16276330829344,22.32793686935279],[114.16277992858728,22.327923830449343],[114.16288078957348,22.328032739794427],[114.16289043193973,22.328042902379625],[114.1628563266345,22.328069438525006]]]},"properties":{"OBJECTID":148226,"Shape__Length":43.878083926126237,"Shape__Area":73.652414643655845,"GeoRefNo":"3482321001","DateCreate":1114790400000,"BuildingBlockType":"Tower","BuildingCSUID":"3482321001T20050430","BuildingID":1108228944,"Status":"Active","BuildingNameEN":null,"BuildingNameTC":null,"BaseHeight":4.4000000000000004,"TopHeight":33.299999999999997,"Storeys":8,"StoreysInBasement":null,"DateStamp":1599580800000}},{"type":"Feature","id":148227,"geometry":{"type":"Polygon","coordinates":[[[114.1632529506854,22.327975308520983],[114.16330411655859,22.327935395085706],[114.16336700406043,22.328003501586245],[114.16339404034544,22.32803278315248],[114.1634191270405,22.328059406219609],[114.16342263812498,22.328063209198966],[114.16341253255005,22.328071015935269],[114.16339761269037,22.328055709032558],[114.16337006960137,22.328077213536456],[114.16338438733129,22.328092838810115],[114.16337017216807,22.328103850066963],[114.16335597111119,22.328088228684912],[114.16330551190447,22.328032775789818],[114.16328824196098,22.328013893833624],[114.16327301979354,22.327997250819095],[114.1632529506854,22.327975308520983]]]},"properties":{"OBJECTID":148227,"Shape__Length":55.763757847532887,"Shape__Area":121.01395807224044,"GeoRefNo":"3487020996","DateCreate":1114790400000,"BuildingBlockType":"Tower","BuildingCSUID":"3487020996T20050430","BuildingID":1108228925,"Status":"Active","BuildingNameEN":null,"BuildingNameTC":"榮生樓","BaseHeight":4.5999999999999996,"TopHeight":34.5,"Storeys":9,"StoreysInBasement":null,"DateStamp":1599580800000}},{"type":"Feature","id":148228,"geometry":{"type":"Polygon","coordinates":[[[114.16249918120319,22.328070560185903],[114.16254651282777,22.328032710681715],[114.16261923451732,22.327975191888342],[114.16262967653275,22.327986823203208],[114.16262349057887,22.327992195136588],[114.16262943037444,22.327999288729796],[114.16260896595045,22.328015363814551],[114.16262098069608,22.328029175973487],[114.16261619791254,22.328032716807584],[114.16260185512185,22.328044014074823],[114.16252711936592,22.328101604114106],[114.16252646046155,22.328100871765859],[114.16249918120319,22.328070560185903]]]},"properties":{"OBJECTID":148228,"Shape__Length":41.582924101410683,"Shape__Area":66.788811236775302,"GeoRefNo":"3479221002","DateCreate":1114790400000,"BuildingBlockType":"Tower","BuildingCSUID":"3479221002T20050430","BuildingID":1108228926,"Status":"Active","BuildingNameEN":null,"BuildingNameTC":null,"BaseHeight":4.0999999999999996,"TopHeight":25.899999999999999,"Storeys":6,"StoreysInBasement":null,"DateStamp":1599580800000}},{"type":"Feature","id":148229,"geometry":{"type":"Polygon","coordinates":[[[114.1616882099384,22.328164127114576],[114.16165841057547,22.328130770315827],[114.16167427690874,22.328118468983384],[114.16170390765828,22.328151931511666],[114.16169582829674,22.328158208368261],[114.1616882099384,22.328164127114576]]]},"properties":{"OBJECTID":148229,"Shape__Length":13.838683381123708,"Shape__Area":10.167423083935116,"GeoRefNo":"3470321012","DateCreate":1114790400000,"BuildingBlockType":"Tower","BuildingCSUID":"3470321012T20050430","BuildingID":1108228876,"Status":"Active","BuildingNameEN":null,"BuildingNameTC":null,"BaseHeight":4.2000000000000002,"TopHeight":33.600000000000001,"Storeys":9,"StoreysInBasement":null,"DateStamp":1599580800000}},{"type":"Feature","id":148230,"geometry":{"type":"Polygon","coordinates":[[[114.16080410906676,22.328094701672622],[114.16086457731826,22.328046000459867],[114.16087391622231,22.328056046730811],[114.16090722237811,22.328091866026757],[114.16084585702565,22.32813984255257],[114.16080410906676,22.328094701672622]]]},"properties":{"OBJECTID":148230,"Shape__Length":29.807338634827332,"Shape__Area":54.891824073910946,"GeoRefNo":"3461821006","DateCreate":1114790400000,"BuildingBlockType":"Tower","BuildingCSUID":"3461821006T20050430","BuildingID":1108228900,"Status":"Active","BuildingNameEN":null,"BuildingNameTC":null,"BaseHeight":4.0999999999999996,"TopHeight":24.899999999999999,"Storeys":6,"StoreysInBasement":null,"DateStamp":1599580800000}},{"type":"Feature","id":148541,"geometry":{"type":"Polygon","coordinates":[[[114.15686386143199,22.331904649739315],[114.15695755984474,22.332009477392386],[114.15663610577323,22.332256978402683],[114.15656518879082,22.332311668584381],[114.15671664251607,22.332481640430693],[114.15673037553262,22.332497057333633],[114.15666542930921,22.332547376684769],[114.15664644053837,22.332562094165329],[114.15659302745614,22.332602535469182],[114.15645593148403,22.332708483108647],[114.15640375113347,22.332748463944739],[114.15637088963179,22.332773646084711],[114.15629939034179,22.332828434596468],[114.15620235681827,22.332719396092909],[114.15619182658375,22.332707564693496],[114.15611065164074,22.332616336454713],[114.15609947116738,22.332603782519698],[114.15607637262946,22.332577825678364],[114.15610425393717,22.332556517079208],[114.15617409424675,22.332503135133599],[114.15614186704106,22.332466891939642],[114.15647544502872,22.332210947590372],[114.15651992324747,22.332260866268431],[114.15659153413054,22.332207086565635],[114.15656261937073,22.332174716992991],[114.15658925787694,22.332154591159789],[114.15642015328557,22.331965081292886],[114.15663527091979,22.331799622860519],[114.15678385864882,22.331966011685516],[114.15686386143199,22.331904649739315]],[[114.15637094567317,22.332389431063209],[114.15635164629551,22.33240399495045],[114.15637094038732,22.332425670778211],[114.15638694439423,22.332443652681594],[114.15639673702424,22.332454653162387],[114.15640346278528,22.332462212605282],[114.15641151817296,22.332471253230434],[114.15642006852941,22.332480862844047],[114.15642806568587,22.332489849277565],[114.15643521848445,22.332497878362989],[114.15644312829544,22.332506765448375],[114.15646520417802,22.332489899101596],[114.15648737713319,22.332472969549883],[114.1565257429353,22.332443670130754],[114.15653641196576,22.332435516853828],[114.15645293681214,22.332341651566065],[114.15644542492562,22.332333216060039],[114.15637094567317,22.332389431063209]]]},"properties":{"OBJECTID":148541,"Shape__Length":420.52521661378432,"Shape__Area":3517.3981462763995,"GeoRefNo":"3418721461","DateCreate":1303833600000,"BuildingBlockType":"Podium","BuildingCSUID":"3418721461P20110427","BuildingID":1810066535,"Status":"Active","BuildingNameEN":"LAI MEI HOUSE","BuildingNameTC":"麗薇樓","BaseHeight":4.5999999999999996,"TopHeight":14.6,"Storeys":2,"StoreysInBasement":null,"DateStamp":1527004800000}},{"type":"Feature","id":150270,"geometry":{"type":"Polygon","coordinates":[[[114.16299725512438,22.331884052818211],[114.16306956323118,22.331827934639236],[114.16318584160712,22.331957783084615],[114.16317585862751,22.331965583581511],[114.16316329440194,22.331975401111151],[114.16317893821046,22.331992599815166],[114.16317087130918,22.331998910788599],[114.16315494930581,22.331981682530348],[114.16314278144547,22.331991111596256],[114.16315893273168,22.332008261218672],[114.16315085913091,22.332014571648699],[114.16313499875031,22.331997510820663],[114.16311405969054,22.33201387219032],[114.16310662253514,22.332005606231828],[114.16307060418234,22.33196557467928],[114.16299725512438,22.331884052818211]]]},"properties":{"OBJECTID":150270,"Shape__Length":66.850430191466117,"Shape__Area":186.68624145658359,"GeoRefNo":"3484921430","DateCreate":1114790400000,"BuildingBlockType":"Tower","BuildingCSUID":"3484921430T20050430","BuildingID":1108225945,"Status":"Active","BuildingNameEN":"Kam Ning House","BuildingNameTC":"金陵樓","BaseHeight":5.5,"TopHeight":36.600000000000001,"Storeys":9,"StoreysInBasement":null,"DateStamp":1599580800000}},{"type":"Feature","id":150532,"geometry":{"type":"Polygon","coordinates":[[[114.16318584160712,22.331957783084615],[114.16306956323118,22.331827934639236],[114.16314230326653,22.331771481339235],[114.16327438637489,22.331917932333148],[114.16321346786752,22.331965586745852],[114.16320133097103,22.331975081019582],[114.16319282783009,22.331965585010344],[114.16318584160712,22.331957783084615]]]},"properties":{"OBJECTID":150532,"Shape__Length":61.969609754114622,"Shape__Area":207.56420514414665,"GeoRefNo":"3485721426","DateCreate":1114790400000,"BuildingBlockType":"Tower","BuildingCSUID":"3485721426T20050430","BuildingID":1108225965,"Status":"Active","BuildingNameEN":null,"BuildingNameTC":null,"BaseHeight":5.5,"TopHeight":25.300000000000001,"Storeys":6,"StoreysInBasement":null,"DateStamp":1599580800000}},{"type":"Feature","id":152788,"geometry":{"type":"Polygon","coordinates":[[[114.1616702799253,22.333022762194023],[114.16163512122922,22.332983091811709],[114.1616085710387,22.332953134618233],[114.16162135456321,22.33294315377751],[114.16163831206819,22.332961729282601],[114.16166175253893,22.332987406227488],[114.16168526882025,22.333013166166989],[114.16175497836134,22.333089520974596],[114.16174003183015,22.33310140581218],[114.1617191222702,22.333077872071389],[114.1616702799253,22.333022762194023]]]},"properties":{"OBJECTID":152788,"Shape__Length":46.293309166680032,"Shape__Area":39.867233317492406,"GeoRefNo":"3470221551","DateCreate":1195660800000,"BuildingBlockType":"Temporary Structure","BuildingCSUID":"3470221551T20071122","BuildingID":1108225431,"Status":"Active","BuildingNameEN":"WING LEE MANSION","BuildingNameTC":"榮利大廈","BaseHeight":null,"TopHeight":null,"Storeys":null,"StoreysInBasement":null,"DateStamp":1410969600000}},{"type":"Feature","id":153023,"geometry":{"type":"Polygon","coordinates":[[[114.16084091394458,22.330985298625645],[114.16078289856461,22.330920439139767],[114.160727705602,22.330858736101263],[114.16076707845612,22.330828234613918],[114.1607686464789,22.330829991939883],[114.16082219948863,22.330890010508952],[114.16088003996204,22.330954836731248],[114.16084091394458,22.330985298625645]]]},"properties":{"OBJECTID":153023,"Shape__Length":46.987285924472722,"Shape__Area":96.002311321624731,"GeoRefNo":"3461221317","DateCreate":1195660800000,"BuildingBlockType":"Temporary Structure","BuildingCSUID":"3461221317T20071122","BuildingID":1108226567,"Status":"Active","BuildingNameEN":null,"BuildingNameTC":null,"BaseHeight":null,"TopHeight":null,"Storeys":null,"StoreysInBasement":null,"DateStamp":1410969600000}},{"type":"Feature","id":153025,"geometry":{"type":"Polygon","coordinates":[[[114.15882801325971,22.33052879989248],[114.15877279612194,22.330571541001706],[114.15870708041925,22.330497884576932],[114.15876229754802,22.330455143489715],[114.15882801325971,22.33052879989248]]]},"properties":{"OBJECTID":153025,"Shape__Length":36.00002465051557,"Shape__Area":78.440052423640537,"GeoRefNo":"3440221274","DateCreate":1195574400000,"BuildingBlockType":"Temporary Structure","BuildingCSUID":"3440221274T20071121","BuildingID":1108226821,"Status":"Active","BuildingNameEN":null,"BuildingNameTC":null,"BaseHeight":null,"TopHeight":null,"Storeys":null,"StoreysInBasement":null,"DateStamp":1410969600000}},{"type":"Feature","id":153649,"geometry":{"type":"Polygon","coordinates":[[[114.16118135119591,22.334946962290175],[114.16114794973626,22.334910557527984],[114.16114735865779,22.334909838998087],[114.16114680844876,22.334909095186507],[114.16114630765192,22.334908321759443],[114.16114585820836,22.334907521426196],[114.1611454617679,22.334906697257388],[114.16114511978624,22.334905852323487],[114.16114483352501,22.334904989514452],[114.16114460405161,22.334904112262006],[114.16114443214222,22.334903223546299],[114.16114431847599,22.334902326889306],[114.1611442634408,22.334901425451772],[114.16114426732756,22.334900522484777],[114.16114433003875,22.334899621419872],[114.16114445128281,22.334898725598375],[114.16114463086524,22.334897838271267],[114.16114486781494,22.334896962689456],[114.16114516145211,22.33489610210389],[114.1611455106115,22.334895259675175],[114.16114591412796,22.334894438473555],[114.16114637035089,22.334893641478995],[114.16114687772691,22.334892871761713],[114.16114743431423,22.334892132121034],[114.16114803807413,22.334891425175588],[114.16114868687072,22.334890753634362],[114.16114937817989,22.33489011984507],[114.16115010957466,22.334889526336024],[114.1611508783368,22.334888975093694],[114.16115168155397,22.334888468285108],[114.16115251631382,22.334888007716138],[114.16115337960701,22.334887595102305],[114.16115426813298,22.33488723188816],[114.16115517878531,22.334886919518276],[114.16115610806936,22.334886659076016],[114.1611570526846,22.334886451554421],[114.16115800903935,22.334886297675574],[114.16115897363903,22.334886198071295],[114.16115994298909,22.334886153102463],[114.16116091349782,22.334886162859021],[114.16116188157373,22.334886227340654],[114.16116284372222,22.334886346276068],[114.1611637962547,22.334886519303708],[114.16116473577382,22.334886745791117],[114.16116565878508,22.334887024834853],[114.16116656198822,22.334887355441278],[114.16116744188886,22.33488773634577],[114.16116829538089,22.334888166283712],[114.16116911935823,22.334888643448746],[114.16116991061774,22.33488916630531],[114.16117066634462,22.334889732866426],[114.16117138372407,22.334890340964517],[114.16117212555504,22.334891040544676],[114.1611795527692,22.334885225841528],[114.16116636018708,22.334870768509514],[114.16119978259356,22.334844602659828],[114.16123150773036,22.334879369193917],[114.16121219699815,22.334894487228912],[114.16122256265909,22.334905846526098],[114.16125227150675,22.334882587973166],[114.1612598102414,22.334890849417999],[114.16127858846147,22.334911427842385],[114.16123424275011,22.334945158655088],[114.16122104802143,22.33493069897948],[114.16121353170681,22.33493641605536],[114.16122672653231,22.334950875731597],[114.16120211660356,22.334969594829577],[114.16118135119591,22.334946962290175]]]},"properties":{"OBJECTID":153649,"Shape__Length":53.169491824944856,"Shape__Area":89.478622880023607,"GeoRefNo":"3465321760","DateCreate":1114790400000,"BuildingBlockType":"Tower","BuildingCSUID":"3465321760T20050430","BuildingID":1108224450,"Status":"Active","BuildingNameEN":null,"BuildingNameTC":"豐裕閣","BaseHeight":17.100000000000001,"TopHeight":49.799999999999997,"Storeys":11,"StoreysInBasement":null,"DateStamp":1599580800000}},{"type":"Feature","id":154384,"geometry":{"type":"Polygon","coordinates":[[[114.16136024194695,22.33355275020407],[114.16122234251249,22.333660158330101],[114.16115671617275,22.333585843069223],[114.16129523689195,22.333477863331691],[114.16136024194695,22.33355275020407]]]},"properties":{"OBJECTID":154384,"Shape__Length":58.454668427310338,"Shape__Area":197.86504421487544,"GeoRefNo":"3465921613","DateCreate":1114790400000,"BuildingBlockType":"Tower","BuildingCSUID":"3465921613T20050430","BuildingID":1108225160,"Status":"Active","BuildingNameEN":"Hung Cheung House","BuildingNameTC":"鴻祥大廈","BaseHeight":5.7999999999999998,"TopHeight":27.699999999999999,"Storeys":6,"StoreysInBasement":null,"DateStamp":1599580800000}},{"type":"Feature","id":159324,"geometry":{"type":"Polygon","coordinates":[[[114.16295079109094,22.334889149821716],[114.16301788075842,22.334913366169971],[114.16295448805533,22.335065366224178],[114.16288739822906,22.335041149940388],[114.16295079109094,22.334889149821716]]]},"properties":{"OBJECTID":159324,"Shape__Length":50.935335903058281,"Shape__Area":133.84390326654668,"GeoRefNo":"3483321768","DateCreate":1196179200000,"BuildingBlockType":"Temporary Structure","BuildingCSUID":"3483321768T20071128","BuildingID":1108224387,"Status":"Active","BuildingNameEN":null,"BuildingNameTC":null,"BaseHeight":null,"TopHeight":null,"Storeys":null,"StoreysInBasement":null,"DateStamp":1411056000000}},{"type":"Feature","id":162650,"geometry":{"type":"Polygon","coordinates":[[[114.15880164811338,22.335247299556784],[114.15881482681259,22.335261659368161],[114.15879459817492,22.335277403463206],[114.15877707165184,22.335257995525186],[114.15876076901976,22.335239942940319],[114.15879202212162,22.335216962882669],[114.15878256093708,22.335207169794487],[114.15879361193461,22.335198923399357],[114.15877822373918,22.335182170688785],[114.15889699408673,22.335091075833919],[114.15891943363765,22.335115803221804],[114.15898600585881,22.33506262408202],[114.15900939257672,22.335088575475911],[114.15897630229419,22.335114531219382],[114.15898636164017,22.335125807995681],[114.15892857080902,22.335170425403152],[114.15891927219486,22.335160001555053],[114.15890781333751,22.33516884835673],[114.15893548116735,22.335199337015418],[114.15893440226156,22.335210480627723],[114.15889443431745,22.335241514300279],[114.15888282487199,22.335239923633424],[114.15886640957051,22.335221550099952],[114.15885111686411,22.335232948603714],[114.15884864663323,22.335229743016789],[114.15882370247007,22.3352487918735],[114.15881371541123,22.335237785922317],[114.15880164811338,22.335247299556784]],[[114.15890248469191,22.33514192102615],[114.15891185454325,22.335152424803702],[114.15893239660531,22.335136565407904],[114.15892302665644,22.335126061541192],[114.15890248469191,22.33514192102615]],[[114.15882259780551,22.335198900073177],[114.15881059956116,22.335185497092905],[114.15879363872206,22.33519895482873],[114.15880541178754,22.335212159744682],[114.15882259780551,22.335198900073177]]]},"properties":{"OBJECTID":162650,"Shape__Length":109.60021606301234,"Shape__Area":224.09905084936997,"GeoRefNo":"3441521790","DateCreate":1343750400000,"BuildingBlockType":"Tower","BuildingCSUID":"3441521790T20120801","BuildingID":1810087355,"Status":"Active","BuildingNameEN":"Residence 228","BuildingNameTC":"寓．弍捌","BaseHeight":21.699999999999999,"TopHeight":103.09999999999999,"Storeys":23,"StoreysInBasement":null,"DateStamp":1599580800000}},{"type":"Feature","id":163722,"geometry":{"type":"Polygon","coordinates":[[[114.15778084502497,22.330113296366541],[114.15772730481957,22.330154892602184],[114.15789753528698,22.330339956335948],[114.15782256954093,22.330398908320838],[114.1576268055812,22.33018053371973],[114.15760452051417,22.330134528660516],[114.15771770101307,22.330043639393743],[114.15778084502497,22.330113296366541]]]},"properties":{"OBJECTID":163722,"Shape__Length":106.84037452003203,"Shape__Area":432.88137559584663,"GeoRefNo":"3429821230","DateCreate":1410710400000,"BuildingBlockType":"Temporary Structure","BuildingCSUID":"3429821230T20140915","BuildingID":1810133010,"Status":"Active","BuildingNameEN":null,"BuildingNameTC":null,"BaseHeight":4.7000000000000002,"TopHeight":10.699999999999999,"Storeys":null,"StoreysInBasement":null,"DateStamp":1591545600000}},{"type":"Feature","id":168932,"geometry":{"type":"Polygon","coordinates":[[[114.16160459121051,22.333129266116014],[114.16156472560287,22.333160239057428],[114.16153541876052,22.333127296354444],[114.16149814736656,22.333156000049531],[114.16146242888949,22.333116314857598],[114.16149965838662,22.333087242448084],[114.16147303399997,22.333057692233982],[114.16151298024593,22.333026876364112],[114.16151978746308,22.333034408058779],[114.16153281780801,22.333048825254128],[114.1615396355095,22.333056368417765],[114.161561198854,22.333040142771317],[114.16155456888212,22.333032615249163],[114.16154104931275,22.333017265602081],[114.16153473380795,22.333010095087584],[114.16156873967709,22.332983861842504],[114.16157554129597,22.332978614813371],[114.16160238737307,22.333008367316737],[114.16163512122922,22.332983091811709],[114.1616702799253,22.333022762194023],[114.16163789669473,22.333047900925624],[114.1616674380401,22.333081061811118],[114.16162593107015,22.333112470971784],[114.16159685862169,22.333079746299887],[114.16157504982242,22.333096541486519],[114.16160459121051,22.333129266116014]]]},"properties":{"OBJECTID":168932,"Shape__Length":93.666024908735807,"Shape__Area":230.11334012276666,"GeoRefNo":"3469221559","DateCreate":1114790400000,"BuildingBlockType":"Tower","BuildingCSUID":"3469221559T20050430","BuildingID":1108225393,"Status":"Active","BuildingNameEN":"Wing Lee Mansion","BuildingNameTC":"榮利大廈","BaseHeight":8.4000000000000004,"TopHeight":42.600000000000001,"Storeys":14,"StoreysInBasement":null,"DateStamp":1599580800000}},{"type":"Feature","id":172032,"geometry":{"type":"Polygon","coordinates":[[[114.16422894313546,22.332815318666395],[114.16414306123441,22.332720201722537],[114.16408889000697,22.332660205346166],[114.16413907141448,22.332604303494247],[114.16425224100009,22.332729239096931],[114.16427205954137,22.332751117935089],[114.16426720352592,22.332754877621063],[114.164252237667,22.332766407697374],[114.16422977008988,22.332783717392111],[114.16424625154373,22.332801880703133],[114.16422894313546,22.332815318666395]]]},"properties":{"OBJECTID":172032,"Shape__Length":62.370198569268794,"Shape__Area":169.45330887116907,"GeoRefNo":"3495921516","DateCreate":1114790400000,"BuildingBlockType":"Tower","BuildingCSUID":"3495921516T20050430","BuildingID":1108225569,"Status":"Active","BuildingNameEN":null,"BuildingNameTC":"澤羣樓","BaseHeight":8.8000000000000007,"TopHeight":43.100000000000001,"Storeys":12,"StoreysInBasement":null,"DateStamp":1599580800000}},{"type":"Feature","id":172035,"geometry":{"type":"Polygon","coordinates":[[[114.16220955311893,22.332699357617194],[114.16210988213028,22.332588147302811],[114.16209959705084,22.332576671481725],[114.1621847227777,22.3325108574696],[114.16225342330968,22.33258816027752],[114.16230136709257,22.332642107124155],[114.16231663317693,22.332659284654266],[114.16230700958245,22.332666724176857],[114.16229514500696,22.332653083054986],[114.16223080483962,22.332703624585459],[114.16224223391029,22.332716829947291],[114.1622321999605,22.332724626407252],[114.16220955311893,22.332699357617194]]]},"properties":{"OBJECTID":172035,"Shape__Length":69.192217067660124,"Shape__Area":225.67623067294261,"GeoRefNo":"3475621506","DateCreate":1114790400000,"BuildingBlockType":"Tower","BuildingCSUID":"3475621506T20050430","BuildingID":1108225616,"Status":"Active","BuildingNameEN":null,"BuildingNameTC":null,"BaseHeight":5.5,"TopHeight":25.199999999999999,"Storeys":6,"StoreysInBasement":null,"DateStamp":1599580800000}},{"type":"Feature","id":172037,"geometry":{"type":"Polygon","coordinates":[[[114.16042746401614,22.332774686026696],[114.16039376841613,22.332737091471742],[114.16042259704041,22.332715249150706],[114.16044087777365,22.332735682325033],[114.16047126162246,22.332713056659546],[114.16048582190263,22.332729348119834],[114.16042746401614,22.332774686026696]]]},"properties":{"OBJECTID":172037,"Shape__Length":26.382613860852139,"Shape__Area":30.227107100927416,"GeoRefNo":"3457321521","DateCreate":1114790400000,"BuildingBlockType":"Tower","BuildingCSUID":"3457321521T20050430","BuildingID":1108225590,"Status":"Active","BuildingNameEN":null,"BuildingNameTC":null,"BaseHeight":5.0999999999999996,"TopHeight":20.5,"Storeys":4,"StoreysInBasement":null,"DateStamp":1599580800000}},{"type":"Feature","id":172038,"geometry":{"type":"Polygon","coordinates":[[[114.16213540883096,22.33269625992434],[114.16212484940581,22.332704409425663],[114.16210750838123,22.332685520213701],[114.16209973230862,22.332691818878054],[114.16213672985094,22.332732307137054],[114.16214321176163,22.332727316342769],[114.16217845594066,22.332766224352685],[114.16212185385106,22.332810021508585],[114.16211201707466,22.332798938378883],[114.16198997003373,22.332661428369164],[114.16201090648778,22.332645241526421],[114.16202869959166,22.332631484613128],[114.16205741557189,22.332609283747484],[114.16213540883096,22.33269625992434]]]},"properties":{"OBJECTID":172038,"Shape__Length":68.112434714692114,"Shape__Area":174.34764462820709,"GeoRefNo":"3474521518","DateCreate":1114790400000,"BuildingBlockType":"Tower","BuildingCSUID":"3474521518T20050430","BuildingID":1108225574,"Status":"Active","BuildingNameEN":null,"BuildingNameTC":null,"BaseHeight":5.5999999999999996,"TopHeight":32.799999999999997,"Storeys":9,"StoreysInBasement":null,"DateStamp":1599580800000}},{"type":"Feature","id":172508,"geometry":{"type":"Polygon","coordinates":[[[114.15720541758463,22.334897833344453],[114.15712007608458,22.334964246491005],[114.15709109519909,22.334931950704629],[114.15717671612951,22.334865746664821],[114.15720541758463,22.334897833344453]]]},"properties":{"OBJECTID":172508,"Shape__Length":32.21256343115769,"Shape__Area":53.207316319060091,"GeoRefNo":"3423521762","DateCreate":1114790400000,"BuildingBlockType":"Tower","BuildingCSUID":"3423521762T20050430","BuildingID":1108224456,"Status":"Active","BuildingNameEN":null,"BuildingNameTC":null,"BaseHeight":4.5999999999999996,"TopHeight":7.4000000000000004,"Storeys":null,"StoreysInBasement":null,"DateStamp":1361808000000}},{"type":"Feature","id":172735,"geometry":{"type":"Polygon","coordinates":[[[114.15924154471503,22.33409792159442],[114.15922898271327,22.334083982527051],[114.15921078766314,22.334063793054316],[114.15924046170548,22.334040654699837],[114.15926809221928,22.334019109834813],[114.15929739821529,22.333996258421667],[114.15930507067893,22.333990275861595],[114.15933580586068,22.334024695076057],[114.15931216503157,22.334043060446604],[114.15929570793391,22.33402580547682],[114.15924712488614,22.334063744443128],[114.15926335444776,22.334081021698612],[114.15924154471503,22.33409792159442]]]},"properties":{"OBJECTID":172735,"Shape__Length":40.286913951813453,"Shape__Area":45.944190537041393,"GeoRefNo":"3445421665","DateCreate":1114790400000,"BuildingBlockType":"Tower","BuildingCSUID":"3445421665T20050430","BuildingID":1108224959,"Status":"Active","BuildingNameEN":null,"BuildingNameTC":null,"BaseHeight":5.4000000000000004,"TopHeight":8.5,"Storeys":null,"StoreysInBasement":null,"DateStamp":1361808000000}},{"type":"Feature","id":172775,"geometry":{"type":"Polygon","coordinates":[[[114.16050641767397,22.335317496123295],[114.16053401524394,22.335348556588691],[114.16057099132522,22.335389582238236],[114.16059673630541,22.335418322371101],[114.16062176520028,22.335446263041533],[114.16061311386741,22.335452944892722],[114.16063012807766,22.335472010683024],[114.16058085897789,22.335510864409908],[114.16056362624303,22.335491972702101],[114.16055431525584,22.335499107006076],[114.16046690517435,22.335400430216229],[114.16045519551955,22.335387211249593],[114.16043935741081,22.335369331635611],[114.16050641767397,22.335317496123295]]]},"properties":{"OBJECTID":172775,"Shape__Length":60.707292054106404,"Shape__Area":186.16056618807096,"GeoRefNo":"3458521817","DateCreate":1570550400000,"BuildingBlockType":"Podium","BuildingCSUID":"3458521817P20191009","BuildingID":1810192228,"Status":"Active","BuildingNameEN":null,"BuildingNameTC":null,"BaseHeight":6.4000000000000004,"TopHeight":21.399999999999999,"Storeys":2,"StoreysInBasement":null,"DateStamp":1599580800000}},{"type":"Feature","id":173418,"geometry":{"type":"Polygon","coordinates":[[[114.16124234352539,22.332662455758911],[114.16122979436825,22.332648472234286],[114.16121152555945,22.332628115548509],[114.16123238869842,22.332612071121197],[114.16126324310126,22.332646100769544],[114.16124234352539,22.332662455758911]]]},"properties":{"OBJECTID":173418,"Shape__Length":15.485678994201768,"Shape__Area":13.841890278681142,"GeoRefNo":"3465721509","DateCreate":1114790400000,"BuildingBlockType":"Tower","BuildingCSUID":"3465721509T20050430","BuildingID":1108225639,"Status":"Active","BuildingNameEN":null,"BuildingNameTC":null,"BaseHeight":5.2999999999999998,"TopHeight":25.199999999999999,"Storeys":12,"StoreysInBasement":null,"DateStamp":1599580800000}},{"type":"Feature","id":173621,"geometry":{"type":"Polygon","coordinates":[[[114.16142714481201,22.332617031643267],[114.1614648924202,22.332588087433059],[114.16150475988154,22.332557517639192],[114.16153743455352,22.332594395291277],[114.16149821202933,22.332624826263764],[114.16141930377475,22.332686047733453],[114.16140321238194,22.332667458831736],[114.16138818850555,22.33267931211341],[114.16139479887312,22.332686573961144],[114.1613776949723,22.332699576907384],[114.1613692987754,22.33269015757346],[114.16135406725328,22.332673069811818],[114.16136930194664,22.332661387411985],[114.16142714481201,22.332617031643267]]]},"properties":{"OBJECTID":173621,"Shape__Length":53.071391565851798,"Shape__Area":98.716685582974151,"GeoRefNo":"3468121506","DateCreate":1114790400000,"BuildingBlockType":"Tower","BuildingCSUID":"3468121506T20050430","BuildingID":1108225627,"Status":"Active","BuildingNameEN":null,"BuildingNameTC":null,"BaseHeight":5.4000000000000004,"TopHeight":37.799999999999997,"Storeys":10,"StoreysInBasement":null,"DateStamp":1599580800000}},{"type":"Feature","id":173656,"geometry":{"type":"Polygon","coordinates":[[[114.16427205954137,22.332751117935089],[114.16425224100009,22.332729239096931],[114.16413907141448,22.332604303494247],[114.16415322238693,22.332588320024385],[114.16418562172169,22.332551725047949],[114.16420950855361,22.33257815733953],[114.16421869714297,22.332588325132932],[114.16424862388395,22.332621440969],[114.1642522503069,22.332625453898238],[114.16428796684241,22.332664976378961],[114.16430825514256,22.332687426704304],[114.16434349873941,22.332726425904188],[114.16432748165039,22.332738854900658],[114.16431076941446,22.332721209122447],[114.16427735424142,22.332747018552524],[114.16427205954137,22.332751117935089]]]},"properties":{"OBJECTID":173656,"Shape__Length":64.014354804801556,"Shape__Area":168.34908772579752,"GeoRefNo":"3496421510","DateCreate":1114790400000,"BuildingBlockType":"Tower","BuildingCSUID":"3496421510T20050430","BuildingID":1108225604,"Status":"Active","BuildingNameEN":"CHAK KWAN BUILDING","BuildingNameTC":"澤群樓","BaseHeight":8.5999999999999996,"TopHeight":44,"Storeys":12,"StoreysInBasement":null,"DateStamp":1599580800000}},{"type":"Feature","id":173657,"geometry":{"type":"Polygon","coordinates":[[[114.16042259704041,22.332715249150706],[114.16039376841613,22.332737091471742],[114.16035922029276,22.332698545812679],[114.16041778424521,22.33265322113547],[114.16043122904641,22.332668264461727],[114.16040135774912,22.332691509127724],[114.16042259704041,22.332715249150706]]]},"properties":{"OBJECTID":173657,"Shape__Length":26.834351632887099,"Shape__Area":30.089849948024188,"GeoRefNo":"3457021516","DateCreate":1114790400000,"BuildingBlockType":"Tower","BuildingCSUID":"3457021516T20050430","BuildingID":1108225612,"Status":"Active","BuildingNameEN":null,"BuildingNameTC":null,"BaseHeight":5,"TopHeight":20.5,"Storeys":4,"StoreysInBasement":null,"DateStamp":1599580800000}},{"type":"Feature","id":173662,"geometry":{"type":"Polygon","coordinates":[[[114.16131443129314,22.332636427787047],[114.16136930937287,22.332594014684144],[114.16137698952885,22.332588079074906],[114.16146890001779,22.332517045056246],[114.16150475988154,22.332557517639192],[114.1614648924202,22.332588087433059],[114.16142714481201,22.332617031643267],[114.16141063297428,22.332598868223069],[114.16136930535885,22.332630430947127],[114.16133357984727,22.332657715236852],[114.16131443129314,22.332636427787047]]]},"properties":{"OBJECTID":173662,"Shape__Length":52.836009760069956,"Shape__Area":92.032819137144514,"GeoRefNo":"3467821502","DateCreate":1114790400000,"BuildingBlockType":"Tower","BuildingCSUID":"3467821502T20050430","BuildingID":1108225642,"Status":"Active","BuildingNameEN":null,"BuildingNameTC":null,"BaseHeight":5.2999999999999998,"TopHeight":21.300000000000001,"Storeys":null,"StoreysInBasement":null,"DateStamp":1361808000000}},{"type":"Feature","id":173879,"geometry":{"type":"Polygon","coordinates":[[[114.16213540883096,22.33269625992434],[114.16205741557189,22.332609283747484],[114.16208475693706,22.332588145018676],[114.16209959705084,22.332576671481725],[114.16210988213028,22.332588147302811],[114.16220955311893,22.332699357617194],[114.16218363135677,22.332719822994463],[114.1622059806992,22.332744914761847],[114.16219007748725,22.332757224353603],[114.16213540883096,22.33269625992434]]]},"properties":{"OBJECTID":173879,"Shape__Length":53.915396129354193,"Shape__Area":107.75712607948685,"GeoRefNo":"3474821511","DateCreate":1114790400000,"BuildingBlockType":"Tower","BuildingCSUID":"3474821511T20050430","BuildingID":1108225600,"Status":"Active","BuildingNameEN":null,"BuildingNameTC":null,"BaseHeight":5.5999999999999996,"TopHeight":25.600000000000001,"Storeys":6,"StoreysInBasement":null,"DateStamp":1599580800000}},{"type":"Feature","id":173880,"geometry":{"type":"Polygon","coordinates":[[[114.16306687144636,22.332694367443498],[114.16300787420086,22.332628781541139],[114.16303934339543,22.332604477965749],[114.16306042620269,22.332588230856043],[114.16308309872385,22.332570758609371],[114.16310169190695,22.332556431726086],[114.1631304512529,22.332588236790802],[114.16322435602896,22.332692086342576],[114.16323481844819,22.332703649974583],[114.16315414657359,22.332765951114393],[114.16308064598252,22.332683716321835],[114.16306687144636,22.332694367443498]]]},"properties":{"OBJECTID":173880,"Shape__Length":67.817451211260035,"Shape__Area":246.46549850325439,"GeoRefNo":"3484721509","DateCreate":1114790400000,"BuildingBlockType":"Tower","BuildingCSUID":"3484721509T20050430","BuildingID":1108225597,"Status":"Active","BuildingNameEN":null,"BuildingNameTC":null,"BaseHeight":6.2000000000000002,"TopHeight":40.299999999999997,"Storeys":10,"StoreysInBasement":null,"DateStamp":1599580800000}},{"type":"Feature","id":173882,"geometry":{"type":"Polygon","coordinates":[[[114.16131443129314,22.332636427787047],[114.16129556789794,22.332615457155004],[114.16137238825233,22.332556559204299],[114.16135628272045,22.33253874223022],[114.16143440197739,22.332478109508902],[114.16146890001779,22.332517045056246],[114.16137698952885,22.332588079074906],[114.16136930937287,22.332594014684144],[114.16131443129314,22.332636427787047]]]},"properties":{"OBJECTID":173882,"Shape__Length":52.617496458780735,"Shape__Area":89.149126124333534,"GeoRefNo":"3467421498","DateCreate":1114790400000,"BuildingBlockType":"Tower","BuildingCSUID":"3467421498T20050430","BuildingID":1108225652,"Status":"Active","BuildingNameEN":null,"BuildingNameTC":null,"BaseHeight":5.2999999999999998,"TopHeight":21.300000000000001,"Storeys":null,"StoreysInBasement":null,"DateStamp":1361808000000}},{"type":"Feature","id":173883,"geometry":{"type":"Polygon","coordinates":[[[114.15912368982285,22.332376717841321],[114.1592001363674,22.332317066915042],[114.15923999392514,22.332285966136496],[114.15932434846829,22.332380161417525],[114.15936560225464,22.332383340659078],[114.15948016184178,22.33229449350436],[114.15957460136866,22.332398443392702],[114.15945947304149,22.332487202413599],[114.159458860984,22.332530626792806],[114.1595368085472,22.332618154087221],[114.15942418250859,22.332706454774705],[114.15934323994631,22.332615505327094],[114.15930179686504,22.332609539222616],[114.15918113189767,22.332700378721938],[114.15908873984608,22.332597875079703],[114.15920697817924,22.332506135848082],[114.15920668012696,22.332464051870026],[114.15912368982285,22.332376717841321]]]},"properties":{"OBJECTID":173883,"Shape__Length":193.5179566450779,"Shape__Area":1310.0982033308965,"GeoRefNo":"3446221495","DateCreate":1114790400000,"BuildingBlockType":"Tower","BuildingCSUID":"3446221495T20050430","BuildingID":1108225626,"Status":"Active","BuildingNameEN":"Ning Ching House","BuildingNameTC":"寧靜閣","BaseHeight":5.2999999999999998,"TopHeight":47.399999999999999,"Storeys":15,"StoreysInBasement":null,"DateStamp":1788105600000}},{"type":"Feature","id":173884,"geometry":{"type":"Polygon","coordinates":[[[114.16120720430327,22.332623270677626],[114.16115019971892,22.332559359553802],[114.1611927706717,22.332526457318828],[114.16132490236838,22.332674475704128],[114.16128264756044,22.332707328786867],[114.16124234352539,22.332662455758911],[114.16126324310126,22.332646100769544],[114.16123238869842,22.332612071121197],[114.16121152555945,22.332628115548509],[114.16120720430327,22.332623270677626]]]},"properties":{"OBJECTID":173884,"Shape__Length":59.581686647152992,"Shape__Area":107.5710952471976,"GeoRefNo":"3465421504","DateCreate":1114790400000,"BuildingBlockType":"Tower","BuildingCSUID":"3465421504T20050430","BuildingID":1108225625,"Status":"Active","BuildingNameEN":null,"BuildingNameTC":null,"BaseHeight":5.2000000000000002,"TopHeight":22.699999999999999,"Storeys":5,"StoreysInBasement":null,"DateStamp":1599580800000}},{"type":"Feature","id":174075,"geometry":{"type":"Polygon","coordinates":[[[114.16049041015131,22.332791046764616],[114.16046181981135,22.332813017084888],[114.16042746401614,22.332774686026696],[114.16048582190263,22.332729348119834],[114.16050073954739,22.33274603930824],[114.16047033007727,22.332768602394658],[114.16049041015131,22.332791046764616]]]},"properties":{"OBJECTID":174075,"Shape__Length":26.823882692209111,"Shape__Area":30.616153764059305,"GeoRefNo":"3457721525","DateCreate":1114790400000,"BuildingBlockType":"Tower","BuildingCSUID":"3457721525T20050430","BuildingID":1108225571,"Status":"Active","BuildingNameEN":null,"BuildingNameTC":null,"BaseHeight":5.0999999999999996,"TopHeight":20.5,"Storeys":4,"StoreysInBasement":null,"DateStamp":1599580800000}},{"type":"Feature","id":174570,"geometry":{"type":"Polygon","coordinates":[[[114.15953235496666,22.334962572336895],[114.15947662967282,22.334900296126385],[114.15955189357935,22.334841385704976],[114.15959097934528,22.334885656581999],[114.15960722676704,22.334904059374395],[114.15960730625665,22.334904149327379],[114.15959097550754,22.334916878085394],[114.15956783499992,22.334934914650763],[114.15953235496666,22.334962572336895]]]},"properties":{"OBJECTID":174570,"Shape__Length":38.172965700542939,"Shape__Area":90.756182262215106,"GeoRefNo":"3448121759","DateCreate":1114790400000,"BuildingBlockType":"Tower","BuildingCSUID":"3448121759T20050430","BuildingID":1108224458,"Status":"Active","BuildingNameEN":null,"BuildingNameTC":null,"BaseHeight":6,"TopHeight":12,"Storeys":null,"StoreysInBasement":null,"DateStamp":1361808000000}},{"type":"Feature","id":174771,"geometry":{"type":"Polygon","coordinates":[[[114.15728906411016,22.334354506409223],[114.15725363742132,22.334381707018665],[114.1571800688757,22.334298778268941],[114.15721549565491,22.334271577675292],[114.15728906411016,22.334354506409223]]]},"properties":{"OBJECTID":174771,"Shape__Length":33.277444260162639,"Shape__Area":56.342823749343921,"GeoRefNo":"3424521698","DateCreate":1114790400000,"BuildingBlockType":"Tower","BuildingCSUID":"3424521698T20050430","BuildingID":1108224795,"Status":"Active","BuildingNameEN":null,"BuildingNameTC":null,"BaseHeight":4.9000000000000004,"TopHeight":8,"Storeys":null,"StoreysInBasement":null,"DateStamp":1361808000000}},{"type":"Feature","id":174804,"geometry":{"type":"Polygon","coordinates":[[[114.15803128853061,22.333867187924742],[114.15801658952878,22.33387898647517],[114.15800392473655,22.333865330499542],[114.15801981957851,22.333853240491674],[114.15803128853061,22.333867187924742]]]},"properties":{"OBJECTID":174804,"Shape__Length":8.0569183431817937,"Shape__Area":4.05265279182903,"GeoRefNo":"3432521646","DateCreate":1114790400000,"BuildingBlockType":"Tower","BuildingCSUID":"3432521646T20050430","BuildingID":1108225068,"Status":"Active","BuildingNameEN":null,"BuildingNameTC":null,"BaseHeight":5.0999999999999996,"TopHeight":7.7999999999999998,"Storeys":null,"StoreysInBasement":null,"DateStamp":1361808000000}},{"type":"Feature","id":174808,"geometry":{"type":"Polygon","coordinates":[[[114.15922877002755,22.334027563065948],[114.15918396920885,22.333977397126372],[114.15935095856025,22.333847053864197],[114.15939630495293,22.333897026472414],[114.15936918308255,22.333918158807364],[114.15934151736646,22.333939714884039],[114.15931314645854,22.333961820300058],[114.15928524152197,22.333983562822599],[114.15925631190512,22.334006103622514],[114.15922877002755,22.334027563065948]]]},"properties":{"OBJECTID":174808,"Shape__Length":59.43293091433528,"Shape__Area":162.60738803811574,"GeoRefNo":"3445821653","DateCreate":1114790400000,"BuildingBlockType":"Tower","BuildingCSUID":"3445821653T20050430","BuildingID":1108224992,"Status":"Active","BuildingNameEN":"KOWLOON TECHNICAL SCHOOL","BuildingNameTC":"九龍工業學校","BaseHeight":5.2999999999999998,"TopHeight":9.4000000000000004,"Storeys":null,"StoreysInBasement":null,"DateStamp":1361808000000}},{"type":"Feature","id":175263,"geometry":{"type":"Polygon","coordinates":[[[114.15893397708629,22.334303742104733],[114.15885251318011,22.334368490184914],[114.1588147526145,22.33432715168367],[114.15889547597631,22.334263092482932],[114.15893397708629,22.334303742104733]]]},"properties":{"OBJECTID":175263,"Shape__Length":33.97516864078213,"Shape__Area":65.938104442575892,"GeoRefNo":"3441321697","DateCreate":1114790400000,"BuildingBlockType":"Tower","BuildingCSUID":"3441321697T20050430","BuildingID":1108224803,"Status":"Active","BuildingNameEN":"Kowloon Sec Technical Sch Substation","BuildingNameTC":"九龍工業中學變電站","BaseHeight":5.2999999999999998,"TopHeight":8.9000000000000004,"Storeys":null,"StoreysInBasement":null,"DateStamp":1361808000000}},{"type":"Feature","id":175463,"geometry":{"type":"Polygon","coordinates":[[[114.16131494592351,22.329944200153744],[114.16128011598433,22.329905466363353],[114.16120025773455,22.329816657261116],[114.16123611578239,22.32978884652066],[114.16128012342719,22.329838320009426],[114.16135008377748,22.329916969444177],[114.16131494592351,22.329944200153744]]]},"properties":{"OBJECTID":175463,"Shape__Length":46.350663304481202,"Shape__Area":87.662014541192647,"GeoRefNo":"3465921201","DateCreate":1114790400000,"BuildingBlockType":"Tower","BuildingCSUID":"3465921201T20050430","BuildingID":1108227383,"Status":"Active","BuildingNameEN":null,"BuildingNameTC":null,"BaseHeight":4.4000000000000004,"TopHeight":30.5,"Storeys":8,"StoreysInBasement":null,"DateStamp":1599580800000}},{"type":"Feature","id":175492,"geometry":{"type":"Polygon","coordinates":[[[114.16500707641738,22.329703547238932],[114.16494503853836,22.329752276512611],[114.16493373618142,22.329739571007984],[114.1648428190359,22.32980972245505],[114.16478629885898,22.329747220762343],[114.16486848123651,22.329682831387863],[114.16493886341729,22.329627686706964],[114.16500707641738,22.329703547238932]]]},"properties":{"OBJECTID":175492,"Shape__Length":62.905010732126094,"Shape__Area":202.28839547207915,"GeoRefNo":"3503321187","DateCreate":1114790400000,"BuildingBlockType":"Tower","BuildingCSUID":"3503321187T20050430","BuildingID":1108227509,"Status":"Active","BuildingNameEN":null,"BuildingNameTC":null,"BaseHeight":5.2000000000000002,"TopHeight":34.100000000000001,"Storeys":9,"StoreysInBasement":null,"DateStamp":1599580800000}},{"type":"Feature","id":175689,"geometry":{"type":"Polygon","coordinates":[[[114.15861007835714,22.329459251618037],[114.15866796262759,22.329414001799883],[114.15867995214909,22.329404629217219],[114.15868838942207,22.329414004087543],[114.15871650869138,22.329445247902047],[114.15864954131489,22.329497228295825],[114.15859561116551,22.329539088922555],[114.15858595608248,22.329528298547221],[114.1585967561316,22.329519175803487],[114.15858835189202,22.329509563156989],[114.15860425204627,22.329497223209373],[114.1586277307609,22.329479001589807],[114.15861007835714,22.329459251618037]]]},"properties":{"OBJECTID":175689,"Shape__Length":44.046633562741263,"Shape__Area":73.270213813153418,"GeoRefNo":"3439121157","DateCreate":1114790400000,"BuildingBlockType":"Tower","BuildingCSUID":"3439121157T20050430","BuildingID":1108227775,"Status":"Active","BuildingNameEN":null,"BuildingNameTC":null,"BaseHeight":3.7999999999999998,"TopHeight":16,"Storeys":3,"StoreysInBasement":null,"DateStamp":1599580800000}},{"type":"Feature","id":175723,"geometry":{"type":"Polygon","coordinates":[[[114.1641257586372,22.329144401756697],[114.1640308906991,22.329037667515795],[114.16404803568118,22.329024278319505],[114.16402598165973,22.328999442202999],[114.1640458935039,22.328984022518064],[114.16405764703225,22.328997230402315],[114.16416291866075,22.329115527749064],[114.1641257586372,22.329144401756697]]]},"properties":{"OBJECTID":175723,"Shape__Length":47.772362616502264,"Shape__Area":85.971579359428176,"GeoRefNo":"3495021114","DateCreate":1114790400000,"BuildingBlockType":"Tower","BuildingCSUID":"3495021114T20050430","BuildingID":1108228102,"Status":"Active","BuildingNameEN":null,"BuildingNameTC":null,"BaseHeight":4.9000000000000004,"TopHeight":24.600000000000001,"Storeys":6,"StoreysInBasement":null,"DateStamp":1599580800000}},{"type":"Feature","id":175880,"geometry":{"type":"Polygon","coordinates":[[[114.16087103739115,22.330710220601858],[114.16076015706174,22.330585809500061],[114.16079314863718,22.330560262362372],[114.1609042438252,22.330684328675506],[114.16087103739115,22.330710220601858]]]},"properties":{"OBJECTID":175880,"Shape__Length":44.663272905978282,"Shape__Area":79.476668811859852,"GeoRefNo":"3461421287","DateCreate":1114790400000,"BuildingBlockType":"Tower","BuildingCSUID":"3461421287T20050430","BuildingID":1108226736,"Status":"Active","BuildingNameEN":null,"BuildingNameTC":null,"BaseHeight":4.4000000000000004,"TopHeight":24.100000000000001,"Storeys":6,"StoreysInBasement":null,"DateStamp":1599580800000}},{"type":"Feature","id":175881,"geometry":{"type":"Polygon","coordinates":[[[114.16083586379381,22.330737644455656],[114.16072484069683,22.330613154208148],[114.16076015706174,22.330585809500061],[114.16087103739115,22.330710220601858],[114.16083586379381,22.330737644455656]]]},"properties":{"OBJECTID":175881,"Shape__Length":45.270328797974102,"Shape__Area":84.699976625367555,"GeoRefNo":"3461121290","DateCreate":1114790400000,"BuildingBlockType":"Tower","BuildingCSUID":"3461121290T20050430","BuildingID":1108226720,"Status":"Active","BuildingNameEN":null,"BuildingNameTC":null,"BaseHeight":4.4000000000000004,"TopHeight":24,"Storeys":6,"StoreysInBasement":null,"DateStamp":1599580800000}},{"type":"Feature","id":175882,"geometry":{"type":"Polygon","coordinates":[[[114.16404958109852,22.330658408791354],[114.16405379325415,22.330655105375421],[114.1640235422484,22.330622420680257],[114.16404281654411,22.330607506932022],[114.16407289156763,22.330640193686833],[114.16408222711168,22.330632894279717],[114.16418619776906,22.330747520554333],[114.16415326006275,22.330773005624039],[114.16404958109852,22.330658408791354]]]},"properties":{"OBJECTID":175882,"Shape__Length":51.556030841631426,"Shape__Area":85.364593317516807,"GeoRefNo":"3495321294","DateCreate":1114790400000,"BuildingBlockType":"Tower","BuildingCSUID":"3495321294T20050430","BuildingID":1108226699,"Status":"Active","BuildingNameEN":null,"BuildingNameTC":null,"BaseHeight":5.5999999999999996,"TopHeight":35.899999999999999,"Storeys":9,"StoreysInBasement":null,"DateStamp":1599580800000}},{"type":"Feature","id":175883,"geometry":{"type":"Polygon","coordinates":[[[114.16169101164523,22.330716843732706],[114.16177757401144,22.330650052853834],[114.16180616570168,22.330681939420298],[114.16172866338738,22.330741811475509],[114.16171974747806,22.33074869917213],[114.16171353308317,22.330741810064975],[114.16169101164523,22.330716843732706]]]},"properties":{"OBJECTID":175883,"Shape__Length":32.361132976457931,"Shape__Area":53.281902276579046,"GeoRefNo":"3471021294","DateCreate":1114790400000,"BuildingBlockType":"Tower","BuildingCSUID":"3471021294T20050430","BuildingID":1108226714,"Status":"Active","BuildingNameEN":null,"BuildingNameTC":null,"BaseHeight":4.2999999999999998,"TopHeight":32.600000000000001,"Storeys":8,"StoreysInBasement":null,"DateStamp":1599580800000}},{"type":"Feature","id":175909,"geometry":{"type":"Polygon","coordinates":[[[114.1588783548427,22.330427067483789],[114.15888910484578,22.330418778238787],[114.15877487982826,22.330291297445651],[114.15883247054923,22.330246940665411],[114.15895089716835,22.330378769204362],[114.15898190608041,22.330354408473358],[114.15894902406845,22.330317789361096],[114.15920669980147,22.330117841485315],[114.1591638387245,22.330070305794518],[114.15910658375046,22.330114593465719],[114.15906405782177,22.330066758872917],[114.15912095603352,22.330022747152089],[114.15907937378989,22.329976630282648],[114.15882342145676,22.330175886859941],[114.15876460374389,22.330110134515845],[114.15893566500819,22.329977543636481],[114.15907762971574,22.329867505436894],[114.15909291782822,22.329867705693221],[114.15933112265139,22.330133320380625],[114.15890767513653,22.330460909041257],[114.1588783548427,22.330427067483789]]]},"properties":{"OBJECTID":175909,"Shape__Length":313.54055720102946,"Shape__Area":1252.6182861092614,"GeoRefNo":"3444121222","DateCreate":1114790400000,"BuildingBlockType":"Tower","BuildingCSUID":"3444121222T20050430","BuildingID":1108226911,"Status":"Active","BuildingNameEN":"Sham Shui Po Police Station","BuildingNameTC":"深水埗警署","BaseHeight":4,"TopHeight":20.100000000000001,"Storeys":null,"StoreysInBasement":null,"DateStamp":1361808000000}},{"type":"Feature","id":175911,"geometry":{"type":"Polygon","coordinates":[[[114.16066510997649,22.330444499527854],[114.16062198019137,22.330396246085524],[114.16057688808736,22.330345797371095],[114.16059594884531,22.330331114922981],[114.16057162991108,22.33030345479261],[114.16058588821905,22.33029250691251],[114.16061036112173,22.330320003512345],[114.16062198749113,22.330333066418969],[114.16069829209671,22.330418799179043],[114.16067434695069,22.330437343983633],[114.16066510997649,22.330444499527854]]]},"properties":{"OBJECTID":175911,"Shape__Length":45.231014570362298,"Shape__Area":70.993209405220199,"GeoRefNo":"3459421258","DateCreate":1114790400000,"BuildingBlockType":"Tower","BuildingCSUID":"3459421258T20050430","BuildingID":1108226929,"Status":"Active","BuildingNameEN":null,"BuildingNameTC":null,"BaseHeight":4.4000000000000004,"TopHeight":35.5,"Storeys":9,"StoreysInBasement":null,"DateStamp":1599580800000}},{"type":"Feature","id":175918,"geometry":{"type":"Polygon","coordinates":[[[114.1620692572355,22.330421767067083],[114.1619818464481,22.33032479266636],[114.16201570665385,22.330298626944177],[114.16210313802731,22.330395595278326],[114.1620876269679,22.33040757754074],[114.16211770031994,22.330441266963064],[114.16210455721229,22.330451419033309],[114.16207428689555,22.330417882839626],[114.1620692572355,22.330421767067083]]]},"properties":{"OBJECTID":175918,"Shape__Length":46.773647080441791,"Shape__Area":72.166083180924574,"GeoRefNo":"3474121259","DateCreate":1114790400000,"BuildingBlockType":"Tower","BuildingCSUID":"3474121259T20050430","BuildingID":1108226923,"Status":"Active","BuildingNameEN":null,"BuildingNameTC":null,"BaseHeight":4.5,"TopHeight":33.899999999999999,"Storeys":8,"StoreysInBasement":null,"DateStamp":1599580800000}},{"type":"Feature","id":176107,"geometry":{"type":"Polygon","coordinates":[[[114.16185721061757,22.330642506600565],[114.16183954928783,22.330656150357513],[114.16182957058439,22.330645006870402],[114.16181374355287,22.330657583379555],[114.1617949028611,22.330636682067258],[114.16176451242687,22.330602979462068],[114.16173623675834,22.330571607118724],[114.1617059602972,22.330538017756396],[114.16174014736232,22.330511594661118],[114.16185721061757,22.330642506600565]]]},"properties":{"OBJECTID":176107,"Shape__Length":46.831349621893487,"Shape__Area":82.231536105405795,"GeoRefNo":"3471321283","DateCreate":1114790400000,"BuildingBlockType":"Tower","BuildingCSUID":"3471321283T20050430","BuildingID":1108226759,"Status":"Active","BuildingNameEN":null,"BuildingNameTC":null,"BaseHeight":4.5,"TopHeight":25.100000000000001,"Storeys":6,"StoreysInBasement":null,"DateStamp":1599580800000}},{"type":"Feature","id":176108,"geometry":{"type":"Polygon","coordinates":[[[114.16107588394266,22.330802375061538],[114.16104589373916,22.330768838162747],[114.16096493440229,22.330678304186058],[114.16098383091717,22.330663705932199],[114.16100951974734,22.330691935872704],[114.16102261648477,22.330681576635236],[114.16102488505433,22.33068411426931],[114.1611006322653,22.330768843484531],[114.16110814988404,22.330777252498116],[114.16107588394266,22.330802375061538]]]},"properties":{"OBJECTID":176108,"Shape__Length":44.38398388641523,"Shape__Area":70.145291708355586,"GeoRefNo":"3463521297","DateCreate":1114790400000,"BuildingBlockType":"Tower","BuildingCSUID":"3463521297T20050430","BuildingID":1108226685,"Status":"Active","BuildingNameEN":null,"BuildingNameTC":null,"BaseHeight":4.5,"TopHeight":28.300000000000001,"Storeys":6,"StoreysInBasement":null,"DateStamp":1599580800000}},{"type":"Feature","id":176111,"geometry":{"type":"Polygon","coordinates":[[[114.16518593238425,22.330725887573262],[114.16505358711204,22.330578084411997],[114.16506908016866,22.330566163091913],[114.16509024869404,22.330589749977989],[114.16511319334509,22.330571758384647],[114.16511889678374,22.330578152629453],[114.16514349964281,22.330558862915172],[114.16511707600107,22.330529232119922],[114.16512713865218,22.330521489213147],[114.16513610043597,22.33053151362536],[114.16514433625846,22.330525171499865],[114.16513516227121,22.330515315312539],[114.1651477564054,22.330505624600303],[114.16517410922253,22.330534863729209],[114.16519641316734,22.330517376526196],[114.16519068060605,22.330510998627307],[114.16521216611704,22.330494151270322],[114.16519229725201,22.330471351959979],[114.16520722094886,22.330459868749497],[114.16533988517696,22.330606011989133],[114.16531102013438,22.330628487871046],[114.16519691337136,22.330717337213684],[114.16518593238425,22.330725887573262]]]},"properties":{"OBJECTID":176111,"Shape__Length":103.53922172742455,"Shape__Area":389.37467386238455,"GeoRefNo":"3506521283","DateCreate":1114790400000,"BuildingBlockType":"Tower","BuildingCSUID":"3506521283T20050430","BuildingID":1108226729,"Status":"Active","BuildingNameEN":null,"BuildingNameTC":"景業大廈","BaseHeight":5.5999999999999996,"TopHeight":43.799999999999997,"Storeys":12,"StoreysInBasement":null,"DateStamp":1599580800000}},{"type":"Feature","id":176112,"geometry":{"type":"Polygon","coordinates":[[[114.16093864107839,22.330657512488692],[114.16082818199888,22.330533138047784],[114.1608602246327,22.330508323002142],[114.16095210028307,22.330610142085494],[114.16097163518167,22.330631791295836],[114.16093864107839,22.330657512488692]]]},"properties":{"OBJECTID":176112,"Shape__Length":44.446614179760516,"Shape__Area":77.949277547776063,"GeoRefNo":"3462121281","DateCreate":1114790400000,"BuildingBlockType":"Tower","BuildingCSUID":"3462121281T20050430","BuildingID":1108226758,"Status":"Active","BuildingNameEN":null,"BuildingNameTC":"森明唐樓","BaseHeight":4.4000000000000004,"TopHeight":24.800000000000001,"Storeys":6,"StoreysInBasement":null,"DateStamp":1599580800000}},{"type":"Feature","id":176113,"geometry":{"type":"Polygon","coordinates":[[[114.16166120161122,22.330683797595682],[114.16174738130154,22.330616380877512],[114.16177757401144,22.330650052853834],[114.16169101164523,22.330716843732706],[114.16166120161122,22.330683797595682]]]},"properties":{"OBJECTID":176113,"Shape__Length":32.818539838223032,"Shape__Area":55.836153544565619,"GeoRefNo":"3470721290","DateCreate":1114790400000,"BuildingBlockType":"Tower","BuildingCSUID":"3470721290T20050430","BuildingID":1108226733,"Status":"Active","BuildingNameEN":null,"BuildingNameTC":null,"BaseHeight":4.2999999999999998,"TopHeight":30.199999999999999,"Storeys":8,"StoreysInBasement":null,"DateStamp":1599580800000}},{"type":"Feature","id":176114,"geometry":{"type":"Polygon","coordinates":[[[114.16114097011689,22.330751706357294],[114.16105832146714,22.330657684562581],[114.1610482538253,22.330646447732835],[114.16103112368786,22.330627152948534],[114.16106475679231,22.330601161874817],[114.16116205520238,22.330709320833822],[114.16117579757734,22.330724597119612],[114.16116205230111,22.330735296217831],[114.16114097011689,22.330751706357294]]]},"properties":{"OBJECTID":176114,"Shape__Length":44.847326240831464,"Shape__Area":81.688785152537321,"GeoRefNo":"3464221291","DateCreate":1114790400000,"BuildingBlockType":"Tower","BuildingCSUID":"3464221291T20050430","BuildingID":1108226711,"Status":"Active","BuildingNameEN":"CHEONG ON HOUSE","BuildingNameTC":"祥安樓","BaseHeight":4.5,"TopHeight":23.899999999999999,"Storeys":6,"StoreysInBasement":null,"DateStamp":1599580800000}},{"type":"Feature","id":176116,"geometry":{"type":"Polygon","coordinates":[[[114.16414444540432,22.330617930611101],[114.16424344117885,22.330539110109687],[114.1642739741596,22.330573316709966],[114.16420314978785,22.330628376083201],[114.16414779075474,22.330671414583787],[114.1641263324814,22.330647316060077],[114.16415239810915,22.33062686627164],[114.16414444540432,22.330617930611101]]]},"properties":{"OBJECTID":176116,"Shape__Length":43.550662687620161,"Shape__Area":77.239582237776901,"GeoRefNo":"3496221284","DateCreate":1114790400000,"BuildingBlockType":"Tower","BuildingCSUID":"3496221284T20050430","BuildingID":1108226753,"Status":"Active","BuildingNameEN":null,"BuildingNameTC":"南昌樓","BaseHeight":5.5,"TopHeight":27.100000000000001,"Storeys":6,"StoreysInBasement":null,"DateStamp":1599580800000}},{"type":"Feature","id":176118,"geometry":{"type":"Polygon","coordinates":[[[114.16201106635688,22.330783768159062],[114.16199783703513,22.330768928077891],[114.16197368396526,22.330741834120911],[114.16192360706815,22.330685659846907],[114.16190855107583,22.330668770099738],[114.16192332180424,22.330657178810942],[114.16191082048766,22.330643458310622],[114.16193227844883,22.330626689681484],[114.16195427162909,22.330651165119914],[114.16203573875208,22.330741839797376],[114.16204789619928,22.330755371336799],[114.16203030962473,22.330768931046446],[114.16201106635688,22.330783768159062]]]},"properties":{"OBJECTID":176118,"Shape__Length":46.913462610505391,"Shape__Area":86.831489532081534,"GeoRefNo":"3473321296","DateCreate":1114790400000,"BuildingBlockType":"Tower","BuildingCSUID":"3473321296T20050430","BuildingID":1108226693,"Status":"Active","BuildingNameEN":null,"BuildingNameTC":null,"BaseHeight":4.5,"TopHeight":27.100000000000001,"Storeys":6,"StoreysInBasement":null,"DateStamp":1599580800000}},{"type":"Feature","id":176119,"geometry":{"type":"Polygon","coordinates":[[[114.1610482538253,22.330646447732835],[114.1610289043051,22.330661911802263],[114.16101163220442,22.330642212070828],[114.16103112368786,22.330627152948534],[114.1610482538253,22.330646447732835]]]},"properties":{"OBJECTID":176119,"Shape__Length":10.824419032089935,"Shape__Area":7.3144064789162773,"GeoRefNo":"3463621289","DateCreate":1114790400000,"BuildingBlockType":"Tower","BuildingCSUID":"3463621289T20050430","BuildingID":1108226757,"Status":"Active","BuildingNameEN":null,"BuildingNameTC":null,"BaseHeight":4.5999999999999996,"TopHeight":9.6999999999999993,"Storeys":null,"StoreysInBasement":null,"DateStamp":1361808000000}},{"type":"Feature","id":176120,"geometry":{"type":"Polygon","coordinates":[[[114.16117579757734,22.330724597119612],[114.16116205520238,22.330709320833822],[114.16106475679231,22.330601161874817],[114.16109816787187,22.330575342263234],[114.1611620621495,22.330647121800368],[114.16120841916891,22.33069919958912],[114.16117579757734,22.330724597119612]]]},"properties":{"OBJECTID":176120,"Shape__Length":44.488651320631718,"Shape__Area":78.895986662855009,"GeoRefNo":"3464521288","DateCreate":1114790400000,"BuildingBlockType":"Tower","BuildingCSUID":"3464521288T20050430","BuildingID":1108226731,"Status":"Active","BuildingNameEN":"CHEONG ON HOUSE","BuildingNameTC":"祥安樓","BaseHeight":4.5,"TopHeight":23.800000000000001,"Storeys":6,"StoreysInBasement":null,"DateStamp":1599580800000}},{"type":"Feature","id":176127,"geometry":{"type":"Polygon","coordinates":[[[114.16284070673332,22.329441921563308],[114.16280455793208,22.329401370398642],[114.16275237429652,22.329342831530994],[114.16277202502226,22.329327450812137],[114.16278559406688,22.329341853781951],[114.16279955225315,22.329331032469053],[114.1628071847279,22.329339427869396],[114.16287559917424,22.329414641463895],[114.16284070673332,22.329441921563308]]]},"properties":{"OBJECTID":176127,"Shape__Length":37.717443416059105,"Shape__Area":61.915297598080286,"GeoRefNo":"3481921148","DateCreate":1114790400000,"BuildingBlockType":"Tower","BuildingCSUID":"3481921148T20050430","BuildingID":1108227867,"Status":"Active","BuildingNameEN":null,"BuildingNameTC":null,"BaseHeight":4.5,"TopHeight":24.199999999999999,"Storeys":6,"StoreysInBasement":null,"DateStamp":1599580800000}},{"type":"Feature","id":176129,"geometry":{"type":"Polygon","coordinates":[[[114.16154746413538,22.329481851172119],[114.16146302757758,22.329387199156365],[114.16145099532228,22.329373711110183],[114.16148695271116,22.32934580197902],[114.16152392444005,22.329387204918689],[114.16158350540002,22.329453926856431],[114.16157529393895,22.329460282079019],[114.16159017301977,22.329477019135791],[114.1615740442307,22.329489509352928],[114.16155929707369,22.329472684078361],[114.16154746413538,22.329481851172119]]]},"properties":{"OBJECTID":176129,"Shape__Length":45.610037622406693,"Shape__Area":80.322464380063664,"GeoRefNo":"3468521153","DateCreate":1114790400000,"BuildingBlockType":"Tower","BuildingCSUID":"3468521153T20050430","BuildingID":1108227824,"Status":"Active","BuildingNameEN":null,"BuildingNameTC":null,"BaseHeight":4.2999999999999998,"TopHeight":33.600000000000001,"Storeys":9,"StoreysInBasement":null,"DateStamp":1599580800000}},{"type":"Feature","id":176130,"geometry":{"type":"Polygon","coordinates":[[[114.16442211244437,22.329505372792745],[114.16430081104629,22.329370463436362],[114.16433709906256,22.329342512970261],[114.1644675520992,22.32948745814338],[114.16445584031129,22.329496436358372],[114.16444656073571,22.329486560887659],[114.16442211244437,22.329505372792745]]]},"properties":{"OBJECTID":176130,"Shape__Length":51.548867283304673,"Shape__Area":96.920299908998558,"GeoRefNo":"3498121155","DateCreate":1114790400000,"BuildingBlockType":"Tower","BuildingCSUID":"3498121155T20050430","BuildingID":1108227806,"Status":"Active","BuildingNameEN":null,"BuildingNameTC":null,"BaseHeight":4.7999999999999998,"TopHeight":25.399999999999999,"Storeys":6,"StoreysInBasement":null,"DateStamp":1599580800000}},{"type":"Feature","id":176131,"geometry":{"type":"Polygon","coordinates":[[[114.16251300240306,22.329489508050628],[114.16242464897168,22.329391710747121],[114.16251177529411,22.329322999161253],[114.1625035726136,22.329314196417297],[114.16253947405377,22.329286365974649],[114.16263769090774,22.329394845454562],[114.16264218720976,22.329399812488308],[114.16251871995466,22.329495836826915],[114.16251300240306,22.329489508050628]]]},"properties":{"OBJECTID":176131,"Shape__Length":65.937753052728908,"Shape__Area":256.63711057759559,"GeoRefNo":"3479121148","DateCreate":1114790400000,"BuildingBlockType":"Tower","BuildingCSUID":"3479121148T20050430","BuildingID":1108227819,"Status":"Active","BuildingNameEN":"Sam Tai Tze & Pak Tai Temples Sham Shui Po","BuildingNameTC":"深水埗三太子及北帝廟","BaseHeight":4.4000000000000004,"TopHeight":10.5,"Storeys":null,"StoreysInBasement":null,"DateStamp":1361808000000}},{"type":"Feature","id":176133,"geometry":{"type":"Polygon","coordinates":[[[114.16148196673734,22.329532601464827],[114.16138491072294,22.329425015244595],[114.16141777057572,22.329399510858636],[114.16151533031415,22.329506754306195],[114.16150684956008,22.329513327769011],[114.16152187550745,22.329529998741961],[114.16150811523426,22.329540679989186],[114.16149268051166,22.329524263909651],[114.16148196673734,22.329532601464827]]]},"properties":{"OBJECTID":176133,"Shape__Length":44.766818298964026,"Shape__Area":73.586500878085147,"GeoRefNo":"3467921158","DateCreate":1114790400000,"BuildingBlockType":"Tower","BuildingCSUID":"3467921158T20050430","BuildingID":1108227773,"Status":"Active","BuildingNameEN":null,"BuildingNameTC":null,"BaseHeight":4.4000000000000004,"TopHeight":36,"Storeys":9,"StoreysInBasement":null,"DateStamp":1599580800000}},{"type":"Feature","id":176142,"geometry":{"type":"Polygon","coordinates":[[[114.16051470760134,22.330347276654255],[114.1605146283076,22.330347188869034],[114.16053169027285,22.33033409642243],[114.16055653534154,22.330361476844089],[114.16057688808736,22.330345797371095],[114.16062198019137,22.330396246085524],[114.16066510997649,22.330444499527854],[114.16065301886952,22.330453868453183],[114.16062827380613,22.330473023457763],[114.16062197212668,22.330466045980739],[114.16054549036937,22.330381363965969],[114.16051470760134,22.330347276654255]]]},"properties":{"OBJECTID":176142,"Shape__Length":46.32106472937101,"Shape__Area":79.798951232782301,"GeoRefNo":"3459021261","DateCreate":1114790400000,"BuildingBlockType":"Tower","BuildingCSUID":"3459021261T20050430","BuildingID":1108226899,"Status":"Active","BuildingNameEN":null,"BuildingNameTC":null,"BaseHeight":4.4000000000000004,"TopHeight":34.700000000000003,"Storeys":9,"StoreysInBasement":null,"DateStamp":1599580800000}},{"type":"Feature","id":176143,"geometry":{"type":"Polygon","coordinates":[[[114.16005547185848,22.330506910148284],[114.16004892972627,22.33049948813893],[114.16002655058496,22.330474113587865],[114.16008805938834,22.330425778797142],[114.16009515324612,22.330420213079112],[114.16010922373509,22.330436498025062],[114.16012210381457,22.330426527333358],[114.16012962166418,22.330434796238041],[114.16013854191826,22.330427776331067],[114.16014619882949,22.330436355178882],[114.16005547185848,22.330506910148284]]]},"properties":{"OBJECTID":176143,"Shape__Length":33.807947136711654,"Shape__Area":49.299252054169614,"GeoRefNo":"3453821268","DateCreate":1114790400000,"BuildingBlockType":"Tower","BuildingCSUID":"3453821268T20050430","BuildingID":1108226869,"Status":"Active","BuildingNameEN":null,"BuildingNameTC":null,"BaseHeight":4.2999999999999998,"TopHeight":25.399999999999999,"Storeys":6,"StoreysInBasement":null,"DateStamp":1599580800000}},{"type":"Feature","id":176144,"geometry":{"type":"Polygon","coordinates":[[[114.16511495389609,22.330493414059664],[114.16498297818467,22.330347637958141],[114.16502252644895,22.330317016966209],[114.16513673260083,22.330442270570089],[114.16511796392248,22.330456599574521],[114.16513622437496,22.330476979304443],[114.16511495389609,22.330493414059664]]]},"properties":{"OBJECTID":176144,"Shape__Length":52.882008336464452,"Shape__Area":105.30169009075976,"GeoRefNo":"3505121262","DateCreate":1114790400000,"BuildingBlockType":"Tower","BuildingCSUID":"3505121262T20050430","BuildingID":1108226876,"Status":"Active","BuildingNameEN":null,"BuildingNameTC":null,"BaseHeight":5.4000000000000004,"TopHeight":25.199999999999999,"Storeys":6,"StoreysInBasement":null,"DateStamp":1599580800000}},{"type":"Feature","id":176341,"geometry":{"type":"Polygon","coordinates":[[[114.16203759163069,22.329953371089076],[114.16213960217802,22.329874229208048],[114.16215760208013,22.329860264591058],[114.1622187664381,22.329927681428629],[114.16213959019834,22.329988627090895],[114.16209727051118,22.330021202520488],[114.16203759163069,22.329953371089076]]]},"properties":{"OBJECTID":176341,"Shape__Length":51.819846461699058,"Shape__Area":157.47725094081147,"GeoRefNo":"3475121208","DateCreate":1114790400000,"BuildingBlockType":"Tower","BuildingCSUID":"3475121208T20050430","BuildingID":1108227319,"Status":"Active","BuildingNameEN":null,"BuildingNameTC":null,"BaseHeight":4.4000000000000004,"TopHeight":24,"Storeys":6,"StoreysInBasement":null,"DateStamp":1599580800000}},{"type":"Feature","id":176347,"geometry":{"type":"Polygon","coordinates":[[[114.16385713889625,22.330466476478868],[114.16390149611141,22.330432112247202],[114.16399838702661,22.330538569106039],[114.16395399699275,22.330572932728987],[114.16385713889625,22.330466476478868]]]},"properties":{"OBJECTID":176347,"Shape__Length":42.787360160471742,"Shape__Area":91.867250476799654,"GeoRefNo":"3493421273","DateCreate":1114790400000,"BuildingBlockType":"Tower","BuildingCSUID":"3493421273T20050430","BuildingID":1108226818,"Status":"Active","BuildingNameEN":null,"BuildingNameTC":null,"BaseHeight":5.4000000000000004,"TopHeight":27.199999999999999,"Storeys":6,"StoreysInBasement":null,"DateStamp":1599580800000}},{"type":"Feature","id":176349,"geometry":{"type":"Polygon","coordinates":[[[114.16533988517696,22.330606011989133],[114.16520722094886,22.330459868749497],[114.16522950524184,22.330442721722353],[114.16525260164633,22.33046846378366],[114.16527275869359,22.33045262865188],[114.16524962178153,22.330427242756677],[114.16527846056083,22.330405052249631],[114.16530175600967,22.33043014258114],[114.16531292289881,22.33042100325207],[114.16536248860739,22.330475210216527],[114.16542295007291,22.330541333243769],[114.16536247935267,22.330588418945553],[114.16533988517696,22.330606011989133]]]},"properties":{"OBJECTID":176349,"Shape__Length":71.990225158387986,"Shape__Area":219.5719241782275,"GeoRefNo":"3507721274","DateCreate":1114790400000,"BuildingBlockType":"Tower","BuildingCSUID":"3507721274T20050430","BuildingID":1108226792,"Status":"Active","BuildingNameEN":null,"BuildingNameTC":"大元樓","BaseHeight":5.5999999999999996,"TopHeight":37,"Storeys":9,"StoreysInBasement":null,"DateStamp":1599580800000}},{"type":"Feature","id":176350,"geometry":{"type":"Polygon","coordinates":[[[114.16005547185848,22.330506910148284],[114.16014619882949,22.330436355178882],[114.16015237731119,22.330443284889949],[114.16014346524531,22.330450011936733],[114.16015095125906,22.330458283455993],[114.1601212154024,22.330482380848675],[114.1601366646458,22.330499478415721],[114.16008454590875,22.330539881460975],[114.16006195682611,22.330514270291982],[114.16005547185848,22.330506910148284]]]},"properties":{"OBJECTID":176350,"Shape__Length":33.806387255348383,"Shape__Area":43.090476217723456,"GeoRefNo":"3453921273","DateCreate":1114790400000,"BuildingBlockType":"Tower","BuildingCSUID":"3453921273T20050430","BuildingID":1108226844,"Status":"Active","BuildingNameEN":null,"BuildingNameTC":null,"BaseHeight":4.2999999999999998,"TopHeight":25.399999999999999,"Storeys":6,"StoreysInBasement":null,"DateStamp":1599580800000}},{"type":"Feature","id":176351,"geometry":{"type":"Polygon","coordinates":[[[114.16302749510933,22.329998854520131],[114.16290904524034,22.329867359378746],[114.16293540073019,22.329847031541235],[114.1629540711416,22.329867851162263],[114.16297873008941,22.329848507325327],[114.16295974444455,22.329828255342552],[114.16298480659914,22.329808925084979],[114.16310176769457,22.329941227831483],[114.16302749510933,22.329998854520131]]]},"properties":{"OBJECTID":176351,"Shape__Length":64.112788044670964,"Shape__Area":180.96820783163776,"GeoRefNo":"3483921208","DateCreate":1114790400000,"BuildingBlockType":"Tower","BuildingCSUID":"3483921208T20050430","BuildingID":1108227339,"Status":"Active","BuildingNameEN":null,"BuildingNameTC":null,"BaseHeight":4.5999999999999996,"TopHeight":24.399999999999999,"Storeys":6,"StoreysInBasement":null,"DateStamp":1599580800000}},{"type":"Feature","id":176355,"geometry":{"type":"Polygon","coordinates":[[[114.15996290161692,22.329937803280512],[114.1599345113931,22.329906189401779],[114.15992206451817,22.329892329230102],[114.15996757399519,22.329857362589106],[114.16001101682858,22.329905534243316],[114.16001221389321,22.329906861682559],[114.16003548357681,22.329932664288901],[114.16003904157972,22.329936609667467],[114.16004894876517,22.329947595313403],[114.16007647564534,22.329978118549551],[114.16006520327716,22.329986862419322],[114.16003087282611,22.330013492219283],[114.16001967065054,22.330001018107755],[114.16001551702777,22.329996392844748],[114.15998481893281,22.32996220917369],[114.15996290161692,22.329937803280512]]]},"properties":{"OBJECTID":176355,"Shape__Length":47.135946213205635,"Shape__Area":106.53897046217638,"GeoRefNo":"3452921209","DateCreate":1114790400000,"BuildingBlockType":"Tower","BuildingCSUID":"3452921209T20050430","BuildingID":1108227325,"Status":"Active","BuildingNameEN":null,"BuildingNameTC":null,"BaseHeight":4.2000000000000002,"TopHeight":27.100000000000001,"Storeys":6,"StoreysInBasement":null,"DateStamp":1599580800000}},{"type":"Feature","id":176370,"geometry":{"type":"Polygon","coordinates":[[[114.15867995214909,22.329404629217219],[114.15866796262759,22.329414001799883],[114.15861007835714,22.329459251618037],[114.15855953031897,22.329498766287077],[114.15849447370285,22.329426062657877],[114.15850974492719,22.32941398399333],[114.15851150191725,22.329412594294912],[114.15854399152001,22.329386896111817],[114.15854722756845,22.329384336487227],[114.15861409108835,22.329331449272146],[114.15866400465322,22.329386909607411],[114.15867995214909,22.329404629217219]]]},"properties":{"OBJECTID":176370,"Shape__Length":53.423774993939908,"Shape__Area":170.34744501915117,"GeoRefNo":"3438121152","DateCreate":1114790400000,"BuildingBlockType":"Tower","BuildingCSUID":"3438121152T20050430","BuildingID":1108227812,"Status":"Active","BuildingNameEN":null,"BuildingNameTC":null,"BaseHeight":3.7000000000000002,"TopHeight":36.899999999999999,"Storeys":9,"StoreysInBasement":null,"DateStamp":1599580800000}},{"type":"Feature","id":176371,"geometry":{"type":"Polygon","coordinates":[[[114.16320368428053,22.329483079116279],[114.16319354260362,22.329471663245126],[114.16312303277658,22.329527582524012],[114.16307656813065,22.329475949841662],[114.16308835932918,22.329466760868954],[114.16312681278289,22.329436793606199],[114.16320364402044,22.329376918196928],[114.16325922450055,22.329439563500028],[114.16320368428053,22.329483079116279]]]},"properties":{"OBJECTID":176371,"Shape__Length":52.195335439322214,"Shape__Area":138.33762005864767,"GeoRefNo":"3485921155","DateCreate":1114790400000,"BuildingBlockType":"Tower","BuildingCSUID":"3485921155T20050430","BuildingID":1108227784,"Status":"Active","BuildingNameEN":null,"BuildingNameTC":"南昌閣","BaseHeight":4.2999999999999998,"TopHeight":41.899999999999999,"Storeys":12,"StoreysInBasement":null,"DateStamp":1599580800000}},{"type":"Feature","id":176372,"geometry":{"type":"Polygon","coordinates":[[[114.16158350540002,22.329453926856431],[114.16152392444005,22.329387204918689],[114.16148695271116,22.32934580197902],[114.16152331149067,22.329317574369004],[114.16157288079262,22.329372562470617],[114.1615860854979,22.329387210777032],[114.16162043226396,22.32942531222767],[114.16160771236038,22.329435175049063],[114.16162273375809,22.329451764466221],[114.16160705753525,22.329463925745028],[114.16159197537183,22.329447359709953],[114.16158350540002,22.329453926856431]]]},"properties":{"OBJECTID":176372,"Shape__Length":45.765906815857285,"Shape__Area":81.576858198750429,"GeoRefNo":"3468821149","DateCreate":1114790400000,"BuildingBlockType":"Tower","BuildingCSUID":"3468821149T20050430","BuildingID":1108227849,"Status":"Active","BuildingNameEN":null,"BuildingNameTC":null,"BaseHeight":4.2999999999999998,"TopHeight":33.600000000000001,"Storeys":9,"StoreysInBasement":null,"DateStamp":1599580800000}},{"type":"Feature","id":176381,"geometry":{"type":"Polygon","coordinates":[[[114.16361086191925,22.330443295212781],[114.16348765838819,22.330307087052358],[114.1635317793463,22.330273097309732],[114.16365238787314,22.330411584906308],[114.16361086191925,22.330443295212781]]]},"properties":{"OBJECTID":176381,"Shape__Length":50.886285656642201,"Shape__Area":112.78372299066034,"GeoRefNo":"3489421252","DateCreate":1114790400000,"BuildingBlockType":"Tower","BuildingCSUID":"3489421252T20050430","BuildingID":1108226931,"Status":"Active","BuildingNameEN":"Fook Cheong House","BuildingNameTC":"福昌樓","BaseHeight":5.2999999999999998,"TopHeight":27.699999999999999,"Storeys":6,"StoreysInBasement":null,"DateStamp":1599580800000}},{"type":"Feature","id":176574,"geometry":{"type":"Polygon","coordinates":[[[114.16518233142587,22.329975909118144],[114.16505202914256,22.329830531703635],[114.16509034207782,22.329800975580003],[114.16510553037614,22.329817807337683],[114.16513426088041,22.329849652060876],[114.1651476959339,22.329864543286707],[114.16517137119104,22.329890784703991],[114.16522101278782,22.329945806821012],[114.16518233142587,22.329975909118144]]]},"properties":{"OBJECTID":176574,"Shape__Length":52.222616368016894,"Shape__Area":108.13235422884428,"GeoRefNo":"3505921205","DateCreate":1114790400000,"BuildingBlockType":"Tower","BuildingCSUID":"3505921205T20050430","BuildingID":1108227358,"Status":"Active","BuildingNameEN":null,"BuildingNameTC":null,"BaseHeight":5.2999999999999998,"TopHeight":27.199999999999999,"Storeys":6,"StoreysInBasement":null,"DateStamp":1599580800000}},{"type":"Feature","id":176575,"geometry":{"type":"Polygon","coordinates":[[[114.16176295697078,22.330007857998503],[114.16166174448767,22.329894016982117],[114.16169681582751,22.329867161501987],[114.16180236284283,22.3299837582198],[114.16181006652825,22.32999226836143],[114.16179526094129,22.330003627551655],[114.16178421785158,22.329991572324843],[114.16176295697078,22.330007857998503]]]},"properties":{"OBJECTID":176575,"Shape__Length":45.719609579824343,"Shape__Area":81.214679149729392,"GeoRefNo":"3470721210","DateCreate":1114790400000,"BuildingBlockType":"Tower","BuildingCSUID":"3470721210T20050430","BuildingID":1108227329,"Status":"Active","BuildingNameEN":null,"BuildingNameTC":null,"BaseHeight":4.4000000000000004,"TopHeight":35.700000000000003,"Storeys":9,"StoreysInBasement":null,"DateStamp":1599580800000}},{"type":"Feature","id":176586,"geometry":{"type":"Polygon","coordinates":[[[114.16185721061757,22.330642506600565],[114.16174014736232,22.330511594661118],[114.16177404503256,22.330485397567138],[114.16187127766449,22.330593978817586],[114.16185265041476,22.330608619643719],[114.16187249048896,22.330630702512604],[114.16185721061757,22.330642506600565]]]},"properties":{"OBJECTID":176586,"Shape__Length":46.792027942365493,"Shape__Area":77.710752291286951,"GeoRefNo":"3471621280","DateCreate":1114790400000,"BuildingBlockType":"Tower","BuildingCSUID":"3471621280T20050430","BuildingID":1108226769,"Status":"Active","BuildingNameEN":null,"BuildingNameTC":null,"BaseHeight":4.5,"TopHeight":28.800000000000001,"Storeys":6,"StoreysInBasement":null,"DateStamp":1599580800000}},{"type":"Feature","id":176587,"geometry":{"type":"Polygon","coordinates":[[[114.16048443167627,22.330584419572908],[114.16038569022045,22.330472712395323],[114.16041460413392,22.330450501810887],[114.16042348150619,22.330460610007933],[114.16043167181395,22.330454308664667],[114.16052131887167,22.330555842400823],[114.16048443167627,22.330584419572908]]]},"properties":{"OBJECTID":176587,"Shape__Length":41.914064500085679,"Shape__Area":77.638925784628043,"GeoRefNo":"3457521272","DateCreate":1114790400000,"BuildingBlockType":"Tower","BuildingCSUID":"3457521272T20050430","BuildingID":1108226808,"Status":"Active","BuildingNameEN":null,"BuildingNameTC":null,"BaseHeight":4.4000000000000004,"TopHeight":32.399999999999999,"Storeys":9,"StoreysInBasement":null,"DateStamp":1599580800000}},{"type":"Feature","id":176589,"geometry":{"type":"Polygon","coordinates":[[[114.16113591218699,22.330588877707513],[114.16112738567726,22.33057942872577],[114.16113729151974,22.330571482412047],[114.16112644080408,22.330559654369342],[114.16111657817008,22.330567482656875],[114.1611062894267,22.330556101229575],[114.16116207711704,22.330513113567594],[114.16122641102336,22.330463540434923],[114.16125562528899,22.33049583687658],[114.1611620709256,22.330568547161217],[114.16114603127764,22.330581013140677],[114.16113591218699,22.330588877707513]]]},"properties":{"OBJECTID":176589,"Shape__Length":44.231008830780183,"Shape__Area":73.338471280110596,"GeoRefNo":"3465021276","DateCreate":1114790400000,"BuildingBlockType":"Tower","BuildingCSUID":"3465021276T20050430","BuildingID":1108226805,"Status":"Active","BuildingNameEN":null,"BuildingNameTC":"順興樓","BaseHeight":4.5,"TopHeight":23.899999999999999,"Storeys":6,"StoreysInBasement":null,"DateStamp":1599580800000}},{"type":"Feature","id":176591,"geometry":{"type":"Polygon","coordinates":[[[114.16008454590875,22.330539881460975],[114.1601366646458,22.330499478415721],[114.16015127640713,22.330515663083876],[114.1601816017059,22.330491985668374],[114.16018898067477,22.330500122619167],[114.16019744541671,22.330493720805588],[114.16020442285659,22.330501539928296],[114.16011317157927,22.330572365702789],[114.16010630974301,22.330564590386466],[114.16008454590875,22.330539881460975]]]},"properties":{"OBJECTID":176591,"Shape__Length":33.730475944197522,"Shape__Area":43.32941414468263,"GeoRefNo":"3454321276","DateCreate":1114790400000,"BuildingBlockType":"Tower","BuildingCSUID":"3454321276T20050430","BuildingID":1108226819,"Status":"Active","BuildingNameEN":null,"BuildingNameTC":null,"BaseHeight":4.2999999999999998,"TopHeight":25.399999999999999,"Storeys":6,"StoreysInBasement":null,"DateStamp":1599580800000}},{"type":"Feature","id":176593,"geometry":{"type":"Polygon","coordinates":[[[114.162231195779,22.33061404489959],[114.1621579831785,22.330532988003934],[114.16214279350497,22.330516170781674],[114.16211265749301,22.330482761577574],[114.16213954063087,22.330461954575757],[114.16215384495254,22.330450883384902],[114.16217975773291,22.330479915076726],[114.16227163226593,22.330582847786655],[114.162231195779,22.33061404489959]]]},"properties":{"OBJECTID":176593,"Shape__Length":48.912083571208463,"Shape__Area":103.81731784743157,"GeoRefNo":"3475621277","DateCreate":1114790400000,"BuildingBlockType":"Tower","BuildingCSUID":"3475621277T20050430","BuildingID":1108226783,"Status":"Active","BuildingNameEN":"Cheung Lee Building","BuildingNameTC":"長利樓","BaseHeight":4.7000000000000002,"TopHeight":27,"Storeys":6,"StoreysInBasement":null,"DateStamp":1599580800000}},{"type":"Feature","id":176807,"geometry":{"type":"Polygon","coordinates":[[[114.16101866329078,22.330558634723079],[114.1609272445654,22.330456430386704],[114.16096247717165,22.330429153896944],[114.16105333762027,22.330531804270212],[114.16101866329078,22.330558634723079]]]},"properties":{"OBJECTID":176807,"Shape__Length":38.81713037820596,"Shape__Area":68.971113363145193,"GeoRefNo":"3463121273","DateCreate":1114790400000,"BuildingBlockType":"Tower","BuildingCSUID":"3463121273T20050430","BuildingID":1108226833,"Status":"Active","BuildingNameEN":"SUM MING BUILDING","BuildingNameTC":"森明唐樓","BaseHeight":4.5,"TopHeight":26.300000000000001,"Storeys":6,"StoreysInBasement":null,"DateStamp":1599580800000}},{"type":"Feature","id":176810,"geometry":{"type":"Polygon","coordinates":[[[114.16310062796319,22.330516169233075],[114.16298647248499,22.330389016965785],[114.16305588495851,22.330335181736949],[114.16317024025233,22.330463003229472],[114.16316237624206,22.330469009258053],[114.16317902690243,22.330487760045884],[114.16315987572814,22.330502486498016],[114.16314296055009,22.330483837912098],[114.16313495063433,22.330489955454691],[114.16315177892426,22.330508732539275],[114.16313771921341,22.330519544390224],[114.16312095218534,22.330500646751098],[114.16310062796319,22.330516169233075]]]},"properties":{"OBJECTID":176810,"Shape__Length":66.150884476612092,"Shape__Area":182.84958179421486,"GeoRefNo":"3484621263","DateCreate":1114790400000,"BuildingBlockType":"Tower","BuildingCSUID":"3484621263T20050430","BuildingID":1108226861,"Status":"Active","BuildingNameEN":null,"BuildingNameTC":"更新樓","BaseHeight":4.7999999999999998,"TopHeight":35.100000000000001,"Storeys":10,"StoreysInBasement":null,"DateStamp":1599580800000}},{"type":"Feature","id":176811,"geometry":{"type":"Polygon","coordinates":[[[114.16506884331639,22.330510684868706],[114.16494731915841,22.330375252222279],[114.16498297818467,22.330347637958141],[114.16511495389609,22.330493414059664],[114.16507856195918,22.330521515860301],[114.16506884331639,22.330510684868706]]]},"properties":{"OBJECTID":176811,"Shape__Length":51.855837087554946,"Shape__Area":101.83741862397711,"GeoRefNo":"3504821266","DateCreate":1114790400000,"BuildingBlockType":"Tower","BuildingCSUID":"3504821266T20050430","BuildingID":1108226858,"Status":"Active","BuildingNameEN":"Fwu Shyang Building","BuildingNameTC":"福祥樓","BaseHeight":5.4000000000000004,"TopHeight":25.300000000000001,"Storeys":6,"StoreysInBasement":null,"DateStamp":1599580800000}},{"type":"Feature","id":176814,"geometry":{"type":"Polygon","coordinates":[[[114.16410258378838,22.330598870092292],[114.16421589050171,22.330508243425477],[114.16424344117885,22.330539110109687],[114.16414444540432,22.330617930611101],[114.16413728003148,22.33060987973796],[114.16411147558702,22.330630618342486],[114.16409125267216,22.33060793310668],[114.16410258378838,22.330598870092292]]]},"properties":{"OBJECTID":176814,"Shape__Length":42.733756487646424,"Shape__Area":70.867985362406245,"GeoRefNo":"3495921281","DateCreate":1114790400000,"BuildingBlockType":"Tower","BuildingCSUID":"3495921281T20050430","BuildingID":1108226774,"Status":"Active","BuildingNameEN":null,"BuildingNameTC":"南昌樓","BaseHeight":5.5,"TopHeight":28,"Storeys":6,"StoreysInBasement":null,"DateStamp":1599580800000}},{"type":"Feature","id":176815,"geometry":{"type":"Polygon","coordinates":[[[114.16204108101178,22.329896122571554],[114.16212882622659,22.329828547119206],[114.16213960571757,22.329840428550483],[114.16215760208013,22.329860264591058],[114.16213960217802,22.329874229208048],[114.16203759163069,22.329953371089076],[114.16202492066739,22.329938969223459],[114.16205108462987,22.329919198067298],[114.16203831417138,22.329904826626649],[114.16204463839529,22.329900024739921],[114.16204108101178,22.329896122571554]]]},"properties":{"OBJECTID":176815,"Shape__Length":41.435415134041463,"Shape__Area":64.777426544011817,"GeoRefNo":"3474421204","DateCreate":1114790400000,"BuildingBlockType":"Tower","BuildingCSUID":"3474421204T20050430","BuildingID":1108227378,"Status":"Active","BuildingNameEN":null,"BuildingNameTC":null,"BaseHeight":4.4000000000000004,"TopHeight":33.600000000000001,"Storeys":9,"StoreysInBasement":null,"DateStamp":1599580800000}},{"type":"Feature","id":176816,"geometry":{"type":"Polygon","coordinates":[[[114.16017110162041,22.329863565973167],[114.16019291308146,22.329887798711336],[114.16017791922975,22.329899403727627],[114.16015695879315,22.329915687596085],[114.16014159968456,22.329898632573101],[114.16011955529925,22.329874154984971],[114.1601159994315,22.329870206537944],[114.1600927493526,22.329844390037898],[114.1600917946319,22.32984333001983],[114.16004846146897,22.329795213484807],[114.16008457501778,22.329767465968764],[114.16017110162041,22.329863565973167]]]},"properties":{"OBJECTID":176816,"Shape__Length":44.434054675681388,"Shape__Area":83.900405612476717,"GeoRefNo":"3454121199","DateCreate":1114790400000,"BuildingBlockType":"Tower","BuildingCSUID":"3454121199T20050430","BuildingID":1108227409,"Status":"Active","BuildingNameEN":null,"BuildingNameTC":null,"BaseHeight":4.2000000000000002,"TopHeight":22.399999999999999,"Storeys":6,"StoreysInBasement":null,"DateStamp":1599580800000}},{"type":"Feature","id":176819,"geometry":{"type":"Polygon","coordinates":[[[114.16204108101178,22.329896122571554],[114.16203735660373,22.329891959855551],[114.16203112731385,22.329896738903308],[114.1620205012016,22.329884780718974],[114.16199441909519,22.329904300917864],[114.16198141883223,22.329889524610664],[114.16210075287482,22.329797603988137],[114.16212882622659,22.329828547119206],[114.16204108101178,22.329896122571554]]]},"properties":{"OBJECTID":176819,"Shape__Length":40.892511299933226,"Shape__Area":63.108662742535529,"GeoRefNo":"3474221201","DateCreate":1114790400000,"BuildingBlockType":"Tower","BuildingCSUID":"3474221201T20050430","BuildingID":1108227420,"Status":"Active","BuildingNameEN":null,"BuildingNameTC":null,"BaseHeight":4.2999999999999998,"TopHeight":33.600000000000001,"Storeys":9,"StoreysInBasement":null,"DateStamp":1599580800000}},{"type":"Feature","id":176821,"geometry":{"type":"Polygon","coordinates":[[[114.16313777343628,22.329913298201841],[114.16303863482777,22.329802206405521],[114.16304534441907,22.329796888234032],[114.16304932010242,22.329793738975798],[114.16305720748323,22.329802456687101],[114.16306463756297,22.329796539848434],[114.16304965773683,22.329780528436],[114.16305613852337,22.329775380290481],[114.16304454686536,22.329762847655633],[114.16305510601507,22.329754703419333],[114.16317344668427,22.329885626539816],[114.16313777343628,22.329913298201841]]]},"properties":{"OBJECTID":176821,"Shape__Length":49.90433821134328,"Shape__Area":79.583788144879691,"GeoRefNo":"3484821199","DateCreate":1114790400000,"BuildingBlockType":"Tower","BuildingCSUID":"3484821199T20050430","BuildingID":1108227412,"Status":"Active","BuildingNameEN":null,"BuildingNameTC":null,"BaseHeight":4.5,"TopHeight":34.100000000000001,"Storeys":9,"StoreysInBasement":null,"DateStamp":1599580800000}},{"type":"Feature","id":177035,"geometry":{"type":"Polygon","coordinates":[[[114.16101625760749,22.329804022424472],[114.16096732792855,22.329749178978425],[114.16100229776818,22.329722038633019],[114.16109856540754,22.329829682797577],[114.16109110099329,22.329835468599303],[114.16110630210731,22.32985235527741],[114.16109355688904,22.329862239819157],[114.16107835684461,22.32984534058745],[114.16106343383751,22.32985690035914],[114.16101625760749,22.329804022424472]]]},"properties":{"OBJECTID":177035,"Shape__Length":45.290234367775412,"Shape__Area":77.051611316042312,"GeoRefNo":"3463621194","DateCreate":1114790400000,"BuildingBlockType":"Tower","BuildingCSUID":"3463621194T20050430","BuildingID":1108227455,"Status":"Active","BuildingNameEN":null,"BuildingNameTC":null,"BaseHeight":4.2999999999999998,"TopHeight":33.600000000000001,"Storeys":9,"StoreysInBasement":null,"DateStamp":1599580800000}},{"type":"Feature","id":177036,"geometry":{"type":"Polygon","coordinates":[[[114.16279648305894,22.329869060424969],[114.16270328745077,22.329764965200891],[114.16273571671877,22.329739765473981],[114.16280451644988,22.329816284047553],[114.1628348464881,22.329850016888905],[114.16280451070287,22.329873765963086],[114.16280227934773,22.329875512736155],[114.16279648305894,22.329869060424969]]]},"properties":{"OBJECTID":177036,"Shape__Length":40.587784596673956,"Shape__Area":69.586859483606631,"GeoRefNo":"3481521197","DateCreate":1114790400000,"BuildingBlockType":"Tower","BuildingCSUID":"3481521197T20050430","BuildingID":1108227444,"Status":"Active","BuildingNameEN":"YING WAI BUILDING","BuildingNameTC":"英偉樓","BaseHeight":4.5,"TopHeight":24.100000000000001,"Storeys":6,"StoreysInBasement":null,"DateStamp":1599580800000}},{"type":"Feature","id":177037,"geometry":{"type":"Polygon","coordinates":[[[114.1641513465743,22.329917003279128],[114.16427351349604,22.329820518215001],[114.16428057751119,22.32982842783677],[114.16427150548562,22.329835559307643],[114.16429120693938,22.329857522758545],[114.16417802093963,22.32994632757492],[114.1641513465743,22.329917003279128]]]},"properties":{"OBJECTID":177037,"Shape__Length":41.546986700684919,"Shape__Area":66.723025415107415,"GeoRefNo":"3496321206","DateCreate":1114790400000,"BuildingBlockType":"Tower","BuildingCSUID":"3496321206T20050430","BuildingID":1108227380,"Status":"Active","BuildingNameEN":null,"BuildingNameTC":null,"BaseHeight":5.2000000000000002,"TopHeight":25,"Storeys":6,"StoreysInBasement":null,"DateStamp":1599580800000}}]}