{"type":"FeatureCollection","features":[{"type":"Feature","id":59418,"geometry":{"type":"Polygon","coordinates":[[[114.18402095359728,22.281060019416138],[114.18402727758792,22.28092255089587],[114.18405731636997,22.280923478903929],[114.18405453122976,22.280980147359205],[114.18407332561489,22.28098080900908],[114.18406973877025,22.281061553178141],[114.18402095359728,22.281060019416138]]]},"properties":{"OBJECTID":59418,"Shape__Length":40.533141606491803,"Shape__Area":64.384031781281379,"GeoRefNo":"3700715792","DateCreate":1114790400000,"BuildingBlockType":"Tower","BuildingCSUID":"3700715792T20050430","BuildingID":1103126357,"Status":"Active","BuildingNameEN":null,"BuildingNameTC":null,"BaseHeight":4.2999999999999998,"TopHeight":33.299999999999997,"Storeys":9,"StoreysInBasement":null,"DateStamp":1599580800000}},{"type":"Feature","id":59419,"geometry":{"type":"Polygon","coordinates":[[[114.18406973877025,22.281061553178141],[114.18407332561489,22.28098080900908],[114.18409153314262,22.280981450002887],[114.18409360254229,22.280924599882596],[114.18412549912419,22.280925585229756],[114.18412012082237,22.281063137154408],[114.18406973877025,22.281061553178141]]]},"properties":{"OBJECTID":59419,"Shape__Length":40.851386988350697,"Shape__Area":66.929770735472886,"GeoRefNo":"3701215797","DateCreate":1114790400000,"BuildingBlockType":"Tower","BuildingCSUID":"3701215797T20050430","BuildingID":1103126356,"Status":"Active","BuildingNameEN":null,"BuildingNameTC":null,"BaseHeight":4.2000000000000002,"TopHeight":33.299999999999997,"Storeys":9,"StoreysInBasement":null,"DateStamp":1599580800000}},{"type":"Feature","id":59420,"geometry":{"type":"Polygon","coordinates":[[[114.18412012082237,22.281063137154408],[114.18412549912419,22.280925585229756],[114.18415654404548,22.280926544239609],[114.18415420852295,22.280983656351459],[114.18417233454342,22.280984294540403],[114.18416966592991,22.281052912962924],[114.18416920825642,22.281064680445411],[114.18412012082237,22.281063137154408]]]},"properties":{"OBJECTID":59420,"Shape__Length":40.610163917270214,"Shape__Area":65.332662165167903,"GeoRefNo":"3701615792","DateCreate":1114790400000,"BuildingBlockType":"Tower","BuildingCSUID":"3701615792T20050430","BuildingID":1103126354,"Status":"Active","BuildingNameEN":null,"BuildingNameTC":null,"BaseHeight":4.2000000000000002,"TopHeight":33.299999999999997,"Storeys":9,"StoreysInBasement":null,"DateStamp":1599580800000}},{"type":"Feature","id":60934,"geometry":{"type":"Polygon","coordinates":[[[114.18544830816874,22.279180931062935],[114.18547205610686,22.279166079907839],[114.18545508032832,22.27914315707536],[114.1854678002381,22.279135262627086],[114.18555117109665,22.279251048300068],[114.18552451260229,22.279267802739344],[114.18551555379429,22.279273433190173],[114.18551146112321,22.279267803437889],[114.18544830816874,22.279180931062935]]]},"properties":{"OBJECTID":60934,"Shape__Length":39.837835443702275,"Shape__Area":59.884165949895809,"GeoRefNo":"3715815597","DateCreate":1114790400000,"BuildingBlockType":"Tower","BuildingCSUID":"3715815597T20050430","BuildingID":1103127536,"Status":"Active","BuildingNameEN":null,"BuildingNameTC":null,"BaseHeight":4.2999999999999998,"TopHeight":31.5,"Storeys":6,"StoreysInBasement":null,"DateStamp":1599580800000}},{"type":"Feature","id":60974,"geometry":{"type":"Polygon","coordinates":[[[114.18600413516249,22.27957470418205],[114.1859462677305,22.27942264422046],[114.18604382026869,22.279391273498046],[114.18605483463639,22.279420365797709],[114.18610145453904,22.279543502402017],[114.18600413516249,22.27957470418205]]]},"properties":{"OBJECTID":60974,"Shape__Length":56.980850860519922,"Shape__Area":189.79646336682077,"GeoRefNo":"3721215628","DateCreate":1114790400000,"BuildingBlockType":"Tower","BuildingCSUID":"3721215628T20050430","BuildingID":1103127346,"Status":"Active","BuildingNameEN":"San Kei Tower","BuildingNameTC":"新基商業中心","BaseHeight":4.2999999999999998,"TopHeight":88.799999999999997,"Storeys":20,"StoreysInBasement":null,"DateStamp":1599580800000}},{"type":"Feature","id":60975,"geometry":{"type":"Polygon","coordinates":[[[114.1854678002381,22.279135262627086],[114.18550551586102,22.279111855005375],[114.18558929326619,22.279227089226577],[114.18555117109665,22.279251048300068],[114.1854678002381,22.279135262627086]]]},"properties":{"OBJECTID":60975,"Shape__Length":40.253721081118371,"Shape__Area":72.573480972542981,"GeoRefNo":"3716215595","DateCreate":1114790400000,"BuildingBlockType":"Tower","BuildingCSUID":"3716215595T20050430","BuildingID":1103127551,"Status":"Active","BuildingNameEN":null,"BuildingNameTC":null,"BaseHeight":4.4000000000000004,"TopHeight":31.5,"Storeys":6,"StoreysInBasement":null,"DateStamp":1599580800000}},{"type":"Feature","id":60976,"geometry":{"type":"Polygon","coordinates":[[[114.18577182263741,22.27964918631934],[114.18571580367046,22.279496756099544],[114.1859462677305,22.27942264422046],[114.18600413516249,22.27957470418205],[114.18577182263741,22.27964918631934]]]},"properties":{"OBJECTID":60976,"Shape__Length":86.154175738679655,"Shape__Area":450.3039820131886,"GeoRefNo":"3719315637","DateCreate":1114790400000,"BuildingBlockType":"Tower","BuildingCSUID":"3719315637T20050430","BuildingID":1103127299,"Status":"Active","BuildingNameEN":"McDonald's Building","BuildingNameTC":"麥當勞大廈","BaseHeight":4.2000000000000002,"TopHeight":82.5,"Storeys":19,"StoreysInBasement":null,"DateStamp":1599580800000}},{"type":"Feature","id":60979,"geometry":{"type":"Polygon","coordinates":[[[114.18533274839447,22.279219277999374],[114.18536803952804,22.279267811045031],[114.18541711485163,22.27933530029059],[114.18536987244566,22.279364991278968],[114.18530018351949,22.279267814600004],[114.18528627602234,22.279248421486177],[114.18533274839447,22.279219277999374]]]},"properties":{"OBJECTID":60979,"Shape__Length":42.682546817372454,"Shape__Area":90.382111431839718,"GeoRefNo":"3714415607","DateCreate":1114790400000,"BuildingBlockType":"Tower","BuildingCSUID":"3714415607T20050430","BuildingID":1103127479,"Status":"Active","BuildingNameEN":null,"BuildingNameTC":null,"BaseHeight":4.2000000000000002,"TopHeight":29.199999999999999,"Storeys":6,"StoreysInBasement":null,"DateStamp":1599580800000}},{"type":"Feature","id":60981,"geometry":{"type":"Polygon","coordinates":[[[114.18609744572318,22.279267771040828],[114.18612357303317,22.279336717571812],[114.18597897823678,22.279381245299891],[114.18596637779314,22.279363958025584],[114.18598879451056,22.279357821617261],[114.18597281550282,22.279328487210261],[114.18606536957411,22.279267772868909],[114.18609036442058,22.279251466084542],[114.1860910880538,22.279250993921465],[114.18609230533725,22.279254206140585],[114.18609744572318,22.279267771040828]]]},"properties":{"OBJECTID":60981,"Shape__Length":49.031788655382449,"Shape__Area":116.23365331318446,"GeoRefNo":"3721515604","DateCreate":1114790400000,"BuildingBlockType":"Tower","BuildingCSUID":"3721515604T20050430","BuildingID":1103127466,"Status":"Active","BuildingNameEN":null,"BuildingNameTC":null,"BaseHeight":4.0999999999999996,"TopHeight":23.300000000000001,"Storeys":4,"StoreysInBasement":null,"DateStamp":1599580800000}},{"type":"Feature","id":60983,"geometry":{"type":"Polygon","coordinates":[[[114.18541711485163,22.27933530029059],[114.18536803952804,22.279267811045031],[114.18533274839447,22.279219277999374],[114.18536324864048,22.279200150769782],[114.18543149092952,22.279157797444487],[114.18544830816874,22.279180931062935],[114.18551146112321,22.279267803437889],[114.18551555379429,22.279273433190173],[114.1854185150669,22.279334420271073],[114.18541711485163,22.27933530029059]]]},"properties":{"OBJECTID":60983,"Shape__Length":55.458561061102458,"Shape__Area":189.67252960424483,"GeoRefNo":"3714815604","DateCreate":1114790400000,"BuildingBlockType":"Tower","BuildingCSUID":"3714815604T20050430","BuildingID":1103127500,"Status":"Active","BuildingNameEN":"Pak Tak Building","BuildingNameTC":"八達大廈","BaseHeight":4.2999999999999998,"TopHeight":76.299999999999997,"Storeys":22,"StoreysInBasement":null,"DateStamp":1599580800000}},{"type":"Feature","id":61320,"geometry":{"type":"Polygon","coordinates":[[[114.18646703484775,22.278681393817415],[114.18647283274395,22.27871348556652],[114.18628535530435,22.278743881084509],[114.18627592593865,22.278691465905279],[114.1862587961008,22.278596245128011],[114.18646892477872,22.278563184258111],[114.18647953881005,22.278623274316523],[114.18648916584492,22.278677707820517],[114.18646703484775,22.278681393817415]]]},"properties":{"OBJECTID":61320,"Shape__Length":76.923801533774366,"Shape__Area":354.11928775282149,"GeoRefNo":"3724515527","DateCreate":1121011200000,"BuildingBlockType":"Podium","BuildingCSUID":"3724515527P20050711","BuildingID":1103118076,"Status":"Active","BuildingNameEN":"KESWICK COURT","BuildingNameTC":"敬誠閣","BaseHeight":4.2999999999999998,"TopHeight":11.699999999999999,"Storeys":2,"StoreysInBasement":null,"DateStamp":1599580800000}},{"type":"Feature","id":66605,"geometry":{"type":"Polygon","coordinates":[[[114.18298049252422,22.278465001403905],[114.18294488505715,22.278546565862381],[114.18293673165971,22.278543482747722],[114.18295463576939,22.278502470415958],[114.18286926538001,22.278457476826539],[114.18282008709309,22.278331027565102],[114.18303422721543,22.278274881269617],[114.18299934812008,22.278163510694807],[114.18298885253273,22.278129997755528],[114.18322685159447,22.278066052068798],[114.18333678185235,22.278036515789566],[114.18333697311064,22.278036730530527],[114.18334339700196,22.278043942593751],[114.18338037167607,22.278085453604533],[114.18338644012807,22.27809226652607],[114.18338645798273,22.278092286663657],[114.18334403602746,22.27819216716189],[114.18319433522468,22.278544629676063],[114.18298049252422,22.278465001403905]]]},"properties":{"OBJECTID":66605,"Shape__Length":203.14153812382685,"Shape__Area":1765.8413690628638,"GeoRefNo":"3689815497","DateCreate":1121097600000,"BuildingBlockType":"Podium","BuildingCSUID":"3689815497P20050712","BuildingID":1103118095,"Status":"Active","BuildingNameEN":"LEE THEATRE PLAZA","BuildingNameTC":"利舞臺廣場","BaseHeight":4.5,"TopHeight":20.800000000000001,"Storeys":1,"StoreysInBasement":2,"DateStamp":1599580800000}},{"type":"Feature","id":67040,"geometry":{"type":"Polygon","coordinates":[[[114.18602196515565,22.281991481767523],[114.18597212861968,22.281974324477485],[114.18596508666501,22.281992012277449],[114.18600211145694,22.282005004281132],[114.18599213090003,22.2820311536831],[114.18598166722768,22.282027798669716],[114.18597238281814,22.28205294274078],[114.18594741359239,22.282045774001013],[114.18595157910214,22.282032916760425],[114.18592170505191,22.282023351651802],[114.18591714496267,22.282035631765787],[114.18588617471001,22.282025872192108],[114.18590572244901,22.281974369654751],[114.18588358120003,22.281967285093085],[114.18585938000676,22.282030968047184],[114.18578638373485,22.282007872086176],[114.18579552440815,22.281983317914698],[114.18585531595528,22.281824181248918],[114.18586471494069,22.281798620323311],[114.18588266654434,22.281804308623855],[114.18593681249448,22.281821825029009],[114.18592953629734,22.281842415287322],[114.18606135820453,22.281885438553541],[114.18602196515565,22.281991481767523]]]},"properties":{"OBJECTID":67040,"Shape__Length":116.55179172778242,"Shape__Area":447.77664922038838,"GeoRefNo":"3720015895","DateCreate":1114790400000,"BuildingBlockType":"Tower","BuildingCSUID":"3720015895T20050430","BuildingID":1103125607,"Status":"Active","BuildingNameEN":"Clarke Mansion","BuildingNameTC":"嘉賓大廈","BaseHeight":4.0999999999999996,"TopHeight":50.399999999999999,"Storeys":15,"StoreysInBasement":null,"DateStamp":1599580800000}},{"type":"Feature","id":69013,"geometry":{"type":"Polygon","coordinates":[[[114.18576099054444,22.28267364453572],[114.18583525532404,22.282471416514127],[114.18583531985304,22.282471436468246],[114.18594771718051,22.282506110813195],[114.18592483911279,22.282568759871396],[114.18594927165258,22.282576171839317],[114.185972018817,22.282513607763391],[114.18604214084111,22.282535239304469],[114.18602128218502,22.28259186257003],[114.18597646023471,22.282712965919504],[114.1859667585374,22.282739697145743],[114.18590738460442,22.282720725306721],[114.18589390432942,22.282716648818617],[114.18591791295994,22.28265516456425],[114.18589363920496,22.282647003581932],[114.18587005634885,22.282708439946695],[114.18585695003972,22.282704258589032],[114.18576099054444,22.28267364453572]]]},"properties":{"OBJECTID":69013,"Shape__Length":121.654296954834,"Shape__Area":495.61883064163601,"GeoRefNo":"3720515973","DateCreate":1114790400000,"BuildingBlockType":"Tower","BuildingCSUID":"3720515973T20050430","BuildingID":1103124996,"Status":"Active","BuildingNameEN":"Marco Polo Mansion","BuildingNameTC":"海威大廈","BaseHeight":4.0999999999999996,"TopHeight":51.700000000000003,"Storeys":16,"StoreysInBasement":1,"DateStamp":1599580800000}},{"type":"Feature","id":69021,"geometry":{"type":"Polygon","coordinates":[[[114.18576099054444,22.28267364453572],[114.1856550025894,22.282639830965547],[114.18567788307259,22.28257954815281],[114.18565566019669,22.282571916669784],[114.18563257043196,22.282632674411911],[114.18556376680385,22.282610671554455],[114.18557375966043,22.282583759723448],[114.18558838022246,22.282543623179816],[114.18559626773936,22.282521718045029],[114.18560635760633,22.282494625593788],[114.18562905986059,22.282434751252119],[114.1856390690878,22.282407788934407],[114.18570874697309,22.282432388923421],[114.18568568316115,22.28249620878054],[114.18570817097603,22.282503030738905],[114.1857311702572,22.282439306426298],[114.18583525532404,22.282471416514127],[114.18576099054444,22.28267364453572]]]},"properties":{"OBJECTID":69021,"Shape__Length":119.45378586359469,"Shape__Area":471.48019675052137,"GeoRefNo":"3717615969","DateCreate":1114790400000,"BuildingBlockType":"Tower","BuildingCSUID":"3717615969T20050430","BuildingID":1103125057,"Status":"Active","BuildingNameEN":"Highland Mansion","BuildingNameTC":"海倫大廈","BaseHeight":4.0999999999999996,"TopHeight":51.700000000000003,"Storeys":16,"StoreysInBasement":1,"DateStamp":1599580800000}},{"type":"Feature","id":69022,"geometry":{"type":"Polygon","coordinates":[[[114.1859118129138,22.282293410928197],[114.18586205003358,22.282277818068227],[114.18585677684906,22.282291943359262],[114.18589273141365,22.282303266043641],[114.18588269779015,22.282330231539429],[114.18587222915934,22.282327030852969],[114.18586221242455,22.282354158085148],[114.1858365858775,22.282346029228027],[114.18584152649034,22.282332794647782],[114.18581151303523,22.282323108877694],[114.1858066802919,22.282335875393265],[114.1857737756075,22.282324607699028],[114.18579348418767,22.282272682715064],[114.18577154564024,22.282264682420742],[114.18574708637452,22.282329044112583],[114.18567659853792,22.282306694256967],[114.18570094991149,22.28224049836907],[114.18570861428731,22.282219727488052],[114.18572006235836,22.282189022700191],[114.18574142714263,22.282131413658504],[114.18575227215061,22.282102507442573],[114.18582429833771,22.282125869334305],[114.18580072848145,22.282187890877399],[114.18582293449006,22.282195090225954],[114.18583303945724,22.282168466448713],[114.18584246238713,22.282143639985748],[114.18587294353451,22.28215371115181],[114.1858636906133,22.282178544380027],[114.18593091485509,22.282200647259597],[114.18592000062154,22.282229979556387],[114.1858841548453,22.282218605397265],[114.18587870965355,22.282233191622357],[114.18592839585395,22.282248646041992],[114.1859118129138,22.282293410928197]]]},"properties":{"OBJECTID":69022,"Shape__Length":135.75122070247025,"Shape__Area":401.44207098978904,"GeoRefNo":"3718815934","DateCreate":1114790400000,"BuildingBlockType":"Tower","BuildingCSUID":"3718815934T20050430","BuildingID":1103125322,"Status":"Active","BuildingNameEN":"Newtown Mansion","BuildingNameTC":"新唐大廈","BaseHeight":4.0999999999999996,"TopHeight":50.5,"Storeys":15,"StoreysInBasement":null,"DateStamp":1599580800000}},{"type":"Feature","id":69023,"geometry":{"type":"Polygon","coordinates":[[[114.1859118129138,22.282293410928197],[114.18592839585395,22.282248646041992],[114.18597500844997,22.282263144546171],[114.18598025571866,22.282249098993194],[114.18594504464525,22.282237926194949],[114.18595584177032,22.282208843058335],[114.18602631937044,22.282232015574753],[114.18603542566535,22.282207446220927],[114.18605857915185,22.282214993162974],[114.18604916205813,22.282239526051949],[114.18603943489325,22.282264866748264],[114.18606529731524,22.282272816572846],[114.18608784056055,22.28221101106336],[114.18615506854448,22.282231713198225],[114.18608938814513,22.282408265882882],[114.1860790073225,22.282436080831815],[114.18601402070833,22.282413397940225],[114.18603677103231,22.28235102503238],[114.18600945201233,22.282342976219642],[114.18599042433414,22.282392546001219],[114.18596947788767,22.282385376315638],[114.18597331714484,22.282375012180935],[114.18594249780361,22.282365329460625],[114.18593781169203,22.282378138506068],[114.18590857015344,22.282368862972429],[114.18591875200127,22.282341254575933],[114.18590791404979,22.282337941029517],[114.18591785045386,22.282311176559606],[114.18595293626446,22.28232222565099],[114.18595826357675,22.282307965977978],[114.1859118129138,22.282293410928197]]]},"properties":{"OBJECTID":69023,"Shape__Length":132.31231053041358,"Shape__Area":374.71459771728604,"GeoRefNo":"3721715940","DateCreate":1114790400000,"BuildingBlockType":"Tower","BuildingCSUID":"3721715940T20050430","BuildingID":1103125267,"Status":"Active","BuildingNameEN":"Victoria Park Mansion","BuildingNameTC":"維德大廈","BaseHeight":4.0999999999999996,"TopHeight":51.899999999999999,"Storeys":15,"StoreysInBasement":null,"DateStamp":1599580800000}},{"type":"Feature","id":69366,"geometry":{"type":"Polygon","coordinates":[[[114.18478837792736,22.279528559376232],[114.18476877018017,22.27954102081161],[114.18475047144362,22.279552650458868],[114.1847332795105,22.279563576563451],[114.18471397448319,22.279575845715097],[114.1846960668604,22.279587226633424],[114.18467848243752,22.279598402267702],[114.18466010509273,22.279610081847959],[114.18464170998863,22.279621772624942],[114.18455724174736,22.279507881531622],[114.18459497408077,22.27948381371105],[114.18463028272717,22.27946138262077],[114.18466701671325,22.279438046042099],[114.1847038510147,22.279414645693876],[114.18474883112007,22.279475219585429],[114.18478837792736,22.279528559376232]]]},"properties":{"OBJECTID":69366,"Shape__Length":67.257391193319677,"Shape__Area":280.58811256952555,"GeoRefNo":"3707115628","DateCreate":1114790400000,"BuildingBlockType":"Tower","BuildingCSUID":"3707115628T20050430","BuildingID":1103127317,"Status":"Active","BuildingNameEN":"Capitol Centre Tower II","BuildingNameTC":"京華中心二座","BaseHeight":4,"TopHeight":88.299999999999997,"Storeys":null,"StoreysInBasement":null,"DateStamp":1369238400000}},{"type":"Feature","id":69367,"geometry":{"type":"Polygon","coordinates":[[[114.18312843533448,22.279603780194545],[114.18311097393521,22.279643555867192],[114.18294457267758,22.279580886880616],[114.18294365696985,22.279580542035028],[114.18294221863822,22.279580000341177],[114.18294433043123,22.279575183048095],[114.18295970287522,22.279540117311242],[114.18295974430383,22.27954002284919],[114.18295985044959,22.279539852888558],[114.18312843533448,22.279603780194545]]]},"properties":{"OBJECTID":69367,"Shape__Length":47.0834693390117,"Shape__Area":89.69225551820071,"GeoRefNo":"3689915634","DateCreate":1114790400000,"BuildingBlockType":"Tower","BuildingCSUID":"3689915634T20050430","BuildingID":1103127305,"Status":"Active","BuildingNameEN":null,"BuildingNameTC":null,"BaseHeight":4.0999999999999996,"TopHeight":32.299999999999997,"Storeys":9,"StoreysInBasement":null,"DateStamp":1599580800000}},{"type":"Feature","id":69372,"geometry":{"type":"Polygon","coordinates":[[[114.18311097393521,22.279643555867192],[114.18309327637353,22.279683869411695],[114.18292480492674,22.279619722350134],[114.18294057032185,22.279583760309645],[114.18294221863822,22.279580000341177],[114.18294365696985,22.279580542035028],[114.18294457267758,22.279580886880616],[114.18311097393521,22.279643555867192]]]},"properties":{"OBJECTID":69372,"Shape__Length":47.093854586884198,"Shape__Area":89.795928907412915,"GeoRefNo":"3689715638","DateCreate":1114790400000,"BuildingBlockType":"Tower","BuildingCSUID":"3689715638T20050430","BuildingID":1103127278,"Status":"Active","BuildingNameEN":null,"BuildingNameTC":null,"BaseHeight":4.2000000000000002,"TopHeight":32.299999999999997,"Storeys":9,"StoreysInBasement":null,"DateStamp":1599580800000}},{"type":"Feature","id":69422,"geometry":{"type":"Polygon","coordinates":[[[114.18245124368745,22.279459837626856],[114.18242953862236,22.279451245001955],[114.18241203981005,22.279491676857997],[114.18232907428852,22.279460702070949],[114.18233773443993,22.279441814376963],[114.18219241169398,22.279387960423641],[114.18221094097579,22.279345940428438],[114.18218519727709,22.27933482113184],[114.18221388397792,22.279267946314825],[114.18221531284013,22.279264615496871],[114.18222425291124,22.279267945970524],[114.18248975402281,22.279366852677406],[114.18245124368745,22.279459837626856]]]},"properties":{"OBJECTID":69422,"Shape__Length":92.69019044205173,"Shape__Area":413.50946962863071,"GeoRefNo":"3682815604","DateCreate":1114790400000,"BuildingBlockType":"Tower","BuildingCSUID":"3682815604T20050430","BuildingID":1103127399,"Status":"Active","BuildingNameEN":"Tang Fai Building","BuildingNameTC":"登輝大廈","BaseHeight":3.8999999999999999,"TopHeight":53.399999999999999,"Storeys":17,"StoreysInBasement":null,"DateStamp":1599580800000}},{"type":"Feature","id":69425,"geometry":{"type":"Polygon","coordinates":[[[114.18432715798474,22.279538830477183],[114.18429644530522,22.279557774108888],[114.18425314245717,22.279495090007178],[114.18423190752651,22.279487110240293],[114.18422357117612,22.279510530407656],[114.18425418931072,22.279522158847172],[114.184242908234,22.279549336256999],[114.18417030835461,22.279522814493667],[114.18420276223763,22.279449307506997],[114.18428369706693,22.279478041379999],[114.18432715798474,22.279538830477183]]]},"properties":{"OBJECTID":69425,"Shape__Length":57.626377923032514,"Shape__Area":91.033198682812753,"GeoRefNo":"3702315626","DateCreate":1114790400000,"BuildingBlockType":"Tower","BuildingCSUID":"3702315626T20050430","BuildingID":1103127359,"Status":"Active","BuildingNameEN":null,"BuildingNameTC":null,"BaseHeight":4.7000000000000002,"TopHeight":23.600000000000001,"Storeys":5,"StoreysInBasement":1,"DateStamp":1599580800000}},{"type":"Feature","id":69426,"geometry":{"type":"Polygon","coordinates":[[[114.18432715798474,22.279538830477183],[114.18428369706693,22.279478041379999],[114.18420276223763,22.279449307506997],[114.18422627807472,22.279396044723068],[114.18427048103432,22.279368647266679],[114.18429286246592,22.279400126865436],[114.18426358228753,22.279418898933567],[114.18425474389058,22.279438420147422],[114.18428116491337,22.279448681896415],[114.18429225013585,22.279441085084773],[114.18429769352797,22.279448184271086],[114.18430631628223,22.279442658026291],[114.18435993970105,22.279518610624091],[114.18432715798474,22.279538830477183]]]},"properties":{"OBJECTID":69426,"Shape__Length":59.583116152859709,"Shape__Area":98.230540791302701,"GeoRefNo":"3702615618","DateCreate":1114790400000,"BuildingBlockType":"Tower","BuildingCSUID":"3702615618T20050430","BuildingID":1103127367,"Status":"Active","BuildingNameEN":null,"BuildingNameTC":null,"BaseHeight":4.7000000000000002,"TopHeight":23.300000000000001,"Storeys":5,"StoreysInBasement":1,"DateStamp":1599580800000}},{"type":"Feature","id":69482,"geometry":{"type":"Polygon","coordinates":[[[114.18429286246592,22.279400126865436],[114.18427048103432,22.279368647266679],[114.1843262868763,22.27933405825528],[114.18439841906604,22.27943583454195],[114.1844275357634,22.279476917169518],[114.18438920236339,22.27950056135197],[114.18432944510197,22.279414614839254],[114.18431123210695,22.279425963941616],[114.18429286246592,22.279400126865436]]]},"properties":{"OBJECTID":69482,"Shape__Length":51.805647829056177,"Shape__Area":105.69771590105645,"GeoRefNo":"3703415612","DateCreate":1114790400000,"BuildingBlockType":"Tower","BuildingCSUID":"3703415612T20050430","BuildingID":1103127389,"Status":"Active","BuildingNameEN":null,"BuildingNameTC":null,"BaseHeight":4.7000000000000002,"TopHeight":23.300000000000001,"Storeys":5,"StoreysInBasement":null,"DateStamp":1599580800000}},{"type":"Feature","id":69483,"geometry":{"type":"Polygon","coordinates":[[[114.18386630155594,22.279409550514824],[114.18389279369619,22.279348879365319],[114.18392989080444,22.279362691192642],[114.18393662217632,22.279348631186771],[114.18392390617481,22.279343762332243],[114.18395457830992,22.279273348284626],[114.18398810107104,22.279285920168299],[114.1839846061697,22.279293479779895],[114.18399172875566,22.279296365387072],[114.18393175830131,22.279434126624526],[114.18386630155594,22.279409550514824]]]},"properties":{"OBJECTID":69483,"Shape__Length":52.074978425932514,"Shape__Area":95.327510343899107,"GeoRefNo":"3699215614","DateCreate":1114790400000,"BuildingBlockType":"Tower","BuildingCSUID":"3699215614T20050430","BuildingID":1103127434,"Status":"Active","BuildingNameEN":null,"BuildingNameTC":null,"BaseHeight":5.7999999999999998,"TopHeight":22.100000000000001,"Storeys":5,"StoreysInBasement":null,"DateStamp":1599580800000}},{"type":"Feature","id":70006,"geometry":{"type":"Polygon","coordinates":[[[114.18386473698261,22.277260304867752],[114.18383129531074,22.277276218664561],[114.18379910070611,22.277218500526313],[114.18383118590795,22.277199232904696],[114.18384102608626,22.277217144666512],[114.18385204238447,22.277237197180643],[114.18386473698261,22.277260304867752]]]},"properties":{"OBJECTID":70006,"Shape__Length":22.602931954679754,"Shape__Area":28.807407199971106,"GeoRefNo":"3698415375","DateCreate":1203436800000,"BuildingBlockType":"Open-sided Structure","BuildingCSUID":"3698415375T20080220","BuildingID":1103129017,"Status":"Active","BuildingNameEN":"LAI YEE BUILDING","BuildingNameTC":"禮怡大廈","BaseHeight":null,"TopHeight":null,"Storeys":null,"StoreysInBasement":null,"DateStamp":1285516800000}},{"type":"Feature","id":70240,"geometry":{"type":"Polygon","coordinates":[[[114.17985863430684,22.279743364202204],[114.17990776112264,22.2796301247602],[114.1800413744551,22.279679573766408],[114.18017597694036,22.279729388563446],[114.18020329458618,22.279739498519973],[114.18015336117331,22.279853894710545],[114.1800500871765,22.279815128262779],[114.18003263112155,22.279856269487357],[114.17987770235807,22.279798903987103],[114.17989579876267,22.279757546212089],[114.17985863430684,22.279743364202204]]]},"properties":{"OBJECTID":70240,"Shape__Length":102.61573909589184,"Shape__Area":530.1480879961382,"GeoRefNo":"3659015653","DateCreate":1114790400000,"BuildingBlockType":"Tower","BuildingCSUID":"3659015653T20050430","BuildingID":1103127188,"Status":"Active","BuildingNameEN":"Golden Jubilee House","BuildingNameTC":"金禧大廈","BaseHeight":3.6000000000000001,"TopHeight":48,"Storeys":15,"StoreysInBasement":null,"DateStamp":1599580800000}},{"type":"Feature","id":70245,"geometry":{"type":"Polygon","coordinates":[[[114.18314602042727,22.279563722939713],[114.18312843533448,22.279603780194545],[114.18295985044959,22.279539852888558],[114.18297748806593,22.279499547848953],[114.18314602042727,22.279563722939713]]]},"properties":{"OBJECTID":70245,"Shape__Length":47.13791520797033,"Shape__Area":90.165993830396303,"GeoRefNo":"3689815629","DateCreate":1114790400000,"BuildingBlockType":"Tower","BuildingCSUID":"3689815629T20050430","BuildingID":1103127332,"Status":"Active","BuildingNameEN":null,"BuildingNameTC":null,"BaseHeight":4.0999999999999996,"TopHeight":32.299999999999997,"Storeys":6,"StoreysInBasement":null,"DateStamp":1599580800000}},{"type":"Feature","id":70246,"geometry":{"type":"Polygon","coordinates":[[[114.18047414639078,22.279463659573331],[114.18046923870456,22.279475040184725],[114.18043996683006,22.279542920176183],[114.18041961243516,22.279590121066697],[114.18041797606875,22.27958951270876],[114.18033606005343,22.279559061109083],[114.18034297037825,22.279542922305275],[114.1803860569031,22.279442294223816],[114.18039012123988,22.279432802030261],[114.18047414639078,22.279463659573331]]]},"properties":{"OBJECTID":70246,"Shape__Length":48.721314574384813,"Shape__Area":140.01001586295675,"GeoRefNo":"3663315627","DateCreate":1114790400000,"BuildingBlockType":"Tower","BuildingCSUID":"3663315627T20050430","BuildingID":1103127340,"Status":"Active","BuildingNameEN":null,"BuildingNameTC":null,"BaseHeight":3.8999999999999999,"TopHeight":23.199999999999999,"Storeys":6,"StoreysInBasement":null,"DateStamp":1599580800000}},{"type":"Feature","id":70516,"geometry":{"type":"Polygon","coordinates":[[[114.18395099212823,22.276574456843552],[114.18391422626021,22.276541830201104],[114.18391977903006,22.276536631018089],[114.18392578675204,22.276531005749327],[114.18393983381299,22.276517890113947],[114.18394709791716,22.276511107693167],[114.18398294807044,22.276542921791506],[114.18395099212823,22.276574456843552]]]},"properties":{"OBJECTID":70516,"Shape__Length":19.941782281038815,"Shape__Area":24.821097669572588,"GeoRefNo":"3699715298","DateCreate":1203436800000,"BuildingBlockType":"Open-sided Structure","BuildingCSUID":"3699715298T20080220","BuildingID":1103129446,"Status":"Active","BuildingNameEN":null,"BuildingNameTC":null,"BaseHeight":null,"TopHeight":null,"Storeys":null,"StoreysInBasement":null,"DateStamp":1285516800000}},{"type":"Feature","id":72010,"geometry":{"type":"Polygon","coordinates":[[[114.18670176962728,22.278798818573321],[114.18671215713476,22.27879713526227],[114.18671996345152,22.278838861217437],[114.18670955545966,22.278840434807961],[114.18670176962728,22.278798818573321]]]},"properties":{"OBJECTID":72010,"Shape__Length":11.541011960097377,"Shape__Area":5.0896103242538144,"GeoRefNo":"3728215550","DateCreate":1525017600000,"BuildingBlockType":"Tower","BuildingCSUID":"3728215550T20180430","BuildingID":1810174383,"Status":"Active","BuildingNameEN":null,"BuildingNameTC":null,"BaseHeight":4,"TopHeight":19.5,"Storeys":null,"StoreysInBasement":null,"DateStamp":1525017600000}},{"type":"Feature","id":73319,"geometry":{"type":"Polygon","coordinates":[[[114.18191394319081,22.279299444742211],[114.18192706290897,22.279267955576394],[114.18193074456346,22.279259119161114],[114.18194139250407,22.279233562569338],[114.18195269612522,22.279206432186609],[114.18196394734937,22.27917942769179],[114.18196699621265,22.279172109978173],[114.18200753708646,22.279187212704596],[114.18205072620091,22.27920330202334],[114.18208879953619,22.279217485489713],[114.18213020442074,22.279232910099719],[114.18211534248177,22.279267949553915],[114.18209051729602,22.279326479014998],[114.18207639281287,22.279359779772431],[114.18203623506837,22.279344864888515],[114.18199723406677,22.279330379635624],[114.18198462652562,22.279325697108451],[114.18195587797756,22.279315019649744],[114.18191394319081,22.279299444742211]]]},"properties":{"OBJECTID":73319,"Shape__Length":66.37026509721062,"Shape__Area":273.11716188229281,"GeoRefNo":"3679915595","DateCreate":1125417600000,"BuildingBlockType":"Podium","BuildingCSUID":"3679915595P20050831","BuildingID":1103117987,"Status":"Active","BuildingNameEN":"CIRCLE TOWER","BuildingNameTC":"永光中心","BaseHeight":3.8999999999999999,"TopHeight":18.800000000000001,"Storeys":4,"StoreysInBasement":1,"DateStamp":1599580800000}},{"type":"Feature","id":73320,"geometry":{"type":"Polygon","coordinates":[[[114.18191394319081,22.279299444742211],[114.1817591878544,22.279244582243933],[114.18148801713281,22.279148448716096],[114.18147840041537,22.278993421183134],[114.18181337749537,22.279121746649412],[114.18196394734937,22.27917942769179],[114.18195269612522,22.279206432186609],[114.18194139250407,22.279233562569338],[114.18193074456346,22.279259119161114],[114.18192706290897,22.279267955576394],[114.18191394319081,22.279299444742211]]]},"properties":{"OBJECTID":73320,"Shape__Length":132.53498645881137,"Shape__Area":754.07484113696137,"GeoRefNo":"3676815588","DateCreate":1448467200000,"BuildingBlockType":"Podium","BuildingCSUID":"3676815588P20151126","BuildingID":1810147440,"Status":"Active","BuildingNameEN":null,"BuildingNameTC":null,"BaseHeight":3.8999999999999999,"TopHeight":42.5,"Storeys":8,"StoreysInBasement":1,"DateStamp":1599580800000}},{"type":"Feature","id":75052,"geometry":{"type":"Polygon","coordinates":[[[114.18487519537729,22.277535558016496],[114.18477809473434,22.277499400411319],[114.18481441098668,22.277415171105389],[114.18501444294009,22.277318159506006],[114.18506018744831,22.277399429530888],[114.18506530576711,22.277408522765555],[114.1849847549413,22.277448247112982],[114.18499186352911,22.277460303654724],[114.18495831948945,22.277476506307671],[114.18492834199904,22.277490986181],[114.18491756325021,22.277496192611927],[114.18490116631256,22.277531642215379],[114.18489580534808,22.277543232586918],[114.18487519537729,22.277535558016496]]]},"properties":{"OBJECTID":75052,"Shape__Length":82.874960136076865,"Shape__Area":354.36905578842874,"GeoRefNo":"3709315392","DateCreate":1114790400000,"BuildingBlockType":"Tower","BuildingCSUID":"3709315392T20050430","BuildingID":1103128821,"Status":"Active","BuildingNameEN":"Bright Star Mansion","BuildingNameTC":"星輝大廈","BaseHeight":7,"TopHeight":37.100000000000001,"Storeys":10,"StoreysInBasement":null,"DateStamp":1599580800000}},{"type":"Feature","id":75053,"geometry":{"type":"Polygon","coordinates":[[[114.18302093000341,22.277363831294824],[114.18294638015443,22.277316272534122],[114.18309430244956,22.277126428816835],[114.1831477830513,22.277150495209231],[114.18312848493055,22.277178341580356],[114.18310488398696,22.277167154974819],[114.18308392154931,22.277198503216699],[114.18309355682331,22.27720384988784],[114.18304188870512,22.277275602123851],[114.18307175419416,22.277294302442552],[114.18302093000341,22.277363831294824]]]},"properties":{"OBJECTID":75053,"Shape__Length":75.635215432097723,"Shape__Area":170.58783194593977,"GeoRefNo":"3689815384","DateCreate":1114790400000,"BuildingBlockType":"Tower","BuildingCSUID":"3689815384T20050430","BuildingID":1103128954,"Status":"Active","BuildingNameEN":"Capital Commercial Building","BuildingNameTC":"凱基商業大廈","BaseHeight":5.0999999999999996,"TopHeight":62.399999999999999,"Storeys":17,"StoreysInBasement":null,"DateStamp":1599580800000}},{"type":"Feature","id":77267,"geometry":{"type":"Polygon","coordinates":[[[114.18050366265936,22.278319412781215],[114.18038180959141,22.278658167436976],[114.1802495219833,22.278616914524079],[114.18020536134598,22.278603143271734],[114.18019628281588,22.27860031226448],[114.18018682440497,22.278597362692317],[114.18006118526475,22.278558182832558],[114.18013654013956,22.278353395119726],[114.18006137919156,22.278328615925812],[114.18010816477549,22.278199301459182],[114.18024822990947,22.278241838934257],[114.18027277114183,22.278249292034776],[114.18041740221842,22.278293215921508],[114.18044245511878,22.278300824402351],[114.18050366265936,22.278319412781215]]]},"properties":{"OBJECTID":77267,"Shape__Length":164.57896308704906,"Shape__Area":1494.0393454259602,"GeoRefNo":"3661915508","DateCreate":1114790400000,"BuildingBlockType":"Tower","BuildingCSUID":"3661915508T20050430","BuildingID":1103127998,"Status":"Active","BuildingNameEN":"Bowrington Road Market (North Block)","BuildingNameTC":"鵝頸街市（北座）","BaseHeight":3.7000000000000002,"TopHeight":14.300000000000001,"Storeys":null,"StoreysInBasement":null,"DateStamp":1389715200000}},{"type":"Feature","id":77270,"geometry":{"type":"Polygon","coordinates":[[[114.18102581957073,22.27944934659072],[114.18104153949974,22.279473695404445],[114.18100942270715,22.279544244126093],[114.18098345703397,22.279601281132315],[114.18090904569142,22.279572283742915],[114.18097079407238,22.279427796836302],[114.18102581957073,22.27944934659072]]]},"properties":{"OBJECTID":77270,"Shape__Length":50.174451978111634,"Shape__Area":143.99261622003146,"GeoRefNo":"3669215622","DateCreate":1114790400000,"BuildingBlockType":"Tower","BuildingCSUID":"3669215622T20050430","BuildingID":1103127328,"Status":"Active","BuildingNameEN":"Chang Pao Ching Building","BuildingNameTC":"張寶慶大廈","BaseHeight":3.7999999999999998,"TopHeight":68.799999999999997,"Storeys":16,"StoreysInBasement":null,"DateStamp":1599580800000}},{"type":"Feature","id":77271,"geometry":{"type":"Polygon","coordinates":[[[114.18095748596504,22.279422432434075],[114.18089532197921,22.279566755891594],[114.18083660834867,22.279544826716918],[114.18080669418194,22.279533662964525],[114.18081360261033,22.279517610744509],[114.18086870764272,22.279389074585154],[114.18095748596504,22.279422432434075]]]},"properties":{"OBJECTID":77271,"Shape__Length":54.165552465847526,"Shape__Area":169.75091769168259,"GeoRefNo":"3668315617","DateCreate":1114790400000,"BuildingBlockType":"Tower","BuildingCSUID":"3668315617T20050430","BuildingID":1103127348,"Status":"Active","BuildingNameEN":"Ka Nin Wah Commercial Building","BuildingNameTC":"嘉年華商業大廈","BaseHeight":3.5,"TopHeight":72.799999999999997,"Storeys":22,"StoreysInBasement":null,"DateStamp":1599580800000}},{"type":"Feature","id":77272,"geometry":{"type":"Polygon","coordinates":[[[114.18073515288545,22.279339003052169],[114.18068030140751,22.27946808596619],[114.18067354937766,22.279483975986619],[114.1804968416881,22.2794180028616],[114.18055865716373,22.279272796907364],[114.18073515288545,22.279339003052169]]]},"properties":{"OBJECTID":77272,"Shape__Length":73.791795289730203,"Shape__Area":338.95584262250031,"GeoRefNo":"3665215605","DateCreate":1114790400000,"BuildingBlockType":"Tower","BuildingCSUID":"3665215605T20050430","BuildingID":1103127403,"Status":"Active","BuildingNameEN":"BOC Wan Chai Commercial Centre","BuildingNameTC":"中銀灣仔商業中心","BaseHeight":3.3999999999999999,"TopHeight":80.200000000000003,"Storeys":20,"StoreysInBasement":null,"DateStamp":1599580800000}},{"type":"Feature","id":77273,"geometry":{"type":"Polygon","coordinates":[[[114.18020852453205,22.279376350513541],[114.18015868717639,22.279493123753561],[114.18015383009362,22.279491318176937],[114.18006833193083,22.279459534586241],[114.17998717127385,22.279429363467198],[114.18003368134455,22.279326085279887],[114.18005346302908,22.279282158957283],[114.18009443038576,22.279297560254097],[114.18008002315149,22.27933020016216],[114.18016522074177,22.27936247492983],[114.18017956992806,22.279329567798936],[114.18022172683872,22.27934541632651],[114.18020852453205,22.279376350513541]]]},"properties":{"OBJECTID":77273,"Shape__Length":80.866878202490753,"Shape__Area":295.62768585561241,"GeoRefNo":"3660015616","DateCreate":1114790400000,"BuildingBlockType":"Tower","BuildingCSUID":"3660015616T20050430","BuildingID":1103127391,"Status":"Active","BuildingNameEN":"Ming Yin Mansion","BuildingNameTC":"明賢大廈","BaseHeight":3.6000000000000001,"TopHeight":43.899999999999999,"Storeys":13,"StoreysInBasement":null,"DateStamp":1599580800000}},{"type":"Feature","id":77274,"geometry":{"type":"Polygon","coordinates":[[[114.18052115636237,22.279258730196624],[114.18055865716373,22.279272796907364],[114.1804968416881,22.2794180028616],[114.18014854266988,22.279288023343447],[114.18021073909144,22.27914229093496],[114.18052115636237,22.279258730196624]]]},"properties":{"OBJECTID":77274,"Shape__Length":111.99145186498362,"Shape__Area":670.06184645486269,"GeoRefNo":"3662315592","DateCreate":1114790400000,"BuildingBlockType":"Tower","BuildingCSUID":"3662315592T20050430","BuildingID":1103127439,"Status":"Active","BuildingNameEN":"Eastern Commercial Centre","BuildingNameTC":"東區商業大廈","BaseHeight":3.3999999999999999,"TopHeight":74.700000000000003,"Storeys":17,"StoreysInBasement":null,"DateStamp":1599580800000}},{"type":"Feature","id":77275,"geometry":{"type":"Polygon","coordinates":[[[114.18003368134455,22.279326085279887],[114.17998717127385,22.279429363467198],[114.17985600254728,22.279380601871811],[114.179891556097,22.279297689193385],[114.17990041515148,22.279277029272034],[114.17998656473365,22.279308741416518],[114.17999666415862,22.279284837028172],[114.17998130152104,22.279278321450359],[114.1799865309832,22.27926628729988],[114.17998870409579,22.279261286541228],[114.17999000144306,22.279258301077025],[114.17999794231513,22.279261286361102],[114.18005346302908,22.279282158957283],[114.18003368134455,22.279326085279887]]]},"properties":{"OBJECTID":77275,"Shape__Length":68.156588883375278,"Shape__Area":213.57190664973132,"GeoRefNo":"3658515609","DateCreate":1114790400000,"BuildingBlockType":"Tower","BuildingCSUID":"3658515609T20050430","BuildingID":1103127431,"Status":"Active","BuildingNameEN":"Caine Mansion","BuildingNameTC":"嘉賢大廈","BaseHeight":3.6000000000000001,"TopHeight":44.600000000000001,"Storeys":13,"StoreysInBasement":null,"DateStamp":1599580800000}},{"type":"Feature","id":77276,"geometry":{"type":"Polygon","coordinates":[[[114.18077281825134,22.279520960933638],[114.18076052395625,22.279516372854697],[114.18076731197417,22.279500391078525],[114.18072724670316,22.279485487157164],[114.1807201582655,22.279501309186916],[114.18070757714392,22.279496614097749],[114.18071419099421,22.279480630431486],[114.18068030140751,22.27946808596619],[114.18073515288545,22.279339003052169],[114.18086870764272,22.279389074585154],[114.18081360261033,22.279517610744509],[114.18077968137132,22.279504992339852],[114.18077281825134,22.279520960933638]]]},"properties":{"OBJECTID":77276,"Shape__Length":67.868956066138566,"Shape__Area":232.65263959492648,"GeoRefNo":"3666915612","DateCreate":1114790400000,"BuildingBlockType":"Tower","BuildingCSUID":"3666915612T20050430","BuildingID":1103127376,"Status":"Active","BuildingNameEN":"Overseas Building","BuildingNameTC":"海外大廈","BaseHeight":3.6000000000000001,"TopHeight":59.100000000000001,"Storeys":12,"StoreysInBasement":null,"DateStamp":1599580800000}},{"type":"Feature","id":77277,"geometry":{"type":"Polygon","coordinates":[[[114.1804917116459,22.278656224490149],[114.18046154484379,22.278645542102034],[114.1805184221889,22.278493148231746],[114.18061626840337,22.278525788218985],[114.18063082575,22.278705486139405],[114.1804917116459,22.278656224490149]]]},"properties":{"OBJECTID":77277,"Shape__Length":67.197676333869126,"Shape__Area":264.27442748569632,"GeoRefNo":"3665315529","DateCreate":1114790400000,"BuildingBlockType":"Tower","BuildingCSUID":"3665315529T20050430","BuildingID":1103127959,"Status":"Active","BuildingNameEN":"Wing On Mansion","BuildingNameTC":"榮安大樓","BaseHeight":4,"TopHeight":22.600000000000001,"Storeys":14,"StoreysInBasement":null,"DateStamp":1599580800000}},{"type":"Feature","id":77329,"geometry":{"type":"Polygon","coordinates":[[[114.18058609240506,22.277996038117887],[114.18059909793941,22.278262735469525],[114.18046888881173,22.278223567408329],[114.18044462304911,22.27821626803275],[114.18030004600588,22.278172885555591],[114.18027552671712,22.278165541368164],[114.18021498132839,22.278147406227284],[114.18029695127534,22.277908668140636],[114.18058609240506,22.277996038117887]]]},"properties":{"OBJECTID":77329,"Shape__Length":130.24224962892902,"Shape__Area":1010.5159350419764,"GeoRefNo":"3665015471","DateCreate":1114790400000,"BuildingBlockType":"Tower","BuildingCSUID":"3665015471T20050430","BuildingID":1103128307,"Status":"Active","BuildingNameEN":"Bowrington Road Market (South Block)","BuildingNameTC":"鵝頸街市（南座）","BaseHeight":4.2999999999999998,"TopHeight":15.5,"Storeys":null,"StoreysInBasement":null,"DateStamp":1389715200000}},{"type":"Feature","id":77330,"geometry":{"type":"Polygon","coordinates":[[[114.18008626928399,22.278023180122961],[114.18010448865182,22.278028636520716],[114.18011819965294,22.277987997187825],[114.18012392350721,22.277971031568828],[114.18020340699803,22.277995299510831],[114.18015808913219,22.278127278016896],[114.17991885832234,22.278054837777685],[114.17994544379812,22.277981004921234],[114.18007291033639,22.278019179275027],[114.18008626928399,22.278023180122961]]]},"properties":{"OBJECTID":77330,"Shape__Length":82.418356599206177,"Shape__Area":281.41940380273303,"GeoRefNo":"3659115466","DateCreate":1114790400000,"BuildingBlockType":"Tower","BuildingCSUID":"3659115466T20050430","BuildingID":1103128412,"Status":"Active","BuildingNameEN":"Tak Fung House","BuildingNameTC":"德豐大樓","BaseHeight":4.4000000000000004,"TopHeight":35.299999999999997,"Storeys":9,"StoreysInBasement":null,"DateStamp":1599580800000}},{"type":"Feature","id":77540,"geometry":{"type":"Polygon","coordinates":[[[114.18611706466797,22.27811533117513],[114.1861122480243,22.278007787181419],[114.1861501931871,22.277992948387705],[114.18622861894063,22.278072595467879],[114.18611706466797,22.27811533117513]]]},"properties":{"OBJECTID":77540,"Shape__Length":40.556560092298703,"Shape__Area":93.516343563621959,"GeoRefNo":"3722615466","DateCreate":1337788800000,"BuildingBlockType":"Podium","BuildingCSUID":"3722615466P20120524","BuildingID":1810084032,"Status":"Active","BuildingNameEN":"CONGREGATION HOUSE","BuildingNameTC":"公理堂大樓","BaseHeight":4.7000000000000002,"TopHeight":32.299999999999997,"Storeys":5,"StoreysInBasement":null,"DateStamp":1599580800000}},{"type":"Feature","id":80843,"geometry":{"type":"Polygon","coordinates":[[[114.18277294693374,22.27952884724704],[114.18272275918603,22.279644517198673],[114.18270500787911,22.27968542925354],[114.18267023096652,22.2797655811274],[114.18253123441012,22.279712959662987],[114.18254318165198,22.279685435030789],[114.18262045401124,22.279507410862323],[114.18266680098752,22.2795252655743],[114.18267613699722,22.279505748583215],[114.18262890693862,22.279487936620331],[114.1826337777789,22.279476714793933],[114.18270844389875,22.279504684600401],[114.18277294693374,22.27952884724704]]]},"properties":{"OBJECTID":80843,"Shape__Length":97.872141071148548,"Shape__Area":424.48735850153037,"GeoRefNo":"3685815649","DateCreate":1114790400000,"BuildingBlockType":"Tower","BuildingCSUID":"3685815649T20050430","BuildingID":1103127238,"Status":"Active","BuildingNameEN":"Thai Kong Building","BuildingNameTC":"泰港大廈","BaseHeight":3.7999999999999998,"TopHeight":67.299999999999997,"Storeys":22,"StoreysInBasement":1,"DateStamp":1599580800000}},{"type":"Feature","id":80844,"geometry":{"type":"Polygon","coordinates":[[[114.18271505781772,22.280802987122254],[114.18263744048517,22.280774065328895],[114.18269857935837,22.280630532437133],[114.18277697137749,22.280660454948627],[114.18275878732825,22.28070231668196],[114.18274019615717,22.280745115717728],[114.18271505781772,22.280802987122254]]]},"properties":{"OBJECTID":80844,"Shape__Length":51.469871475204101,"Shape__Area":147.9845638025657,"GeoRefNo":"3687015753","DateCreate":1114790400000,"BuildingBlockType":"Tower","BuildingCSUID":"3687015753T20050430","BuildingID":1103126567,"Status":"Active","BuildingNameEN":"Evernew House","BuildingNameTC":"恆景大廈","BaseHeight":3.7999999999999998,"TopHeight":53.299999999999997,"Storeys":12,"StoreysInBasement":null,"DateStamp":1599580800000}},{"type":"Feature","id":80845,"geometry":{"type":"Polygon","coordinates":[[[114.18219991898746,22.280711845487428],[114.18219907383033,22.280711845515395],[114.18215672862782,22.280811282354993],[114.18201511045137,22.280758272224194],[114.18204526767482,22.2806915384602],[114.18206011211979,22.280659057398662],[114.18219991898746,22.280711845487428]]]},"properties":{"OBJECTID":80845,"Shape__Length":55.136552166601248,"Shape__Area":185.70259219821139,"GeoRefNo":"3680415764","DateCreate":1114790400000,"BuildingBlockType":"Tower","BuildingCSUID":"3680415764T20050430","BuildingID":1103126557,"Status":"Active","BuildingNameEN":"Tak Fai Building","BuildingNameTC":"德輝大廈","BaseHeight":3.6000000000000001,"TopHeight":38.899999999999999,"Storeys":12,"StoreysInBasement":null,"DateStamp":1599580800000}},{"type":"Feature","id":80855,"geometry":{"type":"Polygon","coordinates":[[[114.1805358573308,22.2800368180765],[114.18059972541957,22.279886212200591],[114.18073405815927,22.279935926661111],[114.1806787229623,22.280062479282272],[114.18066791906615,22.28008718781545],[114.18060942967981,22.28006487935826],[114.18061741747972,22.280046351914908],[114.18058893815731,22.280035823756208],[114.18058107658591,22.280054065194964],[114.1805358573308,22.2800368180765]]]},"properties":{"OBJECTID":80855,"Shape__Length":70.007034262695711,"Shape__Area":259.62310135409672,"GeoRefNo":"3665515671","DateCreate":1114790400000,"BuildingBlockType":"Tower","BuildingCSUID":"3665515671T20050430","BuildingID":1103127051,"Status":"Active","BuildingNameEN":"Ascot Mansion","BuildingNameTC":"雅閣大廈","BaseHeight":3.8999999999999999,"TopHeight":72.900000000000006,"Storeys":19,"StoreysInBasement":null,"DateStamp":1599580800000}},{"type":"Feature","id":80908,"geometry":{"type":"Polygon","coordinates":[[[114.18145605863968,22.280378658190539],[114.18142781711555,22.280368255517871],[114.18143084589508,22.280362324831607],[114.18141424258499,22.280355132308227],[114.18142389893097,22.280332538553452],[114.18141323268952,22.280328997038911],[114.18140094445263,22.280358356982269],[114.18136489927889,22.280345079885631],[114.18141166705354,22.280236309415923],[114.18141173497123,22.280236151558466],[114.1814306320944,22.280192201347393],[114.18146297734381,22.280204336249948],[114.18147651957771,22.280209416860874],[114.18149058259317,22.280214692878729],[114.18152198788606,22.280226475150066],[114.18152244287776,22.280226645815976],[114.18145605863968,22.280378658190539]]]},"properties":{"OBJECTID":80908,"Shape__Length":63.694360446266053,"Shape__Area":179.29418143391348,"GeoRefNo":"3673915713","DateCreate":1391529600000,"BuildingBlockType":"Tower","BuildingCSUID":"3673915713T20140205","BuildingID":1103126897,"Status":"Active","BuildingNameEN":"Lockhart House","BuildingNameTC":"駱克大樓","BaseHeight":3.7000000000000002,"TopHeight":51,"Storeys":15,"StoreysInBasement":null,"DateStamp":1599580800000}},{"type":"Feature","id":80909,"geometry":{"type":"Polygon","coordinates":[[[114.1802459882871,22.280353242819928],[114.18029876223562,22.280234806059159],[114.18042941793691,22.280283822418642],[114.18037632086545,22.280402320546237],[114.1802459882871,22.280353242819928]]]},"properties":{"OBJECTID":80909,"Shape__Length":57.422605503618243,"Shape__Area":206.0517508990755,"GeoRefNo":"3662315710","DateCreate":1114790400000,"BuildingBlockType":"Tower","BuildingCSUID":"3662315710T20050430","BuildingID":1103126856,"Status":"Active","BuildingNameEN":"Kingpower Commercial Building","BuildingNameTC":"港佳商業大廈","BaseHeight":3.7999999999999998,"TopHeight":72.5,"Storeys":20,"StoreysInBasement":null,"DateStamp":1599580800000}},{"type":"Feature","id":80910,"geometry":{"type":"Polygon","coordinates":[[[114.1815492136444,22.280412971660581],[114.18151137748723,22.280399034779958],[114.18152417824197,22.280369988447642],[114.18151290863858,22.280366234827444],[114.18150291123958,22.280388981215012],[114.18148557982718,22.280382941751725],[114.18148263244588,22.280388446642082],[114.18145605863968,22.280378658190539],[114.18152244287776,22.280226645815976],[114.18152286730381,22.280226805104149],[114.18155131976464,22.280237479576499],[114.18156708796189,22.280243395268467],[114.18156844323396,22.280243903744111],[114.18161485017345,22.280261314084388],[114.18160872333367,22.280275470602501],[114.1815492136444,22.280412971660581]]]},"properties":{"OBJECTID":80910,"Shape__Length":63.701570482227226,"Shape__Area":181.15093373653863,"GeoRefNo":"3674815716","DateCreate":1391529600000,"BuildingBlockType":"Tower","BuildingCSUID":"3674815716T20140205","BuildingID":1103126867,"Status":"Active","BuildingNameEN":"Lockhart House","BuildingNameTC":"駱克大樓","BaseHeight":3.6000000000000001,"TopHeight":47.899999999999999,"Storeys":15,"StoreysInBasement":null,"DateStamp":1599580800000}},{"type":"Feature","id":80911,"geometry":{"type":"Polygon","coordinates":[[[114.18178092041218,22.280099163998614],[114.18178106158339,22.280098847741368],[114.1818081966875,22.280037256785651],[114.18182818590401,22.279991885432555],[114.18184687081586,22.279998680230602],[114.18186297851653,22.279961267423456],[114.18189731895374,22.279974019331746],[114.1818810313507,22.280011102890768],[114.18193125689984,22.280029367501186],[114.18194406561032,22.280000935849746],[114.18195841157008,22.280006237013787],[114.18194601952204,22.280034736021754],[114.18195293900125,22.280037252281083],[114.18196049065585,22.280039998440174],[114.18196162467149,22.280037252006679],[114.18197571331773,22.28000312992658],[114.18199163588511,22.280009042502197],[114.18198000495586,22.280037251424435],[114.181976475518,22.280045811407327],[114.18199555294592,22.280052748950151],[114.18194791859401,22.280161335392773],[114.18194778887222,22.280161631059958],[114.18194584431268,22.280160903071227],[114.18178092041218,22.280099163998614]]]},"properties":{"OBJECTID":80911,"Shape__Length":87.355522201562465,"Shape__Area":269.66346039545198,"GeoRefNo":"3678015690","DateCreate":1114790400000,"BuildingBlockType":"Tower","BuildingCSUID":"3678015690T20050430","BuildingID":1103127012,"Status":"Active","BuildingNameEN":"Diamond Mansion","BuildingNameTC":"鑽石大樓","BaseHeight":3.5,"TopHeight":49.399999999999999,"Storeys":15,"StoreysInBasement":null,"DateStamp":1599580800000}},{"type":"Feature","id":80912,"geometry":{"type":"Polygon","coordinates":[[[114.18007440878299,22.280040486994022],[114.18012636465369,22.279921000037863],[114.18025698913591,22.279969561484762],[114.18020558121287,22.280089419810434],[114.18007440878299,22.280040486994022]]]},"properties":{"OBJECTID":80912,"Shape__Length":57.624553683857265,"Shape__Area":207.52060137631301,"GeoRefNo":"3660215684","DateCreate":1114790400000,"BuildingBlockType":"Tower","BuildingCSUID":"3660215684T20050430","BuildingID":1103127050,"Status":"Active","BuildingNameEN":"Besthing Mansion","BuildingNameTC":"文石大廈","BaseHeight":3.7000000000000002,"TopHeight":69.900000000000006,"Storeys":18,"StoreysInBasement":null,"DateStamp":1599580800000}},{"type":"Feature","id":80913,"geometry":{"type":"Polygon","coordinates":[[[114.18211717979101,22.279995680972899],[114.1821693541962,22.279876801839769],[114.18233524756882,22.279938907220856],[114.18229279339378,22.280037241197203],[114.18227239452798,22.280084489910017],[114.18214607520729,22.280037246069483],[114.18210558384969,22.280022102107605],[114.18211717979101,22.279995680972899]]]},"properties":{"OBJECTID":80913,"Shape__Length":71.709284874358943,"Shape__Area":321.08341532643652,"GeoRefNo":"3681715671","DateCreate":1114790400000,"BuildingBlockType":"Tower","BuildingCSUID":"3681715671T20050430","BuildingID":1103127052,"Status":"Active","BuildingNameEN":"Kin Tak Fung Commercial Building","BuildingNameTC":"建德豐商業大廈","BaseHeight":3.5,"TopHeight":67,"Storeys":19,"StoreysInBasement":null,"DateStamp":1599580800000}},{"type":"Feature","id":81947,"geometry":{"type":"Polygon","coordinates":[[[114.18265529941483,22.281132416984576],[114.18258694725272,22.281286521731847],[114.1824395180434,22.28123016389123],[114.18250557165086,22.281076754373466],[114.18265529941483,22.281132416984576]]]},"properties":{"OBJECTID":81947,"Shape__Length":69.803734332449892,"Shape__Area":303.66186133596,"GeoRefNo":"3685215803","DateCreate":1114790400000,"BuildingBlockType":"Tower","BuildingCSUID":"3685215803T20050430","BuildingID":1103126186,"Status":"Active","BuildingNameEN":"Shining Building","BuildingNameTC":"肇明大廈","BaseHeight":3.7000000000000002,"TopHeight":70,"Storeys":18,"StoreysInBasement":null,"DateStamp":1599580800000}},{"type":"Feature","id":81948,"geometry":{"type":"Polygon","coordinates":[[[114.1803860569031,22.279442294223816],[114.18034297037825,22.279542922305275],[114.18033606005343,22.279559061109083],[114.18025002424596,22.279527105772878],[114.18024909137019,22.279526748088937],[114.18024762316307,22.279526185240158],[114.18029771866063,22.2794094813231],[114.1803860569031,22.279442294223816]]]},"properties":{"OBJECTID":81948,"Shape__Length":47.451825877792892,"Shape__Area":136.52232781683992,"GeoRefNo":"3662315623","DateCreate":1300636800000,"BuildingBlockType":"Tower","BuildingCSUID":"3662315623T20110321","BuildingID":1103127349,"Status":"Active","BuildingNameEN":"Lok Chung Building","BuildingNameTC":"樂中樓","BaseHeight":3.8999999999999999,"TopHeight":45.399999999999999,"Storeys":13,"StoreysInBasement":null,"DateStamp":1599580800000}},{"type":"Feature","id":81949,"geometry":{"type":"Polygon","coordinates":[[[114.18176537649505,22.279425344651731],[114.18180776243312,22.279293748707211],[114.18182188659691,22.279299032642047],[114.18181548419079,22.27931428423339],[114.1818525201452,22.279327965322093],[114.1818585662479,22.279312754829785],[114.18192592396247,22.279337953900509],[114.18191943484682,22.279353967052362],[114.18193717206262,22.279360738661534],[114.18188904575777,22.279472150979025],[114.18188899384991,22.279472271178456],[114.1818884180535,22.279472052654935],[114.18176537649505,22.279425344651731]]]},"properties":{"OBJECTID":81949,"Shape__Length":62.919795137379353,"Shape__Area":208.2208022346376,"GeoRefNo":"3677915611","DateCreate":1114790400000,"BuildingBlockType":"Tower","BuildingCSUID":"3677915611T20050430","BuildingID":1103127417,"Status":"Active","BuildingNameEN":"Hin Wah Building","BuildingNameTC":"軒華大廈","BaseHeight":3.7999999999999998,"TopHeight":59.200000000000003,"Storeys":18,"StoreysInBasement":1,"DateStamp":1599580800000}},{"type":"Feature","id":81950,"geometry":{"type":"Polygon","coordinates":[[[114.18029771866063,22.2794094813231],[114.18024762316307,22.279526185240158],[114.18016105119089,22.279494002566818],[114.18015868717639,22.279493123753561],[114.18020852453205,22.279376350513541],[114.18029771866063,22.2794094813231]]]},"properties":{"OBJECTID":81950,"Shape__Length":47.596755149821881,"Shape__Area":137.52767083660706,"GeoRefNo":"3661315621","DateCreate":1114790400000,"BuildingBlockType":"Tower","BuildingCSUID":"3661315621T20050430","BuildingID":1103127369,"Status":"Active","BuildingNameEN":"Wing Fai Building","BuildingNameTC":"永輝樓","BaseHeight":3.7999999999999998,"TopHeight":45.299999999999997,"Storeys":13,"StoreysInBasement":null,"DateStamp":1599580800000}},{"type":"Feature","id":81951,"geometry":{"type":"Polygon","coordinates":[[[114.18312371296902,22.278684747139035],[114.18313536966774,22.278689194728148],[114.18313443137363,22.278691384514097],[114.18303732907816,22.278918021636102],[114.18301398039529,22.278919429320375],[114.1829331502021,22.27867698833743],[114.18299032732622,22.278657395017461],[114.18303004321008,22.278672744508864],[114.183038929432,22.278652398228424],[114.18312371296902,22.278684747139035]]]},"properties":{"OBJECTID":81951,"Shape__Length":81.684958963487063,"Shape__Area":337.97328170484946,"GeoRefNo":"3690515549","DateCreate":1114790400000,"BuildingBlockType":"Tower","BuildingCSUID":"3690515549T20050430","BuildingID":1103127803,"Status":"Active","BuildingNameEN":"Percival House","BuildingNameTC":"波斯富大廈","BaseHeight":4.2999999999999998,"TopHeight":37.799999999999997,"Storeys":11,"StoreysInBasement":null,"DateStamp":1599580800000}},{"type":"Feature","id":81952,"geometry":{"type":"Polygon","coordinates":[[[114.18052698655825,22.279495954470637],[114.1805589397389,22.279507526864162],[114.18054370594962,22.279542917834984],[114.18050907291169,22.279623377279268],[114.18042180780938,22.279590937207235],[114.18041961243516,22.279590121066697],[114.18043996683006,22.279542920176183],[114.18046923870456,22.279475040184725],[114.18049915524924,22.27948587492283],[114.18051292116036,22.279454887780268],[114.18054005791164,22.27946508961648],[114.18052698655825,22.279495954470637]]]},"properties":{"OBJECTID":81952,"Shape__Length":54.723970446382104,"Shape__Area":147.95554960076734,"GeoRefNo":"3664115631","DateCreate":1114790400000,"BuildingBlockType":"Tower","BuildingCSUID":"3664115631T20050430","BuildingID":1103127310,"Status":"Active","BuildingNameEN":"Nin Fung Mansion","BuildingNameTC":"年豐大廈","BaseHeight":3.6000000000000001,"TopHeight":45.299999999999997,"Storeys":13,"StoreysInBasement":null,"DateStamp":1599580800000}},{"type":"Feature","id":81990,"geometry":{"type":"Polygon","coordinates":[[[114.18251460804591,22.277944965588819],[114.18260008716237,22.277923561218934],[114.1826509130984,22.278097186107512],[114.18248361909075,22.278030596828717],[114.18246179719108,22.277958189551747],[114.18246278379306,22.277957942529511],[114.18251460804591,22.277944965588819]]]},"properties":{"OBJECTID":81990,"Shape__Length":61.765212607191948,"Shape__Area":207.87826160867905,"GeoRefNo":"3685515464","DateCreate":1114790400000,"BuildingBlockType":"Tower","BuildingCSUID":"3685515464T20050430","BuildingID":1103128437,"Status":"Active","BuildingNameEN":"Matheson Centre","BuildingNameTC":"宏通中心","BaseHeight":4.5,"TopHeight":75.400000000000006,"Storeys":20,"StoreysInBasement":null,"DateStamp":1599580800000}},{"type":"Feature","id":81991,"geometry":{"type":"Polygon","coordinates":[[[114.18251460804591,22.277944965588819],[114.18250979662183,22.277929513970282],[114.18249060884406,22.277934697596063],[114.18248677715468,22.277921888669272],[114.18247628161488,22.277924724655826],[114.18247143263159,22.27790894621856],[114.18246649572779,22.277892881422517],[114.1824766215708,22.277889886239258],[114.1824726432739,22.277874756261941],[114.18249141470713,22.277870143931061],[114.18248721172213,22.277855925966282],[114.18257290539373,22.277833849633037],[114.18260008716237,22.277923561218934],[114.18251460804591,22.277944965588819]]]},"properties":{"OBJECTID":81991,"Shape__Length":45.168323174609391,"Shape__Area":112.33621455767998,"GeoRefNo":"3685515445","DateCreate":1114790400000,"BuildingBlockType":"Tower","BuildingCSUID":"3685515445T20050430","BuildingID":1103128546,"Status":"Active","BuildingNameEN":"Hing Kui Building","BuildingNameTC":"慶渠樓","BaseHeight":4.5999999999999996,"TopHeight":26.600000000000001,"Storeys":6,"StoreysInBasement":null,"DateStamp":1599580800000}},{"type":"Feature","id":83207,"geometry":{"type":"Polygon","coordinates":[[[114.18187830821952,22.276768538285335],[114.18178771945855,22.276731007653705],[114.18179649999161,22.276713888268581],[114.18181245470896,22.276720499834852],[114.1818292971704,22.276727479190257],[114.18188201845085,22.276749326563284],[114.18188640282695,22.276751135354598],[114.18187830821952,22.276768538285335]]]},"properties":{"OBJECTID":83207,"Shape__Length":24.561883583289045,"Shape__Area":21.373852906676682,"GeoRefNo":"3677715319","DateCreate":1167753600000,"BuildingBlockType":"Podium","BuildingCSUID":"3677715319P20070103","BuildingID":1103118296,"Status":"Active","BuildingNameEN":"CRAIGENGOWER CRICKET CLUB","BuildingNameTC":"紀利華木球會","BaseHeight":4.5,"TopHeight":7.5999999999999996,"Storeys":null,"StoreysInBasement":null,"DateStamp":1369238400000}},{"type":"Feature","id":84481,"geometry":{"type":"Polygon","coordinates":[[[114.18491619062554,22.27992183067985],[114.18487289912268,22.279813220892809],[114.18502470074695,22.279717524204319],[114.18504504647927,22.279710947697136],[114.18510098963677,22.279862275958923],[114.18507966601017,22.279869147914901],[114.18491619062554,22.27992183067985]]]},"properties":{"OBJECTID":84481,"Shape__Length":71.818759322365295,"Shape__Area":315.94436592741295,"GeoRefNo":"3709915657","DateCreate":1114790400000,"BuildingBlockType":"Tower","BuildingCSUID":"3709915657T20050430","BuildingID":1103127148,"Status":"Active","BuildingNameEN":"Kwong On Building","BuildingNameTC":"廣安大廈","BaseHeight":4.2000000000000002,"TopHeight":57.100000000000001,"Storeys":17,"StoreysInBasement":null,"DateStamp":1599580800000}},{"type":"Feature","id":84482,"geometry":{"type":"Polygon","coordinates":[[[114.18476972047831,22.279652087956666],[114.18478429545961,22.279672021745416],[114.18470995402623,22.279719083125347],[114.18470960753626,22.279719302496378],[114.18469478794121,22.279699348845494],[114.18468438762858,22.279685345538027],[114.18466112366151,22.279654022267003],[114.18465755260752,22.279649213985465],[114.18473191876252,22.279600387589593],[114.18476972047831,22.279652087956666]]]},"properties":{"OBJECTID":84482,"Shape__Length":37.717924557691482,"Shape__Area":88.902987956911929,"GeoRefNo":"3707715643","DateCreate":1367942400000,"BuildingBlockType":"Tower","BuildingCSUID":"3707715643T20130508","BuildingID":1103127243,"Status":"Active","BuildingNameEN":"Siki Centre","BuildingNameTC":"兆基商業中心","BaseHeight":18.399999999999999,"TopHeight":89.400000000000006,"Storeys":22,"StoreysInBasement":null,"DateStamp":1599580800000}},{"type":"Feature","id":84484,"geometry":{"type":"Polygon","coordinates":[[[114.1856756514681,22.279680019750046],[114.18561904071468,22.279527872640184],[114.18571580367046,22.279496756099544],[114.18577182263741,22.27964918631934],[114.1856756514681,22.279680019750046]]]},"properties":{"OBJECTID":84484,"Shape__Length":56.702323307569969,"Shape__Area":187.56011509693539,"GeoRefNo":"3717615642","DateCreate":1114790400000,"BuildingBlockType":"Tower","BuildingCSUID":"3717615642T20050430","BuildingID":1103127282,"Status":"Active","BuildingNameEN":"H K Chinese Bank Causeway Bay Centre","BuildingNameTC":"華人銀行東區大廈","BaseHeight":4.2999999999999998,"TopHeight":80.799999999999997,"Storeys":21,"StoreysInBasement":null,"DateStamp":1599580800000}},{"type":"Feature","id":84485,"geometry":{"type":"Polygon","coordinates":[[[114.18496319012452,22.279621627606684],[114.18491737033443,22.279558963224627],[114.18493585293237,22.279547305915614],[114.18489809507319,22.279496145074752],[114.18491596910461,22.27948493264741],[114.18499827442122,22.279599417608349],[114.18496319012452,22.279621627606684]]]},"properties":{"OBJECTID":84485,"Shape__Length":39.415032520917187,"Shape__Area":51.93693308960907,"GeoRefNo":"3710115636","DateCreate":1114790400000,"BuildingBlockType":"Tower","BuildingCSUID":"3710115636T20050430","BuildingID":1103127319,"Status":"Active","BuildingNameEN":null,"BuildingNameTC":null,"BaseHeight":4.2999999999999998,"TopHeight":21.399999999999999,"Storeys":null,"StoreysInBasement":null,"DateStamp":1385654400000}},{"type":"Feature","id":84486,"geometry":{"type":"Polygon","coordinates":[[[114.18480568399694,22.279701274184859],[114.18479403349721,22.279685340195357],[114.18478429545961,22.279672021745416],[114.18476972047831,22.279652087956666],[114.18473191876252,22.279600387589593],[114.18475129113858,22.279588235289019],[114.18478705836002,22.279565798543565],[114.18480703376002,22.279553267913279],[114.1848442191497,22.27960510068274],[114.18487963154928,22.279654462026151],[114.18480568399694,22.279701274184859]]]},"properties":{"OBJECTID":84486,"Shape__Length":45.538984938996983,"Shape__Area":125.16453414182558,"GeoRefNo":"3708515639","DateCreate":1196006400000,"BuildingBlockType":"Tower","BuildingCSUID":"3708515639T20071126","BuildingID":1103127270,"Status":"Active","BuildingNameEN":"Golden Bloom Centre","BuildingNameTC":"金利隆中心","BaseHeight":4.2999999999999998,"TopHeight":75.400000000000006,"Storeys":17,"StoreysInBasement":null,"DateStamp":1599580800000}},{"type":"Feature","id":84487,"geometry":{"type":"Polygon","coordinates":[[[114.18487963154928,22.279654462026151],[114.1848442191497,22.27960510068274],[114.18486284458599,22.279593353429895],[114.18482467619843,22.279542200810429],[114.18484226652966,22.279531166399142],[114.18492506629597,22.279645761816848],[114.18488952924014,22.279668258363873],[114.18487963154928,22.279654462026151]]]},"properties":{"OBJECTID":84487,"Shape__Length":39.531739032988071,"Shape__Area":51.826344041760088,"GeoRefNo":"3709415641","DateCreate":1114790400000,"BuildingBlockType":"Tower","BuildingCSUID":"3709415641T20050430","BuildingID":1103127286,"Status":"Active","BuildingNameEN":null,"BuildingNameTC":null,"BaseHeight":4.2999999999999998,"TopHeight":19.600000000000001,"Storeys":null,"StoreysInBasement":null,"DateStamp":1385654400000}},{"type":"Feature","id":84488,"geometry":{"type":"Polygon","coordinates":[[[114.18499827442122,22.279599417608349],[114.18491596910461,22.27948493264741],[114.18493372922157,22.27947379165613],[114.18497153122867,22.27952480311988],[114.18498839353724,22.279514167793163],[114.18503425631837,22.279576639349223],[114.18499827442122,22.279599417608349]]]},"properties":{"OBJECTID":84488,"Shape__Length":39.284845879989959,"Shape__Area":52.733716263885235,"GeoRefNo":"3710515634","DateCreate":1114790400000,"BuildingBlockType":"Tower","BuildingCSUID":"3710515634T20050430","BuildingID":1103127336,"Status":"Active","BuildingNameEN":null,"BuildingNameTC":null,"BaseHeight":4.2999999999999998,"TopHeight":21.399999999999999,"Storeys":null,"StoreysInBasement":null,"DateStamp":1385654400000}},{"type":"Feature","id":84489,"geometry":{"type":"Polygon","coordinates":[[[114.18492506629597,22.279645761816848],[114.18484226652966,22.279531166399142],[114.18486087682349,22.279519492114719],[114.18489796314728,22.279571203595506],[114.18491737033443,22.279558963224627],[114.18496319012452,22.279621627606684],[114.18492506629597,22.279645761816848]]]},"properties":{"OBJECTID":84489,"Shape__Length":40.050714619871172,"Shape__Area":55.556287480892841,"GeoRefNo":"3709715639","DateCreate":1114790400000,"BuildingBlockType":"Tower","BuildingCSUID":"3709715639T20050430","BuildingID":1103127302,"Status":"Active","BuildingNameEN":null,"BuildingNameTC":null,"BaseHeight":4.2999999999999998,"TopHeight":19.600000000000001,"Storeys":null,"StoreysInBasement":null,"DateStamp":1385654400000}},{"type":"Feature","id":84490,"geometry":{"type":"Polygon","coordinates":[[[114.18517907560999,22.279470775180062],[114.18511730592364,22.279388198753132],[114.1851541387702,22.279364656431365],[114.1852222147287,22.27945779114139],[114.18518626431984,22.27948038530614],[114.18517907560999,22.279470775180062]]]},"properties":{"OBJECTID":84490,"Shape__Length":33.987283516821726,"Shape__Area":56.520147421302205,"GeoRefNo":"3712415620","DateCreate":1114790400000,"BuildingBlockType":"Tower","BuildingCSUID":"3712415620T20050430","BuildingID":1103127411,"Status":"Active","BuildingNameEN":null,"BuildingNameTC":null,"BaseHeight":4.2999999999999998,"TopHeight":26.800000000000001,"Storeys":6,"StoreysInBasement":null,"DateStamp":1599580800000}},{"type":"Feature","id":84543,"geometry":{"type":"Polygon","coordinates":[[[114.18605483463639,22.279420365797709],[114.18607665560216,22.279413060304645],[114.18606506673484,22.279384441154285],[114.1861336578135,22.279362383695169],[114.18614109358873,22.279381678312266],[114.18615773492684,22.279424860065294],[114.1861765543425,22.279473693425889],[114.18615371902435,22.279526745767694],[114.18610145453904,22.279543502402017],[114.18605483463639,22.279420365797709]]]},"properties":{"OBJECTID":84543,"Shape__Length":52.832875835260467,"Shape__Area":157.95739861718667,"GeoRefNo":"3722115622","DateCreate":1114790400000,"BuildingBlockType":"Tower","BuildingCSUID":"3722115622T20050430","BuildingID":1103127364,"Status":"Active","BuildingNameEN":null,"BuildingNameTC":null,"BaseHeight":4.2000000000000002,"TopHeight":49.700000000000003,"Storeys":15,"StoreysInBasement":null,"DateStamp":1599580800000}},{"type":"Feature","id":84544,"geometry":{"type":"Polygon","coordinates":[[[114.18517907560999,22.279470775180062],[114.18510357925486,22.279519610689093],[114.18502525452492,22.279411479898172],[114.18508143176217,22.279375719334833],[114.18509132120896,22.279387924011075],[114.18510846046124,22.279376315515986],[114.18511730592364,22.279388198753132],[114.18517907560999,22.279470775180062]]]},"properties":{"OBJECTID":84544,"Shape__Length":47.549876522828164,"Shape__Area":131.26060156659528,"GeoRefNo":"3711615624","DateCreate":1114790400000,"BuildingBlockType":"Tower","BuildingCSUID":"3711615624T20050430","BuildingID":1103127382,"Status":"Active","BuildingNameEN":null,"BuildingNameTC":"京華大樓","BaseHeight":4.2999999999999998,"TopHeight":27.399999999999999,"Storeys":7,"StoreysInBasement":null,"DateStamp":1599580800000}},{"type":"Feature","id":84545,"geometry":{"type":"Polygon","coordinates":[[[114.1852222147287,22.27945779114139],[114.1851541387702,22.279364656431365],[114.18518839773391,22.279342759254927],[114.18520957630739,22.279371668398603],[114.18525676267707,22.279436078522075],[114.1852222147287,22.27945779114139]]]},"properties":{"OBJECTID":84545,"Shape__Length":33.559670113561026,"Shape__Area":53.578408665860309,"GeoRefNo":"3712815618","DateCreate":1114790400000,"BuildingBlockType":"Tower","BuildingCSUID":"3712815618T20050430","BuildingID":1103127422,"Status":"Active","BuildingNameEN":null,"BuildingNameTC":null,"BaseHeight":4.2999999999999998,"TopHeight":26.800000000000001,"Storeys":6,"StoreysInBasement":null,"DateStamp":1599580800000}},{"type":"Feature","id":84701,"geometry":{"type":"Polygon","coordinates":[[[114.18572329556024,22.279307154899769],[114.18570737889512,22.279285298012653],[114.18573544428692,22.279267791304317],[114.18586214501099,22.279188757543601],[114.18587777809478,22.279209570941262],[114.18587789357267,22.279209724726613],[114.18592297247244,22.279269741549957],[114.18595014551748,22.279305918932291],[114.18590264171345,22.279335312350284],[114.18594248687516,22.27939119631694],[114.1858142874397,22.27943210530302],[114.18572329556024,22.279307154899769]]]},"properties":{"OBJECTID":84701,"Shape__Length":81.941867367768438,"Shape__Area":381.48968958610817,"GeoRefNo":"3719115606","DateCreate":1125417600000,"BuildingBlockType":"Podium","BuildingCSUID":"3719115606P20050831","BuildingID":1103117978,"Status":"Active","BuildingNameEN":"PROSPEROUS COMMERCIAL BUILDING","BuildingNameTC":"富盛商業大廈","BaseHeight":4.2999999999999998,"TopHeight":15.699999999999999,"Storeys":null,"StoreysInBasement":null,"DateStamp":1371139200000}},{"type":"Feature","id":85464,"geometry":{"type":"Polygon","coordinates":[[[114.18149822751951,22.278161285453702],[114.1814858237727,22.278188962374173],[114.1814734362943,22.278183481130515],[114.18147051758658,22.278177343178193],[114.18147798383556,22.278159369823232],[114.18148450298442,22.278156750479813],[114.18149822751951,22.278161285453702]]]},"properties":{"OBJECTID":85464,"Shape__Length":9.8441202425586809,"Shape__Area":6.1137994516677141,"GeoRefNo":"3674315479","DateCreate":1114790400000,"BuildingBlockType":"Tower","BuildingCSUID":"3674315479T20050430","BuildingID":1103128366,"Status":"Active","BuildingNameEN":null,"BuildingNameTC":null,"BaseHeight":4.2999999999999998,"TopHeight":14.300000000000001,"Storeys":null,"StoreysInBasement":null,"DateStamp":1384185600000}},{"type":"Feature","id":86065,"geometry":{"type":"Polygon","coordinates":[[[114.18007438823581,22.276288377641041],[114.18018025887204,22.276253215406232],[114.18023060796135,22.276236685032334],[114.18023459032158,22.27624717006638],[114.18024887410631,22.276291669971709],[114.18025601417705,22.276316671786311],[114.18026561481091,22.276352683075238],[114.1802695519314,22.276369885371814],[114.18027299546132,22.276387087407791],[114.18027594493786,22.276405206335291],[114.18028085408859,22.276445341926443],[114.18028244154159,22.276462843818855],[114.18004291995669,22.276452920179857],[114.18004370112544,22.276443558458958],[114.18004420221733,22.276432092513687],[114.18004421084513,22.276419021020281],[114.18004471193686,22.276407555074965],[114.18004324457593,22.276387373334686],[114.18004177337345,22.276373154075873],[114.18004030385495,22.276356182909431],[114.18003760172346,22.27633737619896],[114.18003440712914,22.276316963849943],[114.18003150172618,22.276302621350997],[114.18003773662778,22.276300550501567],[114.18007438823581,22.276288377641041]]]},"properties":{"OBJECTID":86065,"Shape__Length":88.907575028375859,"Shape__Area":489.34317236173877,"GeoRefNo":"3661515273","DateCreate":1114790400000,"BuildingBlockType":"Tower","BuildingCSUID":"3661515273T20050430","BuildingID":1103129506,"Status":"Active","BuildingNameEN":"Amber Commercial Building","BuildingNameTC":"凱利商業大廈","BaseHeight":4.2999999999999998,"TopHeight":72.5,"Storeys":23,"StoreysInBasement":null,"DateStamp":1599580800000}},{"type":"Feature","id":86851,"geometry":{"type":"Polygon","coordinates":[[[114.18218197216386,22.277791317299378],[114.18219194398513,22.277795105233668],[114.18236058546954,22.277860175905598],[114.18232201099902,22.27794733562914],[114.18225485528808,22.2779214148925],[114.1822500150305,22.277932490051043],[114.18213884678406,22.277889654624808],[114.18214307959153,22.277880002808665],[114.18218197216386,22.277791317299378]]]},"properties":{"OBJECTID":86851,"Shape__Length":63.340935520006845,"Shape__Area":224.23867634349486,"GeoRefNo":"3682215446","DateCreate":1384185600000,"BuildingBlockType":"Podium","BuildingCSUID":"3682215446P20131112","BuildingID":1810107418,"Status":"Active","BuildingNameEN":"OLIV","BuildingNameTC":"OLIV","BaseHeight":4.5999999999999996,"TopHeight":24.300000000000001,"Storeys":6,"StoreysInBasement":1,"DateStamp":1599580800000}},{"type":"Feature","id":86945,"geometry":{"type":"Polygon","coordinates":[[[114.17970592885172,22.278662351807114],[114.17976190226238,22.278508101428283],[114.17989110969803,22.278555917092117],[114.17988431790457,22.27857924634267],[114.17993185953169,22.278595871119308],[114.17994033892458,22.278574115152523],[114.18011197979688,22.278637449878499],[114.18010754060337,22.278649896537654],[114.18014354029268,22.278662933972996],[114.18009281431645,22.278804367188425],[114.17988951382172,22.278729741131936],[114.17970592885172,22.278662351807114]]]},"properties":{"OBJECTID":86945,"Shape__Length":126.66627228902807,"Shape__Area":749.26929696099103,"GeoRefNo":"3658015537","DateCreate":1114790400000,"BuildingBlockType":"Tower","BuildingCSUID":"3658015537T20050430","BuildingID":1103127885,"Status":"Active","BuildingNameEN":"Harmony Mansion","BuildingNameTC":"齊安大廈","BaseHeight":3.6000000000000001,"TopHeight":60.200000000000003,"Storeys":17,"StoreysInBasement":null,"DateStamp":1599580800000}},{"type":"Feature","id":87000,"geometry":{"type":"Polygon","coordinates":[[[114.18022311533427,22.276663526976012],[114.18005175041857,22.276645567529222],[114.18005809160323,22.276623251784034],[114.18002227731318,22.276619941317517],[114.18002384775144,22.276611638965978],[114.18002657737205,22.276588937865178],[114.18002856599372,22.276567153389031],[114.18002956264915,22.276552706690211],[114.1800297165109,22.276547215876253],[114.18025597745846,22.276553803354144],[114.18025447244779,22.276558737006255],[114.18023359953411,22.276627161445319],[114.18022352379708,22.276662110059771],[114.18022311533427,22.276663526976012]]]},"properties":{"OBJECTID":87000,"Shape__Length":68.076777192514669,"Shape__Area":244.55065420279536,"GeoRefNo":"3661115306","DateCreate":1114790400000,"BuildingBlockType":"Tower","BuildingCSUID":"3661115306T20050430","BuildingID":1103129392,"Status":"Active","BuildingNameEN":"Po Chi Building","BuildingNameTC":"寶之大廈","BaseHeight":4.2999999999999998,"TopHeight":45.299999999999997,"Storeys":12,"StoreysInBasement":null,"DateStamp":1599580800000}},{"type":"Feature","id":87010,"geometry":{"type":"Polygon","coordinates":[[[114.18006553390991,22.278393186634592],[114.17983296860837,22.278305183184678],[114.17989506261036,22.278135324984312],[114.18007170623096,22.278189626763883],[114.18006142944574,22.278218555631206],[114.18004362874593,22.27821314825685],[114.18003577408017,22.278234998316925],[114.18005365677455,22.27824043558191],[114.18004556275403,22.278263219866851],[114.180027383042,22.278257679206018],[114.1800212091684,22.27827619105603],[114.18003892924905,22.278281892923577],[114.18001658242885,22.278344798635043],[114.18007419936895,22.278366921025896],[114.18006553390991,22.278393186634592]]]},"properties":{"OBJECTID":87010,"Shape__Length":100.21753802820925,"Shape__Area":405.69118451525657,"GeoRefNo":"3657615487","DateCreate":1114790400000,"BuildingBlockType":"Tower","BuildingCSUID":"3657615487T20050430","BuildingID":1103128210,"Status":"Active","BuildingNameEN":"Siu Fung Building","BuildingNameTC":"兆豐大廈","BaseHeight":4.0999999999999996,"TopHeight":73.799999999999997,"Storeys":null,"StoreysInBasement":null,"DateStamp":1388592000000}},{"type":"Feature","id":87011,"geometry":{"type":"Polygon","coordinates":[[[114.18002921300321,22.278430291274152],[114.17982492160385,22.27835506271887],[114.17983296860837,22.278305183184678],[114.18006553390991,22.278393186634592],[114.1800506840968,22.278438197806697],[114.18002921300321,22.278430291274152]]]},"properties":{"OBJECTID":87011,"Shape__Length":61.694601214369527,"Shape__Area":135.26187886700413,"GeoRefNo":"3657415496","DateCreate":1114790400000,"BuildingBlockType":"Tower","BuildingCSUID":"3657415496T20050430","BuildingID":1103128178,"Status":"Active","BuildingNameEN":null,"BuildingNameTC":null,"BaseHeight":4,"TopHeight":23.800000000000001,"Storeys":6,"StoreysInBasement":null,"DateStamp":1599580800000}},{"type":"Feature","id":87012,"geometry":{"type":"Polygon","coordinates":[[[114.18008626928399,22.278023180122961],[114.18007291033639,22.278019179275027],[114.1801390485507,22.2778323477153],[114.18014806366592,22.277835056091213],[114.18016936559781,22.277840877437221],[114.18019872682471,22.277757490784872],[114.18027702913619,22.27778131368601],[114.180209272699,22.277978218293704],[114.18011440634083,22.277947388461516],[114.18008626928399,22.278023180122961]]]},"properties":{"OBJECTID":87012,"Shape__Length":86.830516857624474,"Shape__Area":251.14656313723702,"GeoRefNo":"3660415450","DateCreate":1114790400000,"BuildingBlockType":"Tower","BuildingCSUID":"3660415450T20050430","BuildingID":1103128488,"Status":"Active","BuildingNameEN":"The Chinese Muslim Cultural & Fraternal Association","BuildingNameTC":"中華回教博愛社","BaseHeight":4.5999999999999996,"TopHeight":21.100000000000001,"Storeys":null,"StoreysInBasement":null,"DateStamp":1388592000000}},{"type":"Feature","id":87013,"geometry":{"type":"Polygon","coordinates":[[[114.18014142666034,22.276929567394731],[114.17993700359632,22.276877203650756],[114.17995715452149,22.276827409660211],[114.18015807118564,22.276877775873174],[114.18014142666034,22.276929567394731]]]},"properties":{"OBJECTID":87013,"Shape__Length":55.174040534283243,"Shape__Area":128.26488527415748,"GeoRefNo":"3660315339","DateCreate":1114790400000,"BuildingBlockType":"Tower","BuildingCSUID":"3660315339T20050430","BuildingID":1103129245,"Status":"Active","BuildingNameEN":"Mandarin Commercial House","BuildingNameTC":"文華商業大廈","BaseHeight":4.5999999999999996,"TopHeight":53.700000000000003,"Storeys":null,"StoreysInBasement":null,"DateStamp":1388592000000}},{"type":"Feature","id":87928,"geometry":{"type":"Polygon","coordinates":[[[114.1829105743106,22.278265450555825],[114.18288143872334,22.278170649881293],[114.18292653210868,22.278158833587863],[114.18295583927789,22.278253697462439],[114.18293365352216,22.278259458040488],[114.1829410389351,22.278285659532528],[114.18291858246016,22.278291506993458],[114.18291598553687,22.278283057120987],[114.1829105743106,22.278265450555825]]]},"properties":{"OBJECTID":87928,"Shape__Length":37.454556311184831,"Shape__Area":60.134074490747167,"GeoRefNo":"3688915479","DateCreate":1114790400000,"BuildingBlockType":"Tower","BuildingCSUID":"3688915479T20050430","BuildingID":1103128286,"Status":"Active","BuildingNameEN":null,"BuildingNameTC":null,"BaseHeight":4.5999999999999996,"TopHeight":26,"Storeys":6,"StoreysInBasement":null,"DateStamp":1599580800000}},{"type":"Feature","id":87930,"geometry":{"type":"Polygon","coordinates":[[[114.18286971568224,22.278289864520307],[114.18282696986925,22.278300431412301],[114.18283152200033,22.278314176510296],[114.18281295245069,22.278319011839301],[114.1827762224443,22.278198220702183],[114.1828369730184,22.278182301691],[114.18286582117005,22.278277070596214],[114.18286971568224,22.278289864520307]]]},"properties":{"OBJECTID":87930,"Shape__Length":40.92311820933471,"Shape__Area":83.388738536157945,"GeoRefNo":"3687915482","DateCreate":1114790400000,"BuildingBlockType":"Tower","BuildingCSUID":"3687915482T20050430","BuildingID":1103128265,"Status":"Active","BuildingNameEN":null,"BuildingNameTC":null,"BaseHeight":4.5999999999999996,"TopHeight":27.300000000000001,"Storeys":6,"StoreysInBasement":null,"DateStamp":1599580800000}},{"type":"Feature","id":87931,"geometry":{"type":"Polygon","coordinates":[[[114.18286971568224,22.278289864520307],[114.18286582117005,22.278277070596214],[114.1828369730184,22.278182301691],[114.18288143872334,22.278170649881293],[114.1829105743106,22.278265450555825],[114.18288445311076,22.278272404312393],[114.18289241797382,22.278298319874928],[114.18287376779624,22.278303176165],[114.18286971568224,22.278289864520307]]]},"properties":{"OBJECTID":87931,"Shape__Length":37.37189592191389,"Shape__Area":58.113522329514822,"GeoRefNo":"3688415480","DateCreate":1114790400000,"BuildingBlockType":"Tower","BuildingCSUID":"3688415480T20050430","BuildingID":1103128274,"Status":"Active","BuildingNameEN":null,"BuildingNameTC":null,"BaseHeight":4.5,"TopHeight":21.100000000000001,"Storeys":null,"StoreysInBasement":null,"DateStamp":1388332800000}},{"type":"Feature","id":87932,"geometry":{"type":"Polygon","coordinates":[[[114.18295583927789,22.278253697462439],[114.18292653210868,22.278158833587863],[114.18297084808137,22.278147221042538],[114.18300822040133,22.278268166174644],[114.18298345063549,22.278274615895661],[114.18297539745497,22.278248619245701],[114.18295583927789,22.278253697462439]]]},"properties":{"OBJECTID":87932,"Shape__Length":37.349997935941666,"Shape__Area":59.832608548288938,"GeoRefNo":"3689415478","DateCreate":1114790400000,"BuildingBlockType":"Tower","BuildingCSUID":"3689415478T20050430","BuildingID":1103128297,"Status":"Active","BuildingNameEN":null,"BuildingNameTC":null,"BaseHeight":4.5,"TopHeight":26,"Storeys":6,"StoreysInBasement":null,"DateStamp":1599580800000}},{"type":"Feature","id":87933,"geometry":{"type":"Polygon","coordinates":[[[114.18425778652173,22.277513528295923],[114.18413163279619,22.277290086250396],[114.18420570883289,22.277254212291727],[114.18423524702936,22.277306749139964],[114.1841990535915,22.277324356292812],[114.18420935077225,22.27734283107176],[114.1842351438663,22.277330328961305],[114.18429191998422,22.277430914156316],[114.18430748533035,22.277423088118727],[114.18433640520232,22.277475229072635],[114.18425778652173,22.277513528295923]]]},"properties":{"OBJECTID":87933,"Shape__Length":82.681182611120647,"Shape__Area":218.77837708077061,"GeoRefNo":"3702515390","DateCreate":1114790400000,"BuildingBlockType":"Tower","BuildingCSUID":"3702515390T20050430","BuildingID":1103128847,"Status":"Active","BuildingNameEN":"Lai Chi Building","BuildingNameTC":"禮智大廈","BaseHeight":6.2000000000000002,"TopHeight":32.700000000000003,"Storeys":9,"StoreysInBasement":null,"DateStamp":1599580800000}},{"type":"Feature","id":89284,"geometry":{"type":"Polygon","coordinates":[[[114.18194998337303,22.277457962833662],[114.1819784770227,22.277402221023241],[114.18200192038121,22.277411935892992],[114.18201508886825,22.277384735001441],[114.18203824685304,22.277394284343458],[114.1820354242421,22.277399835117521],[114.18199679223102,22.27747580716105],[114.18194998337303,22.277457962833662]]]},"properties":{"OBJECTID":89284,"Shape__Length":30.594738099158977,"Shape__Area":43.653103542820013,"GeoRefNo":"3679415398","DateCreate":1114790400000,"BuildingBlockType":"Tower","BuildingCSUID":"3679415398T20050430","BuildingID":1103128873,"Status":"Active","BuildingNameEN":null,"BuildingNameTC":null,"BaseHeight":4.7999999999999998,"TopHeight":22.699999999999999,"Storeys":6,"StoreysInBasement":null,"DateStamp":1599580800000}},{"type":"Feature","id":89289,"geometry":{"type":"Polygon","coordinates":[[[114.18199679223102,22.27747580716105],[114.1820354242421,22.277399835117521],[114.18206270378101,22.277411393822],[114.18205506831131,22.277426310429281],[114.1820729972373,22.277433619071285],[114.18204379070161,22.277493723713935],[114.18199679223102,22.27747580716105]]]},"properties":{"OBJECTID":89289,"Shape__Length":28.782095120131004,"Shape__Area":43.776442915959997,"GeoRefNo":"3679915400","DateCreate":1114790400000,"BuildingBlockType":"Tower","BuildingCSUID":"3679915400T20050430","BuildingID":1103128863,"Status":"Active","BuildingNameEN":null,"BuildingNameTC":null,"BaseHeight":4.7000000000000002,"TopHeight":22.800000000000001,"Storeys":6,"StoreysInBasement":null,"DateStamp":1599580800000}},{"type":"Feature","id":89290,"geometry":{"type":"Polygon","coordinates":[[[114.18181313075236,22.277405778838435],[114.18184731940121,22.277340081406649],[114.18185958769405,22.277316506448006],[114.18188520697042,22.277327012893277],[114.18187038004609,22.277357766028651],[114.18189014422082,22.277365886037018],[114.18186070680807,22.277423922637645],[114.18181313075236,22.277405778838435]]]},"properties":{"OBJECTID":89290,"Shape__Length":32.233895235113849,"Shape__Area":48.690270229931862,"GeoRefNo":"3678015392","DateCreate":1114790400000,"BuildingBlockType":"Tower","BuildingCSUID":"3678015392T20050430","BuildingID":1103128913,"Status":"Active","BuildingNameEN":null,"BuildingNameTC":null,"BaseHeight":4.4000000000000004,"TopHeight":24.5,"Storeys":6,"StoreysInBasement":null,"DateStamp":1599580800000}},{"type":"Feature","id":89329,"geometry":{"type":"Polygon","coordinates":[[[114.18145911040844,22.277072601106106],[114.18153751009194,22.276905915785811],[114.18155120805274,22.276911502555517],[114.18159691608999,22.276930144527345],[114.18164219564727,22.276948611846368],[114.1816618509767,22.276956628214375],[114.18175559588487,22.276994862035465],[114.18177917383483,22.277004478228864],[114.1817454450665,22.277073050359174],[114.18169854210011,22.277168406043852],[114.18168160121036,22.277161627429368],[114.18159692279069,22.277127744624533],[114.18155121470109,22.277109455299719],[114.18145911040844,22.277072601106106]]]},"properties":{"OBJECTID":89329,"Shape__Length":94.165115451657755,"Shape__Area":541.99031949800576,"GeoRefNo":"3675715344","DateCreate":1114790400000,"BuildingBlockType":"Tower","BuildingCSUID":"3675715344T20050430","BuildingID":1103129103,"Status":"Active","BuildingNameEN":"Yee Hing Building","BuildingNameTC":"怡興大廈","BaseHeight":4.4000000000000004,"TopHeight":46.700000000000003,"Storeys":14,"StoreysInBasement":null,"DateStamp":1599580800000}},{"type":"Feature","id":89330,"geometry":{"type":"Polygon","coordinates":[[[114.18253812415546,22.276603151372097],[114.18245996499289,22.276570823862109],[114.18248271728169,22.276522298993758],[114.18261270418724,22.276576128058146],[114.18260245107359,22.276598818813994],[114.18258349107938,22.276591315023769],[114.18257911535429,22.276599469848442],[114.182545979005,22.276585690259225],[114.18253812415546,22.276603151372097]]]},"properties":{"OBJECTID":89330,"Shape__Length":41.035405165992515,"Shape__Area":71.53903080737993,"GeoRefNo":"3684615299","DateCreate":1114790400000,"BuildingBlockType":"Tower","BuildingCSUID":"3684615299T20050430","BuildingID":1103129431,"Status":"Active","BuildingNameEN":null,"BuildingNameTC":null,"BaseHeight":5,"TopHeight":31.800000000000001,"Storeys":9,"StoreysInBasement":null,"DateStamp":1599580800000}},{"type":"Feature","id":89331,"geometry":{"type":"Polygon","coordinates":[[[114.18261270418724,22.276576128058146],[114.18248271728169,22.276522298993758],[114.18250594205928,22.2764729862722],[114.18258152685006,22.276504743295742],[114.18257759812677,22.276512450636332],[114.18261310205229,22.276527602792466],[114.18260997806392,22.27653685028114],[114.18262701686052,22.276544453474024],[114.18261270418724,22.276576128058146]]]},"properties":{"OBJECTID":89331,"Shape__Length":40.967696915310867,"Shape__Area":78.599165333178405,"GeoRefNo":"3684815293","DateCreate":1114790400000,"BuildingBlockType":"Tower","BuildingCSUID":"3684815293T20050430","BuildingID":1103129444,"Status":"Active","BuildingNameEN":null,"BuildingNameTC":"馨閣","BaseHeight":5.0999999999999996,"TopHeight":31.800000000000001,"Storeys":9,"StoreysInBasement":null,"DateStamp":1599580800000}},{"type":"Feature","id":89332,"geometry":{"type":"Polygon","coordinates":[[[114.18258152685006,22.276504743295742],[114.18250594205928,22.2764729862722],[114.18252948262575,22.276422995515322],[114.182694189857,22.276491782370154],[114.1826875045808,22.276505697295679],[114.18267119529567,22.276499009609346],[114.1826674648253,22.276507087743145],[114.18261298094248,22.276484746169324],[114.18259968080879,22.276512370654117],[114.18258152685006,22.276504743295742]]]},"properties":{"OBJECTID":89332,"Shape__Length":49.235421697666418,"Shape__Area":83.949927445923493,"GeoRefNo":"3685015289","DateCreate":1114790400000,"BuildingBlockType":"Tower","BuildingCSUID":"3685015289T20050430","BuildingID":1103129477,"Status":"Active","BuildingNameEN":"Sports Mansion","BuildingNameTC":"好運大廈","BaseHeight":5.2999999999999998,"TopHeight":35.200000000000003,"Storeys":10,"StoreysInBasement":null,"DateStamp":1599580800000}}]}