{"type":"FeatureCollection","features":[{"type":"Feature","id":310509,"geometry":{"type":"Polygon","coordinates":[[[114.17895471862609,22.326798901001716],[114.17895395525289,22.326798880733563],[114.17895319865154,22.326798984192948],[114.17895246874342,22.326799208655778],[114.17895178474703,22.32679954821193],[114.17895116467206,22.326799993920872],[114.1789506248451,22.326800534047059],[114.17895017947986,22.326801154368937],[114.17894984030279,22.326801838553383],[114.17894961624448,22.326802568585787],[114.17894951320439,22.326803325244349],[114.17894752974115,22.326845646751373],[114.17894696825964,22.32684840968237],[114.17894595358065,22.326851040172006],[114.17894451416055,22.326853464449002],[114.17894269036744,22.32685561452525],[114.17894053334904,22.326857430102514],[114.17893810359827,22.326858860263481],[114.17893546925676,22.326859864899724],[114.17893270420382,22.326860415836528],[114.17892988598449,22.326860497623031],[114.1789270936349,22.326860107965565],[114.17869243563761,22.326850001902002],[114.17869066313905,22.326849787217586],[114.17868895385941,22.326849271268319],[114.17868735860625,22.326848469390566],[114.17868592479779,22.32684740541978],[114.17868469505332,22.326846110982029],[114.17868827658216,22.326775096758794],[114.17868896129113,22.326761491540569],[114.17867308216402,22.326760846215503],[114.17867107692221,22.326759867286516],[114.17866926527191,22.326758564512634],[114.17866769900637,22.326756975138881],[114.1786664229036,22.326755144603879],[114.17866547344612,22.326753125240824],[114.17866670041269,22.326728636986012],[114.17866737444838,22.326715183842992],[114.1786688335324,22.326686062443091],[114.17866317139227,22.326681214075666],[114.17866244830715,22.326680567886811],[114.17866183825615,22.326679814063283],[114.178661357043,22.32667897213333],[114.17866101713382,22.326678063907647],[114.17866082733417,22.326677112914357],[114.17866079256092,22.326676143789516],[114.17866457186012,22.326600905867483],[114.17866483677315,22.326599701527723],[114.17866528608066,22.326598553165443],[114.17866590881016,22.326597488824738],[114.17866668975401,22.326596534497813],[114.17866947178756,22.326593946029273],[114.17867006823548,22.3265935668597],[114.17867060121584,22.326593102692065],[114.17867105872212,22.326592563982786],[114.17867143044792,22.326591962867489],[114.17867170801932,22.326591312887643],[114.17867188518338,22.326590628685501],[114.17867195794909,22.326589925674245],[114.1786733613304,22.326561916210604],[114.17867308757482,22.326561246425207],[114.17867271903927,22.32656062374059],[114.17867226360872,22.326560061479434],[114.17867173102738,22.326559571671609],[114.1786711326901,22.326559164796823],[114.17867036942579,22.326558463620536],[114.17866972662556,22.326557650583961],[114.17866922046045,22.326556746140774],[114.17866886366411,22.326555773044184],[114.17866866521254,22.326554755774517],[114.1786686300982,22.326553719923378],[114.17866902427167,22.326545853465287],[114.17866942273531,22.326544615030979],[114.17867000966322,22.32654345399332],[114.17867077066076,22.326542398827197],[114.1786716870642,22.326541475410949],[114.17867273639837,22.326540706391704],[114.17867389292797,22.326540110629953],[114.1786751282887,22.326539702736973],[114.17867641218287,22.326539492716488],[114.17867771312247,22.326539485719337],[114.17875157915603,22.32654289056595],[114.17877106974602,22.326543788967463],[114.17883589906091,22.326546777212343],[114.17883775369002,22.326546947519343],[114.17883955231595,22.326547430839426],[114.17884124250759,22.326548213083495],[114.17884277499473,22.326549271448616],[114.17884410510435,22.326550575082749],[114.17884519406289,22.326552085984098],[114.17884601012646,22.326553760108883],[114.1788465295063,22.326555548655261],[114.17884673706212,22.326557399485925],[114.17884274574185,22.326637067098506],[114.17884311732394,22.326639721795782],[114.17884394044391,22.326642272867005],[114.17884519051584,22.326644644113735],[114.17884683020108,22.326646764708741],[114.17884881052356,22.326648571311566],[114.17885107233265,22.326650009960431],[114.17885354806991,22.326651037684062],[114.17885616378709,22.326651623785175],[114.1788684729583,22.32665215760947],[114.17888355148443,22.326652811504609],[114.17888568356993,22.326653043717961],[114.17888774429765,22.326653637951008],[114.17888967267061,22.326654576614605],[114.17889141160951,22.326655831924572],[114.17889290964226,22.326657366724081],[114.17889412242748,22.326659135583498],[114.17889501406707,22.326661086145073],[114.17889555816876,22.326663160672723],[114.17889573862729,22.326665297761011],[114.17889546139483,22.326670829901783],[114.17889758973426,22.326670922167253],[114.17889874420464,22.32667360781404],[114.17890031792514,22.326676071328677],[114.17890226943935,22.326678247815025],[114.17890454733872,22.326680079938104],[114.17890709161676,22.326681519434466],[114.1789098352498,22.326682528383586],[114.17891270596253,22.326683080206816],[114.17891562813207,22.326683160367526],[114.17893280733796,22.32668390534965],[114.17893879536193,22.326684164991551],[114.17894093433145,22.326683850845271],[114.17894300172641,22.326683218582225],[114.1789449505178,22.326682282585111],[114.17894673637461,22.326681064145955],[114.17894866725003,22.326678868514261],[114.17895029573391,22.326677894112784],[114.17895203948613,22.326677145282929],[114.17895386743689,22.326676635367207],[114.17895574701609,22.326676373451185],[114.17899907207773,22.32667825241337],[114.17900155307792,22.326678521945425],[114.17900396652983,22.32667915697246],[114.17900625889843,22.326680143408336],[114.1790083793345,22.326681459371983],[114.17901028080267,22.326683075672776],[114.1790119211247,22.326684956458024],[114.17901900918415,22.326685263853939],[114.17901738561702,22.326718621055758],[114.17901347700113,22.326798925506782],[114.17901335900804,22.326801349588649],[114.17895471862609,22.326798901001716]]]},"properties":{"OBJECTID":310509,"Shape__Length":138.35482748031183,"Shape__Area":928.76789066164758,"GeoRefNo":"3646820854","DateCreate":1687190400000,"BuildingBlockType":"Podium","BuildingCSUID":"3646820854P20230620","BuildingID":1910232916,"Status":"Active","BuildingNameEN":null,"BuildingNameTC":null,"BaseHeight":11,"TopHeight":26.800000000000001,"Storeys":null,"StoreysInBasement":null,"DateStamp":1687190400000}},{"type":"Feature","id":310826,"geometry":{"type":"Polygon","coordinates":[[[114.18234805694681,22.340062882179872],[114.18225817125793,22.340089644333805],[114.18213302134446,22.340126331200132],[114.18207793680575,22.34014249076245],[114.18177962729011,22.340229999791408],[114.18176258410649,22.340213985044233],[114.18174780941951,22.340222592754039],[114.18173184280224,22.34022871249072],[114.1817150998631,22.340232184958563],[114.18169801641801,22.340232919769804],[114.1816939299805,22.34025513889079],[114.18147033253767,22.340324820548304],[114.18141009521737,22.340140974187936],[114.1813959369788,22.340102516995785],[114.18137613372444,22.340043800866781],[114.18136111068881,22.339999816443747],[114.1813579178968,22.339989863759413],[114.18133717872202,22.339929191809752],[114.1812943435621,22.339802800571313],[114.18165051988214,22.339777537188215],[114.18164978190902,22.339768532736674],[114.18237750589701,22.339716913289781],[114.18256735510759,22.339929271683392],[114.1825281712064,22.339966249407112],[114.18248513351278,22.339998660625735],[114.18243877140675,22.340026106668944],[114.18243518605819,22.340028061731118],[114.18243311861877,22.340029108626464],[114.18243137705004,22.340029990521973],[114.18242776742247,22.340031687400774],[114.18238856748292,22.340048959241589],[114.18234805694681,22.340062882179872]]]},"properties":{"OBJECTID":310826,"Shape__Length":329.29360450074137,"Shape__Area":5429.696995789177,"GeoRefNo":"3678922321","DateCreate":1332777600000,"BuildingBlockType":"Podium","BuildingCSUID":"3678922321P20120327","BuildingID":1810081338,"Status":"Active","BuildingNameEN":null,"BuildingNameTC":null,"BaseHeight":59.700000000000003,"TopHeight":64.799999999999997,"Storeys":1,"StoreysInBasement":2,"DateStamp":1684166400000}},{"type":"Feature","id":313688,"geometry":{"type":"Polygon","coordinates":[[[114.17669767380133,22.338332874393512],[114.17673236837261,22.338223221853625],[114.1769130235336,22.338272798718791],[114.1769210932741,22.33825097624328],[114.17698862388181,22.338269522551627],[114.17697855727742,22.338301244617835],[114.17699133574618,22.338304754067185],[114.17697926556461,22.33834322432158],[114.17699274936783,22.338346440728063],[114.1769817890068,22.33837574847125],[114.17695719783514,22.338369043201155],[114.1769543063353,22.338378220613897],[114.17689941601701,22.338363253644747],[114.17690980511885,22.33833027940425],[114.17686935867174,22.338319250830914],[114.17686124737293,22.338344995733216],[114.1767976680931,22.33832765955999],[114.17678824416095,22.338357570352159],[114.17669767380133,22.338332874393512]]]},"properties":{"OBJECTID":313688,"Shape__Length":96.921071488625643,"Shape__Area":305.4266506868193,"GeoRefNo":"3626522137","DateCreate":1699977600000,"BuildingBlockType":"Tower","BuildingCSUID":"3626522137T20231115","BuildingID":1910236853,"Status":"Active","BuildingNameEN":null,"BuildingNameTC":null,"BaseHeight":25.300000000000001,"TopHeight":33.799999999999997,"Storeys":null,"StoreysInBasement":null,"DateStamp":1699977600000}},{"type":"Feature","id":313690,"geometry":{"type":"Polygon","coordinates":[[[114.17693600605516,22.339138376511894],[114.17697443649381,22.33901854557012],[114.17719648980595,22.33908212505915],[114.17715660022826,22.339198894240013],[114.17693600605516,22.339138376511894]]]},"properties":{"OBJECTID":313690,"Shape__Length":75.040894541777362,"Shape__Area":326.39210203244733,"GeoRefNo":"3628822226","DateCreate":1699977600000,"BuildingBlockType":"Tower","BuildingCSUID":"3628822226T20231115","BuildingID":1910236854,"Status":"Active","BuildingNameEN":null,"BuildingNameTC":null,"BaseHeight":31.300000000000001,"TopHeight":40.200000000000003,"Storeys":null,"StoreysInBasement":null,"DateStamp":1699977600000}},{"type":"Feature","id":313691,"geometry":{"type":"Polygon","coordinates":[[[114.17614816325467,22.339694979752576],[114.17619131324024,22.33956022094717],[114.17640911436996,22.339618521679959],[114.17636236886462,22.339753758339608],[114.17614816325467,22.339694979752576]]]},"properties":{"OBJECTID":313691,"Shape__Length":77.654334753042718,"Shape__Area":362.65188029867056,"GeoRefNo":"3620722287","DateCreate":1700064000000,"BuildingBlockType":"Tower","BuildingCSUID":"3620722287T20231116","BuildingID":1910236860,"Status":"Active","BuildingNameEN":null,"BuildingNameTC":null,"BaseHeight":32.200000000000003,"TopHeight":44.100000000000001,"Storeys":3,"StoreysInBasement":null,"DateStamp":1700064000000}},{"type":"Feature","id":314396,"geometry":{"type":"Polygon","coordinates":[[[114.16855489952449,22.342989917422344],[114.16854072013744,22.342973155511245],[114.16859394153117,22.342934142559251],[114.16849681781855,22.342819483238824],[114.16855324154635,22.342778122877636],[114.16854723326068,22.342771029781453],[114.16856816342904,22.34275568728248],[114.16857357085735,22.342762071086426],[114.16858138628602,22.34275634213078],[114.16858964774114,22.342766095023347],[114.16864340696222,22.342726698282295],[114.16869659864014,22.342789491317056],[114.16871857454045,22.342773382246254],[114.16875638728851,22.342818021964089],[114.16886420972293,22.342945311176098],[114.16884223371528,22.342961420356623],[114.16889604341884,22.343024945011276],[114.16884228842524,22.343064349239963],[114.16885054981955,22.343074102209172],[114.16884273428705,22.343079831177576],[114.16884713345063,22.343085521645705],[114.16882788071146,22.343099634480222],[114.16882187249522,22.343092541484811],[114.16876544872005,22.343133901937943],[114.16867006712383,22.343021299703373],[114.16861684571818,22.343060312589621],[114.16860227570832,22.343043111959243],[114.1685713539211,22.343065492738909],[114.16852539335031,22.343011517392487],[114.16855489952449,22.342989917422344]]]},"properties":{"OBJECTID":314396,"Shape__Length":156.77364791395055,"Shape__Area":981.55999436731202,"GeoRefNo":"3542522650","DateCreate":1640275200000,"BuildingBlockType":"Tower","BuildingCSUID":"3542522650T20211224","BuildingID":1910218435,"Status":"Active","BuildingNameEN":"Tower 3","BuildingNameTC":null,"BaseHeight":138.19999999999999,"TopHeight":162.59999999999999,"Storeys":null,"StoreysInBasement":null,"DateStamp":1678809600000}},{"type":"Feature","id":314397,"geometry":{"type":"Polygon","coordinates":[[[114.16923329654517,22.343266567886495],[114.16921857308613,22.343261360711665],[114.16921033655095,22.343281151084796],[114.16921789504818,22.34328387487886],[114.16920123847579,22.343323873731169],[114.16912053865356,22.343294792113813],[114.16912579864631,22.343282160947613],[114.16907895380274,22.343265279587911],[114.16905447724341,22.34332405675536],[114.16903374780394,22.343316586576265],[114.1690198630734,22.343349928931005],[114.16895004170814,22.343324767561274],[114.16896396218165,22.343291339514057],[114.16894323275184,22.343283869323354],[114.16896770935078,22.343225092082111],[114.16882138177775,22.343172360122725],[114.168847331157,22.343110046240056],[114.16883827909426,22.343106784133106],[114.16884714985611,22.343085528238838],[114.1688552802963,22.343088457523486],[114.16885887464068,22.343079826193126],[114.16887132138305,22.343084311656234],[114.16889604866084,22.343024946727322],[114.16897742915886,22.343054273941245],[114.16898765409744,22.343029720051007],[114.16920560766518,22.343108263618749],[114.16919538275906,22.343132817432238],[114.169276757655,22.343162142237539],[114.16923329654517,22.343266567886495]]]},"properties":{"OBJECTID":314397,"Shape__Length":157.05731308609873,"Shape__Area":967.45760766851504,"GeoRefNo":"3546222677","DateCreate":1640275200000,"BuildingBlockType":"Tower","BuildingCSUID":"3546222677T20211224","BuildingID":1910218436,"Status":"Active","BuildingNameEN":"Tower 2","BuildingNameTC":null,"BaseHeight":138.19999999999999,"TopHeight":162.59999999999999,"Storeys":7,"StoreysInBasement":null,"DateStamp":1678809600000}},{"type":"Feature","id":314840,"geometry":{"type":"Polygon","coordinates":[[[114.18203920822899,22.339261257829062],[114.18204482267475,22.339232799425037],[114.18207678216375,22.339238256020032],[114.18207099418983,22.339267594098828],[114.18203920822899,22.339261257829062]]]},"properties":{"OBJECTID":314840,"Shape__Length":13.203032495383205,"Shape__Area":10.890387650477336,"GeoRefNo":"3680222242","DateCreate":1735747200000,"BuildingBlockType":"Tower","BuildingCSUID":"3680222242T20250102","BuildingID":1910258706,"Status":"Active","BuildingNameEN":null,"BuildingNameTC":null,"BaseHeight":43.700000000000003,"TopHeight":57.100000000000001,"Storeys":null,"StoreysInBasement":null,"DateStamp":1735747200000}},{"type":"Feature","id":315816,"geometry":{"type":"Polygon","coordinates":[[[114.18487961425504,22.328789785808379],[114.1850871808183,22.328782265534826],[114.18508851387809,22.328822693043502],[114.18513003669251,22.328821507916292],[114.1851333063145,22.328920663650553],[114.18505372728349,22.328923584676062],[114.1850541977774,22.328935410021145],[114.1849662564821,22.328938438801377],[114.18496553510199,22.328920309579292],[114.18488465964272,22.328923095037794],[114.1848816556552,22.328842244369337],[114.18487961425504,22.328789785808379]]]},"properties":{"OBJECTID":315816,"Shape__Length":84.843054640728951,"Shape__Area":384.03542787942575,"GeoRefNo":"3710521091","DateCreate":1754236800000,"BuildingBlockType":"Tower","BuildingCSUID":"3710521091T20250804","BuildingID":1910265877,"Status":"Active","BuildingNameEN":"Park College","BuildingNameTC":null,"BaseHeight":23.699999999999999,"TopHeight":55.200000000000003,"Storeys":8,"StoreysInBasement":null,"DateStamp":1754496000000}},{"type":"Feature","id":316421,"geometry":{"type":"Polygon","coordinates":[[[114.17365232662129,22.331812882498401],[114.17361787406708,22.331648225072826],[114.17378339951048,22.331618719853509],[114.17380625471377,22.33172564344224],[114.17381575734481,22.331723732206594],[114.17382718491815,22.331781554595064],[114.17365232662129,22.331812882498401]]]},"properties":{"OBJECTID":316421,"Shape__Length":73.867059758862823,"Shape__Area":329.27581726039335,"GeoRefNo":"3594321408","DateCreate":1736697600000,"BuildingBlockType":"Tower","BuildingCSUID":"3594321408T20250113","BuildingID":1910258516,"Status":"Active","BuildingNameEN":null,"BuildingNameTC":null,"BaseHeight":26.600000000000001,"TopHeight":37.299999999999997,"Storeys":3,"StoreysInBasement":null,"DateStamp":1736697600000}},{"type":"Feature","id":317235,"geometry":{"type":"Polygon","coordinates":[[[114.16859912899184,22.329722032378349],[114.1686042005884,22.329683124278986],[114.16866791146467,22.329689558629763],[114.16866376166334,22.329727930902749],[114.16859912899184,22.329722032378349]]]},"properties":{"OBJECTID":317235,"Shape__Length":21.903351243296989,"Shape__Area":28.611988515746994,"GeoRefNo":"3541921185","DateCreate":1696435200000,"BuildingBlockType":"Temporary Structure","BuildingCSUID":"3541921185T20231005","BuildingID":1910235727,"Status":"Active","BuildingNameEN":null,"BuildingNameTC":null,"BaseHeight":78.599999999999994,"TopHeight":81.200000000000003,"Storeys":null,"StoreysInBasement":null,"DateStamp":1696435200000}},{"type":"Feature","id":318325,"geometry":{"type":"Polygon","coordinates":[[[114.17808819240069,22.332119794469783],[114.1780851783903,22.332061732105682],[114.17809372749619,22.332061343543717],[114.17809123376944,22.332013861042117],[114.17817078498918,22.332010245101429],[114.17817020790963,22.331999256063746],[114.17821936934573,22.331997021394177],[114.17821500034968,22.331913831813985],[114.17828564656101,22.331910620462697],[114.17829613581389,22.332110342311392],[114.17824803617117,22.332112549361376],[114.17824756636705,22.332103663906548],[114.17819574094055,22.332105266647069],[114.17817893179105,22.332105752181452],[114.17817893033327,22.332115669926019],[114.17808819240069,22.332119794469783]]]},"properties":{"OBJECTID":318325,"Shape__Length":89.207479845201931,"Shape__Area":321.18493042840583,"GeoRefNo":"3640521443","DateCreate":1729440000000,"BuildingBlockType":"Tower","BuildingCSUID":"3640521443T20241021","BuildingID":1910255482,"Status":"Active","BuildingNameEN":null,"BuildingNameTC":null,"BaseHeight":14.300000000000001,"TopHeight":23,"Storeys":2,"StoreysInBasement":null,"DateStamp":1729440000000}},{"type":"Feature","id":323999,"geometry":{"type":"Polygon","coordinates":[[[114.16863822874996,22.3316953580849],[114.16852887534415,22.331696509518235],[114.16852895255229,22.331674529359628],[114.1685290305379,22.331652533758707],[114.16853637287367,22.331652486091951],[114.16863838436819,22.331651837015002],[114.16863822874996,22.3316953580849]]]},"properties":{"OBJECTID":323999,"Shape__Length":32.221288120395698,"Shape__Area":54.575159034485665,"GeoRefNo":"3541421404","DateCreate":1114790400000,"BuildingBlockType":"Tower","BuildingCSUID":"3541421404T20050430","BuildingID":1108226113,"Status":"Active","BuildingNameEN":"MTR SHEK KIP MEI STATION","BuildingNameTC":"港鐵石硤尾站","BaseHeight":16,"TopHeight":19.199999999999999,"Storeys":null,"StoreysInBasement":null,"DateStamp":1721836800000}},{"type":"Feature","id":324416,"geometry":{"type":"Polygon","coordinates":[[[114.17755109044668,22.332029842057633],[114.17761629052687,22.332028999021087],[114.17761823473079,22.332119113006094],[114.17742887198091,22.332121055119075],[114.17742693886949,22.332031447205498],[114.17755109044668,22.332029842057633]]]},"properties":{"OBJECTID":324416,"Shape__Length":58.923743210799188,"Shape__Area":194.16350311834682,"GeoRefNo":"3633321447","DateCreate":1123603200000,"BuildingBlockType":"Tower","BuildingCSUID":"3633321447T20050810","BuildingID":1108225899,"Status":"Active","BuildingNameEN":null,"BuildingNameTC":"大師堂","BaseHeight":14.800000000000001,"TopHeight":22.399999999999999,"Storeys":2,"StoreysInBasement":null,"DateStamp":1723478400000}},{"type":"Feature","id":324702,"geometry":{"type":"Polygon","coordinates":[[[114.17807604512613,22.334336707276872],[114.17791963471339,22.334345310118575],[114.17790565572061,22.334125336800653],[114.17806206588889,22.334116734062491],[114.17807604512613,22.334336707276872]],[[114.1779538380748,22.334194863436522],[114.1779593397499,22.334284682068873],[114.17803065072671,22.334280901627768],[114.17802514900609,22.334191082997794],[114.1779538380748,22.334194863436522]]]},"properties":{"OBJECTID":324702,"Shape__Length":115.72598296739376,"Shape__Area":320.5631228306238,"GeoRefNo":"3638321678","DateCreate":1735315200000,"BuildingBlockType":"Tower","BuildingCSUID":"3638321678T20241228","BuildingID":1910258519,"Status":"Active","BuildingNameEN":null,"BuildingNameTC":null,"BaseHeight":16.100000000000001,"TopHeight":26.699999999999999,"Storeys":null,"StoreysInBasement":null,"DateStamp":1735315200000}},{"type":"Feature","id":324703,"geometry":{"type":"Polygon","coordinates":[[[114.17840361334372,22.334604435051453],[114.17841486866821,22.334770773934991],[114.17828155372754,22.334778615801156],[114.178278008181,22.334726448896213],[114.17826761875394,22.334727059997515],[114.17826390535417,22.334672422056528],[114.17827359305676,22.334671852231462],[114.17826954704337,22.334612321165029],[114.17840361334372,22.334604435051453]]]},"properties":{"OBJECTID":324703,"Shape__Length":66.584514242291846,"Shape__Area":261.00521042267371,"GeoRefNo":"3641921737","DateCreate":1735315200000,"BuildingBlockType":"Tower","BuildingCSUID":"3641921737T20241228","BuildingID":1910258553,"Status":"Active","BuildingNameEN":null,"BuildingNameTC":null,"BaseHeight":15.4,"TopHeight":24.300000000000001,"Storeys":null,"StoreysInBasement":null,"DateStamp":1735315200000}},{"type":"Feature","id":325542,"geometry":{"type":"Polygon","coordinates":[[[114.17800747876493,22.334801965496379],[114.17800985122047,22.334843316583118],[114.1779484804415,22.334846164810397],[114.17794679407892,22.334814717552256],[114.17791584621725,22.334816153804748],[114.17791282242909,22.334759763919671],[114.17793715513305,22.334758634662354],[114.17793351999646,22.334690844941655],[114.17800132481364,22.334687698122753],[114.17800364797021,22.334731022752905],[114.17804197237504,22.334729244079494],[114.17804576940746,22.334800052627951],[114.17800747876493,22.334801965496379]]]},"properties":{"OBJECTID":325542,"Shape__Length":61.423805243934915,"Shape__Area":165.10191300280621,"GeoRefNo":"3638221746","DateCreate":1735660800000,"BuildingBlockType":"Tower","BuildingCSUID":"3638221746T20250101","BuildingID":1910258664,"Status":"Active","BuildingNameEN":null,"BuildingNameTC":null,"BaseHeight":17,"TopHeight":23.800000000000001,"Storeys":2,"StoreysInBasement":null,"DateStamp":1735660800000}},{"type":"Feature","id":326368,"geometry":{"type":"Polygon","coordinates":[[[114.18020991030416,22.333914699594956],[114.18019774794341,22.333679770613088],[114.18029073757404,22.333675604022773],[114.18029563182688,22.333770139446269],[114.18028210052955,22.333770745777073],[114.18028486162949,22.333824078779596],[114.18029883110395,22.333823452842811],[114.18030333622299,22.333910474289667],[114.18020991030416,22.333914699594956]]]},"properties":{"OBJECTID":326368,"Shape__Length":74.148800519898828,"Shape__Area":241.95582605558459,"GeoRefNo":"3661621638","DateCreate":1691596800000,"BuildingBlockType":"Tower","BuildingCSUID":"3661621638T20230810","BuildingID":1910234351,"Status":"Active","BuildingNameEN":null,"BuildingNameTC":null,"BaseHeight":17.899999999999999,"TopHeight":29.600000000000001,"Storeys":null,"StoreysInBasement":null,"DateStamp":1691596800000}},{"type":"Feature","id":326740,"geometry":{"type":"Polygon","coordinates":[[[114.17825435266725,22.339101158379364],[114.17821539268994,22.339013780882603],[114.17826203213605,22.338996346686027],[114.17822566659272,22.338912153979813],[114.17819659774381,22.338923020083417],[114.17818720822574,22.338901281586793],[114.17816878486595,22.338907804883846],[114.17815817125046,22.338884998981886],[114.17817691455109,22.338877449900568],[114.178240296082,22.338851922280373],[114.17832046544216,22.338819633021071],[114.17833119734205,22.338845045315441],[114.17831931951839,22.33884938642132],[114.17832662270966,22.338866679810835],[114.17830866055594,22.338873244660217],[114.17832888150399,22.338921126468126],[114.17830378400519,22.338930299050883],[114.17833331354836,22.339000222956223],[114.17830280917316,22.339011371658689],[114.17832355706624,22.339060500944981],[114.17827190592071,22.339079378379566],[114.17827760397162,22.339092870907361],[114.17825435266725,22.339101158379364]]]},"properties":{"OBJECTID":326740,"Shape__Length":98.808678911596147,"Shape__Area":261.95187890796751,"GeoRefNo":"3641222209","DateCreate":1699977600000,"BuildingBlockType":"Tower","BuildingCSUID":"3641222209T20231115","BuildingID":1910236839,"Status":"Active","BuildingNameEN":null,"BuildingNameTC":null,"BaseHeight":30.399999999999999,"TopHeight":38.200000000000003,"Storeys":2,"StoreysInBasement":null,"DateStamp":1699977600000}},{"type":"Feature","id":326741,"geometry":{"type":"Polygon","coordinates":[[[114.1784794796404,22.339023936451607],[114.17847620885914,22.338974739821122],[114.17843811684365,22.338975281134587],[114.17843486626683,22.338900404082302],[114.17840389537277,22.338901567613892],[114.17840189767374,22.338855549278939],[114.17838060400767,22.338856349231449],[114.17837981450502,22.338838160491239],[114.17836831192538,22.338838592623347],[114.17836698129943,22.338807940794496],[114.17854406054173,22.338801288002713],[114.17854620006219,22.338827480253777],[114.17852412390388,22.338829040878583],[114.17852626089677,22.338855202245281],[114.17849180597609,22.338857637966871],[114.1784988249984,22.338943565510984],[114.17854690641323,22.338942403135615],[114.17855447598573,22.338942220095888],[114.17855709112519,22.339035833603745],[114.17855264828007,22.339036201917768],[114.17855262886545,22.339036203543468],[114.17853310366367,22.33903782229924],[114.17853136126911,22.339019635105391],[114.17847998927455,22.339023894183331],[114.1784794796404,22.339023936451607]]]},"properties":{"OBJECTID":326741,"Shape__Length":100.19499900593416,"Shape__Area":260.2655950508763,"GeoRefNo":"3643222202","DateCreate":1699977600000,"BuildingBlockType":"Tower","BuildingCSUID":"3643222202T20231115","BuildingID":1910236841,"Status":"Active","BuildingNameEN":null,"BuildingNameTC":null,"BaseHeight":30.399999999999999,"TopHeight":38.200000000000003,"Storeys":2,"StoreysInBasement":1,"DateStamp":1699977600000}},{"type":"Feature","id":326742,"geometry":{"type":"Polygon","coordinates":[[[114.17875459869012,22.338154586149315],[114.17874094055909,22.337982975518525],[114.17877844355139,22.337981895105919],[114.17877657075057,22.337962327319765],[114.17884302636666,22.337959207799727],[114.17884408840925,22.337977548520794],[114.17888419845966,22.337975314847039],[114.1788956890437,22.338147466966738],[114.17875459869012,22.338154586149315]]]},"properties":{"OBJECTID":326742,"Shape__Length":71.779762126252123,"Shape__Area":293.5705223715421,"GeoRefNo":"3646822110","DateCreate":1699977600000,"BuildingBlockType":"Tower","BuildingCSUID":"3646822110T20231115","BuildingID":1910236844,"Status":"Active","BuildingNameEN":null,"BuildingNameTC":null,"BaseHeight":25.899999999999999,"TopHeight":34.299999999999997,"Storeys":2,"StoreysInBasement":1,"DateStamp":1699977600000}},{"type":"Feature","id":326743,"geometry":{"type":"Polygon","coordinates":[[[114.18485555274786,22.337443838192925],[114.18490729971911,22.337456140050726],[114.18490117488221,22.337478580971968],[114.18494103049062,22.337488605990149],[114.18492412411322,22.337549313606939],[114.18476745562786,22.337511625209913],[114.18483414708119,22.3372704923169],[114.18488996446145,22.337285340240264],[114.18488286924507,22.337310262811407],[114.18488933658485,22.33732394408128],[114.18487603601302,22.337372226437839],[114.18489841187552,22.337378310216806],[114.18488487919481,22.337429845488515],[114.18486056480829,22.337424017007812],[114.18485555274786,22.337443838192925]]]},"properties":{"OBJECTID":326743,"Shape__Length":92.632588220751401,"Shape__Area":284.16480981280472,"GeoRefNo":"3709022038","DateCreate":1312819200000,"BuildingBlockType":"Tower","BuildingCSUID":"3709022038T20110809","BuildingID":1810071417,"Status":"Active","BuildingNameEN":null,"BuildingNameTC":null,"BaseHeight":85.5,"TopHeight":95,"Storeys":2,"StoreysInBasement":null,"DateStamp":1706716800000}},{"type":"Feature","id":326744,"geometry":{"type":"Polygon","coordinates":[[[114.1848183148964,22.337166096133153],[114.18490749102855,22.33718778523064],[114.18489596315526,22.337228445786579],[114.18480678215211,22.337206874170864],[114.18481157468767,22.337189700491059],[114.1848183148964,22.337166096133153]]]},"properties":{"OBJECTID":326744,"Shape__Length":28.313698809321501,"Shape__Area":44.284021757114019,"GeoRefNo":"3709022015","DateCreate":1312819200000,"BuildingBlockType":"Tower","BuildingCSUID":"3709022015T20110809","BuildingID":1810071477,"Status":"Active","BuildingNameEN":null,"BuildingNameTC":null,"BaseHeight":85.5,"TopHeight":89.700000000000003,"Storeys":2,"StoreysInBasement":null,"DateStamp":1706716800000}},{"type":"Feature","id":326756,"geometry":{"type":"Polygon","coordinates":[[[114.16952636925444,22.326224708117874],[114.16948789012568,22.326396877314593],[114.1693481202243,22.326369405387407],[114.16930926648749,22.326361768679828],[114.1693004508474,22.326406067813252],[114.16932208195394,22.326409994593224],[114.16932003010623,22.326419070508617],[114.16931389184309,22.326446221856607],[114.16929343189567,22.32644260226024],[114.16929645307974,22.326425407802645],[114.16928147462308,22.32642250819719],[114.16926959705567,22.326420208817495],[114.16925709420542,22.326417788397865],[114.1692447131703,22.326415391552803],[114.16923233795943,22.326412995881043],[114.16920721180608,22.326408131730478],[114.16921047697109,22.326390053823573],[114.16923849562508,22.326395271024467],[114.16924782897793,22.326350065970132],[114.16923409649615,22.326346316730646],[114.16926094102267,22.326217097966197],[114.1694651328268,22.326257010736118],[114.16947416045349,22.326215282339664],[114.16952636925444,22.326224708117874]]]},"properties":{"OBJECTID":326756,"Shape__Length":120.91420604814074,"Shape__Area":481.06923570667311,"GeoRefNo":"3549020810","DateCreate":1114790400000,"BuildingBlockType":"Tower","BuildingCSUID":"3549020810T20050430","BuildingID":1108230063,"Status":"Active","BuildingNameEN":null,"BuildingNameTC":"基督復臨安息日會九龍教會","BaseHeight":6,"TopHeight":19.100000000000001,"Storeys":null,"StoreysInBasement":null,"DateStamp":1722268800000}},{"type":"Feature","id":326757,"geometry":{"type":"Polygon","coordinates":[[[114.1693481202243,22.326369405387407],[114.16948789012568,22.326396877314593],[114.16952636925444,22.326224708117874],[114.16961958222255,22.326242125520132],[114.16957398240963,22.326465783663942],[114.16937575852563,22.32645786974523],[114.16933013233432,22.326449160258676],[114.1693481202243,22.326369405387407]]]},"properties":{"OBJECTID":326757,"Shape__Length":103.45691378631358,"Shape__Area":385.00098871764573,"GeoRefNo":"3551420809","DateCreate":1114790400000,"BuildingBlockType":"Tower","BuildingCSUID":"3551420809T20050430","BuildingID":1108230047,"Status":"Active","BuildingNameEN":"Kowloon Sam Yuk Secondary School","BuildingNameTC":"九龍三育中學","BaseHeight":6.2000000000000002,"TopHeight":28.399999999999999,"Storeys":5,"StoreysInBasement":null,"DateStamp":1722268800000}},{"type":"Feature","id":327033,"geometry":{"type":"Polygon","coordinates":[[[114.18184244902261,22.336169757334893],[114.18169214801431,22.336178273140458],[114.18168444821917,22.336037934970573],[114.18174377699302,22.336035782731848],[114.18174204739178,22.336011214560411],[114.18174046359208,22.335967235703063],[114.18167211783464,22.335970077875313],[114.18165847833014,22.335715185753447],[114.18164413250588,22.335469211337852],[114.18201886389383,22.335448926130749],[114.18217106089762,22.335441299380481],[114.18217972500759,22.335582790168463],[114.18220395867638,22.335960854442895],[114.18214633735134,22.335963682913352],[114.18214906125694,22.336012115428801],[114.18226500848304,22.336006357480017],[114.18227407061619,22.336145301617382],[114.18186523632194,22.336167277193727],[114.18186166701797,22.336116061115941],[114.18183855192578,22.336116061831838],[114.18184244902261,22.336169757334893]],[[114.18212888507512,22.335993231529685],[114.18212550524076,22.335946669989934],[114.18205108093221,22.335950203359573],[114.18202730504281,22.33556340042912],[114.18200387081033,22.335566974307007],[114.18200616257293,22.335591094903663],[114.18180694297109,22.335603548347777],[114.18183007087589,22.335962666111094],[114.18176380766269,22.335964818592632],[114.18176843307337,22.336032914774645],[114.18212979882418,22.336014266510844],[114.18212888507512,22.335993231529685]]]},"properties":{"OBJECTID":327033,"Shape__Length":489.56406249495984,"Shape__Area":3070.4398164402228,"GeoRefNo":"3680821848","DateCreate":1718899200000,"BuildingBlockType":"Tower","BuildingCSUID":"3680821848T20240621","BuildingID":1910249420,"Status":"Active","BuildingNameEN":null,"BuildingNameTC":null,"BaseHeight":40.600000000000001,"TopHeight":97.5,"Storeys":20,"StoreysInBasement":1,"DateStamp":1720454400000}},{"type":"Feature","id":327034,"geometry":{"type":"Polygon","coordinates":[[[114.18227407061619,22.336145301617382],[114.18161481233551,22.336182654819549],[114.18160298425927,22.336041814306402],[114.18162266045613,22.33603784027239],[114.18160369152116,22.335716650329548],[114.18165855244624,22.335713846245859],[114.18164413250588,22.335469211337852],[114.18201886389383,22.335448926130749],[114.18217106089762,22.335441299380481],[114.18217972500759,22.335582790168463],[114.18220078061027,22.335911274698713],[114.18220277881454,22.335911156241629],[114.18226030651779,22.335907746004501],[114.18227407061619,22.336145301617382]],[[114.18203584768037,22.335702377655945],[114.18202730504281,22.33556340042912],[114.18200387081033,22.335566974307007],[114.18200616257293,22.335591094903663],[114.18180694297109,22.335603548347777],[114.1818140371373,22.335713702739621],[114.18203584768037,22.335702377655945]]]},"properties":{"OBJECTID":327034,"Shape__Length":369.37804853534533,"Shape__Area":4476.1408495413725,"GeoRefNo":"3678821863","DateCreate":1719331200000,"BuildingBlockType":"Podium","BuildingCSUID":"3678821863P20240626","BuildingID":1910249524,"Status":"Active","BuildingNameEN":null,"BuildingNameTC":null,"BaseHeight":25.800000000000001,"TopHeight":40.600000000000001,"Storeys":null,"StoreysInBasement":null,"DateStamp":1720454400000}},{"type":"Feature","id":327063,"geometry":{"type":"Polygon","coordinates":[[[114.18146857652611,22.326636485671383],[114.18148858310208,22.326536757983259],[114.18151469430283,22.32654086777325],[114.1815329899169,22.326543747368529],[114.18153435769437,22.32653335194977],[114.1817696852048,22.326573653605593],[114.18176808940963,22.326583200519327],[114.18181185980933,22.32659045001872],[114.18179174310079,22.326690400895227],[114.18169369645857,22.326673476664226],[114.18168763061534,22.326676925627019],[114.18164398921159,22.326670186047544],[114.18164601086006,22.326661250312569],[114.18161568087872,22.326656234719962],[114.18161365932995,22.326668148922543],[114.18157220827354,22.326660782175182],[114.18156563651286,22.326652317005259],[114.18148337450704,22.326638899393984],[114.18146857652611,22.326636485671383]]]},"properties":{"OBJECTID":327063,"Shape__Length":95.336181616253882,"Shape__Area":412.18823486814091,"GeoRefNo":"3675920842","DateCreate":1658332800000,"BuildingBlockType":"Tower","BuildingCSUID":"3675920842T20220721","BuildingID":1910223171,"Status":"Active","BuildingNameEN":"Terra","BuildingNameTC":"隆敍","BaseHeight":24.800000000000001,"TopHeight":82,"Storeys":null,"StoreysInBasement":null,"DateStamp":1705939200000}},{"type":"Feature","id":327269,"geometry":{"type":"Polygon","coordinates":[[[114.17680177511708,22.331029728662923],[114.17679891959348,22.330963923807705],[114.17681492052243,22.33096342279341],[114.17681280843408,22.330905033671058],[114.17685496889281,22.33090371367015],[114.17685459003603,22.330893240724002],[114.17705006503211,22.330887120371788],[114.17705459809639,22.331012427181296],[114.17688156556625,22.331017844863862],[114.1768819047243,22.331027219781387],[114.17680177511708,22.331029728662923]]]},"properties":{"OBJECTID":327269,"Shape__Length":82.085374393865237,"Shape__Area":353.80910412844855,"GeoRefNo":"3627421324","DateCreate":1701360000000,"BuildingBlockType":"Tower","BuildingCSUID":"3627421324T20231201","BuildingID":1910237255,"Status":"Active","BuildingNameEN":null,"BuildingNameTC":null,"BaseHeight":13.6,"TopHeight":21.199999999999999,"Storeys":2,"StoreysInBasement":1,"DateStamp":1701360000000}},{"type":"Feature","id":327270,"geometry":{"type":"Polygon","coordinates":[[[114.17664968414769,22.33058092300724],[114.17664447115541,22.330497548964857],[114.17687606049006,22.330486639761354],[114.17688059987464,22.330570045584263],[114.17664968414769,22.33058092300724]]]},"properties":{"OBJECTID":327270,"Shape__Length":66.204648041910374,"Shape__Area":220.60006198971774,"GeoRefNo":"3625621277","DateCreate":1701360000000,"BuildingBlockType":"Tower","BuildingCSUID":"3625621277T20231201","BuildingID":1910237257,"Status":"Active","BuildingNameEN":null,"BuildingNameTC":null,"BaseHeight":12.1,"TopHeight":20.199999999999999,"Storeys":2,"StoreysInBasement":null,"DateStamp":1701360000000}},{"type":"Feature","id":327712,"geometry":{"type":"Polygon","coordinates":[[[114.17502297848691,22.328079332054454],[114.17499773901854,22.328031827101867],[114.17500259728097,22.328029592899732],[114.17498444878201,22.327995434416369],[114.17500144352336,22.327987618908733],[114.17504483159647,22.328069282339449],[114.17502297848691,22.328079332054454]]]},"properties":{"OBJECTID":327712,"Shape__Length":25.197639589119184,"Shape__Area":22.977708644846619,"GeoRefNo":"3607621001","DateCreate":1543420800000,"BuildingBlockType":"Temporary Structure","BuildingCSUID":"3607621001T20181129","BuildingID":1810182675,"Status":"Active","BuildingNameEN":null,"BuildingNameTC":null,"BaseHeight":null,"TopHeight":null,"Storeys":null,"StoreysInBasement":null,"DateStamp":1684944000000}},{"type":"Feature","id":331681,"geometry":{"type":"Polygon","coordinates":[[[114.18136721456506,22.333618058641978],[114.18140957796024,22.333615761245461],[114.18141492794402,22.333639432047054],[114.18134463321799,22.333643231739554],[114.1813443724956,22.333619297372035],[114.18136721456506,22.333618058641978]]]},"properties":{"OBJECTID":331681,"Shape__Length":19.311708159471426,"Shape__Area":18.513895310470467,"GeoRefNo":"3673121619","DateCreate":1158768000000,"BuildingBlockType":"Tower","BuildingCSUID":"3673121619T20060921","BuildingID":1108225166,"Status":"Active","BuildingNameEN":null,"BuildingNameTC":null,"BaseHeight":22.199999999999999,"TopHeight":24.600000000000001,"Storeys":null,"StoreysInBasement":null,"DateStamp":1712592000000}},{"type":"Feature","id":332646,"geometry":{"type":"Polygon","coordinates":[[[114.17349408540346,22.331010237927575],[114.17347052744842,22.33090925296203],[114.17357514702732,22.3308896844723],[114.17355729798793,22.330791919034851],[114.1736574573935,22.330772955902049],[114.17370080043078,22.330971100801907],[114.17349408540346,22.331010237927575]]]},"properties":{"OBJECTID":332646,"Shape__Length":88.071440570152546,"Shape__Area":366.61367507423455,"GeoRefNo":"3593021318","DateCreate":1704384000000,"BuildingBlockType":"Tower","BuildingCSUID":"3593021318T20240105","BuildingID":1910239419,"Status":"Active","BuildingNameEN":"Royal Harmony ","BuildingNameTC":"六煌臺","BaseHeight":24.800000000000001,"TopHeight":36,"Storeys":3,"StoreysInBasement":null,"DateStamp":1704643200000}},{"type":"Feature","id":333924,"geometry":{"type":"Polygon","coordinates":[[[114.18039727065668,22.340547649966911],[114.18029965248353,22.340538115802808],[114.18027370445697,22.340535578765671],[114.18025703675777,22.340533953616131],[114.18023728207655,22.340531533839542],[114.1798689230223,22.34049102099133],[114.17972027283749,22.340474669345554],[114.17969879024287,22.340471807036092],[114.17967273544733,22.340468755162039],[114.17952003730268,22.340451888660894],[114.17956402493918,22.340122669418481],[114.17968134887258,22.340135680450892],[114.1796848040853,22.340105066752841],[114.17971837234671,22.340108326194532],[114.17973016667248,22.34010023459193],[114.17973737947028,22.340109824929634],[114.17976849175679,22.340112867671273],[114.17976446384893,22.340144610202888],[114.17997058166829,22.3401672008305],[114.17997909352373,22.340098622505771],[114.18007489611405,22.340109412149335],[114.18019686993739,22.340122747815894],[114.18019994719381,22.340123154127667],[114.18020239346646,22.340123452085656],[114.18020483973847,22.340123722951898],[114.18020729571745,22.340123975756743],[114.1802097516958,22.340124201469841],[114.18021220767372,22.340124409121763],[114.1802146636512,22.340124598712485],[114.18021712933543,22.340124761211296],[114.18021958531183,22.340124905649095],[114.18022205099501,22.340125022994954],[114.18022451667774,22.340125122279623],[114.18022698236004,22.340125203503106],[114.18022944804167,22.340125257634845],[114.18023191372288,22.340125293705427],[114.18023437940343,22.340125302684218],[114.18023747605308,22.340124814968295],[114.18023989318496,22.340124345327755],[114.18024229090008,22.340123794412435],[114.18024465949118,22.340123171253136],[114.1802470086657,22.340122475849629],[114.18024933842364,22.340121708201913],[114.18025162934994,22.340120859279871],[114.18025389115225,22.340119938113819],[114.1802561141234,22.340118953734549],[114.1802582982629,22.340117888080943],[114.18026045327861,22.34011675921392],[114.18026255004833,22.340115567134102],[114.18026460798664,22.340114302810516],[114.18026663680162,22.34011299333465],[114.18027054882525,22.340110573058507],[114.18027260676341,22.340109308734799],[114.18027465499415,22.340108044411298],[114.18027671293225,22.340106780087542],[114.1802787708703,22.340105515763749],[114.18028081910069,22.340104242409595],[114.18028287703868,22.340102978085767],[114.18028492526922,22.340101713762106],[114.18028697349972,22.340100449438442],[114.18028905085329,22.340099221236407],[114.18029124470119,22.340098218796129],[114.18029350650288,22.340097297629526],[114.18029578772067,22.340096430645904],[114.18029808835459,22.340095617845282],[114.18030066079928,22.340094949527916],[114.18030311676519,22.340094687588749],[114.1803055727398,22.340094777841827],[114.18030799960073,22.340095211257214],[114.18031031968857,22.340095978805987],[114.18031249417325,22.340097062427873],[114.18031446480974,22.340098435032392],[114.18031618306034,22.340100069528877],[114.18031774599189,22.340101676936982],[114.18031896917071,22.340103537208385],[114.18032010498858,22.34010562324594],[114.18032092046579,22.340107853779518],[114.1803216582915,22.34011039135423],[114.18032184280631,22.340113371438846],[114.18032146429135,22.34011633347443],[114.18032072658319,22.340118518888634],[114.18031977531052,22.340120641093396],[114.18031863959496,22.340122672996433],[114.18031732914386,22.340124614597482],[114.18031583424916,22.340126438805072],[114.18031480529608,22.340127712137779],[114.18031431994073,22.340128308165923],[114.18031236878701,22.340129689885284],[114.18031000992949,22.340131360591652],[114.1803080490685,22.340132751341738],[114.18030612703822,22.340134187243834],[114.18030423413077,22.340135650236995],[114.18030236063898,22.340137149351996],[114.18030051627005,22.340138675558066],[114.18029870102372,22.340140219824633],[114.18029691490045,22.340141800212866],[114.18029514819261,22.340143407692342],[114.18029342031507,22.340145042262694],[114.18029172156032,22.340146703924134],[114.18029005192842,22.340148392676635],[114.18028719803564,22.340151806293512],[114.18028577109342,22.340153684682814],[114.1802844121039,22.340155599192911],[114.18028312106706,22.34015754982385],[114.18028189798289,22.340159536575616],[114.18028073314402,22.340161559448397],[114.18027963625764,22.340163609411469],[114.18027861703135,22.340165695495152],[114.18027765605011,22.3401678086693],[114.18027677272876,22.340169948933507],[114.1802759573599,22.340172116287984],[114.18027521965071,22.340174301701939],[114.18027455960143,22.340176514205961],[114.18027395779677,22.340178735739322],[114.18026879442387,22.34021819944584],[114.18025574057215,22.340325230053246],[114.18028851289401,22.340328597760401],[114.18029030839681,22.340313625034966],[114.18030589855285,22.340315484999085],[114.18031060562946,22.340274368707096],[114.18031178016501,22.340271894305353],[114.18031312944788,22.340269979795256],[114.18031476995804,22.340268263951433],[114.18031666286738,22.340266809988751],[114.18031877905392,22.34026562693839],[114.18032106027432,22.340264759954419],[114.18032344828428,22.340264218068693],[114.18032590425447,22.340264010312623],[114.18032836994085,22.340264154748557],[114.18033077739109,22.34026463331687],[114.18033261154818,22.340242851539234],[114.18037523690016,22.340247212378525],[114.18037701311849,22.340237802484346],[114.18037880874866,22.340228284222867],[114.18038045878664,22.340219524532518],[114.18038209911909,22.340210846117522],[114.18038282707708,22.340206990047584],[114.18043701396103,22.340212027909683],[114.18039727065668,22.340547649966911]],[[114.18024161907294,22.340440036002359],[114.1802749544493,22.340443295333529],[114.18028679977814,22.340342407527057],[114.18025366013036,22.340339283201207],[114.18024161907294,22.340440036002359]]]},"properties":{"OBJECTID":333924,"Shape__Length":345.80339151193476,"Shape__Area":3503.3652336187256,"GeoRefNo":"3658722360","DateCreate":1142006400000,"BuildingBlockType":"Podium","BuildingCSUID":"3658722360P20060311","BuildingID":1108245264,"Status":"Active","BuildingNameEN":"Ho Sin Hang Campus William M.W. Mong Courtyard","BuildingNameTC":"善衡校園蒙民偉廣場","BaseHeight":36.899999999999999,"TopHeight":49.600000000000001,"Storeys":3,"StoreysInBasement":null,"DateStamp":1711382400000}},{"type":"Feature","id":333925,"geometry":{"type":"Polygon","coordinates":[[[114.17988239051222,22.34153436769795],[114.17979498291614,22.341557319971724],[114.17978287297137,22.341560499856399],[114.17970018352099,22.341552205769709],[114.17970180462865,22.341540516390737],[114.17959884820455,22.341529206038519],[114.17960127997897,22.341511860529803],[114.17951521344797,22.341504690712302],[114.17951641693985,22.34149226462814],[114.17940834321254,22.341483696372048],[114.17942564828886,22.341300429707246],[114.17943146221187,22.341254048605627],[114.17943441284871,22.341230487800573],[114.17943549018655,22.341220129719183],[114.17939149582119,22.341216184061039],[114.17940993713377,22.341058681591409],[114.17942223652163,22.34106011725591],[114.17945369849213,22.341063756069698],[114.17945487289266,22.341052901305023],[114.17945832875924,22.341053343746992],[114.17950130379081,22.341057262312155],[114.17950222584679,22.341049207028124],[114.17955501515283,22.34105442581912],[114.17955598572583,22.341045485538082],[114.17956282950226,22.341046126593355],[114.1795750123953,22.341047273269982],[114.17958737973061,22.341048428973114],[114.17960497940057,22.341050081267216],[114.17960580439374,22.341042929041311],[114.17961439551853,22.341043786798171],[114.17962633572623,22.341044987658528],[114.17963917873033,22.341046278808047],[114.1796525362313,22.341047615100457],[114.17968076560214,22.341050450205628],[114.17969522975757,22.341051903872476],[114.17970777183068,22.341053158899619],[114.17971023707459,22.341031106202816],[114.17981007856181,22.341040694864002],[114.17985106356852,22.341044604342386],[114.17984498782349,22.341097135283583],[114.17987312982098,22.341099049238657],[114.17986899522332,22.341135270933933],[114.17986692792418,22.34115340435789],[114.17985922164779,22.341220926076051],[114.17985699905628,22.341240441179842],[114.17985329149934,22.341272942271168],[114.17982367392509,22.341270802575707],[114.1798211795408,22.341291374260614],[114.17981828722047,22.341315305324844],[114.17981428842101,22.34134748131984],[114.17981061961915,22.341377056504385],[114.17980845521843,22.341394458452648],[114.17980709640241,22.341405421589641],[114.17980493200255,22.341422904812962],[114.17983925750305,22.341413873609383],[114.17984731467583,22.341411751275647],[114.17985514857742,22.341409692159701],[114.17986223500623,22.341407831729871],[114.17986936997188,22.341405953237686],[114.17987625254398,22.34140413796392],[114.17988339721677,22.341402259470932],[114.17989655079184,22.34139880051432],[114.17989417275736,22.34141257217858],[114.17989289165844,22.341425856171295],[114.17988620470111,22.341494949188412],[114.17988616587996,22.341495355564771],[114.17988613676357,22.341495635512995],[114.17988580678322,22.341499058105228],[114.17988512741137,22.341506083901425],[114.17988441892362,22.341513416737566],[114.17988440921791,22.341513498012869],[114.17988240021619,22.341534205147504],[114.17988239051222,22.34153436769795]],[[114.17968726713656,22.341405875274464],[114.17971711442641,22.341408496771656],[114.17972142160953,22.341374025654414],[114.17969857559544,22.341368280811608],[114.17968726713656,22.341405875274464]]]},"properties":{"OBJECTID":333925,"Shape__Length":244.130672534182,"Shape__Area":2395.2312789033413,"GeoRefNo":"3655722461","DateCreate":1142006400000,"BuildingBlockType":"Podium","BuildingCSUID":"3655722461P20060311","BuildingID":1108245235,"Status":"Active","BuildingNameEN":"Au Shue Hung Terrace Garden","BuildingNameTC":"區樹洪平台花園","BaseHeight":43.5,"TopHeight":56.799999999999997,"Storeys":null,"StoreysInBasement":null,"DateStamp":1711036800000}},{"type":"Feature","id":335918,"geometry":{"type":"Polygon","coordinates":[[[114.18423231228199,22.335559529831034],[114.1842339771259,22.335498489108101],[114.1843179401862,22.335500295791142],[114.18431822135894,22.335559525884737],[114.18423231228199,22.335559529831034]]]},"properties":{"OBJECTID":335918,"Shape__Length":30.822539750743463,"Shape__Area":58.273505380999119,"GeoRefNo":"3703021830","DateCreate":1114790400000,"BuildingBlockType":"Tower","BuildingCSUID":"3703021830T20050430","BuildingID":1108224130,"Status":"Active","BuildingNameEN":null,"BuildingNameTC":null,"BaseHeight":92.299999999999997,"TopHeight":95.599999999999994,"Storeys":null,"StoreysInBasement":null,"DateStamp":1725206400000}},{"type":"Feature","id":336517,"geometry":{"type":"Polygon","coordinates":[[[114.18218067888067,22.329661602429546],[114.1821781020718,22.329603637098103],[114.18272157518058,22.329584804753541],[114.18272283336096,22.329612571944839],[114.18274649304904,22.329611582505127],[114.18274705632234,22.329641384763377],[114.18218067888067,22.329661602429546]]]},"properties":{"OBJECTID":336517,"Shape__Length":129.66302468217,"Shape__Area":366.09350581981676,"GeoRefNo":"3684121175","DateCreate":1149782400000,"BuildingBlockType":"Tower","BuildingCSUID":"3684121175T20060609","BuildingID":1108227668,"Status":"Active","BuildingNameEN":"LA SALLE COLLEGE","BuildingNameTC":"喇沙書院","BaseHeight":23.199999999999999,"TopHeight":34.600000000000001,"Storeys":null,"StoreysInBasement":null,"DateStamp":1684944000000}},{"type":"Feature","id":336518,"geometry":{"type":"Polygon","coordinates":[[[114.18214344164511,22.329221000591581],[114.18214425794788,22.329245934005975],[114.18214701737067,22.329318088277564],[114.18216742752465,22.329317318742973],[114.1821781020718,22.329603637098103],[114.18218067888067,22.329661602429546],[114.18216194618103,22.329662271038998],[114.18209104241107,22.329665492216574],[114.18208974481173,22.329628960750643],[114.18207394082394,22.329253284662215],[114.18207264043386,22.329222374822965],[114.18214344164511,22.329221000591581]]]},"properties":{"OBJECTID":336518,"Shape__Length":116.65601390758827,"Shape__Area":432.34215647517698,"GeoRefNo":"3680921160","DateCreate":1149782400000,"BuildingBlockType":"Tower","BuildingCSUID":"3680921160T20060609","BuildingID":1108227663,"Status":"Active","BuildingNameEN":"LA SALLE COLLEGE","BuildingNameTC":"喇沙書院","BaseHeight":21.699999999999999,"TopHeight":41,"Storeys":6,"StoreysInBasement":null,"DateStamp":1684944000000}},{"type":"Feature","id":336519,"geometry":{"type":"Polygon","coordinates":[[[114.18274649304904,22.329611582505127],[114.18272283336096,22.329612571944839],[114.18272157518058,22.329584804753541],[114.18271051099291,22.329296755194672],[114.18288933271177,22.3292905324072],[114.18293336192606,22.329289000161921],[114.18293583046342,22.329359032243477],[114.18289245708584,22.329360096229166],[114.18289839765099,22.329492361181224],[114.18289871455946,22.329503254039487],[114.18290008906372,22.329549055119333],[114.18290193531996,22.3295950116879],[114.18282822693961,22.329597882635444],[114.18282857186469,22.329608063069958],[114.18274649304904,22.329611582505127]]]},"properties":{"OBJECTID":336519,"Shape__Length":115.86376796358446,"Shape__Area":672.83822631329053,"GeoRefNo":"3687921159","DateCreate":1149782400000,"BuildingBlockType":"Tower","BuildingCSUID":"3687921159T20060609","BuildingID":1108227709,"Status":"Active","BuildingNameEN":"LA SALLE COLLEGE","BuildingNameTC":"喇沙書院","BaseHeight":23.100000000000001,"TopHeight":40.399999999999999,"Storeys":5,"StoreysInBasement":null,"DateStamp":1684944000000}},{"type":"Feature","id":336520,"geometry":{"type":"Polygon","coordinates":[[[114.18271051099291,22.329296755194672],[114.18270501324947,22.329296946481154],[114.18219222896276,22.329316383620363],[114.18216742752465,22.329317318742973],[114.18214701737067,22.329318088277564],[114.18214425794788,22.329245934005975],[114.18214344164511,22.329221000591581],[114.18229056508102,22.329215071639883],[114.18226762978117,22.328753058712163],[114.1823748974104,22.32874844948083],[114.18237723946305,22.328818219692998],[114.18249073880128,22.328813926242102],[114.18249032099695,22.328803523023918],[114.18302220410126,22.328785234708686],[114.18302282579754,22.328795944957562],[114.18309280067837,22.328792944115484],[114.18309665879373,22.328895666858987],[114.18302250030082,22.328898550465009],[114.18304138051036,22.329355659825993],[114.18293583046342,22.329359032243477],[114.18293336192606,22.329289000161921],[114.18288933271177,22.3292905324072],[114.18271051099291,22.329296755194672]],[[114.18240340468341,22.329210588630289],[114.18241093033377,22.329210325129868],[114.18292902855438,22.329192273744837],[114.18291704766871,22.328902040264282],[114.18239103660302,22.328919966809583],[114.18240340468341,22.329210588630289]]]},"properties":{"OBJECTID":336520,"Shape__Length":514.21398777617583,"Shape__Area":2910.1809536882051,"GeoRefNo":"3682921108","DateCreate":1114790400000,"BuildingBlockType":"Tower","BuildingCSUID":"3682921108T20050430","BuildingID":1108227938,"Status":"Active","BuildingNameEN":"La Salle College","BuildingNameTC":"喇沙書院","BaseHeight":14,"TopHeight":43.899999999999999,"Storeys":6,"StoreysInBasement":2,"DateStamp":1684944000000}},{"type":"Feature","id":336524,"geometry":{"type":"Polygon","coordinates":[[[114.18494587917267,22.326780491763646],[114.18494575056064,22.326780471180356],[114.18441335692387,22.326686330610269],[114.18443271464713,22.326403406846783],[114.18457463236356,22.326428966984338],[114.18461764539586,22.326436713889592],[114.18461159049531,22.3264644747454],[114.18461048589008,22.32646953897078],[114.18461962084881,22.326471596693068],[114.18461272608415,22.326505274790701],[114.18460457857417,22.32650344513327],[114.18459719097359,22.326538268693326],[114.18457077446122,22.326533239829821],[114.18456092131463,22.326575165520243],[114.184925563542,22.326638013516568],[114.18492925949712,22.326624954110674],[114.18494186852818,22.3266272766889],[114.18495139106378,22.326629030674475],[114.1849764139286,22.326633639804257],[114.18494587917267,22.326780491763646]]]},"properties":{"OBJECTID":336524,"Shape__Length":188.65856143186986,"Shape__Area":1147.7542468362574,"GeoRefNo":"3706920846","DateCreate":1114790400000,"BuildingBlockType":"Tower","BuildingCSUID":"3706920846T20050430","BuildingID":1108229850,"Status":"Active","BuildingNameEN":"St. Teresa's Hospital North Wing","BuildingNameTC":"聖德肋撒醫院北座","BaseHeight":11.300000000000001,"TopHeight":45.700000000000003,"Storeys":11,"StoreysInBasement":1,"DateStamp":1684944000000}},{"type":"Feature","id":336526,"geometry":{"type":"Polygon","coordinates":[[[114.18461764539586,22.326436713889592],[114.18457463236356,22.326428966984338],[114.18458300179419,22.326391037488207],[114.18443284815969,22.326361311392834],[114.18447685212342,22.326164741894562],[114.18448630249972,22.326166436218788],[114.18450074513987,22.326169025779286],[114.18449408018819,22.326204081026756],[114.18447976160945,22.326201795971173],[114.18447434362348,22.326227684210124],[114.18460765901403,22.326251225124292],[114.1846103700388,22.326242747892035],[114.18464616775385,22.326249147862814],[114.18465011044972,22.326235859435037],[114.18501549398295,22.326301913596264],[114.18501844941619,22.32628885494761],[114.18504233547958,22.326293103623826],[114.1852394400624,22.326328163170832],[114.18521337533765,22.326463015110704],[114.18504234368235,22.326433263927939],[114.18502077057521,22.326429511275386],[114.18498732354006,22.326423693109959],[114.18497797869956,22.326469666399884],[114.18497321656538,22.326468823453293],[114.18494885174492,22.326464458206104],[114.18462427758394,22.326406306592276],[114.18462039676687,22.326424099563074],[114.18461764539586,22.326436713889592]]]},"properties":{"OBJECTID":336526,"Shape__Length":225.55452437042408,"Shape__Area":1416.8126460561236,"GeoRefNo":"3708820812","DateCreate":1114790400000,"BuildingBlockType":"Tower","BuildingCSUID":"3708820812T20050430","BuildingID":1108230045,"Status":"Active","BuildingNameEN":"St. Teresa's Hospital South Wing","BuildingNameTC":"聖德肋撒醫院南座","BaseHeight":11.5,"TopHeight":30.300000000000001,"Storeys":5,"StoreysInBasement":null,"DateStamp":1684944000000}},{"type":"Feature","id":337588,"geometry":{"type":"Polygon","coordinates":[[[114.18015505802327,22.341351577366552],[114.18013770078907,22.34130820678315],[114.18016888117687,22.341297812047969],[114.180177858975,22.34129481904154],[114.18018683667566,22.34129182612493],[114.18019563770115,22.341288892000478],[114.18021559166112,22.341282241473102],[114.18022340913119,22.341279635087087],[114.18023122660095,22.341277028790984],[114.18023901863704,22.341274430983798],[114.18025349587026,22.341269605464429],[114.18026115908826,22.341267050283165],[114.18026882240309,22.341264495191854],[114.18027648562055,22.341261940100203],[114.18028425707526,22.341259348973875],[114.18029383420341,22.34125615574051],[114.18030743700491,22.34129137340868],[114.18033713984737,22.34136827403351],[114.18034402863124,22.341386109079565],[114.18018991949451,22.341438281950225],[114.18018131707602,22.341416886540589],[114.18015505802327,22.341351577366552]]]},"properties":{"OBJECTID":337588,"Shape__Length":64.64597108216563,"Shape__Area":260.53808812799684,"GeoRefNo":"3661522474","DateCreate":1114790400000,"BuildingBlockType":"Tower","BuildingCSUID":"3661522474T20050430","BuildingID":1108221642,"Status":"Active","BuildingNameEN":"Sing Tao Building","BuildingNameTC":"星島樓","BaseHeight":52.600000000000001,"TopHeight":74.5,"Storeys":4,"StoreysInBasement":null,"DateStamp":1684944000000}},{"type":"Feature","id":337590,"geometry":{"type":"Polygon","coordinates":[[[114.18015505802327,22.341351577366552],[114.18013978415092,22.341355097343826],[114.18016665468201,22.341437144759556],[114.17993264277047,22.341500305150028],[114.17993254588468,22.341500081374356],[114.17990944737038,22.341446649106306],[114.17991193804804,22.341412476027465],[114.17990640247476,22.341395998683602],[114.18012387139127,22.34133638253385],[114.18011633206389,22.341315330621807],[114.18013770078907,22.34130820678315],[114.18015505802327,22.341351577366552]]]},"properties":{"OBJECTID":337590,"Shape__Length":81.602581543986688,"Shape__Area":308.2661358247467,"GeoRefNo":"3659222486","DateCreate":1114790400000,"BuildingBlockType":"Tower","BuildingCSUID":"3659222486T20050430","BuildingID":1108221620,"Status":"Active","BuildingNameEN":"Au Shue Hung Building","BuildingNameTC":"區樹洪樓","BaseHeight":50.299999999999997,"TopHeight":71.599999999999994,"Storeys":null,"StoreysInBasement":null,"DateStamp":1684944000000}},{"type":"Feature","id":337592,"geometry":{"type":"Polygon","coordinates":[[[114.17990835452123,22.340788447969409],[114.17991511548622,22.340762788106261],[114.1799185280482,22.340749836396704],[114.17992091859811,22.34074076333669],[114.17991711605076,22.340738768917284],[114.17991519802203,22.340737328487457],[114.17991346151847,22.340735701301931],[114.17991192750856,22.340733906956689],[114.17991061443695,22.34073196721506],[114.17990953822435,22.340729905285258],[114.1799087117822,22.340727746272094],[114.17990814510974,22.340725516002799],[114.17990784509979,22.340723241478624],[114.17990783907098,22.340722776675271],[114.17990781524767,22.34072095015247],[114.17990805603931,22.340718669567558],[114.17990856446603,22.340716427357467],[114.17990933441268,22.340714250523753],[114.17991035665779,22.340712165255237],[114.1799116188734,22.340710196747402],[114.17991310572235,22.340708368750992],[114.17991479944043,22.340706703391206],[114.17991667944831,22.340705220625999],[114.17991872303097,22.340703938336318],[114.17991940487444,22.340703605275884],[114.17992090572602,22.340702872145538],[114.1799232011295,22.340702034696935],[114.17992558147834,22.340701436285862],[114.17992801813578,22.340701084047065],[114.17993134837319,22.340701179526814],[114.17993369630936,22.340692268204904],[114.17990842965584,22.340686655915988],[114.17991073167133,22.340677486230636],[114.17991358298251,22.340666128517753],[114.17991540316227,22.340658878379614],[114.17992593180344,22.340661100060544],[114.17994106713222,22.340664293793381],[114.17994446765321,22.34065138768775],[114.1799152744061,22.340648436062047],[114.17973093635341,22.340629797928969],[114.17973254402995,22.340617064795207],[114.17973546422742,22.340593932483952],[114.17965926486534,22.340585551926665],[114.17966425803051,22.340549539547926],[114.17964080890212,22.340547083821487],[114.1796516310646,22.340466324230089],[114.17967273738877,22.340468753084973],[114.17966418731713,22.340537786802841],[114.17968796545159,22.340550870057282],[114.17970999584445,22.340562991583447],[114.17972027477903,22.340474671693482],[114.17996441095683,22.340501522810978],[114.18023728595955,22.340531534290985],[114.18025703966993,22.340533951268121],[114.18025559473557,22.340546563394124],[114.18025215398941,22.340576595714236],[114.18024723647231,22.340619517489493],[114.1802644084853,22.340621239707957],[114.18026091418402,22.340648524207023],[114.18022111046349,22.340643814969741],[114.18017801067764,22.340638922379895],[114.18017289542412,22.340674917076658],[114.17999508022415,22.340656621277855],[114.17999142429201,22.340686184999893],[114.17998791772874,22.340714540789705],[114.1799869922924,22.340722024351447],[114.17998587565408,22.340731054040926],[114.17998145646311,22.340766789540314],[114.17998144365161,22.340766893392136],[114.17997797328651,22.340794956138716],[114.17990835452123,22.340788447969409]]]},"properties":{"OBJECTID":337592,"Shape__Length":221.26286699316614,"Shape__Area":1048.5439146346753,"GeoRefNo":"3658822390","DateCreate":1114790400000,"BuildingBlockType":"Tower","BuildingCSUID":"3658822390T20050430","BuildingID":1108221859,"Status":"Active","BuildingNameEN":"Cha Chi-Ming Science Tower","BuildingNameTC":"查濟民科學大樓","BaseHeight":46.200000000000003,"TopHeight":84.099999999999994,"Storeys":9,"StoreysInBasement":null,"DateStamp":1684944000000}},{"type":"Feature","id":337593,"geometry":{"type":"Polygon","coordinates":[[[114.18023728595955,22.340531534290985],[114.18024031196467,22.340503777683647],[114.18028376680698,22.340508590690117],[114.18030589777619,22.34031548247054],[114.18031060912421,22.340274373041712],[114.18031177890306,22.340271894937523],[114.18031312517654,22.340269976363718],[114.18031476617223,22.340268267383131],[114.18031666471173,22.340266806828023],[114.18031877779198,22.340265627660855],[114.18032105745908,22.340264756793808],[114.18032345207008,22.340264213824241],[114.18032590726381,22.340264011125296],[114.18032836741688,22.340264153213411],[114.18033077680874,22.340264637019409],[114.18033260815049,22.340242847565857],[114.18037523787089,22.340247211836676],[114.1803770139921,22.340237800226674],[114.18037880923413,22.340228287383557],[114.18038046344614,22.340219521823258],[114.18038210038107,22.340210847201153],[114.18038282921259,22.340206985622565],[114.18043701735868,22.340212030528487],[114.18039726832689,22.340547649786334],[114.1802996554928,22.340538114267538],[114.18027370455405,22.340535579217207],[114.18025703966993,22.340533951268121],[114.18023728595955,22.340531534290985]]]},"properties":{"OBJECTID":337593,"Shape__Length":107.2026620219518,"Shape__Area":433.82131379924709,"GeoRefNo":"3662722368","DateCreate":1114790400000,"BuildingBlockType":"Tower","BuildingCSUID":"3662722368T20050430","BuildingID":1108221943,"Status":"Active","BuildingNameEN":"Yeung Shui Sang Building","BuildingNameTC":"楊瑞生紀念館","BaseHeight":49.600000000000001,"TopHeight":67.599999999999994,"Storeys":7,"StoreysInBasement":null,"DateStamp":1684944000000}},{"type":"Feature","id":337595,"geometry":{"type":"Polygon","coordinates":[[[114.1796516310646,22.340466324230089],[114.17952003303145,22.340451891370122],[114.17952490904977,22.340415397035468],[114.1795267779452,22.340401409191514],[114.17952982495733,22.340378603968517],[114.17953639340864,22.340329442422721],[114.17954225554908,22.340285567384623],[114.179556621694,22.340178043833195],[114.17955765441177,22.340170314278858],[114.1795587552655,22.340162074857272],[114.17956402027964,22.340122669147632],[114.17968134469839,22.34013568045096],[114.17968479961982,22.340105062779461],[114.17971837525887,22.340108323485321],[114.17973016511934,22.340100236759284],[114.17973738277087,22.340109827458139],[114.17976848971833,22.340112871915679],[114.1797644628781,22.340144606410075],[114.17997058186252,22.340167204623334],[114.18006498011839,22.340177554059494],[114.18005534867731,22.340251656410796],[114.17996473393397,22.340241362253426],[114.17996028155999,22.340277379870077],[114.17972471626307,22.340251029518573],[114.17970004491717,22.340248269763105],[114.17967703697718,22.340434037326911],[114.17967273738877,22.340468753084973],[114.1796516310646,22.340466324230089]]]},"properties":{"OBJECTID":337595,"Shape__Length":185.63618128049694,"Shape__Area":1014.1179716867279,"GeoRefNo":"3655322349","DateCreate":1114790400000,"BuildingBlockType":"Tower","BuildingCSUID":"3655322349T20050430","BuildingID":1108221975,"Status":"Active","BuildingNameEN":"Ho Sin Hang Campus Sir Run Run Shaw Building","BuildingNameTC":"善衡校園邵逸夫大樓","BaseHeight":49.600000000000001,"TopHeight":67.200000000000003,"Storeys":5,"StoreysInBasement":null,"DateStamp":1684944000000}},{"type":"Feature","id":337597,"geometry":{"type":"Polygon","coordinates":[[[114.17290369992993,22.339274302086761],[114.17294600414832,22.339144609276325],[114.17295183918347,22.339146195004069],[114.17295942569112,22.339148582327098],[114.17296165213891,22.33914954648419],[114.17296427881452,22.339150716096349],[114.17296685316495,22.339151982153734],[114.1729693712103,22.33915334275984],[114.17297182897062,22.339154795747209],[114.17297422246591,22.339156338677522],[114.17297654791045,22.33915796920272],[114.1729788016155,22.3391596847942],[114.17298097998939,22.33916148247172],[114.1729830795376,22.339163359616403],[114.17298509695971,22.33916531315775],[114.17298702905238,22.339167340025295],[114.17298887270935,22.339169436877661],[114.1729906250185,22.339171600554078],[114.17299228316482,22.339173827442217],[114.17299384462446,22.339176114110494],[114.17299530667947,22.339178456856214],[114.17299666719438,22.339180851976852],[114.17299792403364,22.339183295769821],[114.17299907506171,22.339185784080975],[114.17300011843436,22.33918831320776],[114.17300105259847,22.339190879086424],[114.17300187609808,22.339193477472502],[114.1730025874772,22.339196104392549],[114.17300318566807,22.339198755602133],[114.17300366979721,22.339201426856906],[114.17300403899104,22.339204114002758],[114.1730042927643,22.339206812705033],[114.17300443053468,22.339209518629008],[114.17300445230225,22.339212227620646],[114.17300435787301,22.339214935164645],[114.17300414744122,22.339217637016645],[114.17300382139526,22.339220329022581],[114.17300338022063,22.339223006757496],[114.17300282459692,22.339225665977022],[114.17300215539795,22.339228302436837],[114.17300120506101,22.339231426992448],[114.17300024124638,22.339233983253791],[114.17299917094314,22.339236502667855],[114.17299799580174,22.339238981351578],[114.17299671766659,22.339241415421824],[114.17299533847928,22.339243801356719],[114.17299386037556,22.339246135363453],[114.17299228549109,22.339248414010491],[114.17299061634986,22.339250633866225],[114.17298885537886,22.339252791408839],[114.17298700529618,22.339254883387341],[114.17298506901412,22.339256906731443],[114.17298304925085,22.339258858280466],[114.1729809493069,22.339260735054456],[114.17297877228876,22.339262534163641],[114.17297652149691,22.339264252989246],[114.17297420032907,22.339265888822194],[114.17297181237701,22.339267439314614],[114.17296936123249,22.339268901847689],[114.17296685068149,22.339270274434842],[114.17296428450987,22.339271554908777],[114.17296166660068,22.339272741192566],[114.17295900093396,22.339273831751093],[114.17295629158683,22.339274824688072],[114.17295354263646,22.339275718558646],[114.17295075835409,22.339276512098696],[114.17294794291391,22.339277204043999],[114.17294510058721,22.339277793220692],[114.17294223574234,22.339278278906434],[114.1729393527476,22.339278660288592],[114.17293645597132,22.339278936735091],[114.17293354978185,22.339279107975166],[114.17293063854748,22.339279173557383],[114.17292772683068,22.339279133572109],[114.17292481909685,22.339278987929198],[114.1729219196172,22.339278736899651],[114.17291903285708,22.339278380935127],[114.17291616318485,22.339277920487238],[114.17291331496877,22.339277356278529],[114.17291049267418,22.339276689121881],[114.17290753516055,22.339275871151319],[114.17290369992993,22.339274302086761]]]},"properties":{"OBJECTID":337597,"Shape__Length":40.019997963931331,"Shape__Area":99.220263776798816,"GeoRefNo":"3586422238","DateCreate":1154448000000,"BuildingBlockType":"Tower","BuildingCSUID":"3586422238T20060802","BuildingID":1108222422,"Status":"Active","BuildingNameEN":"CORNWALL ST PARK (SQUASH & TABLE TENNIS CENTRE)","BuildingNameTC":"歌和老街公園(壁球及乒乓球中心)","BaseHeight":40.100000000000001,"TopHeight":46.799999999999997,"Storeys":null,"StoreysInBasement":null,"DateStamp":1684944000000}},{"type":"Feature","id":337598,"geometry":{"type":"Polygon","coordinates":[[[114.18182227551405,22.338429338120989],[114.18212124503779,22.338395453962708],[114.18213814424068,22.338520824407738],[114.18215685875536,22.338659406427528],[114.18215687633048,22.338659536286595],[114.18218516406243,22.338869946259482],[114.18219386317722,22.338933424577274],[114.18217717878292,22.338935065441795],[114.18214456843812,22.338938664655789],[114.18211203382339,22.338942651814151],[114.1820944772829,22.338943269715308],[114.18207692070598,22.338942917550447],[114.18205943990584,22.338941560007548],[114.18204207274206,22.338939214695088],[114.1820279667166,22.338935881602449],[114.18201420187674,22.338931807719803],[114.18200081617309,22.338926851898137],[114.18198769593511,22.33892106715064],[114.18197506860609,22.338914470989458],[114.18196285837529,22.33890715164582],[114.18195129268592,22.338899126812553],[114.18194022000553,22.33889036118499],[114.18192982972843,22.338880978114947],[114.18192031165445,22.338871577497535],[114.18191860572894,22.338869954847464],[114.18191140036366,22.33886155944024],[114.18190324729593,22.338851082876538],[114.18189577683115,22.338840147628297],[114.18188895101748,22.33882885962538],[114.1818828455585,22.338816848431428],[114.18187772605633,22.338804396243656],[114.1818734406973,22.338791750053055],[114.18187014129779,22.33877875109745],[114.18186771399972,22.338765646276368],[114.18185789021854,22.338690244818768],[114.18192974667437,22.338681846940329],[114.18192147820625,22.338623518909341],[114.18184954586874,22.338631916786493],[114.18182227551405,22.338429338120989]]]},"properties":{"OBJECTID":337598,"Shape__Length":187.22457507080867,"Shape__Area":1699.5848518728467,"GeoRefNo":"3679522152","DateCreate":1114790400000,"BuildingBlockType":"Tower","BuildingCSUID":"3679522152T20050430","BuildingID":1108222565,"Status":"Active","BuildingNameEN":"Shaw Tower","BuildingNameTC":"逸夫行政樓","BaseHeight":36.200000000000003,"TopHeight":72,"Storeys":8,"StoreysInBasement":null,"DateStamp":1684944000000}},{"type":"Feature","id":337648,"geometry":{"type":"Polygon","coordinates":[[[114.17986801369766,22.328959164866959],[114.17986572334064,22.328919679584921],[114.17984489760086,22.328920766804284],[114.17983485281985,22.3287542245093],[114.17985606194588,22.32875311732645],[114.17985294710085,22.32869941728703],[114.17999926798821,22.328691662639454],[114.18000173088323,22.328731926895504],[114.17995451689434,22.328734222844918],[114.1799607260527,22.328831338077535],[114.18028429273521,22.328813848115363],[114.18027911411086,22.328717218989357],[114.18039517749565,22.328711548251942],[114.18039943806308,22.328781957003471],[114.18043050958745,22.328780447215511],[114.18043984485215,22.328928464239372],[114.17986801369766,22.328959164866959]]]},"properties":{"OBJECTID":337648,"Shape__Length":210.87140445686597,"Shape__Area":1156.6749656249663,"GeoRefNo":"3660721093","DateCreate":1114790400000,"BuildingBlockType":"Tower","BuildingCSUID":"3660721093T20050430","BuildingID":1108228213,"Status":"Active","BuildingNameEN":"Shine","BuildingNameTC":"展亮","BaseHeight":21.5,"TopHeight":43.200000000000003,"Storeys":5,"StoreysInBasement":1,"DateStamp":1731340800000}},{"type":"Feature","id":337726,"geometry":{"type":"Polygon","coordinates":[[[114.18182227551405,22.338429338120989],[114.18178506646117,22.338152927947544],[114.18208386695029,22.338118154350791],[114.18212124503779,22.338395453962708],[114.18182227551405,22.338429338120989]]]},"properties":{"OBJECTID":337726,"Shape__Length":123.84180818310358,"Shape__Area":958.5427639613348,"GeoRefNo":"3679822134","DateCreate":1114790400000,"BuildingBlockType":"Tower","BuildingCSUID":"3679822134T20050430","BuildingID":1108222825,"Status":"Active","BuildingNameEN":"Au Shue Hung Memorial Library","BuildingNameTC":"區樹洪紀念圖書館","BaseHeight":36,"TopHeight":67.599999999999994,"Storeys":8,"StoreysInBasement":null,"DateStamp":1684944000000}},{"type":"Feature","id":337727,"geometry":{"type":"Polygon","coordinates":[[[114.18044701562266,22.337724282798682],[114.18045631897863,22.337868432225935],[114.18044049346634,22.337869122063502],[114.18039088184646,22.337872250629275],[114.18034966376132,22.337874246744473],[114.18035034706463,22.337897863396304],[114.18031381795512,22.337899629301447],[114.18031119989683,22.337859974662596],[114.18028997242111,22.337861544721125],[114.1802798665681,22.337856486189555],[114.18027840533328,22.337848462104134],[114.18014018503362,22.337856718839788],[114.1801398821537,22.337852018161307],[114.18013873482279,22.337834216575441],[114.18013281337636,22.337742339726077],[114.18008842631434,22.337744919395082],[114.18004840060993,22.337747245477185],[114.18003579625442,22.337552182163353],[114.18007504009104,22.337550182916459],[114.18007410988953,22.337526803771503],[114.18008844742366,22.337516971626734],[114.18015087410703,22.337513801170164],[114.18015539693765,22.337589275547192],[114.1802030341097,22.337586143843499],[114.1802953443739,22.337581021560865],[114.1802976967341,22.337628468238005],[114.18037865326967,22.337624015225661],[114.18038079396683,22.33765702237908],[114.18038125126337,22.337671920649125],[114.18040815529945,22.337670130558937],[114.1804069375403,22.337655420412592],[114.18044274639446,22.337653226182312],[114.18044701562266,22.337724282798682]]]},"properties":{"OBJECTID":337727,"Shape__Length":172.01477142024163,"Shape__Area":1146.3796377353597,"GeoRefNo":"3660922065","DateCreate":1114790400000,"BuildingBlockType":"Tower","BuildingCSUID":"3660922065T20050430","BuildingID":1108223060,"Status":"Active","BuildingNameEN":"Kowloon East Barracks Block 16","BuildingNameTC":"九龍東軍營１６座","BaseHeight":27,"TopHeight":46,"Storeys":null,"StoreysInBasement":null,"DateStamp":1684944000000}},{"type":"Feature","id":337728,"geometry":{"type":"Polygon","coordinates":[[[114.18185667451243,22.337802772466585],[114.18184962999739,22.337803626164469],[114.18187390496759,22.337994537432859],[114.18176576058809,22.338007716188702],[114.1817325353541,22.337774015877301],[114.18173115697651,22.337761569439969],[114.18173090431443,22.337759288324612],[114.18172096920435,22.337677343208387],[114.18183071654811,22.337663274920924],[114.18185667451243,22.337802772466585]]]},"properties":{"OBJECTID":337728,"Shape__Length":97.220428112599947,"Shape__Area":427.69940891279066,"GeoRefNo":"3677622084","DateCreate":1114790400000,"BuildingBlockType":"Tower","BuildingCSUID":"3677622084T20050430","BuildingID":1108223018,"Status":"Active","BuildingNameEN":"The Wing Lung Bank Building For Business Studies","BuildingNameTC":"永隆銀行商學大樓","BaseHeight":44.600000000000001,"TopHeight":67.599999999999994,"Storeys":9,"StoreysInBasement":null,"DateStamp":1684944000000}},{"type":"Feature","id":337729,"geometry":{"type":"Polygon","coordinates":[[[114.18044049346634,22.337869122063502],[114.18045631897863,22.337868432225935],[114.18044701562266,22.337724282798682],[114.18064570411994,22.337713602208495],[114.18064711795068,22.337741107678486],[114.18065141070858,22.337802538238059],[114.18065533582576,22.337802312922943],[114.18070970842905,22.337799191657677],[114.1807258162939,22.338056374520548],[114.18065534286089,22.338060303956702],[114.18044616947448,22.338071966686801],[114.18044239602604,22.338013786757596],[114.18047444962558,22.33801173474528],[114.18047326260756,22.337992480595229],[114.18044116417158,22.337994792959755],[114.18043903365172,22.337961942759655],[114.18044569738412,22.337961724251883],[114.18044049346634,22.337869122063502]]]},"properties":{"OBJECTID":337729,"Shape__Length":141.2114519576088,"Shape__Area":997.31446754262447,"GeoRefNo":"3665122093","DateCreate":1133971200000,"BuildingBlockType":"Tower","BuildingCSUID":"3665122093T20051208","BuildingID":1108222986,"Status":"Active","BuildingNameEN":"Kowloon East Barracks Block 17","BuildingNameTC":"九龍東軍營１７座","BaseHeight":30.699999999999999,"TopHeight":44.799999999999997,"Storeys":null,"StoreysInBasement":null,"DateStamp":1684944000000}},{"type":"Feature","id":337730,"geometry":{"type":"Polygon","coordinates":[[[114.18207774915356,22.33777598050618],[114.18185667451243,22.337802772466585],[114.18183071654811,22.337663274920924],[114.18184913196178,22.337661041903484],[114.18184147045618,22.337607387796574],[114.18184833338003,22.337596822534806],[114.18185436204415,22.337585710497336],[114.18185940482877,22.337574245755984],[114.18186357550593,22.337562516445708],[114.18186687397809,22.337550505047268],[114.18186911076373,22.337538299524425],[114.1818704754463,22.337525935361434],[114.1818706646164,22.337514470770518],[114.18186990577541,22.337502900370723],[114.18186816117328,22.337491524068589],[114.18186554438091,22.337480235931928],[114.18186194163368,22.337469141802575],[114.18185746680257,22.337458382824781],[114.1818520440756,22.337447994310388],[114.18184582507969,22.337437976254591],[114.1818389234858,22.337428310953893],[114.18183126357845,22.337419016020149],[114.1818228073179,22.337410444278959],[114.18181359274958,22.337402401661983],[114.18180648027571,22.337350472374585],[114.18193581604147,22.337104997555635],[114.18193636303958,22.337104935678962],[114.18191425634146,22.336943680468412],[114.18191425061269,22.336943638295807],[114.18191909894158,22.336943071926605],[114.18205757962441,22.336928909835596],[114.18206897688701,22.337426963182846],[114.18205589492067,22.33742858630907],[114.1820124021699,22.337432379824342],[114.18201433675928,22.337451799019405],[114.18205782951534,22.337447987803717],[114.18205990539664,22.337447795204895],[114.18206841101808,22.33750659805721],[114.18203568726479,22.337511026169967],[114.18203891109837,22.337531080262828],[114.1820666742786,22.337526852066077],[114.18206674341029,22.337527287247223],[114.18207159701851,22.337527198951936],[114.18207774915356,22.33777598050618]]]},"properties":{"OBJECTID":337730,"Shape__Length":251.66384919776027,"Shape__Area":1913.5556340823819,"GeoRefNo":"3678422066","DateCreate":1114790400000,"BuildingBlockType":"Tower","BuildingCSUID":"3678422066T20050430","BuildingID":1108223105,"Status":"Active","BuildingNameEN":"Lam Woo International Conference Centre","BuildingNameTC":"林護國際會議中心","BaseHeight":44.600000000000001,"TopHeight":67.599999999999994,"Storeys":9,"StoreysInBasement":null,"DateStamp":1684944000000}},{"type":"Feature","id":337731,"geometry":{"type":"Polygon","coordinates":[[[114.18180648027571,22.337350472374585],[114.18180612082168,22.337347848100659],[114.18167842358412,22.337363340038127],[114.18164015425543,22.337080087179686],[114.18162615078055,22.336978559550335],[114.1817316973389,22.336965935351657],[114.18175719782127,22.337126247781853],[114.18187861305201,22.337111710419119],[114.18187857945632,22.337111466504343],[114.18193581604147,22.337104997555635],[114.18180648027571,22.337350472374585]]]},"properties":{"OBJECTID":337731,"Shape__Length":134.26503564257831,"Shape__Area":741.4936422194578,"GeoRefNo":"3677322020","DateCreate":1114790400000,"BuildingBlockType":"Tower","BuildingCSUID":"3677322020T20050430","BuildingID":1108223297,"Status":"Active","BuildingNameEN":"David C. Lam Building","BuildingNameTC":"思齊樓","BaseHeight":39.899999999999999,"TopHeight":67.599999999999994,"Storeys":9,"StoreysInBasement":null,"DateStamp":1684944000000}},{"type":"Feature","id":337845,"geometry":{"type":"Polygon","coordinates":[[[114.17417986590154,22.335639187669177],[114.17413846409826,22.335598048737332],[114.17421624567804,22.33552871089681],[114.17424213439486,22.335553971099358],[114.17422408921108,22.335569709569683],[114.17424131936126,22.335586953822094],[114.17418116177402,22.335640475360258],[114.17417986590154,22.335639187669177]]]},"properties":{"OBJECTID":337845,"Shape__Length":35.128764401727722,"Shape__Area":65.014518541170489,"GeoRefNo":"3599121836","DateCreate":1134489600000,"BuildingBlockType":"Tower","BuildingCSUID":"3599121836T20051214","BuildingID":1108224079,"Status":"Active","BuildingNameEN":null,"BuildingNameTC":null,"BaseHeight":25.100000000000001,"TopHeight":38.299999999999997,"Storeys":5,"StoreysInBasement":null,"DateStamp":1684944000000}},{"type":"Feature","id":337846,"geometry":{"type":"Polygon","coordinates":[[[114.17424213439486,22.335553971099358],[114.17421624567804,22.33552871089681],[114.17423198956756,22.33551467609896],[114.17423383074052,22.335513034911489],[114.17427286656489,22.33547838367495],[114.17429112453657,22.335461213043185],[114.17434302855794,22.335511958374127],[114.1743626918587,22.335531182695316],[114.17430567280805,22.335580952574858],[114.17427286528076,22.335548783521226],[114.17426100265152,22.335537514618892],[114.17424213439486,22.335553971099358]]]},"properties":{"OBJECTID":337846,"Shape__Length":42.678034705635348,"Shape__Area":95.758765734354341,"GeoRefNo":"3600321829","DateCreate":1187798400000,"BuildingBlockType":"Tower","BuildingCSUID":"3600321829T20070823","BuildingID":1108224115,"Status":"Active","BuildingNameEN":null,"BuildingNameTC":null,"BaseHeight":24.899999999999999,"TopHeight":37.299999999999997,"Storeys":5,"StoreysInBasement":null,"DateStamp":1684944000000}},{"type":"Feature","id":337847,"geometry":{"type":"Polygon","coordinates":[[[114.18260193173556,22.335441803055463],[114.18260391483449,22.335468713380745],[114.18252491166314,22.33547445790667],[114.18252330833508,22.335457481472307],[114.18237163791186,22.335469259530221],[114.18237216390139,22.335478146412385],[114.18234352810776,22.335480585644643],[114.18234278245056,22.335471743290611],[114.18226499770113,22.335477526931378],[114.1822554542499,22.33537380809798],[114.1823755255253,22.335364297546398],[114.18259473564828,22.33534881085771],[114.18260193173556,22.335441803055463]]]},"properties":{"OBJECTID":337847,"Shape__Length":98.598635423855882,"Shape__Area":420.68742313597227,"GeoRefNo":"3685021815","DateCreate":1114790400000,"BuildingBlockType":"Tower","BuildingCSUID":"3685021815T20050430","BuildingID":1108224172,"Status":"Active","BuildingNameEN":"The Riady Building","BuildingNameTC":"李文正樓","BaseHeight":26.899999999999999,"TopHeight":89.400000000000006,"Storeys":19,"StoreysInBasement":null,"DateStamp":1684944000000}},{"type":"Feature","id":337848,"geometry":{"type":"Polygon","coordinates":[[[114.18259473564828,22.33534881085771],[114.18259399990224,22.33533821621122],[114.18274517319922,22.335327296951622],[114.18274411348224,22.335318180803661],[114.1827735105706,22.335315962270244],[114.18277453282258,22.335325135582963],[114.18285199287052,22.335319549750139],[114.18285255365571,22.335326512665219],[114.18286029937296,22.3354226853101],[114.18285087858996,22.335423445402729],[114.18285281775887,22.335441208113743],[114.18284800355569,22.335443993864246],[114.18283053108425,22.335450315915658],[114.18281218485085,22.335453748212917],[114.18279345019897,22.335454019820578],[114.18277500662545,22.335451130713579],[114.18276510089714,22.335447839882946],[114.18276300614841,22.335430399297248],[114.18260193173556,22.335441803055463],[114.18259473564828,22.33534881085771]]]},"properties":{"OBJECTID":337848,"Shape__Length":82.57133283719979,"Shape__Area":334.09598555113251,"GeoRefNo":"3687621813","DateCreate":1114790400000,"BuildingBlockType":"Tower","BuildingCSUID":"3687621813T20050430","BuildingID":1108224186,"Status":"Active","BuildingNameEN":"The Hong Kong Bank Foundation Building","BuildingNameTC":"滙豐銀行慈善基金學生宿舍","BaseHeight":27.699999999999999,"TopHeight":89.400000000000006,"Storeys":19,"StoreysInBasement":null,"DateStamp":1684944000000}},{"type":"Feature","id":337852,"geometry":{"type":"Polygon","coordinates":[[[114.18257071125623,22.335055394540003],[114.18256338256009,22.334963524390353],[114.18282151323558,22.334946425680336],[114.18282828222604,22.335036699413774],[114.1828292385277,22.335049453804245],[114.18282729954801,22.33504954373025],[114.18275181577177,22.335054227956739],[114.18275236376599,22.335064162655161],[114.18272343964675,22.335066120635442],[114.18272306483178,22.335056266844603],[114.18257164359663,22.335066716502691],[114.18257071125623,22.335055394540003]]]},"properties":{"OBJECTID":337852,"Shape__Length":78.370968873164742,"Shape__Area":307.58308777353534,"GeoRefNo":"3687421771","DateCreate":1114790400000,"BuildingBlockType":"Tower","BuildingCSUID":"3687421771T20050430","BuildingID":1108224385,"Status":"Active","BuildingNameEN":"Alumni Building","BuildingNameTC":"校友樓","BaseHeight":26.199999999999999,"TopHeight":89.400000000000006,"Storeys":19,"StoreysInBasement":null,"DateStamp":1684944000000}},{"type":"Feature","id":337853,"geometry":{"type":"Polygon","coordinates":[[[114.18235729728238,22.335070884340499],[114.18223238581751,22.335079950374663],[114.18223226651806,22.33507995651944],[114.18222372333544,22.334976322262282],[114.18230144810924,22.334970511912516],[114.18230060257626,22.334961780456592],[114.18232962655713,22.334959612135918],[114.18233063817163,22.334968143558775],[114.18248212710158,22.334958390019668],[114.18248105578688,22.334942810053736],[114.18256026503076,22.33493702770345],[114.18256338256009,22.334963524390353],[114.18257071125623,22.335055394540003],[114.18235729728238,22.335070884340499]]]},"properties":{"OBJECTID":337853,"Shape__Length":98.145219728642331,"Shape__Area":418.85018681180759,"GeoRefNo":"3684721773","DateCreate":1114790400000,"BuildingBlockType":"Tower","BuildingCSUID":"3684721773T20050430","BuildingID":1108224379,"Status":"Active","BuildingNameEN":"Wai Lun Building","BuildingNameTC":"偉倫樓","BaseHeight":26.699999999999999,"TopHeight":89.400000000000006,"Storeys":19,"StoreysInBasement":null,"DateStamp":1684944000000}},{"type":"Feature","id":339251,"geometry":{"type":"Polygon","coordinates":[[[114.17661044537536,22.33856900825759],[114.17662092823534,22.338536319673601],[114.17670418572366,22.338559684562469],[114.1767790037172,22.338581115960238],[114.17677448380044,22.338594939508589],[114.17678377086757,22.338597567498681],[114.17677416597047,22.338626942595379],[114.17676487880451,22.338624314604761],[114.17674500452854,22.33868509676396],[114.17675429169819,22.338687724755705],[114.17674468678872,22.338717099850356],[114.17673539961731,22.338714471767741],[114.17673087969196,22.338728295314649],[114.17666071647187,22.338708598582777],[114.17666346733806,22.338700118064818],[114.17661925107156,22.338687682733241],[114.17661657232858,22.338695926017397],[114.17657371848746,22.338683532396431],[114.17658509152893,22.338648068360285],[114.17655616747767,22.338640040856699],[114.17656171785389,22.338622733501744],[114.17656746661034,22.338624328942572],[114.17656918160885,22.338618981039946],[114.17657615824083,22.338620917296268],[114.17658698145235,22.338587167984102],[114.1765800048219,22.338585231728221],[114.17658083742135,22.338582635620334],[114.17658171991653,22.338579883735125],[114.17657876181373,22.338579062670846],[114.17657597116174,22.338578288114189],[114.17658152153308,22.338560980758434],[114.17661044537536,22.33856900825759]]]},"properties":{"OBJECTID":339251,"Shape__Length":82.890478629238615,"Shape__Area":314.00187864048934,"GeoRefNo":"3624722173","DateCreate":1484150400000,"BuildingBlockType":"Tower","BuildingCSUID":"3624722173T20170112","BuildingID":1810158053,"Status":"Active","BuildingNameEN":null,"BuildingNameTC":null,"BaseHeight":26.899999999999999,"TopHeight":36,"Storeys":2,"StoreysInBasement":1,"DateStamp":1684944000000}},{"type":"Feature","id":339883,"geometry":{"type":"Polygon","coordinates":[[[114.18050218171588,22.329074090485406],[114.18024421733872,22.329086546950091],[114.1798436105226,22.329107037970964],[114.17983705082301,22.328996031628719],[114.18049596803525,22.328963534607087],[114.18050218171588,22.329074090485406]]]},"properties":{"OBJECTID":339883,"Shape__Length":160.49405361654152,"Shape__Area":833.22196665429828,"GeoRefNo":"3660721111","DateCreate":1452787200000,"BuildingBlockType":"Tower","BuildingCSUID":"3660721111T20160115","BuildingID":1810148401,"Status":"Active","BuildingNameEN":"Philip Wong Building","BuildingNameTC":"乾亨樓","BaseHeight":19.699999999999999,"TopHeight":50.299999999999997,"Storeys":6,"StoreysInBasement":null,"DateStamp":1684944000000}},{"type":"Feature","id":340069,"geometry":{"type":"Polygon","coordinates":[[[114.17617202779647,22.33727233179405],[114.17616935078365,22.337243225428331],[114.17619319333252,22.33724164363823],[114.17619997536958,22.337241103817053],[114.17624482013947,22.337237534109114],[114.17624746833873,22.337266326751354],[114.17617202779647,22.33727233179405]]]},"properties":{"OBJECTID":340069,"Shape__Length":22.035111983372577,"Shape__Area":25.002895442010551,"GeoRefNo":"3619922021","DateCreate":1427904000000,"BuildingBlockType":"Temporary Structure","BuildingCSUID":"3619922021T20150402","BuildingID":1810140670,"Status":"Active","BuildingNameEN":null,"BuildingNameTC":null,"BaseHeight":null,"TopHeight":null,"Storeys":null,"StoreysInBasement":null,"DateStamp":1684944000000}},{"type":"Feature","id":340348,"geometry":{"type":"Polygon","coordinates":[[[114.18055941008542,22.329354293557699],[114.1799604210818,22.32938443857735],[114.17995611090318,22.329308860895079],[114.17995479624858,22.329270288769784],[114.18025426655468,22.329254831302659],[114.18055245999285,22.329239779416906],[114.18055941008542,22.329354293557699]]]},"properties":{"OBJECTID":340348,"Shape__Length":148.81971337623179,"Shape__Area":783.54382871080986,"GeoRefNo":"3661621142","DateCreate":1452787200000,"BuildingBlockType":"Tower","BuildingCSUID":"3661621142T20160115","BuildingID":1810148609,"Status":"Active","BuildingNameEN":"Wilson Wong Building","BuildingNameTC":"乾利樓","BaseHeight":19.699999999999999,"TopHeight":50.299999999999997,"Storeys":6,"StoreysInBasement":null,"DateStamp":1684944000000}},{"type":"Feature","id":340349,"geometry":{"type":"Polygon","coordinates":[[[114.18025426655468,22.329254831302659],[114.17995479624858,22.329270288769784],[114.17995611090318,22.329308860895079],[114.17985582952612,22.329313811105848],[114.1798436105226,22.329107037970964],[114.18024421733872,22.329086546950091],[114.18025426655468,22.329254831302659]]]},"properties":{"OBJECTID":340349,"Shape__Length":128.44765946846053,"Shape__Area":816.24808601443954,"GeoRefNo":"3659521127","DateCreate":1452787200000,"BuildingBlockType":"Tower","BuildingCSUID":"3659521127T20160115","BuildingID":1810148610,"Status":"Active","BuildingNameEN":"TWGHS WONG FUT NAM COLLEGE","BuildingNameTC":"東華三院黃笏南中學","BaseHeight":19.699999999999999,"TopHeight":50.299999999999997,"Storeys":6,"StoreysInBasement":null,"DateStamp":1684944000000}},{"type":"Feature","id":341227,"geometry":{"type":"Polygon","coordinates":[[[114.16906657072846,22.336616784548962],[114.16903457853329,22.336622329592171],[114.16902825197887,22.336594590069581],[114.16906080720599,22.336588632357316],[114.16906657072846,22.336616784548962]]]},"properties":{"OBJECTID":341227,"Shape__Length":13.08403278522964,"Shape__Area":10.685268833175165,"GeoRefNo":"3546221949","DateCreate":1531065600000,"BuildingBlockType":"Tower","BuildingCSUID":"3546221949T20180709","BuildingID":1810177421,"Status":"Active","BuildingNameEN":null,"BuildingNameTC":null,"BaseHeight":33.899999999999999,"TopHeight":47.399999999999999,"Storeys":null,"StoreysInBasement":null,"DateStamp":1684944000000}},{"type":"Feature","id":341228,"geometry":{"type":"Polygon","coordinates":[[[114.16926833578189,22.336581015132715],[114.16926227099233,22.336554939876066],[114.16929417631142,22.336548886813969],[114.16929954119161,22.336575502065308],[114.16926833578189,22.336581015132715]]]},"properties":{"OBJECTID":341228,"Shape__Length":12.57944000182356,"Shape__Area":9.860500293421449,"GeoRefNo":"3548621945","DateCreate":1531065600000,"BuildingBlockType":"Tower","BuildingCSUID":"3548621945T20180709","BuildingID":1810177425,"Status":"Active","BuildingNameEN":null,"BuildingNameTC":null,"BaseHeight":33.899999999999999,"TopHeight":47.799999999999997,"Storeys":null,"StoreysInBasement":null,"DateStamp":1684944000000}},{"type":"Feature","id":342097,"geometry":{"type":"Polygon","coordinates":[[[114.17704421696148,22.326462871484242],[114.17698001563421,22.326459842607065],[114.17698418136777,22.326383413316542],[114.1769886474036,22.326383623995856],[114.17699063718457,22.326347118388874],[114.17703794011297,22.326349350064184],[114.1770377002731,22.326353751030638],[114.177093720568,22.326356393931231],[114.17709187834767,22.326390690296453],[114.17708068641885,22.326390162295706],[114.17707969804302,22.326408296257139],[114.17704727489421,22.326406766612649],[114.17704421696148,22.326462871484242]]]},"properties":{"OBJECTID":342097,"Shape__Length":47.284930156904096,"Shape__Area":104.26721073181034,"GeoRefNo":"3628520822","DateCreate":1504540800000,"BuildingBlockType":"Tower","BuildingCSUID":"3628520822T20170905","BuildingID":1810165515,"Status":"Active","BuildingNameEN":"Belfran Peak","BuildingNameTC":null,"BaseHeight":25.199999999999999,"TopHeight":83.700000000000003,"Storeys":16,"StoreysInBasement":null,"DateStamp":1684944000000}}]}