{"type":"FeatureCollection","features":[{"type":"Feature","id":"amenity_point.171266","geometry":{"type":"Point","coordinates":[114.18885555000008,22.32940055000006,13.14999999999418]},"geometry_name":"shape","properties":{"amenity_id":"07ad58ef-f7c4-4955-a935-4385a29d2e25","amenity_category":"stairs","amenity_name_en":"S6","amenity_name_zh":"樓梯","amenity_alt_name":null,"amenity_accessibility":null,"amenity_phone":null,"amenity_website":null,"amenity_hours":null,"amenity_correlation_id":null,"unit_id":"8aa0aa88-d5be-42ce-b7a4-22448914ba29","level_id":"59388cb2-b045-4ef9-8ce3-98dd7c877b17","level_floorpolyid":"F3750621178T2005043001000100","level_ordinal":1,"level_z_value":13.15,"level_name_en":"FIRST FLOOR","level_name_zh":null,"level_short_name_en":"1/F","venue_id":"2b9f5d77-6a27-4dc3-bbc8-2c98e25fdb48","building_id":"08999590-8656-48ce-99dd-7b3ba9a6db59","bbox":[114.18885555000008,22.32940055000006,114.18885555000008,22.32940055000006]}},{"type":"Feature","id":"amenity_point.171267","geometry":{"type":"Point","coordinates":[114.18907146000004,22.329595340000026,8.64999999999418]},"geometry_name":"shape","properties":{"amenity_id":"468537f1-1476-42fd-8ab1-e70ed00c544d","amenity_category":"stairs","amenity_name_en":"S10","amenity_name_zh":"樓梯","amenity_alt_name":null,"amenity_accessibility":null,"amenity_phone":null,"amenity_website":null,"amenity_hours":null,"amenity_correlation_id":null,"unit_id":"36bcd25e-acb3-4be9-b97b-fb547dbdfcd8","level_id":"902f0d3f-92ed-4e9b-b763-76a107a9f7e0","level_floorpolyid":"F3750621178T2005043002000000","level_ordinal":0,"level_z_value":8.65,"level_name_en":"GROUND FLOOR","level_name_zh":null,"level_short_name_en":"G/F","venue_id":"2b9f5d77-6a27-4dc3-bbc8-2c98e25fdb48","building_id":"08999590-8656-48ce-99dd-7b3ba9a6db59","bbox":[114.18907146000004,22.329595340000026,114.18907146000004,22.329595340000026]}},{"type":"Feature","id":"amenity_point.171268","geometry":{"type":"Point","coordinates":[114.18910007000011,22.329587770000046,8.64999999999418]},"geometry_name":"shape","properties":{"amenity_id":"9c7b385f-97aa-48d4-9981-afe834e18919","amenity_category":"elevator","amenity_name_en":"HOIST 1","amenity_name_zh":"升降機","amenity_alt_name":null,"amenity_accessibility":null,"amenity_phone":null,"amenity_website":null,"amenity_hours":null,"amenity_correlation_id":null,"unit_id":"69a4e1ea-2e19-4823-93a0-d408363fbf3c","level_id":"902f0d3f-92ed-4e9b-b763-76a107a9f7e0","level_floorpolyid":"F3750621178T2005043002000000","level_ordinal":0,"level_z_value":8.65,"level_name_en":"GROUND FLOOR","level_name_zh":null,"level_short_name_en":"G/F","venue_id":"2b9f5d77-6a27-4dc3-bbc8-2c98e25fdb48","building_id":"08999590-8656-48ce-99dd-7b3ba9a6db59","bbox":[114.18910007000011,22.329587770000046,114.18910007000011,22.329587770000046]}},{"type":"Feature","id":"amenity_point.171269","geometry":{"type":"Point","coordinates":[114.1891000600001,22.329587770000046,13.14999999999418]},"geometry_name":"shape","properties":{"amenity_id":"dcfe2513-7696-4968-afa7-a056591a94a6","amenity_category":"elevator","amenity_name_en":"HOIST 1","amenity_name_zh":"升降機","amenity_alt_name":null,"amenity_accessibility":null,"amenity_phone":null,"amenity_website":null,"amenity_hours":null,"amenity_correlation_id":null,"unit_id":"394bbd27-2d83-410a-baba-e5907305faea","level_id":"59388cb2-b045-4ef9-8ce3-98dd7c877b17","level_floorpolyid":"F3750621178T2005043001000100","level_ordinal":1,"level_z_value":13.15,"level_name_en":"FIRST FLOOR","level_name_zh":null,"level_short_name_en":"1/F","venue_id":"2b9f5d77-6a27-4dc3-bbc8-2c98e25fdb48","building_id":"08999590-8656-48ce-99dd-7b3ba9a6db59","bbox":[114.1891000600001,22.329587770000046,114.1891000600001,22.329587770000046]}},{"type":"Feature","id":"amenity_point.171270","geometry":{"type":"Point","coordinates":[114.18888215000004,22.329987510000024,13.14999999999418]},"geometry_name":"shape","properties":{"amenity_id":"399dfb98-e27c-4c2d-8fe6-876853bf2a80","amenity_category":"stairs","amenity_name_en":"S2","amenity_name_zh":"樓梯","amenity_alt_name":null,"amenity_accessibility":null,"amenity_phone":null,"amenity_website":null,"amenity_hours":null,"amenity_correlation_id":null,"unit_id":"b88da385-99fb-4932-a23f-079c54663f36","level_id":"59388cb2-b045-4ef9-8ce3-98dd7c877b17","level_floorpolyid":"F3750621178T2005043001000100","level_ordinal":1,"level_z_value":13.15,"level_name_en":"FIRST FLOOR","level_name_zh":null,"level_short_name_en":"1/F","venue_id":"2b9f5d77-6a27-4dc3-bbc8-2c98e25fdb48","building_id":"08999590-8656-48ce-99dd-7b3ba9a6db59","bbox":[114.18888215000004,22.329987510000024,114.18888215000004,22.329987510000024]}},{"type":"Feature","id":"amenity_point.171271","geometry":{"type":"Point","coordinates":[114.18886629000008,22.329634030000022,13.14999999999418]},"geometry_name":"shape","properties":{"amenity_id":"593db409-2581-4f5e-ac43-5a1b4c856c1b","amenity_category":"stairs","amenity_name_en":"S4","amenity_name_zh":"樓梯","amenity_alt_name":null,"amenity_accessibility":null,"amenity_phone":null,"amenity_website":null,"amenity_hours":null,"amenity_correlation_id":null,"unit_id":"ea7440b5-8b74-4e53-9102-eff3a0a94ff1","level_id":"59388cb2-b045-4ef9-8ce3-98dd7c877b17","level_floorpolyid":"F3750621178T2005043001000100","level_ordinal":1,"level_z_value":13.15,"level_name_en":"FIRST FLOOR","level_name_zh":null,"level_short_name_en":"1/F","venue_id":"2b9f5d77-6a27-4dc3-bbc8-2c98e25fdb48","building_id":"08999590-8656-48ce-99dd-7b3ba9a6db59","bbox":[114.18886629000008,22.329634030000022,114.18886629000008,22.329634030000022]}},{"type":"Feature","id":"amenity_point.171272","geometry":{"type":"Point","coordinates":[114.18918735000011,22.329617210000038,13.14999999999418]},"geometry_name":"shape","properties":{"amenity_id":"da63add3-4fbf-4f05-b27e-36070f98f0d7","amenity_category":"stairs","amenity_name_en":"S5","amenity_name_zh":"樓梯","amenity_alt_name":null,"amenity_accessibility":null,"amenity_phone":null,"amenity_website":null,"amenity_hours":null,"amenity_correlation_id":null,"unit_id":"53a2b1c8-d0c0-43e5-a33f-a0bd45193e7a","level_id":"59388cb2-b045-4ef9-8ce3-98dd7c877b17","level_floorpolyid":"F3750621178T2005043001000100","level_ordinal":1,"level_z_value":13.15,"level_name_en":"FIRST FLOOR","level_name_zh":null,"level_short_name_en":"1/F","venue_id":"2b9f5d77-6a27-4dc3-bbc8-2c98e25fdb48","building_id":"08999590-8656-48ce-99dd-7b3ba9a6db59","bbox":[114.18918735000011,22.329617210000038,114.18918735000011,22.329617210000038]}},{"type":"Feature","id":"amenity_point.171273","geometry":{"type":"Point","coordinates":[114.18901711000001,22.329420350000078,8.64999999999418]},"geometry_name":"shape","properties":{"amenity_id":"09dca734-dc0e-440c-88d8-6301101cd55e","amenity_category":"escalator","amenity_name_en":"RAMP UP","amenity_name_zh":"扶手電梯","amenity_alt_name":null,"amenity_accessibility":null,"amenity_phone":null,"amenity_website":null,"amenity_hours":null,"amenity_correlation_id":null,"unit_id":"3007d316-8ea3-4e97-85cc-36cccdc948a3","level_id":"902f0d3f-92ed-4e9b-b763-76a107a9f7e0","level_floorpolyid":"F3750621178T2005043002000000","level_ordinal":0,"level_z_value":8.65,"level_name_en":"GROUND FLOOR","level_name_zh":null,"level_short_name_en":"G/F","venue_id":"2b9f5d77-6a27-4dc3-bbc8-2c98e25fdb48","building_id":"08999590-8656-48ce-99dd-7b3ba9a6db59","bbox":[114.18901711000001,22.329420350000078,114.18901711000001,22.329420350000078]}},{"type":"Feature","id":"amenity_point.171274","geometry":{"type":"Point","coordinates":[114.18899177000003,22.329421680000053,13.14999999999418]},"geometry_name":"shape","properties":{"amenity_id":"acae2a0f-6548-40ef-ada9-78d95f528e01","amenity_category":"escalator","amenity_name_en":"ESCALATOR","amenity_name_zh":"扶手電梯","amenity_alt_name":null,"amenity_accessibility":null,"amenity_phone":null,"amenity_website":null,"amenity_hours":null,"amenity_correlation_id":null,"unit_id":"40ca13de-19df-4502-a7d8-3831ec4d72a0","level_id":"59388cb2-b045-4ef9-8ce3-98dd7c877b17","level_floorpolyid":"F3750621178T2005043001000100","level_ordinal":1,"level_z_value":13.15,"level_name_en":"FIRST FLOOR","level_name_zh":null,"level_short_name_en":"1/F","venue_id":"2b9f5d77-6a27-4dc3-bbc8-2c98e25fdb48","building_id":"08999590-8656-48ce-99dd-7b3ba9a6db59","bbox":[114.18899177000003,22.329421680000053,114.18899177000003,22.329421680000053]}},{"type":"Feature","id":"amenity_point.171276","geometry":{"type":"Point","coordinates":[114.18909588000008,22.32948810000005,8.64999999999418]},"geometry_name":"shape","properties":{"amenity_id":"786bdd2d-6850-40b8-bb44-0226dbc032e8","amenity_category":"elevator","amenity_name_en":"HOIST 2","amenity_name_zh":"升降機","amenity_alt_name":null,"amenity_accessibility":null,"amenity_phone":null,"amenity_website":null,"amenity_hours":null,"amenity_correlation_id":null,"unit_id":"54cc8a28-3ef6-45ed-8e6e-0f6733780117","level_id":"902f0d3f-92ed-4e9b-b763-76a107a9f7e0","level_floorpolyid":"F3750621178T2005043002000000","level_ordinal":0,"level_z_value":8.65,"level_name_en":"GROUND FLOOR","level_name_zh":null,"level_short_name_en":"G/F","venue_id":"2b9f5d77-6a27-4dc3-bbc8-2c98e25fdb48","building_id":"08999590-8656-48ce-99dd-7b3ba9a6db59","bbox":[114.18909588000008,22.32948810000005,114.18909588000008,22.32948810000005]}},{"type":"Feature","id":"amenity_point.171277","geometry":{"type":"Point","coordinates":[114.18909588000008,22.329488110000057,13.14999999999418]},"geometry_name":"shape","properties":{"amenity_id":"c996fa2e-e7c1-4339-ad62-7c6171cda127","amenity_category":"elevator","amenity_name_en":"HOIST 2","amenity_name_zh":"升降機","amenity_alt_name":null,"amenity_accessibility":null,"amenity_phone":null,"amenity_website":null,"amenity_hours":null,"amenity_correlation_id":null,"unit_id":"82131c2c-4987-41d4-87dc-c86f70798603","level_id":"59388cb2-b045-4ef9-8ce3-98dd7c877b17","level_floorpolyid":"F3750621178T2005043001000100","level_ordinal":1,"level_z_value":13.15,"level_name_en":"FIRST FLOOR","level_name_zh":null,"level_short_name_en":"1/F","venue_id":"2b9f5d77-6a27-4dc3-bbc8-2c98e25fdb48","building_id":"08999590-8656-48ce-99dd-7b3ba9a6db59","bbox":[114.18909588000008,22.329488110000057,114.18909588000008,22.329488110000057]}},{"type":"Feature","id":"amenity_point.171279","geometry":{"type":"Point","coordinates":[114.18906722000008,22.329485930000033,8.64999999999418]},"geometry_name":"shape","properties":{"amenity_id":"d6b3ede9-4b23-431b-9b7d-64cb2c6de629","amenity_category":"elevator","amenity_name_en":"LIFT","amenity_name_zh":"升降機","amenity_alt_name":null,"amenity_accessibility":null,"amenity_phone":null,"amenity_website":null,"amenity_hours":null,"amenity_correlation_id":null,"unit_id":"6438c037-c875-466f-9728-74a29b02c19c","level_id":"902f0d3f-92ed-4e9b-b763-76a107a9f7e0","level_floorpolyid":"F3750621178T2005043002000000","level_ordinal":0,"level_z_value":8.65,"level_name_en":"GROUND FLOOR","level_name_zh":null,"level_short_name_en":"G/F","venue_id":"2b9f5d77-6a27-4dc3-bbc8-2c98e25fdb48","building_id":"08999590-8656-48ce-99dd-7b3ba9a6db59","bbox":[114.18906722000008,22.329485930000033,114.18906722000008,22.329485930000033]}},{"type":"Feature","id":"amenity_point.171280","geometry":{"type":"Point","coordinates":[114.18906722000008,22.329485930000033,13.14999999999418]},"geometry_name":"shape","properties":{"amenity_id":"6092fb4b-129d-4695-a18e-29d428f60a95","amenity_category":"elevator","amenity_name_en":"LIFT","amenity_name_zh":"升降機","amenity_alt_name":null,"amenity_accessibility":null,"amenity_phone":null,"amenity_website":null,"amenity_hours":null,"amenity_correlation_id":null,"unit_id":"bfeaf903-1005-4988-b819-aa1d9ad8fe1f","level_id":"59388cb2-b045-4ef9-8ce3-98dd7c877b17","level_floorpolyid":"F3750621178T2005043001000100","level_ordinal":1,"level_z_value":13.15,"level_name_en":"FIRST FLOOR","level_name_zh":null,"level_short_name_en":"1/F","venue_id":"2b9f5d77-6a27-4dc3-bbc8-2c98e25fdb48","building_id":"08999590-8656-48ce-99dd-7b3ba9a6db59","bbox":[114.18906722000008,22.329485930000033,114.18906722000008,22.329485930000033]}},{"type":"Feature","id":"amenity_point.171282","geometry":{"type":"Point","coordinates":[114.18889625000008,22.330087630000037,8.64999999999418]},"geometry_name":"shape","properties":{"amenity_id":"783d742b-ee71-4c41-8ab4-8f66a9131935","amenity_category":"restroom.wheelchair","amenity_name_en":"DISABLED TOILET","amenity_name_zh":"洗手間(殘疾人士)","amenity_alt_name":null,"amenity_accessibility":null,"amenity_phone":null,"amenity_website":null,"amenity_hours":null,"amenity_correlation_id":null,"unit_id":"366286c4-11f1-4283-953a-f6e6681991f9","level_id":"902f0d3f-92ed-4e9b-b763-76a107a9f7e0","level_floorpolyid":"F3750621178T2005043002000000","level_ordinal":0,"level_z_value":8.65,"level_name_en":"GROUND FLOOR","level_name_zh":null,"level_short_name_en":"G/F","venue_id":"2b9f5d77-6a27-4dc3-bbc8-2c98e25fdb48","building_id":"08999590-8656-48ce-99dd-7b3ba9a6db59","bbox":[114.18889625000008,22.330087630000037,114.18889625000008,22.330087630000037]}},{"type":"Feature","id":"amenity_point.171283","geometry":{"type":"Point","coordinates":[114.18896701000006,22.33008834000003,8.64999999999418]},"geometry_name":"shape","properties":{"amenity_id":"d9c70960-5870-4777-b4bd-19aa3e036e4f","amenity_category":"stairs","amenity_name_en":"S1","amenity_name_zh":"樓梯","amenity_alt_name":null,"amenity_accessibility":null,"amenity_phone":null,"amenity_website":null,"amenity_hours":null,"amenity_correlation_id":null,"unit_id":"57e8b776-e235-4d8d-a39e-e3ad0192a787","level_id":"902f0d3f-92ed-4e9b-b763-76a107a9f7e0","level_floorpolyid":"F3750621178T2005043002000000","level_ordinal":0,"level_z_value":8.65,"level_name_en":"GROUND FLOOR","level_name_zh":null,"level_short_name_en":"G/F","venue_id":"2b9f5d77-6a27-4dc3-bbc8-2c98e25fdb48","building_id":"08999590-8656-48ce-99dd-7b3ba9a6db59","bbox":[114.18896701000006,22.33008834000003,114.18896701000006,22.33008834000003]}},{"type":"Feature","id":"amenity_point.171284","geometry":{"type":"Point","coordinates":[114.18920378000007,22.329970020000076,8.64999999999418]},"geometry_name":"shape","properties":{"amenity_id":"d8d49732-d93e-4d14-b5bf-34bf38afc856","amenity_category":"stairs","amenity_name_en":"S3","amenity_name_zh":"樓梯","amenity_alt_name":null,"amenity_accessibility":null,"amenity_phone":null,"amenity_website":null,"amenity_hours":null,"amenity_correlation_id":null,"unit_id":"6257e722-1155-47b0-8524-773e018ff46d","level_id":"902f0d3f-92ed-4e9b-b763-76a107a9f7e0","level_floorpolyid":"F3750621178T2005043002000000","level_ordinal":0,"level_z_value":8.65,"level_name_en":"GROUND FLOOR","level_name_zh":null,"level_short_name_en":"G/F","venue_id":"2b9f5d77-6a27-4dc3-bbc8-2c98e25fdb48","building_id":"08999590-8656-48ce-99dd-7b3ba9a6db59","bbox":[114.18920378000007,22.329970020000076,114.18920378000007,22.329970020000076]}},{"type":"Feature","id":"amenity_point.171285","geometry":{"type":"Point","coordinates":[114.18919690000007,22.329916060000073,8.64999999999418]},"geometry_name":"shape","properties":{"amenity_id":"9cc039e6-a992-4eec-903d-c626ff23004b","amenity_category":"ramp","amenity_name_en":"RAMP","amenity_name_zh":"斜道","amenity_alt_name":null,"amenity_accessibility":null,"amenity_phone":null,"amenity_website":null,"amenity_hours":null,"amenity_correlation_id":null,"unit_id":"184a88a3-2d55-4a45-8e91-56736a547ab7","level_id":"902f0d3f-92ed-4e9b-b763-76a107a9f7e0","level_floorpolyid":"F3750621178T2005043002000000","level_ordinal":0,"level_z_value":8.65,"level_name_en":"GROUND FLOOR","level_name_zh":null,"level_short_name_en":"G/F","venue_id":"2b9f5d77-6a27-4dc3-bbc8-2c98e25fdb48","building_id":"08999590-8656-48ce-99dd-7b3ba9a6db59","bbox":[114.18919690000007,22.329916060000073,114.18919690000007,22.329916060000073]}},{"type":"Feature","id":"amenity_point.171286","geometry":{"type":"Point","coordinates":[114.18918622000001,22.329670300000032,8.64999999999418]},"geometry_name":"shape","properties":{"amenity_id":"cdb8f86b-cd5a-4bcc-8b77-e8e08b81132c","amenity_category":"ramp","amenity_name_en":"RAMP","amenity_name_zh":"斜道","amenity_alt_name":null,"amenity_accessibility":null,"amenity_phone":null,"amenity_website":null,"amenity_hours":null,"amenity_correlation_id":null,"unit_id":"46615988-7d6c-4a3f-b861-452b624f4165","level_id":"902f0d3f-92ed-4e9b-b763-76a107a9f7e0","level_floorpolyid":"F3750621178T2005043002000000","level_ordinal":0,"level_z_value":8.65,"level_name_en":"GROUND FLOOR","level_name_zh":null,"level_short_name_en":"G/F","venue_id":"2b9f5d77-6a27-4dc3-bbc8-2c98e25fdb48","building_id":"08999590-8656-48ce-99dd-7b3ba9a6db59","bbox":[114.18918622000001,22.329670300000032,114.18918622000001,22.329670300000032]}},{"type":"Feature","id":"amenity_point.171287","geometry":{"type":"Point","coordinates":[114.1891906400001,22.329646510000032,8.64999999999418]},"geometry_name":"shape","properties":{"amenity_id":"a5006e7d-eef2-4fdc-8a81-371273810217","amenity_category":"stairs","amenity_name_en":"Stair","amenity_name_zh":"樓梯","amenity_alt_name":null,"amenity_accessibility":null,"amenity_phone":null,"amenity_website":null,"amenity_hours":null,"amenity_correlation_id":null,"unit_id":"2ab9c794-7145-4ffc-9cbb-c8d422506f93","level_id":"902f0d3f-92ed-4e9b-b763-76a107a9f7e0","level_floorpolyid":"F3750621178T2005043002000000","level_ordinal":0,"level_z_value":8.65,"level_name_en":"GROUND FLOOR","level_name_zh":null,"level_short_name_en":"G/F","venue_id":"2b9f5d77-6a27-4dc3-bbc8-2c98e25fdb48","building_id":"08999590-8656-48ce-99dd-7b3ba9a6db59","bbox":[114.1891906400001,22.329646510000032,114.1891906400001,22.329646510000032]}},{"type":"Feature","id":"amenity_point.171288","geometry":{"type":"Point","coordinates":[114.18918015000008,22.329456420000042,8.64999999999418]},"geometry_name":"shape","properties":{"amenity_id":"0f9f6657-3542-429e-b763-6c238fb608df","amenity_category":"ramp","amenity_name_en":"RAMP","amenity_name_zh":"斜道","amenity_alt_name":null,"amenity_accessibility":null,"amenity_phone":null,"amenity_website":null,"amenity_hours":null,"amenity_correlation_id":null,"unit_id":"e63ab412-731d-469e-9829-e5fc198510e4","level_id":"902f0d3f-92ed-4e9b-b763-76a107a9f7e0","level_floorpolyid":"F3750621178T2005043002000000","level_ordinal":0,"level_z_value":8.65,"level_name_en":"GROUND FLOOR","level_name_zh":null,"level_short_name_en":"G/F","venue_id":"2b9f5d77-6a27-4dc3-bbc8-2c98e25fdb48","building_id":"08999590-8656-48ce-99dd-7b3ba9a6db59","bbox":[114.18918015000008,22.329456420000042,114.18918015000008,22.329456420000042]}},{"type":"Feature","id":"amenity_point.171289","geometry":{"type":"Point","coordinates":[114.18916034000006,22.329025090000073,8.64999999999418]},"geometry_name":"shape","properties":{"amenity_id":"49e7da2e-2297-4aab-9b93-656776ce3cc0","amenity_category":"stairs","amenity_name_en":"S9","amenity_name_zh":"樓梯","amenity_alt_name":null,"amenity_accessibility":null,"amenity_phone":null,"amenity_website":null,"amenity_hours":null,"amenity_correlation_id":null,"unit_id":"40964aa5-83be-4ab7-ab1d-6a7371ad3f1e","level_id":"902f0d3f-92ed-4e9b-b763-76a107a9f7e0","level_floorpolyid":"F3750621178T2005043002000000","level_ordinal":0,"level_z_value":8.65,"level_name_en":"GROUND FLOOR","level_name_zh":null,"level_short_name_en":"G/F","venue_id":"2b9f5d77-6a27-4dc3-bbc8-2c98e25fdb48","building_id":"08999590-8656-48ce-99dd-7b3ba9a6db59","bbox":[114.18916034000006,22.329025090000073,114.18916034000006,22.329025090000073]}},{"type":"Feature","id":"amenity_point.171290","geometry":{"type":"Point","coordinates":[114.18915949000007,22.329025390000027,13.14999999999418]},"geometry_name":"shape","properties":{"amenity_id":"113803fa-8c8d-446c-b431-c36d5b8f9e4f","amenity_category":"stairs","amenity_name_en":"S9","amenity_name_zh":"樓梯","amenity_alt_name":null,"amenity_accessibility":null,"amenity_phone":null,"amenity_website":null,"amenity_hours":null,"amenity_correlation_id":null,"unit_id":"f571e4e3-83d5-490d-89ee-07a448913971","level_id":"59388cb2-b045-4ef9-8ce3-98dd7c877b17","level_floorpolyid":"F3750621178T2005043001000100","level_ordinal":1,"level_z_value":13.15,"level_name_en":"FIRST FLOOR","level_name_zh":null,"level_short_name_en":"1/F","venue_id":"2b9f5d77-6a27-4dc3-bbc8-2c98e25fdb48","building_id":"08999590-8656-48ce-99dd-7b3ba9a6db59","bbox":[114.18915949000007,22.329025390000027,114.18915949000007,22.329025390000027]}},{"type":"Feature","id":"amenity_point.171291","geometry":{"type":"Point","coordinates":[114.1888401000001,22.329041670000038,8.64999999999418]},"geometry_name":"shape","properties":{"amenity_id":"700fc898-a690-4a68-a665-5c3827012691","amenity_category":"stairs","amenity_name_en":"S8","amenity_name_zh":"樓梯","amenity_alt_name":null,"amenity_accessibility":null,"amenity_phone":null,"amenity_website":null,"amenity_hours":null,"amenity_correlation_id":null,"unit_id":"cf32050b-742f-4d9d-b6ef-0cdc3e32d72a","level_id":"902f0d3f-92ed-4e9b-b763-76a107a9f7e0","level_floorpolyid":"F3750621178T2005043002000000","level_ordinal":0,"level_z_value":8.65,"level_name_en":"GROUND FLOOR","level_name_zh":null,"level_short_name_en":"G/F","venue_id":"2b9f5d77-6a27-4dc3-bbc8-2c98e25fdb48","building_id":"08999590-8656-48ce-99dd-7b3ba9a6db59","bbox":[114.1888401000001,22.329041670000038,114.1888401000001,22.329041670000038]}},{"type":"Feature","id":"amenity_point.171292","geometry":{"type":"Point","coordinates":[114.1889713600001,22.330088690000025,13.14999999999418]},"geometry_name":"shape","properties":{"amenity_id":"4cf893f2-cabb-4648-b86f-7c32c3fe4eb4","amenity_category":"stairs","amenity_name_en":"S1","amenity_name_zh":"樓梯","amenity_alt_name":null,"amenity_accessibility":null,"amenity_phone":null,"amenity_website":null,"amenity_hours":null,"amenity_correlation_id":null,"unit_id":"235a8668-cf6d-47e4-b2f6-240c4945b2f6","level_id":"59388cb2-b045-4ef9-8ce3-98dd7c877b17","level_floorpolyid":"F3750621178T2005043001000100","level_ordinal":1,"level_z_value":13.15,"level_name_en":"FIRST FLOOR","level_name_zh":null,"level_short_name_en":"1/F","venue_id":"2b9f5d77-6a27-4dc3-bbc8-2c98e25fdb48","building_id":"08999590-8656-48ce-99dd-7b3ba9a6db59","bbox":[114.1889713600001,22.330088690000025,114.1889713600001,22.330088690000025]}},{"type":"Feature","id":"amenity_point.171293","geometry":{"type":"Point","coordinates":[114.18895964000001,22.330052210000076,13.14999999999418]},"geometry_name":"shape","properties":{"amenity_id":"b9cc6079-128e-48c9-a9e2-a2fd3a3c5595","amenity_category":"restroom.female","amenity_name_en":"FEM STAFF","amenity_name_zh":"洗手間(女性)","amenity_alt_name":null,"amenity_accessibility":null,"amenity_phone":null,"amenity_website":null,"amenity_hours":null,"amenity_correlation_id":null,"unit_id":"743b1aa7-0baa-4ff8-9a0b-4525fe1c67fb","level_id":"59388cb2-b045-4ef9-8ce3-98dd7c877b17","level_floorpolyid":"F3750621178T2005043001000100","level_ordinal":1,"level_z_value":13.15,"level_name_en":"FIRST FLOOR","level_name_zh":null,"level_short_name_en":"1/F","venue_id":"2b9f5d77-6a27-4dc3-bbc8-2c98e25fdb48","building_id":"08999590-8656-48ce-99dd-7b3ba9a6db59","bbox":[114.18895964000001,22.330052210000076,114.18895964000001,22.330052210000076]}},{"type":"Feature","id":"amenity_point.171294","geometry":{"type":"Point","coordinates":[114.1889914300001,22.33005097000006,13.14999999999418]},"geometry_name":"shape","properties":{"amenity_id":"c28d3080-2c77-4a33-8080-8ab322514682","amenity_category":"restroom.male","amenity_name_en":"MALE STAFF","amenity_name_zh":"洗手間(男性)","amenity_alt_name":null,"amenity_accessibility":null,"amenity_phone":null,"amenity_website":null,"amenity_hours":null,"amenity_correlation_id":null,"unit_id":"b3cbe4a5-5f62-45de-a02f-929c85c22fd1","level_id":"59388cb2-b045-4ef9-8ce3-98dd7c877b17","level_floorpolyid":"F3750621178T2005043001000100","level_ordinal":1,"level_z_value":13.15,"level_name_en":"FIRST FLOOR","level_name_zh":null,"level_short_name_en":"1/F","venue_id":"2b9f5d77-6a27-4dc3-bbc8-2c98e25fdb48","building_id":"08999590-8656-48ce-99dd-7b3ba9a6db59","bbox":[114.1889914300001,22.33005097000006,114.1889914300001,22.33005097000006]}},{"type":"Feature","id":"amenity_point.171295","geometry":{"type":"Point","coordinates":[114.1889225000001,22.330043270000033,13.14999999999418]},"geometry_name":"shape","properties":{"amenity_id":"0700c448-d3fb-45eb-b91c-642f7957aa83","amenity_category":"restroom.female","amenity_name_en":"(FEMALE) PUBLIC LAV","amenity_name_zh":"洗手間(女性)","amenity_alt_name":null,"amenity_accessibility":null,"amenity_phone":null,"amenity_website":null,"amenity_hours":null,"amenity_correlation_id":null,"unit_id":"6cf6c8cb-c6b1-4547-9b05-f3e0959ceba1","level_id":"59388cb2-b045-4ef9-8ce3-98dd7c877b17","level_floorpolyid":"F3750621178T2005043001000100","level_ordinal":1,"level_z_value":13.15,"level_name_en":"FIRST FLOOR","level_name_zh":null,"level_short_name_en":"1/F","venue_id":"2b9f5d77-6a27-4dc3-bbc8-2c98e25fdb48","building_id":"08999590-8656-48ce-99dd-7b3ba9a6db59","bbox":[114.1889225000001,22.330043270000033,114.1889225000001,22.330043270000033]}},{"type":"Feature","id":"amenity_point.171296","geometry":{"type":"Point","coordinates":[114.18917657000009,22.32938308000007,13.14999999999418]},"geometry_name":"shape","properties":{"amenity_id":"b606bc97-7efc-47b5-ba74-4c3152981ddc","amenity_category":"stairs","amenity_name_en":"S7","amenity_name_zh":"樓梯","amenity_alt_name":null,"amenity_accessibility":null,"amenity_phone":null,"amenity_website":null,"amenity_hours":null,"amenity_correlation_id":null,"unit_id":"805c5368-e3f0-4e75-8f42-abce19a620fc","level_id":"59388cb2-b045-4ef9-8ce3-98dd7c877b17","level_floorpolyid":"F3750621178T2005043001000100","level_ordinal":1,"level_z_value":13.15,"level_name_en":"FIRST FLOOR","level_name_zh":null,"level_short_name_en":"1/F","venue_id":"2b9f5d77-6a27-4dc3-bbc8-2c98e25fdb48","building_id":"08999590-8656-48ce-99dd-7b3ba9a6db59","bbox":[114.18917657000009,22.32938308000007,114.18917657000009,22.32938308000007]}},{"type":"Feature","id":"amenity_point.171297","geometry":{"type":"Point","coordinates":[114.18897024000012,22.329554710000025,13.14999999999418]},"geometry_name":"shape","properties":{"amenity_id":"995e66c0-1b6d-45e8-bf3d-d1803b627bf4","amenity_category":"ramp","amenity_name_en":"RAMP","amenity_name_zh":"斜道","amenity_alt_name":null,"amenity_accessibility":null,"amenity_phone":null,"amenity_website":null,"amenity_hours":null,"amenity_correlation_id":null,"unit_id":"661661aa-7a8c-4bc2-9843-b21ebb55489b","level_id":"59388cb2-b045-4ef9-8ce3-98dd7c877b17","level_floorpolyid":"F3750621178T2005043001000100","level_ordinal":1,"level_z_value":13.15,"level_name_en":"FIRST FLOOR","level_name_zh":null,"level_short_name_en":"1/F","venue_id":"2b9f5d77-6a27-4dc3-bbc8-2c98e25fdb48","building_id":"08999590-8656-48ce-99dd-7b3ba9a6db59","bbox":[114.18897024000012,22.329554710000025,114.18897024000012,22.329554710000025]}},{"type":"Feature","id":"amenity_point.171298","geometry":{"type":"Point","coordinates":[114.1891337400001,22.32952247000003,13.14999999999418]},"geometry_name":"shape","properties":{"amenity_id":"a5f39a62-5735-4b08-a1d6-ca82ff3fbc64","amenity_category":"restroom.female","amenity_name_en":"PUBLIC LAV (FEMALE)","amenity_name_zh":"洗手間(女性)","amenity_alt_name":null,"amenity_accessibility":null,"amenity_phone":null,"amenity_website":null,"amenity_hours":null,"amenity_correlation_id":null,"unit_id":"217f3b9b-2931-4b97-9359-251bfe8d27f5","level_id":"59388cb2-b045-4ef9-8ce3-98dd7c877b17","level_floorpolyid":"F3750621178T2005043001000100","level_ordinal":1,"level_z_value":13.15,"level_name_en":"FIRST FLOOR","level_name_zh":null,"level_short_name_en":"1/F","venue_id":"2b9f5d77-6a27-4dc3-bbc8-2c98e25fdb48","building_id":"08999590-8656-48ce-99dd-7b3ba9a6db59","bbox":[114.1891337400001,22.32952247000003,114.1891337400001,22.32952247000003]}},{"type":"Feature","id":"amenity_point.171299","geometry":{"type":"Point","coordinates":[114.18913707000002,22.329573250000067,13.14999999999418]},"geometry_name":"shape","properties":{"amenity_id":"e144b028-71fe-4017-8b9f-def6df6703ce","amenity_category":"restroom.male","amenity_name_en":"PUBLIC LAV (MALE)","amenity_name_zh":"洗手間(男性)","amenity_alt_name":null,"amenity_accessibility":null,"amenity_phone":null,"amenity_website":null,"amenity_hours":null,"amenity_correlation_id":null,"unit_id":"d638ce52-c636-4bfb-96a2-ee706664dde6","level_id":"59388cb2-b045-4ef9-8ce3-98dd7c877b17","level_floorpolyid":"F3750621178T2005043001000100","level_ordinal":1,"level_z_value":13.15,"level_name_en":"FIRST FLOOR","level_name_zh":null,"level_short_name_en":"1/F","venue_id":"2b9f5d77-6a27-4dc3-bbc8-2c98e25fdb48","building_id":"08999590-8656-48ce-99dd-7b3ba9a6db59","bbox":[114.18913707000002,22.329573250000067,114.18913707000002,22.329573250000067]}},{"type":"Feature","id":"amenity_point.171300","geometry":{"type":"Point","coordinates":[114.18920305000006,22.32996907000006,13.14999999999418]},"geometry_name":"shape","properties":{"amenity_id":"46909969-adbd-42e8-a081-d44c3c63a42a","amenity_category":"stairs","amenity_name_en":"S3","amenity_name_zh":"樓梯","amenity_alt_name":null,"amenity_accessibility":null,"amenity_phone":null,"amenity_website":null,"amenity_hours":null,"amenity_correlation_id":null,"unit_id":"28ed6136-0026-4b78-a713-ad846f752316","level_id":"59388cb2-b045-4ef9-8ce3-98dd7c877b17","level_floorpolyid":"F3750621178T2005043001000100","level_ordinal":1,"level_z_value":13.15,"level_name_en":"FIRST FLOOR","level_name_zh":null,"level_short_name_en":"1/F","venue_id":"2b9f5d77-6a27-4dc3-bbc8-2c98e25fdb48","building_id":"08999590-8656-48ce-99dd-7b3ba9a6db59","bbox":[114.18920305000006,22.32996907000006,114.18920305000006,22.32996907000006]}},{"type":"Feature","id":"amenity_point.171301","geometry":{"type":"Point","coordinates":[114.18917695000005,22.329381410000053,8.64999999999418]},"geometry_name":"shape","properties":{"amenity_id":"e283690b-f425-4e79-a516-000340a19037","amenity_category":"stairs","amenity_name_en":"S7","amenity_name_zh":"樓梯","amenity_alt_name":null,"amenity_accessibility":null,"amenity_phone":null,"amenity_website":null,"amenity_hours":null,"amenity_correlation_id":null,"unit_id":"4d6a4983-f82a-422d-acd4-335be74a641f","level_id":"902f0d3f-92ed-4e9b-b763-76a107a9f7e0","level_floorpolyid":"F3750621178T2005043002000000","level_ordinal":0,"level_z_value":8.65,"level_name_en":"GROUND FLOOR","level_name_zh":null,"level_short_name_en":"G/F","venue_id":"2b9f5d77-6a27-4dc3-bbc8-2c98e25fdb48","building_id":"08999590-8656-48ce-99dd-7b3ba9a6db59","bbox":[114.18917695000005,22.329381410000053,114.18917695000005,22.329381410000053]}},{"type":"Feature","id":"amenity_point.171302","geometry":{"type":"Point","coordinates":[114.18885522000005,22.329399220000028,8.64999999999418]},"geometry_name":"shape","properties":{"amenity_id":"365cfb75-9ac4-4452-ab9a-5cd66557705c","amenity_category":"stairs","amenity_name_en":"S6","amenity_name_zh":"樓梯","amenity_alt_name":null,"amenity_accessibility":null,"amenity_phone":null,"amenity_website":null,"amenity_hours":null,"amenity_correlation_id":null,"unit_id":"07d3a919-eda7-42bd-bca5-d33601ceee2f","level_id":"902f0d3f-92ed-4e9b-b763-76a107a9f7e0","level_floorpolyid":"F3750621178T2005043002000000","level_ordinal":0,"level_z_value":8.65,"level_name_en":"GROUND FLOOR","level_name_zh":null,"level_short_name_en":"G/F","venue_id":"2b9f5d77-6a27-4dc3-bbc8-2c98e25fdb48","building_id":"08999590-8656-48ce-99dd-7b3ba9a6db59","bbox":[114.18885522000005,22.329399220000028,114.18885522000005,22.329399220000028]}},{"type":"Feature","id":"amenity_point.171303","geometry":{"type":"Point","coordinates":[114.18918809000002,22.329617540000072,8.64999999999418]},"geometry_name":"shape","properties":{"amenity_id":"013e861c-d35d-4afe-945b-aae0294817a3","amenity_category":"stairs","amenity_name_en":"S5","amenity_name_zh":"樓梯","amenity_alt_name":null,"amenity_accessibility":null,"amenity_phone":null,"amenity_website":null,"amenity_hours":null,"amenity_correlation_id":null,"unit_id":"7204af95-be2d-4125-82b6-36380ea777ff","level_id":"902f0d3f-92ed-4e9b-b763-76a107a9f7e0","level_floorpolyid":"F3750621178T2005043002000000","level_ordinal":0,"level_z_value":8.65,"level_name_en":"GROUND FLOOR","level_name_zh":null,"level_short_name_en":"G/F","venue_id":"2b9f5d77-6a27-4dc3-bbc8-2c98e25fdb48","building_id":"08999590-8656-48ce-99dd-7b3ba9a6db59","bbox":[114.18918809000002,22.329617540000072,114.18918809000002,22.329617540000072]}},{"type":"Feature","id":"amenity_point.171304","geometry":{"type":"Point","coordinates":[114.1891770100001,22.329535100000044,8.64999999999418]},"geometry_name":"shape","properties":{"amenity_id":"7d8f212e-f06f-46ed-bede-c2b18104a050","amenity_category":"parking","amenity_name_en":"LOADING BAY","amenity_name_zh":"上落客貨處","amenity_alt_name":null,"amenity_accessibility":null,"amenity_phone":null,"amenity_website":null,"amenity_hours":null,"amenity_correlation_id":null,"unit_id":"4403ef33-8b41-40d5-bdd0-27d8c160ba8b","level_id":"902f0d3f-92ed-4e9b-b763-76a107a9f7e0","level_floorpolyid":"F3750621178T2005043002000000","level_ordinal":0,"level_z_value":8.65,"level_name_en":"GROUND FLOOR","level_name_zh":null,"level_short_name_en":"G/F","venue_id":"2b9f5d77-6a27-4dc3-bbc8-2c98e25fdb48","building_id":"08999590-8656-48ce-99dd-7b3ba9a6db59","bbox":[114.1891770100001,22.329535100000044,114.1891770100001,22.329535100000044]}},{"type":"Feature","id":"amenity_point.171305","geometry":{"type":"Point","coordinates":[114.18894789000001,22.32948724000005,8.64999999999418]},"geometry_name":"shape","properties":{"amenity_id":"2f758df7-14ce-4aee-9bd9-c1bec4c2a18d","amenity_category":"ramp","amenity_name_en":"RAMP","amenity_name_zh":"斜道","amenity_alt_name":null,"amenity_accessibility":null,"amenity_phone":null,"amenity_website":null,"amenity_hours":null,"amenity_correlation_id":null,"unit_id":"9c424c32-c973-4a0e-9d8a-5dcab5a39e54","level_id":"902f0d3f-92ed-4e9b-b763-76a107a9f7e0","level_floorpolyid":"F3750621178T2005043002000000","level_ordinal":0,"level_z_value":8.65,"level_name_en":"GROUND FLOOR","level_name_zh":null,"level_short_name_en":"G/F","venue_id":"2b9f5d77-6a27-4dc3-bbc8-2c98e25fdb48","building_id":"08999590-8656-48ce-99dd-7b3ba9a6db59","bbox":[114.18894789000001,22.32948724000005,114.18894789000001,22.32948724000005]}},{"type":"Feature","id":"amenity_point.171306","geometry":{"type":"Point","coordinates":[114.18887524000002,22.32993724000005,8.64999999999418]},"geometry_name":"shape","properties":{"amenity_id":"0644548b-2955-4687-86ca-7f2f2c2f43c0","amenity_category":"ramp","amenity_name_en":"RAMP","amenity_name_zh":"斜道","amenity_alt_name":null,"amenity_accessibility":null,"amenity_phone":null,"amenity_website":null,"amenity_hours":null,"amenity_correlation_id":null,"unit_id":"9c54fa28-6645-4502-bdee-7af592442300","level_id":"902f0d3f-92ed-4e9b-b763-76a107a9f7e0","level_floorpolyid":"F3750621178T2005043002000000","level_ordinal":0,"level_z_value":8.65,"level_name_en":"GROUND FLOOR","level_name_zh":null,"level_short_name_en":"G/F","venue_id":"2b9f5d77-6a27-4dc3-bbc8-2c98e25fdb48","building_id":"08999590-8656-48ce-99dd-7b3ba9a6db59","bbox":[114.18887524000002,22.32993724000005,114.18887524000002,22.32993724000005]}},{"type":"Feature","id":"amenity_point.171307","geometry":{"type":"Point","coordinates":[114.18920335000007,22.329940690000058,8.64999999999418]},"geometry_name":"shape","properties":{"amenity_id":"ef4baa99-9dd1-459d-9f3e-9238ca01ebc3","amenity_category":"stairs","amenity_name_en":"Stair","amenity_name_zh":"樓梯","amenity_alt_name":null,"amenity_accessibility":null,"amenity_phone":null,"amenity_website":null,"amenity_hours":null,"amenity_correlation_id":null,"unit_id":"13aff500-9ca0-49d3-be47-6fdd223e38e8","level_id":"902f0d3f-92ed-4e9b-b763-76a107a9f7e0","level_floorpolyid":"F3750621178T2005043002000000","level_ordinal":0,"level_z_value":8.65,"level_name_en":"GROUND FLOOR","level_name_zh":null,"level_short_name_en":"G/F","venue_id":"2b9f5d77-6a27-4dc3-bbc8-2c98e25fdb48","building_id":"08999590-8656-48ce-99dd-7b3ba9a6db59","bbox":[114.18920335000007,22.329940690000058,114.18920335000007,22.329940690000058]}},{"type":"Feature","id":"amenity_point.171308","geometry":{"type":"Point","coordinates":[114.18903746000001,22.32987207000008,8.64999999999418]},"geometry_name":"shape","properties":{"amenity_id":"fc14db1d-01c7-4d94-accf-85872d87872c","amenity_category":"escalator","amenity_name_en":"ESCALATOR NO 1","amenity_name_zh":"扶手電梯","amenity_alt_name":null,"amenity_accessibility":null,"amenity_phone":null,"amenity_website":null,"amenity_hours":null,"amenity_correlation_id":null,"unit_id":"8d404992-e267-4666-b5d4-333d62ff2e88","level_id":"902f0d3f-92ed-4e9b-b763-76a107a9f7e0","level_floorpolyid":"F3750621178T2005043002000000","level_ordinal":0,"level_z_value":8.65,"level_name_en":"GROUND FLOOR","level_name_zh":null,"level_short_name_en":"G/F","venue_id":"2b9f5d77-6a27-4dc3-bbc8-2c98e25fdb48","building_id":"08999590-8656-48ce-99dd-7b3ba9a6db59","bbox":[114.18903746000001,22.32987207000008,114.18903746000001,22.32987207000008]}},{"type":"Feature","id":"amenity_point.171309","geometry":{"type":"Point","coordinates":[114.1890357100001,22.33003996000008,13.14999999999418]},"geometry_name":"shape","properties":{"amenity_id":"da162f6f-34bc-4fdf-a770-a9234e134027","amenity_category":"restroom.male","amenity_name_en":"(MALE) PUBLIC LAV","amenity_name_zh":"洗手間(男性)","amenity_alt_name":null,"amenity_accessibility":null,"amenity_phone":null,"amenity_website":null,"amenity_hours":null,"amenity_correlation_id":null,"unit_id":"d0264059-057f-4faa-bb2b-9f12fac1bc4f","level_id":"59388cb2-b045-4ef9-8ce3-98dd7c877b17","level_floorpolyid":"F3750621178T2005043001000100","level_ordinal":1,"level_z_value":13.15,"level_name_en":"FIRST FLOOR","level_name_zh":null,"level_short_name_en":"1/F","venue_id":"2b9f5d77-6a27-4dc3-bbc8-2c98e25fdb48","building_id":"08999590-8656-48ce-99dd-7b3ba9a6db59","bbox":[114.1890357100001,22.33003996000008,114.1890357100001,22.33003996000008]}},{"type":"Feature","id":"amenity_point.171310","geometry":{"type":"Point","coordinates":[114.18903742000009,22.329862990000038,13.14999999999418]},"geometry_name":"shape","properties":{"amenity_id":"ce894f2f-ecff-49b4-b751-484957824cb5","amenity_category":"escalator","amenity_name_en":"ESCALATOR","amenity_name_zh":"扶手電梯","amenity_alt_name":null,"amenity_accessibility":null,"amenity_phone":null,"amenity_website":null,"amenity_hours":null,"amenity_correlation_id":null,"unit_id":"61cdc528-caee-4739-af84-eb91b4cd0e9d","level_id":"59388cb2-b045-4ef9-8ce3-98dd7c877b17","level_floorpolyid":"F3750621178T2005043001000100","level_ordinal":1,"level_z_value":13.15,"level_name_en":"FIRST FLOOR","level_name_zh":null,"level_short_name_en":"1/F","venue_id":"2b9f5d77-6a27-4dc3-bbc8-2c98e25fdb48","building_id":"08999590-8656-48ce-99dd-7b3ba9a6db59","bbox":[114.18903742000009,22.329862990000038,114.18903742000009,22.329862990000038]}},{"type":"Feature","id":"amenity_point.171311","geometry":{"type":"Point","coordinates":[114.18884142000002,22.329041800000027,13.14999999999418]},"geometry_name":"shape","properties":{"amenity_id":"7f356bcd-b0fa-4048-b8d9-1e8332d9db2c","amenity_category":"stairs","amenity_name_en":"S8","amenity_name_zh":"樓梯","amenity_alt_name":null,"amenity_accessibility":null,"amenity_phone":null,"amenity_website":null,"amenity_hours":null,"amenity_correlation_id":null,"unit_id":"32ba5286-91b7-4539-956c-0dd4ec3daf37","level_id":"59388cb2-b045-4ef9-8ce3-98dd7c877b17","level_floorpolyid":"F3750621178T2005043001000100","level_ordinal":1,"level_z_value":13.15,"level_name_en":"FIRST FLOOR","level_name_zh":null,"level_short_name_en":"1/F","venue_id":"2b9f5d77-6a27-4dc3-bbc8-2c98e25fdb48","building_id":"08999590-8656-48ce-99dd-7b3ba9a6db59","bbox":[114.18884142000002,22.329041800000027,114.18884142000002,22.329041800000027]}},{"type":"Feature","id":"amenity_point.171312","geometry":{"type":"Point","coordinates":[114.18916988000001,22.32942206000007,8.64999999999418]},"geometry_name":"shape","properties":{"amenity_id":"818faad6-f7ce-4211-a1f5-28c84c5db262","amenity_category":"stairs","amenity_name_en":"Stair","amenity_name_zh":"樓梯","amenity_alt_name":null,"amenity_accessibility":null,"amenity_phone":null,"amenity_website":null,"amenity_hours":null,"amenity_correlation_id":null,"unit_id":"f461b441-c33c-4787-801c-a980c2408eca","level_id":"902f0d3f-92ed-4e9b-b763-76a107a9f7e0","level_floorpolyid":"F3750621178T2005043002000000","level_ordinal":0,"level_z_value":8.65,"level_name_en":"GROUND FLOOR","level_name_zh":null,"level_short_name_en":"G/F","venue_id":"2b9f5d77-6a27-4dc3-bbc8-2c98e25fdb48","building_id":"08999590-8656-48ce-99dd-7b3ba9a6db59","bbox":[114.18916988000001,22.32942206000007,114.18916988000001,22.32942206000007]}},{"type":"Feature","id":"amenity_point.171313","geometry":{"type":"Point","coordinates":[114.18886500000008,22.329688820000058,8.64999999999418]},"geometry_name":"shape","properties":{"amenity_id":"d73c7ed7-1081-4d4d-8f5e-26404a4b4cfe","amenity_category":"ramp","amenity_name_en":"RAMP","amenity_name_zh":"斜道","amenity_alt_name":null,"amenity_accessibility":null,"amenity_phone":null,"amenity_website":null,"amenity_hours":null,"amenity_correlation_id":null,"unit_id":"8f51626e-551d-40a2-bb58-01549437f0e8","level_id":"902f0d3f-92ed-4e9b-b763-76a107a9f7e0","level_floorpolyid":"F3750621178T2005043002000000","level_ordinal":0,"level_z_value":8.65,"level_name_en":"GROUND FLOOR","level_name_zh":null,"level_short_name_en":"G/F","venue_id":"2b9f5d77-6a27-4dc3-bbc8-2c98e25fdb48","building_id":"08999590-8656-48ce-99dd-7b3ba9a6db59","bbox":[114.18886500000008,22.329688820000058,114.18886500000008,22.329688820000058]}},{"type":"Feature","id":"amenity_point.171314","geometry":{"type":"Point","coordinates":[114.18887066000002,22.329665470000066,8.64999999999418]},"geometry_name":"shape","properties":{"amenity_id":"519d583a-1551-4a1b-88bd-526c4172b36d","amenity_category":"stairs","amenity_name_en":"Stair","amenity_name_zh":"樓梯","amenity_alt_name":null,"amenity_accessibility":null,"amenity_phone":null,"amenity_website":null,"amenity_hours":null,"amenity_correlation_id":null,"unit_id":"a3e190de-7097-4352-9b9a-37f756365954","level_id":"902f0d3f-92ed-4e9b-b763-76a107a9f7e0","level_floorpolyid":"F3750621178T2005043002000000","level_ordinal":0,"level_z_value":8.65,"level_name_en":"GROUND FLOOR","level_name_zh":null,"level_short_name_en":"G/F","venue_id":"2b9f5d77-6a27-4dc3-bbc8-2c98e25fdb48","building_id":"08999590-8656-48ce-99dd-7b3ba9a6db59","bbox":[114.18887066000002,22.329665470000066,114.18887066000002,22.329665470000066]}},{"type":"Feature","id":"amenity_point.171315","geometry":{"type":"Point","coordinates":[114.18911721000006,22.329017730000032,8.64999999999418]},"geometry_name":"shape","properties":{"amenity_id":"48218fe8-d347-46f1-82de-dd7823aca519","amenity_category":"stairs","amenity_name_en":"Stair","amenity_name_zh":"樓梯","amenity_alt_name":null,"amenity_accessibility":null,"amenity_phone":null,"amenity_website":null,"amenity_hours":null,"amenity_correlation_id":null,"unit_id":"e5a34de1-415c-4ae6-8c14-146a64a8765f","level_id":"902f0d3f-92ed-4e9b-b763-76a107a9f7e0","level_floorpolyid":"F3750621178T2005043002000000","level_ordinal":0,"level_z_value":8.65,"level_name_en":"GROUND FLOOR","level_name_zh":null,"level_short_name_en":"G/F","venue_id":"2b9f5d77-6a27-4dc3-bbc8-2c98e25fdb48","building_id":"08999590-8656-48ce-99dd-7b3ba9a6db59","bbox":[114.18911721000006,22.329017730000032,114.18911721000006,22.329017730000032]}},{"type":"Feature","id":"amenity_point.171316","geometry":{"type":"Point","coordinates":[114.18888816000003,22.32999638000007,8.64999999999418]},"geometry_name":"shape","properties":{"amenity_id":"09327633-820d-4763-a094-e191613aa74d","amenity_category":"stairs","amenity_name_en":"S2","amenity_name_zh":"樓梯","amenity_alt_name":null,"amenity_accessibility":null,"amenity_phone":null,"amenity_website":null,"amenity_hours":null,"amenity_correlation_id":null,"unit_id":"580c22a2-c22b-4547-9b91-9d7c07608184","level_id":"902f0d3f-92ed-4e9b-b763-76a107a9f7e0","level_floorpolyid":"F3750621178T2005043002000000","level_ordinal":0,"level_z_value":8.65,"level_name_en":"GROUND FLOOR","level_name_zh":null,"level_short_name_en":"G/F","venue_id":"2b9f5d77-6a27-4dc3-bbc8-2c98e25fdb48","building_id":"08999590-8656-48ce-99dd-7b3ba9a6db59","bbox":[114.18888816000003,22.32999638000007,114.18888816000003,22.32999638000007]}},{"type":"Feature","id":"amenity_point.171317","geometry":{"type":"Point","coordinates":[114.1888826600001,22.329028570000048,8.64999999999418]},"geometry_name":"shape","properties":{"amenity_id":"ec051015-66ba-4c7d-bdd6-1cf58404e618","amenity_category":"stairs","amenity_name_en":"Stair","amenity_name_zh":"樓梯","amenity_alt_name":null,"amenity_accessibility":null,"amenity_phone":null,"amenity_website":null,"amenity_hours":null,"amenity_correlation_id":null,"unit_id":"45aeed75-f140-45e8-91df-3754820d14e2","level_id":"902f0d3f-92ed-4e9b-b763-76a107a9f7e0","level_floorpolyid":"F3750621178T2005043002000000","level_ordinal":0,"level_z_value":8.65,"level_name_en":"GROUND FLOOR","level_name_zh":null,"level_short_name_en":"G/F","venue_id":"2b9f5d77-6a27-4dc3-bbc8-2c98e25fdb48","building_id":"08999590-8656-48ce-99dd-7b3ba9a6db59","bbox":[114.1888826600001,22.329028570000048,114.1888826600001,22.329028570000048]}},{"type":"Feature","id":"amenity_point.171318","geometry":{"type":"Point","coordinates":[114.18895533000011,22.32902191000005,8.64999999999418]},"geometry_name":"shape","properties":{"amenity_id":"28cd747a-7713-4c00-935f-00bb9493caad","amenity_category":"entry","amenity_name_en":"BIM RM","amenity_name_zh":"入口門廳","amenity_alt_name":null,"amenity_accessibility":null,"amenity_phone":null,"amenity_website":null,"amenity_hours":null,"amenity_correlation_id":null,"unit_id":"02e461d0-8933-4e06-81ad-628eb071962f","level_id":"902f0d3f-92ed-4e9b-b763-76a107a9f7e0","level_floorpolyid":"F3750621178T2005043002000000","level_ordinal":0,"level_z_value":8.65,"level_name_en":"GROUND FLOOR","level_name_zh":null,"level_short_name_en":"G/F","venue_id":"2b9f5d77-6a27-4dc3-bbc8-2c98e25fdb48","building_id":"08999590-8656-48ce-99dd-7b3ba9a6db59","bbox":[114.18895533000011,22.32902191000005,114.18895533000011,22.32902191000005]}},{"type":"Feature","id":"amenity_point.171319","geometry":{"type":"Point","coordinates":[114.18887016000008,22.32962617000004,8.64999999999418]},"geometry_name":"shape","properties":{"amenity_id":"d6aaf0b6-9572-43d0-9955-3de837dcdd25","amenity_category":"stairs","amenity_name_en":"S4","amenity_name_zh":"樓梯","amenity_alt_name":null,"amenity_accessibility":null,"amenity_phone":null,"amenity_website":null,"amenity_hours":null,"amenity_correlation_id":null,"unit_id":"c258be50-1e9f-4c7d-8a45-1ee41723765a","level_id":"902f0d3f-92ed-4e9b-b763-76a107a9f7e0","level_floorpolyid":"F3750621178T2005043002000000","level_ordinal":0,"level_z_value":8.65,"level_name_en":"GROUND FLOOR","level_name_zh":null,"level_short_name_en":"G/F","venue_id":"2b9f5d77-6a27-4dc3-bbc8-2c98e25fdb48","building_id":"08999590-8656-48ce-99dd-7b3ba9a6db59","bbox":[114.18887016000008,22.32962617000004,114.18887016000008,22.32962617000004]}},{"type":"Feature","id":"amenity_point.171320","geometry":{"type":"Point","coordinates":[114.18887087000007,22.329642240000055,8.64999999999418]},"geometry_name":"shape","properties":{"amenity_id":"173cd533-535e-4e48-9ad3-7732e8dbf780","amenity_category":"ramp","amenity_name_en":"RAMP","amenity_name_zh":"斜道","amenity_alt_name":null,"amenity_accessibility":null,"amenity_phone":null,"amenity_website":null,"amenity_hours":null,"amenity_correlation_id":null,"unit_id":"55efc999-6939-497e-b5aa-2bd1ba75ba6c","level_id":"902f0d3f-92ed-4e9b-b763-76a107a9f7e0","level_floorpolyid":"F3750621178T2005043002000000","level_ordinal":0,"level_z_value":8.65,"level_name_en":"GROUND FLOOR","level_name_zh":null,"level_short_name_en":"G/F","venue_id":"2b9f5d77-6a27-4dc3-bbc8-2c98e25fdb48","building_id":"08999590-8656-48ce-99dd-7b3ba9a6db59","bbox":[114.18887087000007,22.329642240000055,114.18887087000007,22.329642240000055]}},{"type":"Feature","id":"amenity_point.171321","geometry":{"type":"Point","coordinates":[114.18888368000012,22.32995991000007,8.64999999999418]},"geometry_name":"shape","properties":{"amenity_id":"7c3759fd-5e30-498c-b0e6-4bc3f90404d9","amenity_category":"stairs","amenity_name_en":"Stair","amenity_name_zh":"樓梯","amenity_alt_name":null,"amenity_accessibility":null,"amenity_phone":null,"amenity_website":null,"amenity_hours":null,"amenity_correlation_id":null,"unit_id":"6d3751da-5ada-4b33-afb5-c77ca9a83108","level_id":"902f0d3f-92ed-4e9b-b763-76a107a9f7e0","level_floorpolyid":"F3750621178T2005043002000000","level_ordinal":0,"level_z_value":8.65,"level_name_en":"GROUND FLOOR","level_name_zh":null,"level_short_name_en":"G/F","venue_id":"2b9f5d77-6a27-4dc3-bbc8-2c98e25fdb48","building_id":"08999590-8656-48ce-99dd-7b3ba9a6db59","bbox":[114.18888368000012,22.32995991000007,114.18888368000012,22.32995991000007]}},{"type":"Feature","id":"amenity_point.171322","geometry":{"type":"Point","coordinates":[114.18888750000008,22.32998105000007,8.64999999999418]},"geometry_name":"shape","properties":{"amenity_id":"46a8ee04-0308-4796-bac4-441b3ce17781","amenity_category":"ramp","amenity_name_en":"RAMP","amenity_name_zh":"斜道","amenity_alt_name":null,"amenity_accessibility":null,"amenity_phone":null,"amenity_website":null,"amenity_hours":null,"amenity_correlation_id":null,"unit_id":"8fbe47f5-5e96-45c6-8497-01f46ca1cb17","level_id":"902f0d3f-92ed-4e9b-b763-76a107a9f7e0","level_floorpolyid":"F3750621178T2005043002000000","level_ordinal":0,"level_z_value":8.65,"level_name_en":"GROUND FLOOR","level_name_zh":null,"level_short_name_en":"G/F","venue_id":"2b9f5d77-6a27-4dc3-bbc8-2c98e25fdb48","building_id":"08999590-8656-48ce-99dd-7b3ba9a6db59","bbox":[114.18888750000008,22.32998105000007,114.18888750000008,22.32998105000007]}},{"type":"Feature","id":"amenity_point.171323","geometry":{"type":"Point","coordinates":[114.1888885300001,22.330062590000068,8.64999999999418]},"geometry_name":"shape","properties":{"amenity_id":"7718c61e-e9db-4f3a-9a70-edf51fffda58","amenity_category":"ramp","amenity_name_en":"RAMP","amenity_name_zh":"斜道","amenity_alt_name":null,"amenity_accessibility":null,"amenity_phone":null,"amenity_website":null,"amenity_hours":null,"amenity_correlation_id":null,"unit_id":"1af32d10-4beb-44d6-a447-8a809229cc2f","level_id":"902f0d3f-92ed-4e9b-b763-76a107a9f7e0","level_floorpolyid":"F3750621178T2005043002000000","level_ordinal":0,"level_z_value":8.65,"level_name_en":"GROUND FLOOR","level_name_zh":null,"level_short_name_en":"G/F","venue_id":"2b9f5d77-6a27-4dc3-bbc8-2c98e25fdb48","building_id":"08999590-8656-48ce-99dd-7b3ba9a6db59","bbox":[114.1888885300001,22.330062590000068,114.1888885300001,22.330062590000068]}},{"type":"Feature","id":"amenity_point.171324","geometry":{"type":"Point","coordinates":[114.1889396900001,22.329482980000023,13.14999999999418]},"geometry_name":"shape","properties":{"amenity_id":"9432b2f6-c627-45ac-9f77-165ebfa8b938","amenity_category":"stairs","amenity_name_en":"Stair","amenity_name_zh":"樓梯","amenity_alt_name":null,"amenity_accessibility":null,"amenity_phone":null,"amenity_website":null,"amenity_hours":null,"amenity_correlation_id":null,"unit_id":"7e0b7f40-94e4-49d5-9e11-231dc69b1cf8","level_id":"59388cb2-b045-4ef9-8ce3-98dd7c877b17","level_floorpolyid":"F3750621178T2005043001000100","level_ordinal":1,"level_z_value":13.15,"level_name_en":"FIRST FLOOR","level_name_zh":null,"level_short_name_en":"1/F","venue_id":"2b9f5d77-6a27-4dc3-bbc8-2c98e25fdb48","building_id":"08999590-8656-48ce-99dd-7b3ba9a6db59","bbox":[114.1889396900001,22.329482980000023,114.1889396900001,22.329482980000023]}},{"type":"Feature","id":"amenity_point.171325","geometry":{"type":"Point","coordinates":[114.1890194,22.329432530000076,8.64999999999418]},"geometry_name":"shape","properties":{"amenity_id":"0d5fbc84-5b7e-459f-b366-efb38865223c","amenity_category":"escalator","amenity_name_en":"RAMP UP","amenity_name_zh":"扶手電梯","amenity_alt_name":null,"amenity_accessibility":null,"amenity_phone":null,"amenity_website":null,"amenity_hours":null,"amenity_correlation_id":null,"unit_id":"7f893d42-efe0-4fdd-9376-db5523a30b11","level_id":"902f0d3f-92ed-4e9b-b763-76a107a9f7e0","level_floorpolyid":"F3750621178T2005043002000000","level_ordinal":0,"level_z_value":8.65,"level_name_en":"GROUND FLOOR","level_name_zh":null,"level_short_name_en":"G/F","venue_id":"2b9f5d77-6a27-4dc3-bbc8-2c98e25fdb48","building_id":"08999590-8656-48ce-99dd-7b3ba9a6db59","bbox":[114.1890194,22.329432530000076,114.1890194,22.329432530000076]}},{"type":"Feature","id":"amenity_point.171326","geometry":{"type":"Point","coordinates":[114.18904467000004,22.329431210000052,13.14999999999418]},"geometry_name":"shape","properties":{"amenity_id":"42b79420-be0f-42e4-b97c-8c70d2fb0369","amenity_category":"escalator","amenity_name_en":"ESCALATOR","amenity_name_zh":"扶手電梯","amenity_alt_name":null,"amenity_accessibility":null,"amenity_phone":null,"amenity_website":null,"amenity_hours":null,"amenity_correlation_id":null,"unit_id":"995fca38-b530-4788-9585-dc1b7fa78b2b","level_id":"59388cb2-b045-4ef9-8ce3-98dd7c877b17","level_floorpolyid":"F3750621178T2005043001000100","level_ordinal":1,"level_z_value":13.15,"level_name_en":"FIRST FLOOR","level_name_zh":null,"level_short_name_en":"1/F","venue_id":"2b9f5d77-6a27-4dc3-bbc8-2c98e25fdb48","building_id":"08999590-8656-48ce-99dd-7b3ba9a6db59","bbox":[114.18904467000004,22.329431210000052,114.18904467000004,22.329431210000052]}},{"type":"Feature","id":"amenity_point.171328","geometry":{"type":"Point","coordinates":[114.18904362,22.329418950000047,13.14999999999418]},"geometry_name":"shape","properties":{"amenity_id":"2e292cd5-9427-4a8e-b017-1205d92ddf20","amenity_category":"escalator","amenity_name_en":"ESCALATOR","amenity_name_zh":"扶手電梯","amenity_alt_name":null,"amenity_accessibility":null,"amenity_phone":null,"amenity_website":null,"amenity_hours":null,"amenity_correlation_id":null,"unit_id":"6d96d600-0852-4188-b00c-a3cef38c2ecd","level_id":"59388cb2-b045-4ef9-8ce3-98dd7c877b17","level_floorpolyid":"F3750621178T2005043001000100","level_ordinal":1,"level_z_value":13.15,"level_name_en":"FIRST FLOOR","level_name_zh":null,"level_short_name_en":"1/F","venue_id":"2b9f5d77-6a27-4dc3-bbc8-2c98e25fdb48","building_id":"08999590-8656-48ce-99dd-7b3ba9a6db59","bbox":[114.18904362,22.329418950000047,114.18904362,22.329418950000047]}},{"type":"Feature","id":"amenity_point.171329","geometry":{"type":"Point","coordinates":[114.18899283000007,22.32943393000005,13.14999999999418]},"geometry_name":"shape","properties":{"amenity_id":"0e390e4b-0372-4d42-ba45-28b45f7477ed","amenity_category":"escalator","amenity_name_en":"ESCALATOR","amenity_name_zh":"扶手電梯","amenity_alt_name":null,"amenity_accessibility":null,"amenity_phone":null,"amenity_website":null,"amenity_hours":null,"amenity_correlation_id":null,"unit_id":"a8f5cc0e-8544-47d2-b565-a2a0ccca1921","level_id":"59388cb2-b045-4ef9-8ce3-98dd7c877b17","level_floorpolyid":"F3750621178T2005043001000100","level_ordinal":1,"level_z_value":13.15,"level_name_en":"FIRST FLOOR","level_name_zh":null,"level_short_name_en":"1/F","venue_id":"2b9f5d77-6a27-4dc3-bbc8-2c98e25fdb48","building_id":"08999590-8656-48ce-99dd-7b3ba9a6db59","bbox":[114.18899283000007,22.32943393000005,114.18899283000007,22.32943393000005]}}]}