{"type":"FeatureCollection","features":[{"type":"Feature","id":"level_polygon.7179","geometry":{"type":"Polygon","coordinates":[[[114.18907637000007,22.330081850000056,8.64999999999418],[114.18907271,22.32999501000006,8.64999999999418],[114.18907262000005,22.32999287000007,8.64999999999418],[114.18917751000004,22.329986930000075,8.64999999999418],[114.18920746000003,22.329985230000034,8.64999999999418],[114.18920761000004,22.329985220000026,8.64999999999418],[114.18921937000005,22.32998456000007,8.64999999999418],[114.18921957000009,22.329984530000047,8.64999999999418],[114.18921977000002,22.329984500000023,8.64999999999418],[114.18921997000007,22.32998446000005,8.64999999999418],[114.18922017000011,22.329984420000073,8.64999999999418],[114.18922037000004,22.32998439000005,8.64999999999418],[114.18922057000009,22.329984340000067,8.64999999999418],[114.18922077000002,22.329984300000035,8.64999999999418],[114.18922096000006,22.329984250000052,8.64999999999418],[114.1892211600001,22.32998420000007,8.64999999999418],[114.18922136000003,22.32998415000003,8.64999999999418],[114.18922155000007,22.329984100000047,8.64999999999418],[114.18922175000012,22.329984040000056,8.64999999999418],[114.18922194000004,22.329983980000065,8.64999999999418],[114.18922213000008,22.329983920000075,8.64999999999418],[114.18922233,22.329983860000027,8.64999999999418],[114.18922252000004,22.329983800000036,8.64999999999418],[114.18922271000008,22.329983730000038,8.64999999999418],[114.18922290000012,22.32998366000004,8.64999999999418],[114.18922308000003,22.32998359000004,8.64999999999418],[114.18922327000007,22.329983510000034,8.64999999999418],[114.18922346000011,22.329983430000027,8.64999999999418],[114.18922364000002,22.32998336000003,8.64999999999418],[114.18922383000006,22.32998327000007,8.64999999999418],[114.18922401000009,22.329983190000064,8.64999999999418],[114.18922419,22.32998310000005,8.64999999999418],[114.18922437000003,22.329983020000043,8.64999999999418],[114.18922455000006,22.32998293000003,8.64999999999418],[114.18922473000009,22.329982830000063,8.64999999999418],[114.18922491000001,22.329982740000048,8.64999999999418],[114.18922508000003,22.329982640000026,8.64999999999418],[114.18922525000005,22.32998254000006,8.64999999999418],[114.18922543000008,22.329982440000038,8.64999999999418],[114.1892256000001,22.329982340000072,8.64999999999418],[114.18922577000001,22.32998223000004,8.64999999999418],[114.18922594000003,22.329982130000076,8.64999999999418],[114.18922610000004,22.329982020000045,8.64999999999418],[114.18922627000006,22.329981910000072,8.64999999999418],[114.18922643000008,22.329981790000033,8.64999999999418],[114.18922659000009,22.32998168000006,8.64999999999418],[114.1892267500001,22.32998156000008,8.64999999999418],[114.18922691000012,22.32998144000004,8.64999999999418],[114.18922707000002,22.32998132000006,8.64999999999418],[114.18922722000002,22.329981200000077,8.64999999999418],[114.18922738000003,22.32998107000003,8.64999999999418],[114.18922753000004,22.32998095000005,8.64999999999418],[114.18922768000004,22.32998082000006,8.64999999999418],[114.18922783000005,22.32998069000007,8.64999999999418],[114.18922797000005,22.329980560000024,8.64999999999418],[114.18922812000005,22.329980420000027,8.64999999999418],[114.18922826000005,22.329980290000037,8.64999999999418],[114.18922840000005,22.32998015000004,8.64999999999418],[114.18922854000004,22.329980010000043,8.64999999999418],[114.18922867000003,22.329979870000045,8.64999999999418],[114.18922881000003,22.329979730000048,8.64999999999418],[114.18922894000002,22.329979580000042,8.64999999999418],[114.18922907000001,22.329979440000045,8.64999999999418],[114.18922920000011,22.32997929000004,8.64999999999418],[114.1892293300001,22.329979140000034,8.64999999999418],[114.18922945000008,22.32997899000003,8.64999999999418],[114.18922957000007,22.329978840000024,8.64999999999418],[114.18922969000005,22.329978690000075,8.64999999999418],[114.18922981000003,22.329978530000062,8.64999999999418],[114.18922993000001,22.329978380000057,8.64999999999418],[114.1892300400001,22.329978220000044,8.64999999999418],[114.18923015000007,22.32997806000003,8.64999999999418],[114.18923026000004,22.329977900000074,8.64999999999418],[114.18923037000002,22.32997774000006,8.64999999999418],[114.1892304700001,22.329977580000048,8.64999999999418],[114.18923057000006,22.329977410000026,8.64999999999418],[114.18923067000003,22.32997725000007,8.64999999999418],[114.18923077000011,22.32997708000005,8.64999999999418],[114.18923087000007,22.329976910000028,8.64999999999418],[114.18923096000003,22.329976740000063,8.64999999999418],[114.1892310500001,22.329976570000042,8.64999999999418],[114.18923114000006,22.329976400000078,8.64999999999418],[114.18923122000001,22.329976230000057,8.64999999999418],[114.18923131000008,22.329976060000035,8.64999999999418],[114.18923139000003,22.329975880000063,8.64999999999418],[114.1892314700001,22.329975710000042,8.64999999999418],[114.18923154000004,22.32997553000007,8.64999999999418],[114.18923161000009,22.32997536000005,8.64999999999418],[114.18923168000003,22.329975180000076,8.64999999999418],[114.18923175000009,22.329975000000047,8.64999999999418],[114.18923182000003,22.329974820000075,8.64999999999418],[114.18923188000008,22.329974640000046,8.64999999999418],[114.18923194000001,22.329974460000074,8.64999999999418],[114.18923200000006,22.329974280000044,8.64999999999418],[114.18923206000011,22.329974100000072,8.64999999999418],[114.18923211000003,22.329973910000035,8.64999999999418],[114.18923216000007,22.329973730000063,8.64999999999418],[114.18923221000011,22.329973540000026,8.64999999999418],[114.18923225000003,22.329973360000054,8.64999999999418],[114.18923230000007,22.329973170000073,8.64999999999418],[114.1892323400001,22.329972990000044,8.64999999999418],[114.18923237000001,22.329972800000064,8.64999999999418],[114.18923241000005,22.329972620000035,8.64999999999418],[114.18923244000007,22.329972430000055,8.64999999999418],[114.18923247000009,22.329972240000075,8.64999999999418],[114.18923250000012,22.329972050000038,8.64999999999418],[114.18923168000003,22.329953940000053,8.64999999999418],[114.18923036000001,22.329924840000047,8.64999999999418],[114.18922942000006,22.329904190000036,8.64999999999418],[114.18921917000011,22.32967811000003,8.64999999999418],[114.18921834000002,22.329659970000023,8.64999999999418],[114.18921703000001,22.329630950000023,8.64999999999418],[114.18921624000006,22.329613600000073,8.64999999999418],[114.18921622000005,22.32961343000005,8.64999999999418],[114.18920953000008,22.329465520000042,8.64999999999418],[114.18920860000003,22.329445070000077,8.64999999999418],[114.18920580000008,22.32938346000003,8.64999999999418],[114.18920555000011,22.329377890000046,8.64999999999418],[114.18920498000011,22.32936520000004,8.64999999999418],[114.18919022000011,22.329039790000024,8.64999999999418],[114.1891893500001,22.329020730000025,8.64999999999418],[114.18918936000011,22.32902056000006,8.64999999999418],[114.18918936000011,22.329020400000047,8.64999999999418],[114.18918937000001,22.329020240000034,8.64999999999418],[114.18918936000011,22.32902007000007,8.64999999999418],[114.18918936000011,22.329019910000056,8.64999999999418],[114.1891893500001,22.329019750000043,8.64999999999418],[114.1891893500001,22.329019580000022,8.64999999999418],[114.1891893400001,22.329019420000066,8.64999999999418],[114.18918932000008,22.329019250000044,8.64999999999418],[114.18918931000007,22.32901909000003,8.64999999999418],[114.18918929000006,22.329018930000075,8.64999999999418],[114.18918927000004,22.329018760000054,8.64999999999418],[114.18918925000003,22.32901860000004,8.64999999999418],[114.18918923000001,22.329018440000027,8.64999999999418],[114.1891892000001,22.32901828000007,8.64999999999418],[114.18918917000008,22.32901811000005,8.64999999999418],[114.18918914000005,22.329017950000036,8.64999999999418],[114.18918911000003,22.329017790000023,8.64999999999418],[114.18918907000011,22.329017630000067,8.64999999999418],[114.18918903000008,22.329017470000053,8.64999999999418],[114.18918899000005,22.32901731000004,8.64999999999418],[114.18918895000002,22.329017150000027,8.64999999999418],[114.1891889100001,22.32901699000007,8.64999999999418],[114.18918886000006,22.329016840000065,8.64999999999418],[114.18918881000002,22.329016680000052,8.64999999999418],[114.18918876000009,22.32901652000004,8.64999999999418],[114.18918871000005,22.329016360000026,8.64999999999418],[114.18918865,22.329016210000077,8.64999999999418],[114.18918860000008,22.329016050000064,8.64999999999418],[114.18918854000003,22.32901590000006,8.64999999999418],[114.18918847000009,22.329015750000053,8.64999999999418],[114.18918841000004,22.32901559000004,8.64999999999418],[114.1891883400001,22.329015440000035,8.64999999999418],[114.18918828000005,22.32901529000003,8.64999999999418],[114.18918821000011,22.329015140000024,8.64999999999418],[114.18918813000005,22.329014990000076,8.64999999999418],[114.1891880600001,22.32901484000007,8.64999999999418],[114.18918798000004,22.329014690000065,8.64999999999418],[114.18918790000009,22.329014550000068,8.64999999999418],[114.18918782000003,22.329014400000062,8.64999999999418],[114.18918774000008,22.329014260000065,8.64999999999418],[114.18918766000002,22.32901411000006,8.64999999999418],[114.18918757000006,22.329013970000062,8.64999999999418],[114.1891874800001,22.329013830000065,8.64999999999418],[114.18918739000003,22.329013690000068,8.64999999999418],[114.18918730000007,22.32901355000007,8.64999999999418],[114.1891872000001,22.329013410000073,8.64999999999418],[114.18918710000003,22.329013270000075,8.64999999999418],[114.18918701000007,22.32901314000003,8.64999999999418],[114.1891869000001,22.32901300000003,8.64999999999418],[114.18918680000002,22.329012870000042,8.64999999999418],[114.18918670000005,22.329012740000053,8.64999999999418],[114.18918659000008,22.329012600000055,8.64999999999418],[114.1891864800001,22.329012470000066,8.64999999999418],[114.18918637000002,22.329012350000028,8.64999999999418],[114.18918626000004,22.32901222000004,8.64999999999418],[114.18918615000007,22.32901209000005,8.64999999999418],[114.18918603000009,22.329011970000067,8.64999999999418],[114.18918592000011,22.32901185000003,8.64999999999418],[114.18918580000002,22.329011730000047,8.64999999999418],[114.18918568000004,22.329011610000066,8.64999999999418],[114.18918556000006,22.329011490000028,8.64999999999418],[114.18918543000007,22.329011370000046,8.64999999999418],[114.18918531000008,22.329011250000065,8.64999999999418],[114.1891851800001,22.329011140000034,8.64999999999418],[114.1891850500001,22.32901103000006,8.64999999999418],[114.18918492000012,22.32901092000003,8.64999999999418],[114.18918479000001,22.329010810000057,8.64999999999418],[114.18918466000002,22.329010700000026,8.64999999999418],[114.18918453000003,22.329010590000053,8.64999999999418],[114.18918439000004,22.32901049000003,8.64999999999418],[114.18918425000004,22.329010390000064,8.64999999999418],[114.18918411000004,22.329010290000042,8.64999999999418],[114.18918397000004,22.329010190000076,8.64999999999418],[114.18918383000005,22.329010090000054,8.64999999999418],[114.18918369000005,22.32900999000003,8.64999999999418],[114.18918355000005,22.329009900000074,8.64999999999418],[114.18918340000005,22.32900980000005,8.64999999999418],[114.18918325000004,22.329009710000037,8.64999999999418],[114.18918310000004,22.32900963000003,8.64999999999418],[114.18918295000003,22.329009540000072,8.64999999999418],[114.18918280000003,22.329009450000058,8.64999999999418],[114.18918265000002,22.32900937000005,8.64999999999418],[114.18918250000002,22.329009290000045,8.64999999999418],[114.18918235000001,22.329009210000038,8.64999999999418],[114.18918219000011,22.32900913000003,8.64999999999418],[114.1891820300001,22.329009050000025,8.64999999999418],[114.18918188000009,22.329008980000026,8.64999999999418],[114.18918172000008,22.329008910000027,8.64999999999418],[114.18918156000007,22.32900884000003,8.64999999999418],[114.18918140000005,22.32900877000003,8.64999999999418],[114.18918124000004,22.32900870000003,8.64999999999418],[114.18918108000003,22.32900864000004,8.64999999999418],[114.18918091,22.32900858000005,8.64999999999418],[114.1891807500001,22.32900852000006,8.64999999999418],[114.18918058000008,22.32900846000007,8.64999999999418],[114.18918042000007,22.329008400000077,8.64999999999418],[114.18918025000005,22.329008350000038,8.64999999999418],[114.18918009000004,22.329008290000047,8.64999999999418],[114.18917992000002,22.329008240000064,8.64999999999418],[114.18917975000011,22.329008200000033,8.64999999999418],[114.18917958000009,22.32900815000005,8.64999999999418],[114.18917941000007,22.329008100000067,8.64999999999418],[114.18917924000004,22.329008060000035,8.64999999999418],[114.18917907000002,22.32900802000006,8.64999999999418],[114.18917890000012,22.32900798000003,8.64999999999418],[114.1891787300001,22.32900795000006,8.64999999999418],[114.18917855000007,22.32900791000003,8.64999999999418],[114.18917838000004,22.329007880000063,8.64999999999418],[114.18917821000002,22.32900785000004,8.64999999999418],[114.18917803000011,22.329007830000023,8.64999999999418],[114.18917786000009,22.329007800000056,8.64999999999418],[114.18917768000006,22.32900778000004,8.64999999999418],[114.18917751000004,22.329007760000025,8.64999999999418],[114.18917733,22.329007740000065,8.64999999999418],[114.1891771600001,22.32900772000005,8.64999999999418],[114.18917698000007,22.32900771000004,8.64999999999418],[114.18917681000005,22.329007690000026,8.64999999999418],[114.18917663000002,22.329007680000075,8.64999999999418],[114.18917646000011,22.329007670000067,8.64999999999418],[114.18917628000008,22.329007670000067,8.64999999999418],[114.18917610000005,22.32900766000006,8.64999999999418],[114.18917593000003,22.32900766000006,8.64999999999418],[114.18917575000012,22.32900766000006,8.64999999999418],[114.18916476000004,22.329008240000064,8.64999999999418],[114.18914795,22.329009120000023,8.64999999999418],[114.18913421000002,22.329009840000026,8.64999999999418],[114.18913121000003,22.32901000000004,8.64999999999418],[114.18910265000011,22.329011500000036,8.64999999999418],[114.1891023500001,22.32901152000005,8.64999999999418],[114.18906673000004,22.329013390000057,8.64999999999418],[114.18904104,22.329014740000048,8.64999999999418],[114.18900186000008,22.329016800000034,8.64999999999418],[114.1889772400001,22.329018090000034,8.64999999999418],[114.18896498000004,22.329018740000038,8.64999999999418],[114.18895319,22.329019360000075,8.64999999999418],[114.18894650000004,22.32901971000007,8.64999999999418],[114.1889452800001,22.32901977000006,8.64999999999418],[114.1889172000001,22.32902125000004,8.64999999999418],[114.18889709000007,22.329022300000076,8.64999999999418],[114.18889638000007,22.32902234000005,8.64999999999418],[114.18886753000004,22.329023860000063,8.64999999999418],[114.18885187000001,22.329024680000032,8.64999999999418],[114.18883571000003,22.329025530000024,8.64999999999418],[114.18882740000004,22.329025970000032,8.64999999999418],[114.1888271900001,22.329025960000024,8.64999999999418],[114.18882697000004,22.329025950000073,8.64999999999418],[114.1888267600001,22.329025950000073,8.64999999999418],[114.18882655000004,22.329025950000073,8.64999999999418],[114.1888263400001,22.329025950000073,8.64999999999418],[114.18882613000005,22.329025950000073,8.64999999999418],[114.18882592000011,22.329025960000024,8.64999999999418],[114.18882571000006,22.329025970000032,8.64999999999418],[114.18882549000011,22.32902598000004,8.64999999999418],[114.18882528000006,22.329025990000048,8.64999999999418],[114.18882507000001,22.329026010000064,8.64999999999418],[114.18882486000007,22.329026030000023,8.64999999999418],[114.18882465000002,22.32902605000004,8.64999999999418],[114.18882444000008,22.329026070000054,8.64999999999418],[114.18882423000002,22.32902610000008,8.64999999999418],[114.18882402000008,22.329026130000045,8.64999999999418],[114.18882381000003,22.32902616000007,8.64999999999418],[114.1888236100001,22.329026200000044,8.64999999999418],[114.18882340000005,22.329026230000068,8.64999999999418],[114.18882319000011,22.329026270000043,8.64999999999418],[114.18882298000005,22.329026310000074,8.64999999999418],[114.18882278000001,22.329026360000057,8.64999999999418],[114.18882257000007,22.329026400000032,8.64999999999418],[114.18882237000003,22.32902645000007,8.64999999999418],[114.18882216000009,22.329026510000062,8.64999999999418],[114.18882196000004,22.329026560000045,8.64999999999418],[114.18882176000011,22.329026620000036,8.64999999999418],[114.18882155000006,22.329026680000027,8.64999999999418],[114.18882135000001,22.329026740000074,8.64999999999418],[114.18882115000008,22.329026800000065,8.64999999999418],[114.18882095000004,22.329026870000064,8.64999999999418],[114.18882076000011,22.329026940000062,8.64999999999418],[114.18882056000007,22.32902701000006,8.64999999999418],[114.18882036000002,22.32902708000006,8.64999999999418],[114.1888201700001,22.329027160000066,8.64999999999418],[114.18881997000005,22.329027240000073,8.64999999999418],[114.18881978000002,22.329027320000023,8.64999999999418],[114.1888195900001,22.32902740000003,8.64999999999418],[114.18881940000006,22.329027490000044,8.64999999999418],[114.18881921000002,22.32902757000005,8.64999999999418],[114.1888190200001,22.329027660000065,8.64999999999418],[114.18881883000006,22.32902776000003,8.64999999999418],[114.18881865000003,22.329027850000045,8.64999999999418],[114.1888184600001,22.329027950000068,8.64999999999418],[114.18881828000008,22.329028050000034,8.64999999999418],[114.18881810000005,22.329028150000056,8.64999999999418],[114.18881792000002,22.32902825000008,8.64999999999418],[114.1888177400001,22.329028360000052,8.64999999999418],[114.18881756000007,22.329028460000075,8.64999999999418],[114.18881739000005,22.329028580000056,8.64999999999418],[114.18881721000002,22.32902869000003,8.64999999999418],[114.18881704000012,22.32902880000006,8.64999999999418],[114.1888168700001,22.32902892000004,8.64999999999418],[114.18881670000007,22.329029040000023,8.64999999999418],[114.18881653000005,22.32902916000006,8.64999999999418],[114.18881637000004,22.329029280000043,8.64999999999418],[114.18881620000002,22.329029400000024,8.64999999999418],[114.18881604,22.32902953000007,8.64999999999418],[114.1888158800001,22.32902966000006,8.64999999999418],[114.1888157200001,22.32902979000005,8.64999999999418],[114.18881556000008,22.32902992000004,8.64999999999418],[114.18881541000007,22.32903005000003,8.64999999999418],[114.18881525000006,22.329030190000026,8.64999999999418],[114.18881510000006,22.329030330000023,8.64999999999418],[114.18881495000005,22.329030470000077,8.64999999999418],[114.18881481000005,22.329030610000075,8.64999999999418],[114.18881466000005,22.329030750000072,8.64999999999418],[114.18881452000005,22.329030900000078,8.64999999999418],[114.18881438000005,22.329031040000075,8.64999999999418],[114.18881424000006,22.329031190000023,8.64999999999418],[114.18881410000006,22.32903134000003,8.64999999999418],[114.18881396000006,22.329031490000034,8.64999999999418],[114.18881383000007,22.32903164000004,8.64999999999418],[114.18881370000008,22.329031800000052,8.64999999999418],[114.1888135700001,22.329031960000066,8.64999999999418],[114.18881345000011,22.32903211000007,8.64999999999418],[114.18881332000001,22.329032270000027,8.64999999999418],[114.18881320000003,22.32903243000004,8.64999999999418],[114.18881308000005,22.329032600000062,8.64999999999418],[114.18881296000006,22.329032760000075,8.64999999999418],[114.18881285000009,22.32903292000003,8.64999999999418],[114.18881273000011,22.329033090000053,8.64999999999418],[114.18881262000002,22.329033260000074,8.64999999999418],[114.18881252000006,22.329033430000038,8.64999999999418],[114.18881241000008,22.32903360000006,8.64999999999418],[114.18881231000012,22.329033770000024,8.64999999999418],[114.18881221000004,22.329033940000045,8.64999999999418],[114.18881211000007,22.329034120000074,8.64999999999418],[114.1888120100001,22.32903429000004,8.64999999999418],[114.18881192000003,22.329034470000067,8.64999999999418],[114.18881183000008,22.32903465000004,8.64999999999418],[114.18881174,22.32903483000007,8.64999999999418],[114.18881165000005,22.32903501000004,8.64999999999418],[114.1888115700001,22.32903519000007,8.64999999999418],[114.18881149000003,22.329035370000042,8.64999999999418],[114.18881141000008,22.32903555000007,8.64999999999418],[114.18881133000002,22.32903574000005,8.64999999999418],[114.18881126000008,22.329035920000024,8.64999999999418],[114.18881119000002,22.32903611000006,8.64999999999418],[114.18881112000008,22.329036290000033,8.64999999999418],[114.18881105000003,22.32903648000007,8.64999999999418],[114.18881099000009,22.32903667000005,8.64999999999418],[114.18881093000005,22.32903686000003,8.64999999999418],[114.18881087000011,22.329037050000068,8.64999999999418],[114.18881082000007,22.329037240000048,8.64999999999418],[114.18881077000003,22.329037430000028,8.64999999999418],[114.1888107200001,22.329037620000065,8.64999999999418],[114.18881067000007,22.329037810000045,8.64999999999418],[114.18881063000003,22.329038000000025,8.64999999999418],[114.18881058000011,22.32903820000007,8.64999999999418],[114.18881054000008,22.32903839000005,8.64999999999418],[114.18881051000005,22.32903858000003,8.64999999999418],[114.18881047000002,22.329038780000076,8.64999999999418],[114.18881044000011,22.329038970000056,8.64999999999418],[114.1888104200001,22.329039170000044,8.64999999999418],[114.18881039000007,22.329039360000024,8.64999999999418],[114.18881037000006,22.32903956000007,8.64999999999418],[114.18881035000004,22.329039760000057,8.64999999999418],[114.18881033000002,22.329039950000038,8.64999999999418],[114.18881032000002,22.329040150000026,8.64999999999418],[114.18881031000001,22.329040340000063,8.64999999999418],[114.18881030000011,22.32904054000005,8.64999999999418],[114.1888102900001,22.32904074000004,8.64999999999418],[114.1888102900001,22.329040930000076,8.64999999999418],[114.1888102900001,22.329041130000064,8.64999999999418],[114.1888102900001,22.329041330000052,8.64999999999418],[114.18881107000004,22.329058700000076,8.64999999999418],[114.18882582000003,22.329385540000033,8.64999999999418],[114.18882646000009,22.329399670000043,8.64999999999418],[114.18882663000011,22.329403510000077,8.64999999999418],[114.18883024000002,22.32948347000007,8.64999999999418],[114.18883046000008,22.32948839000005,8.64999999999418],[114.18883324000001,22.329549960000065,8.64999999999418],[114.18883342000004,22.329553840000074,8.64999999999418],[114.18883625000001,22.329616600000065,8.64999999999418],[114.18883646000006,22.32962118000006,8.64999999999418],[114.18883697000001,22.329632600000025,8.64999999999418],[114.18883702000005,22.329633750000028,8.64999999999418],[114.18883790000007,22.329653330000042,8.64999999999418],[114.18883911000012,22.329680100000076,8.64999999999418],[114.18883998000001,22.32969920000005,8.64999999999418],[114.18884000000003,22.32969963000005,8.64999999999418],[114.18885032000003,22.329928480000035,8.64999999999418],[114.18885120000004,22.329947900000036,8.64999999999418],[114.18885240000009,22.32997466000006,8.64999999999418],[114.18885295000007,22.329986570000074,8.64999999999418],[114.18885317000002,22.329991590000077,8.64999999999418],[114.18885319000003,22.329992020000077,8.64999999999418],[114.18885319000003,22.32999219000004,8.64999999999418],[114.18885319000003,22.329992350000055,8.64999999999418],[114.18885320000004,22.329992510000068,8.64999999999418],[114.18885321000005,22.329992680000032,8.64999999999418],[114.18885322000006,22.329992840000045,8.64999999999418],[114.18885323000006,22.32999300000006,8.64999999999418],[114.18885324000007,22.329993170000023,8.64999999999418],[114.18885326000009,22.329993330000036,8.64999999999418],[114.1888532800001,22.32999349000005,8.64999999999418],[114.1888533,22.329993650000063,8.64999999999418],[114.18885332000002,22.329993820000027,8.64999999999418],[114.18885335000004,22.32999398000004,8.64999999999418],[114.18885338000007,22.329994140000053,8.64999999999418],[114.18885341000009,22.329994300000067,8.64999999999418],[114.18885344000012,22.329994460000023,8.64999999999418],[114.18885347000003,22.329994620000036,8.64999999999418],[114.18885351000006,22.32999478000005,8.64999999999418],[114.18885355000009,22.329994940000063,8.64999999999418],[114.18885359000001,22.329995100000076,8.64999999999418],[114.18885363000004,22.329995260000032,8.64999999999418],[114.18885368000008,22.329995410000038,8.64999999999418],[114.18885373,22.32999557000005,8.64999999999418],[114.18885378000004,22.329995730000064,8.64999999999418],[114.18885383000008,22.32999588000007,8.64999999999418],[114.18885388000001,22.329996040000026,8.64999999999418],[114.18885394000006,22.32999619000003,8.64999999999418],[114.1888540000001,22.329996350000044,8.64999999999418],[114.18885406000004,22.32999650000005,8.64999999999418],[114.18885412000009,22.329996650000055,8.64999999999418],[114.18885419000003,22.32999681000007,8.64999999999418],[114.18885425000008,22.329996960000074,8.64999999999418],[114.18885432000002,22.329997110000022,8.64999999999418],[114.18885440000008,22.329997260000027,8.64999999999418],[114.18885447000002,22.329997400000025,8.64999999999418],[114.18885454000008,22.32999755000003,8.64999999999418],[114.18885462000003,22.329997700000035,8.64999999999418],[114.18885470000009,22.329997840000033,8.64999999999418],[114.18885478000004,22.329997990000038,8.64999999999418],[114.18885487000011,22.329998130000035,8.64999999999418],[114.18885495000006,22.329998270000033,8.64999999999418],[114.18885504000002,22.329998420000038,8.64999999999418],[114.18885513000009,22.329998560000035,8.64999999999418],[114.18885522000005,22.329998700000033,8.64999999999418],[114.18885532000002,22.329998830000022,8.64999999999418],[114.18885541000009,22.329998970000076,8.64999999999418],[114.18885551000005,22.329999110000074,8.64999999999418],[114.18885561000002,22.329999240000063,8.64999999999418],[114.1888557100001,22.32999938000006,8.64999999999418],[114.18885581000006,22.32999951000005,8.64999999999418],[114.18885592000004,22.32999964000004,8.64999999999418],[114.18885602000012,22.32999977000003,8.64999999999418],[114.18885613000009,22.329999900000075,8.64999999999418],[114.18885624000006,22.330000020000057,8.64999999999418],[114.18885636000005,22.330000150000046,8.64999999999418],[114.18885647000002,22.330000270000028,8.64999999999418],[114.1888565800001,22.330000400000074,8.64999999999418],[114.18885670000009,22.330000520000056,8.64999999999418],[114.18885682000007,22.330000640000037,8.64999999999418],[114.18885694000005,22.330000760000075,8.64999999999418],[114.18885706000003,22.330000880000057,8.64999999999418],[114.18885719000002,22.33000099000003,8.64999999999418],[114.18885731000012,22.33000111000007,8.64999999999418],[114.1888574400001,22.330001220000042,8.64999999999418],[114.1888575700001,22.330001330000073,8.64999999999418],[114.18885770000009,22.330001440000046,8.64999999999418],[114.18885783000007,22.330001550000077,8.64999999999418],[114.18885796000006,22.330001650000042,8.64999999999418],[114.18885810000006,22.330001760000073,8.64999999999418],[114.18885823000005,22.33000186000004,8.64999999999418],[114.18885837000005,22.33000196000006,8.64999999999418],[114.18885851000005,22.330002060000027,8.64999999999418],[114.18885865000004,22.33000216000005,8.64999999999418],[114.18885879000004,22.33000226000007,8.64999999999418],[114.18885894000005,22.33000235000003,8.64999999999418],[114.18885908000004,22.330002450000052,8.64999999999418],[114.18885923000005,22.330002540000066,8.64999999999418],[114.18885937000005,22.330002630000024,8.64999999999418],[114.18885952000005,22.33000271000003,8.64999999999418],[114.18885967000006,22.330002800000045,8.64999999999418],[114.18885982000006,22.330002880000052,8.64999999999418],[114.18885997000007,22.330002970000066,8.64999999999418],[114.18886013000008,22.330003050000073,8.64999999999418],[114.18886028000009,22.330003130000023,8.64999999999418],[114.1888604400001,22.33000320000008,8.64999999999418],[114.1888605900001,22.330003280000028,8.64999999999418],[114.18886075000012,22.330003350000027,8.64999999999418],[114.18886091000002,22.330003420000025,8.64999999999418],[114.18886107000003,22.330003490000024,8.64999999999418],[114.18886123000004,22.330003560000023,8.64999999999418],[114.18886139000006,22.33000362000007,8.64999999999418],[114.18886155000007,22.33000369000007,8.64999999999418],[114.18886171000008,22.33000375000006,8.64999999999418],[114.1888618700001,22.33000381000005,8.64999999999418],[114.18886204000012,22.330003860000033,8.64999999999418],[114.18886220000002,22.330003920000024,8.64999999999418],[114.18886237000004,22.330003970000064,8.64999999999418],[114.18886254000006,22.330004020000047,8.64999999999418],[114.18886270000007,22.33000407000003,8.64999999999418],[114.1888628700001,22.33000412000007,8.64999999999418],[114.18886304000011,22.330004170000052,8.64999999999418],[114.18886321000002,22.330004210000027,8.64999999999418],[114.18886338000004,22.33000425000006,8.64999999999418],[114.18886355000006,22.330004290000034,8.64999999999418],[114.18886372000009,22.330004330000065,8.64999999999418],[114.1888638900001,22.330004360000032,8.64999999999418],[114.18886407000002,22.330004390000056,8.64999999999418],[114.18886424000004,22.33000443000003,8.64999999999418],[114.18886441000006,22.330004450000047,8.64999999999418],[114.18886458000009,22.33000448000007,8.64999999999418],[114.18886476000011,22.33000450000003,8.64999999999418],[114.18886493000002,22.330004530000053,8.64999999999418],[114.18886511000005,22.33000455000007,8.64999999999418],[114.18886528000007,22.33000457000003,8.64999999999418],[114.1888654600001,22.330004580000036,8.64999999999418],[114.18886563000001,22.330004600000052,8.64999999999418],[114.18886581000004,22.33000461000006,8.64999999999418],[114.18886598000006,22.330004620000068,8.64999999999418],[114.18886616000009,22.330004620000068,8.64999999999418],[114.18886633000011,22.330004630000076,8.64999999999418],[114.18886651000003,22.330004630000076,8.64999999999418],[114.18886668000005,22.330004630000076,8.64999999999418],[114.18886686000008,22.330004630000076,8.64999999999418],[114.1888670300001,22.330004630000076,8.64999999999418],[114.18886721000001,22.330004630000076,8.64999999999418],[114.18886739000004,22.330004620000068,8.64999999999418],[114.18886756000006,22.33000461000006,8.64999999999418],[114.18886774000009,22.330004600000052,8.64999999999418],[114.18886791000011,22.330004580000036,8.64999999999418],[114.18886809000003,22.33000457000003,8.64999999999418],[114.1888743500001,22.330004340000073,8.64999999999418],[114.18887684000003,22.330057700000054,8.64999999999418],[114.18887734000009,22.33006856000003,8.64999999999418],[114.18887774000007,22.330077170000038,8.64999999999418],[114.1888783600001,22.330090460000065,8.64999999999418],[114.18887847000008,22.330092730000047,8.64999999999418],[114.18887880000011,22.33009990000005,8.64999999999418],[114.18891491000011,22.33009792000007,8.64999999999418],[114.18894494000006,22.33009627000007,8.64999999999418],[114.18898858000011,22.33009387000004,8.64999999999418],[114.18899564000003,22.330093480000073,8.64999999999418],[114.18907667000008,22.330089040000075,8.64999999999418],[114.18907637000007,22.330081850000056,8.64999999999418]]]},"geometry_name":"shape","properties":{"level_id":"902f0d3f-92ed-4e9b-b763-76a107a9f7e0","level_floorpolyid":"F3750621178T2005043002000000","level_ordinal":0,"level_z_value":8.65,"level_name_en":"GROUND FLOOR","level_name_zh":null,"level_short_name_en":"G/F","level_category":"unspecified","level_restriction":null,"level_outdoor":0,"venue_id":"2b9f5d77-6a27-4dc3-bbc8-2c98e25fdb48","venue_category":"governmentfacility","venue_name_en":"Kowloon City Municipal Services Building","venue_name_zh":"九龍城市政大廈","venue_alt_name":null,"venue_restriction":null,"venue_hours":null,"venue_website":null,"venue_phone":null,"address_address":"100 NGA TSIN WAI ROAD","address_unit":null,"address_locality":"KOWLOON CITY DISTRICT","building_id":"08999590-8656-48ce-99dd-7b3ba9a6db59","building_category":"unspecified","building_name_en":"Kowloon City Municipal Services Building","building_name_zh":"九龍城市政大廈","building_alt_name":null,"building_restriction":"","bbox":[114.1888102900001,22.32900766000006,114.18923250000012,22.33009990000005]}},{"type":"Feature","id":"level_polygon.7180","geometry":{"type":"Polygon","coordinates":[[[114.1890735500001,22.330015080000067,13.14999999999418],[114.18907299000011,22.33000179000004,13.14999999999418],[114.18907265000007,22.329993590000072,13.14999999999418],[114.18907262000005,22.32999287000007,13.14999999999418],[114.18917762000001,22.329986920000067,13.14999999999418],[114.18919487000005,22.32998594000003,13.14999999999418],[114.18920674000003,22.329985270000066,13.14999999999418],[114.1892099800001,22.329985090000037,13.14999999999418],[114.18921937000005,22.32998456000007,13.14999999999418],[114.18921957000009,22.329984530000047,13.14999999999418],[114.18921977000002,22.329984500000023,13.14999999999418],[114.18921997000007,22.32998446000005,13.14999999999418],[114.18922017000011,22.329984420000073,13.14999999999418],[114.18922037000004,22.32998439000005,13.14999999999418],[114.18922057000009,22.329984340000067,13.14999999999418],[114.18922076000001,22.329984300000035,13.14999999999418],[114.18922096000006,22.329984250000052,13.14999999999418],[114.1892211600001,22.329984210000077,13.14999999999418],[114.18922135000003,22.32998415000003,13.14999999999418],[114.18922155000007,22.329984100000047,13.14999999999418],[114.18922174000011,22.329984040000056,13.14999999999418],[114.18922194000004,22.329983990000073,13.14999999999418],[114.18922213000008,22.329983930000026,13.14999999999418],[114.18922232000011,22.329983860000027,13.14999999999418],[114.18922252000004,22.329983800000036,13.14999999999418],[114.18922271000008,22.329983730000038,13.14999999999418],[114.18922289000011,22.32998366000004,13.14999999999418],[114.18922308000003,22.32998359000004,13.14999999999418],[114.18922327000007,22.329983510000034,13.14999999999418],[114.18922346000011,22.329983430000027,13.14999999999418],[114.18922364000002,22.32998336000003,13.14999999999418],[114.18922383000006,22.32998327000007,13.14999999999418],[114.18922401000009,22.329983190000064,13.14999999999418],[114.18922419,22.329983110000057,13.14999999999418],[114.18922437000003,22.329983020000043,13.14999999999418],[114.18922455000006,22.32998293000003,13.14999999999418],[114.18922473000009,22.329982830000063,13.14999999999418],[114.18922490000011,22.329982740000048,13.14999999999418],[114.18922508000003,22.329982640000026,13.14999999999418],[114.18922525000005,22.32998254000006,13.14999999999418],[114.18922542000007,22.329982440000038,13.14999999999418],[114.1892256000001,22.329982340000072,13.14999999999418],[114.18922577000001,22.32998224000005,13.14999999999418],[114.18922593000002,22.329982130000076,13.14999999999418],[114.18922610000004,22.329982020000045,13.14999999999418],[114.18922627000006,22.329981910000072,13.14999999999418],[114.18922643000008,22.329981790000033,13.14999999999418],[114.18922659000009,22.32998168000006,13.14999999999418],[114.1892267500001,22.32998156000008,13.14999999999418],[114.18922691000012,22.32998144000004,13.14999999999418],[114.18922707000002,22.32998132000006,13.14999999999418],[114.18922722000002,22.329981200000077,13.14999999999418],[114.18922737000003,22.32998107000003,13.14999999999418],[114.18922753000004,22.32998095000005,13.14999999999418],[114.18922768000004,22.32998082000006,13.14999999999418],[114.18922782000004,22.32998069000007,13.14999999999418],[114.18922797000005,22.329980560000024,13.14999999999418],[114.18922811000004,22.329980420000027,13.14999999999418],[114.18922826000005,22.329980290000037,13.14999999999418],[114.18922840000005,22.32998015000004,13.14999999999418],[114.18922854000004,22.329980010000043,13.14999999999418],[114.18922867000003,22.329979870000045,13.14999999999418],[114.18922881000003,22.329979730000048,13.14999999999418],[114.18922894000002,22.329979580000042,13.14999999999418],[114.18922907000001,22.329979440000045,13.14999999999418],[114.18922920000011,22.32997929000004,13.14999999999418],[114.1892293200001,22.329979140000034,13.14999999999418],[114.18922945000008,22.32997899000003,13.14999999999418],[114.18922957000007,22.329978840000024,13.14999999999418],[114.18922969000005,22.329978690000075,13.14999999999418],[114.18922981000003,22.329978530000062,13.14999999999418],[114.18922992000012,22.329978380000057,13.14999999999418],[114.1892300400001,22.329978220000044,13.14999999999418],[114.18923015000007,22.32997806000003,13.14999999999418],[114.18923026000004,22.329977900000074,13.14999999999418],[114.18923037000002,22.32997774000006,13.14999999999418],[114.1892304700001,22.329977580000048,13.14999999999418],[114.18923057000006,22.329977410000026,13.14999999999418],[114.18923067000003,22.32997725000007,13.14999999999418],[114.18923077000011,22.32997708000005,13.14999999999418],[114.18923086000007,22.329976910000028,13.14999999999418],[114.18923096000003,22.329976740000063,13.14999999999418],[114.1892310500001,22.329976570000042,13.14999999999418],[114.18923114000006,22.329976400000078,13.14999999999418],[114.18923122000001,22.329976230000057,13.14999999999418],[114.18923130000007,22.329976060000035,13.14999999999418],[114.18923139000003,22.329975880000063,13.14999999999418],[114.18923146000009,22.329975710000042,13.14999999999418],[114.18923154000004,22.32997553000007,13.14999999999418],[114.18923161000009,22.32997536000005,13.14999999999418],[114.18923168000003,22.329975180000076,13.14999999999418],[114.18923175000009,22.329975000000047,13.14999999999418],[114.18923182000003,22.329974820000075,13.14999999999418],[114.18923188000008,22.329974640000046,13.14999999999418],[114.18923194000001,22.329974460000074,13.14999999999418],[114.18923200000006,22.329974280000044,13.14999999999418],[114.18923206000011,22.329974100000072,13.14999999999418],[114.18923211000003,22.329973910000035,13.14999999999418],[114.18923216000007,22.329973730000063,13.14999999999418],[114.18923221000011,22.329973550000034,13.14999999999418],[114.18923225000003,22.329973360000054,13.14999999999418],[114.18923230000007,22.329973180000025,13.14999999999418],[114.1892323400001,22.329972990000044,13.14999999999418],[114.18923237000001,22.329972800000064,13.14999999999418],[114.18923241000005,22.329972620000035,13.14999999999418],[114.18923244000007,22.329972430000055,13.14999999999418],[114.18923247000009,22.329972240000075,13.14999999999418],[114.18923250000012,22.329972050000038,13.14999999999418],[114.18923240000004,22.32996988000008,13.14999999999418],[114.1892321900001,22.32996520000006,13.14999999999418],[114.18923166000002,22.32995359000006,13.14999999999418],[114.1892170000001,22.329630430000066,13.14999999999418],[114.18921638000006,22.329616740000063,13.14999999999418],[114.1892161500001,22.32961154000003,13.14999999999418],[114.18921601000011,22.329608520000022,13.14999999999418],[114.18921596000007,22.329608380000025,13.14999999999418],[114.18921590000002,22.329608230000076,13.14999999999418],[114.18921584000009,22.32960808000007,13.14999999999418],[114.18921578000004,22.329607940000074,13.14999999999418],[114.1892157200001,22.329607800000076,13.14999999999418],[114.18921565000005,22.32960765000007,13.14999999999418],[114.18921559000012,22.329607510000073,13.14999999999418],[114.18921552000006,22.329607370000076,13.14999999999418],[114.18921545,22.32960723000008,13.14999999999418],[114.18921538000006,22.329607090000025,13.14999999999418],[114.18921530000011,22.329606950000027,13.14999999999418],[114.18921523000006,22.32960681000003,13.14999999999418],[114.18921515000011,22.32960668000004,13.14999999999418],[114.18921507000005,22.329606540000043,13.14999999999418],[114.18921498000009,22.329606410000054,13.14999999999418],[114.18921490000002,22.329606270000056,13.14999999999418],[114.18921482000007,22.329606140000067,13.14999999999418],[114.18921473000012,22.329606010000077,13.14999999999418],[114.18921464000005,22.329605870000023,13.14999999999418],[114.18921455000009,22.329605740000034,13.14999999999418],[114.18921445000001,22.329605620000052,13.14999999999418],[114.18921436000005,22.329605490000063,13.14999999999418],[114.18921426000009,22.329605360000073,13.14999999999418],[114.18921416,22.329605240000035,13.14999999999418],[114.18921406000004,22.329605110000045,13.14999999999418],[114.18921396000007,22.329604990000064,13.14999999999418],[114.18921386000011,22.329604870000026,13.14999999999418],[114.18921376000003,22.329604750000044,13.14999999999418],[114.18921365000006,22.329604630000063,13.14999999999418],[114.18921354000008,22.329604510000024,13.14999999999418],[114.18921343000011,22.329604390000043,13.14999999999418],[114.18921332000002,22.32960428000007,13.14999999999418],[114.18921320000004,22.32960417000004,13.14999999999418],[114.18921309000007,22.329604050000057,13.14999999999418],[114.18921297000009,22.329603940000027,13.14999999999418],[114.18921286000011,22.329603830000053,13.14999999999418],[114.18921274000002,22.329603720000023,13.14999999999418],[114.18921262000003,22.329603620000057,13.14999999999418],[114.18921249000005,22.329603510000027,13.14999999999418],[114.18921237000006,22.32960341000006,13.14999999999418],[114.18921224000007,22.32960331000004,13.14999999999418],[114.1892121200001,22.329603210000073,13.14999999999418],[114.1892119900001,22.32960311000005,13.14999999999418],[114.18921186000011,22.329603010000028,13.14999999999418],[114.18921173000001,22.329602910000062,13.14999999999418],[114.18921160000002,22.329602820000048,13.14999999999418],[114.18921146000002,22.329602730000033,13.14999999999418],[114.18921133000003,22.329602630000068,13.14999999999418],[114.18921119000004,22.329602540000053,13.14999999999418],[114.18921106000005,22.329602460000046,13.14999999999418],[114.18921092000005,22.329602370000032,13.14999999999418],[114.18921078000005,22.329602280000074,13.14999999999418],[114.18921064000006,22.329602200000068,13.14999999999418],[114.18921050000006,22.32960212000006,13.14999999999418],[114.18921035000005,22.329602040000054,13.14999999999418],[114.18921021000006,22.329601960000048,13.14999999999418],[114.18921006000005,22.32960189000005,13.14999999999418],[114.18920992000005,22.329601810000042,13.14999999999418],[114.18920977000005,22.329601740000044,13.14999999999418],[114.18920962000004,22.329601670000045,13.14999999999418],[114.18920947000004,22.329601600000046,13.14999999999418],[114.18920932000003,22.329601530000048,13.14999999999418],[114.18920917000003,22.329601470000057,13.14999999999418],[114.18920902000002,22.329601400000058,13.14999999999418],[114.18920887000002,22.329601340000067,13.14999999999418],[114.18920871000012,22.329601280000077,13.14999999999418],[114.18920856000011,22.32960122000003,13.14999999999418],[114.1892084000001,22.329601170000046,13.14999999999418],[114.18920825000009,22.329601110000056,13.14999999999418],[114.18920809000008,22.329601060000073,13.14999999999418],[114.18920793000007,22.329601010000033,13.14999999999418],[114.18920777000005,22.32960096000005,13.14999999999418],[114.18920761000004,22.329600910000067,13.14999999999418],[114.18920749000006,22.329600860000028,13.14999999999418],[114.18920737000008,22.329600810000045,13.14999999999418],[114.1892072500001,22.329600760000062,13.14999999999418],[114.18920713000011,22.329600710000022,13.14999999999418],[114.18920700000001,22.32960066000004,13.14999999999418],[114.18920688000003,22.329600610000057,13.14999999999418],[114.18920675000004,22.329600570000025,13.14999999999418],[114.18920663000006,22.32960053000005,13.14999999999418],[114.18920650000007,22.329600480000067,13.14999999999418],[114.18920637000008,22.329600440000036,13.14999999999418],[114.1892062500001,22.32960041000007,13.14999999999418],[114.18920612000011,22.329600370000037,13.14999999999418],[114.18920599,22.329600330000062,13.14999999999418],[114.18920586000002,22.32960030000004,13.14999999999418],[114.18920573000003,22.32960027000007,13.14999999999418],[114.18920560000004,22.329600240000048,13.14999999999418],[114.18920547000005,22.329600210000024,13.14999999999418],[114.18920534000006,22.329600180000057,13.14999999999418],[114.18920521000007,22.329600150000033,13.14999999999418],[114.18920508000008,22.329600130000074,13.14999999999418],[114.18920494000008,22.32960010000005,13.14999999999418],[114.18920481000009,22.329600080000034,13.14999999999418],[114.1892046800001,22.329600060000075,13.14999999999418],[114.18920455000011,22.32960004000006,13.14999999999418],[114.18920441000012,22.32960003000005,13.14999999999418],[114.18920428000001,22.329600010000036,13.14999999999418],[114.18920415000002,22.329600000000028,13.14999999999418],[114.18920401000003,22.329599990000077,13.14999999999418],[114.18920388000004,22.32959998000007,13.14999999999418],[114.18920375000005,22.32959997000006,13.14999999999418],[114.18920361000005,22.329599960000053,13.14999999999418],[114.18920348000006,22.329599950000045,13.14999999999418],[114.18920334000006,22.329599950000045,13.14999999999418],[114.18920321000007,22.329599950000045,13.14999999999418],[114.18920308000008,22.329599950000045,13.14999999999418],[114.18920294000009,22.329599950000045,13.14999999999418],[114.1892028100001,22.329599950000045,13.14999999999418],[114.1892026700001,22.329599960000053,13.14999999999418],[114.18920254000011,22.329599960000053,13.14999999999418],[114.18920241000001,22.32959997000006,13.14999999999418],[114.18920227000001,22.32959998000007,13.14999999999418],[114.18919383000002,22.329600310000046,13.14999999999418],[114.18919088000007,22.329600430000028,13.14999999999418],[114.18917771000008,22.329600940000034,13.14999999999418],[114.18916332000003,22.329601510000032,13.14999999999418],[114.18916313000011,22.329597500000034,13.14999999999418],[114.18916060000004,22.329542570000058,13.14999999999418],[114.18916023000008,22.329534650000028,13.14999999999418],[114.18916008000008,22.329531460000055,13.14999999999418],[114.18915869000011,22.32950130000006,13.14999999999418],[114.1891573800001,22.32947297000004,13.14999999999418],[114.18915723000009,22.329469740000036,13.14999999999418],[114.18920143000003,22.329467760000057,13.14999999999418],[114.18920961000003,22.329467430000022,13.14999999999418],[114.1892231700001,22.329466870000033,13.14999999999418],[114.18922004000001,22.329395770000076,13.14999999999418],[114.1892064000001,22.32939661000006,13.14999999999418],[114.18920586000002,22.32938469000004,13.14999999999418],[114.18920576000005,22.329382590000023,13.14999999999418],[114.18920576000005,22.32938247000004,13.14999999999418],[114.18920555000011,22.32937794000003,13.14999999999418],[114.18920506000006,22.329367010000055,13.14999999999418],[114.18919022000011,22.329039790000024,13.14999999999418],[114.18918959000007,22.329025950000073,13.14999999999418],[114.1891893500001,22.329020730000025,13.14999999999418],[114.18918936000011,22.32902063000006,13.14999999999418],[114.18918936000011,22.329020460000038,13.14999999999418],[114.18918936000011,22.329020300000025,13.14999999999418],[114.18918936000011,22.32902013000006,13.14999999999418],[114.18918936000011,22.329019970000047,13.14999999999418],[114.18918936000011,22.329019800000026,13.14999999999418],[114.1891893500001,22.32901964000007,13.14999999999418],[114.1891893400001,22.329019480000056,13.14999999999418],[114.18918933000009,22.329019310000035,13.14999999999418],[114.18918931000007,22.32901915000008,13.14999999999418],[114.18918930000007,22.329018980000058,13.14999999999418],[114.18918928000005,22.329018820000044,13.14999999999418],[114.18918926000003,22.32901866000003,13.14999999999418],[114.18918923000001,22.329018490000067,13.14999999999418],[114.18918921000011,22.329018330000054,13.14999999999418],[114.18918918000008,22.32901817000004,13.14999999999418],[114.18918915000006,22.329018010000027,13.14999999999418],[114.18918912000004,22.32901785000007,13.14999999999418],[114.18918908,22.32901768000005,13.14999999999418],[114.18918904000009,22.329017520000036,13.14999999999418],[114.18918901000006,22.329017360000023,13.14999999999418],[114.18918896000002,22.329017200000067,13.14999999999418],[114.1891889200001,22.329017040000053,13.14999999999418],[114.18918887000007,22.32901688000004,13.14999999999418],[114.18918883000003,22.329016730000035,13.14999999999418],[114.18918878000011,22.32901657000008,13.14999999999418],[114.18918872000006,22.329016410000065,13.14999999999418],[114.18918867000002,22.329016250000052,13.14999999999418],[114.18918861000009,22.329016100000047,13.14999999999418],[114.18918855000004,22.329015940000033,13.14999999999418],[114.1891884900001,22.329015790000028,13.14999999999418],[114.18918843000006,22.329015640000023,13.14999999999418],[114.18918836000012,22.329015480000066,13.14999999999418],[114.18918829000006,22.32901533000006,13.14999999999418],[114.18918822,22.329015180000056,13.14999999999418],[114.18918815000006,22.32901503000005,13.14999999999418],[114.18918808000001,22.329014880000045,13.14999999999418],[114.18918800000006,22.32901473000004,13.14999999999418],[114.18918792000011,22.329014590000043,13.14999999999418],[114.18918784000005,22.329014440000037,13.14999999999418],[114.1891877600001,22.329014290000032,13.14999999999418],[114.18918767000002,22.329014150000035,13.14999999999418],[114.18918759000007,22.329014010000037,13.14999999999418],[114.18918750000012,22.329013860000032,13.14999999999418],[114.18918741000005,22.329013720000034,13.14999999999418],[114.18918732000009,22.329013580000037,13.14999999999418],[114.18918722000001,22.32901344000004,13.14999999999418],[114.18918713000005,22.329013300000042,13.14999999999418],[114.18918703000008,22.329013170000053,13.14999999999418],[114.18918693,22.329013030000056,13.14999999999418],[114.18918682000003,22.329012900000066,13.14999999999418],[114.18918672000007,22.329012770000077,13.14999999999418],[114.18918661000009,22.329012630000022,13.14999999999418],[114.18918651000001,22.329012500000033,13.14999999999418],[114.18918640000004,22.329012370000044,13.14999999999418],[114.18918628000006,22.329012250000062,13.14999999999418],[114.18918617000008,22.329012120000073,13.14999999999418],[114.18918606000011,22.329012000000034,13.14999999999418],[114.18918594000002,22.329011870000045,13.14999999999418],[114.18918582000003,22.329011750000063,13.14999999999418],[114.18918570000005,22.329011630000025,13.14999999999418],[114.18918558000007,22.329011510000043,13.14999999999418],[114.18918546000009,22.329011390000062,13.14999999999418],[114.1891853300001,22.32901128000003,13.14999999999418],[114.18918520000011,22.32901116000005,13.14999999999418],[114.18918508000002,22.329011050000076,13.14999999999418],[114.18918495000003,22.329010940000046,13.14999999999418],[114.18918481000003,22.329010830000072,13.14999999999418],[114.18918468000004,22.329010720000042,13.14999999999418],[114.18918455000005,22.32901061000007,13.14999999999418],[114.18918441000005,22.329010510000046,13.14999999999418],[114.18918427000006,22.329010400000072,13.14999999999418],[114.18918413000006,22.32901030000005,13.14999999999418],[114.18918399000006,22.329010200000027,13.14999999999418],[114.18918385000006,22.329010100000062,13.14999999999418],[114.18918371000007,22.329010010000047,13.14999999999418],[114.18918356000006,22.329009910000025,13.14999999999418],[114.18918342000006,22.329009820000067,13.14999999999418],[114.18918327000006,22.329009730000053,13.14999999999418],[114.18918312000005,22.329009640000038,13.14999999999418],[114.18918297000005,22.329009550000023,13.14999999999418],[114.18918282000004,22.329009470000074,13.14999999999418],[114.18918267000004,22.32900938000006,13.14999999999418],[114.18918252000003,22.329009300000052,13.14999999999418],[114.18918236000002,22.329009220000046,13.14999999999418],[114.18918221000001,22.32900914000004,13.14999999999418],[114.18918205000011,22.329009060000033,13.14999999999418],[114.1891818900001,22.329008990000034,13.14999999999418],[114.18918173000009,22.329008920000035,13.14999999999418],[114.18918157000007,22.329008850000037,13.14999999999418],[114.18918141000006,22.329008780000038,13.14999999999418],[114.18918125000005,22.32900871000004,13.14999999999418],[114.18918109000003,22.32900865000005,13.14999999999418],[114.18918093000002,22.32900858000005,13.14999999999418],[114.18918076000011,22.32900852000006,13.14999999999418],[114.1891806000001,22.32900846000007,13.14999999999418],[114.18918043000008,22.32900841000003,13.14999999999418],[114.18918026000006,22.329008350000038,13.14999999999418],[114.18918010000004,22.329008300000055,13.14999999999418],[114.18917993000002,22.329008250000072,13.14999999999418],[114.18917976000012,22.329008200000033,13.14999999999418],[114.1891795900001,22.32900815000005,13.14999999999418],[114.18917942000007,22.329008110000075,13.14999999999418],[114.18917925000005,22.329008070000043,13.14999999999418],[114.18917908000003,22.329008030000068,13.14999999999418],[114.18917891000001,22.329007990000036,13.14999999999418],[114.1891787300001,22.32900795000006,13.14999999999418],[114.18917856000007,22.329007920000038,13.14999999999418],[114.18917839000005,22.32900789000007,13.14999999999418],[114.18917821000002,22.329007860000047,13.14999999999418],[114.18917804000012,22.329007830000023,13.14999999999418],[114.18917786000009,22.329007800000056,13.14999999999418],[114.18917769000007,22.32900778000004,13.14999999999418],[114.18917751000004,22.329007760000025,13.14999999999418],[114.18917734000001,22.329007740000065,13.14999999999418],[114.1891771600001,22.32900772000005,13.14999999999418],[114.18917699000008,22.32900771000004,13.14999999999418],[114.18917681000005,22.329007690000026,13.14999999999418],[114.18917663000002,22.329007680000075,13.14999999999418],[114.18917646000011,22.329007670000067,13.14999999999418],[114.18917628000008,22.329007670000067,13.14999999999418],[114.18917610000005,22.32900766000006,13.14999999999418],[114.18917593000003,22.32900766000006,13.14999999999418],[114.18917575000012,22.32900766000006,13.14999999999418],[114.18917118000002,22.32900790000008,13.14999999999418],[114.18916345000002,22.329008310000063,13.14999999999418],[114.18915127000002,22.32900895000006,13.14999999999418],[114.18913121000003,22.32901000000004,13.14999999999418],[114.18913183000006,22.329021020000027,13.14999999999418],[114.18910347000008,22.329022630000054,13.14999999999418],[114.18910300000005,22.329016350000074,13.14999999999418],[114.18909960000008,22.32901652000004,13.14999999999418],[114.18903988000011,22.329019560000063,13.14999999999418],[114.18903532000002,22.329019800000026,13.14999999999418],[114.1889660600001,22.32902333000004,13.14999999999418],[114.18896144000007,22.329023560000053,13.14999999999418],[114.18893175000005,22.329025070000057,13.14999999999418],[114.18890193000004,22.32902659000007,13.14999999999418],[114.18889662000004,22.329026860000056,13.14999999999418],[114.18889697000009,22.32903336000004,13.14999999999418],[114.18886810000004,22.329035030000057,13.14999999999418],[114.18886805000011,22.329035030000057,13.14999999999418],[114.18886801000008,22.329035040000065,13.14999999999418],[114.18886753000004,22.329023860000063,13.14999999999418],[114.18885348000003,22.329024600000025,13.14999999999418],[114.18883663000008,22.32902548000004,13.14999999999418],[114.18882740000004,22.329025970000032,13.14999999999418],[114.1888272000001,22.329025960000024,13.14999999999418],[114.18882700000006,22.329025950000073,13.14999999999418],[114.18882681000002,22.329025950000073,13.14999999999418],[114.18882661000009,22.329025950000073,13.14999999999418],[114.18882641000005,22.329025950000073,13.14999999999418],[114.18882622000001,22.329025950000073,13.14999999999418],[114.18882602000008,22.329025950000073,13.14999999999418],[114.18882582000003,22.329025960000024,13.14999999999418],[114.18882563000011,22.329025970000032,13.14999999999418],[114.18882543000007,22.32902598000004,13.14999999999418],[114.18882524000003,22.329026000000056,13.14999999999418],[114.18882502000008,22.329026010000064,13.14999999999418],[114.18882481000003,22.329026030000023,13.14999999999418],[114.18882460000009,22.329026060000047,13.14999999999418],[114.18882439000004,22.329026080000062,13.14999999999418],[114.1888241800001,22.32902611000003,13.14999999999418],[114.18882397000004,22.329026140000053,13.14999999999418],[114.1888237600001,22.329026170000077,13.14999999999418],[114.18882355000005,22.329026210000052,13.14999999999418],[114.18882334000011,22.329026240000076,13.14999999999418],[114.18882314000007,22.32902628000005,13.14999999999418],[114.18882293000001,22.329026330000033,13.14999999999418],[114.18882272000008,22.329026370000065,13.14999999999418],[114.18882252000003,22.329026420000048,13.14999999999418],[114.18882231000009,22.32902647000003,13.14999999999418],[114.18882211000005,22.32902652000007,13.14999999999418],[114.18882190000011,22.32902658000006,13.14999999999418],[114.18882170000006,22.329026630000044,13.14999999999418],[114.18882150000002,22.329026690000035,13.14999999999418],[114.18882129000008,22.329026760000033,13.14999999999418],[114.18882109000003,22.329026820000024,13.14999999999418],[114.1888208900001,22.329026890000023,13.14999999999418],[114.18882070000006,22.32902696000008,13.14999999999418],[114.18882050000002,22.329027030000077,13.14999999999418],[114.18882030000009,22.329027110000027,13.14999999999418],[114.18882011000005,22.329027180000026,13.14999999999418],[114.18881991,22.329027260000032,13.14999999999418],[114.18881972000008,22.32902734000004,13.14999999999418],[114.18881953000005,22.329027430000053,13.14999999999418],[114.18881933000011,22.329027520000068,13.14999999999418],[114.18881914000008,22.329027600000074,13.14999999999418],[114.18881896000005,22.32902770000004,13.14999999999418],[114.18881877000001,22.329027790000055,13.14999999999418],[114.18881858000009,22.32902788000007,13.14999999999418],[114.18881840000006,22.329027980000035,13.14999999999418],[114.18881822000003,22.329028080000057,13.14999999999418],[114.1888180300001,22.329028180000023,13.14999999999418],[114.18881785000008,22.329028290000053,13.14999999999418],[114.18881767000005,22.329028400000027,13.14999999999418],[114.18881750000003,22.32902850000005,13.14999999999418],[114.18881732000011,22.32902862000003,13.14999999999418],[114.18881715000009,22.32902873000006,13.14999999999418],[114.18881697000006,22.329028840000035,13.14999999999418],[114.18881680000004,22.329028960000073,13.14999999999418],[114.18881664000003,22.329029080000055,13.14999999999418],[114.18881647,22.329029200000036,13.14999999999418],[114.1888163000001,22.329029330000026,13.14999999999418],[114.18881614000009,22.329029450000064,13.14999999999418],[114.18881598000007,22.329029580000054,13.14999999999418],[114.18881581000005,22.329029710000043,13.14999999999418],[114.18881566000005,22.329029840000032,13.14999999999418],[114.18881550000003,22.32902997000008,13.14999999999418],[114.18881534000002,22.329030110000076,13.14999999999418],[114.18881519000001,22.329030250000073,13.14999999999418],[114.18881504000001,22.32903039000007,13.14999999999418],[114.18881489000012,22.329030530000068,13.14999999999418],[114.18881474000011,22.329030670000066,13.14999999999418],[114.18881460000011,22.329030810000063,13.14999999999418],[114.18881446000012,22.32903096000007,13.14999999999418],[114.18881431000011,22.329031110000074,13.14999999999418],[114.18881418000001,22.329031260000022,13.14999999999418],[114.18881404000001,22.329031410000027,13.14999999999418],[114.18881390000001,22.329031560000033,13.14999999999418],[114.18881377000002,22.329031710000038,13.14999999999418],[114.18881364000003,22.32903187000005,13.14999999999418],[114.18881351000005,22.329032030000064,13.14999999999418],[114.18881339000006,22.329032190000078,13.14999999999418],[114.18881326000007,22.329032350000034,13.14999999999418],[114.1888131400001,22.329032510000047,13.14999999999418],[114.18881302000011,22.32903267000006,13.14999999999418],[114.18881291000002,22.329032840000025,13.14999999999418],[114.18881279000004,22.329033000000038,13.14999999999418],[114.18881268000007,22.32903317000006,13.14999999999418],[114.1888125700001,22.329033340000024,13.14999999999418],[114.18881246000001,22.329033510000045,13.14999999999418],[114.18881236000004,22.329033680000066,13.14999999999418],[114.18881225000007,22.329033860000038,13.14999999999418],[114.1888121500001,22.32903403000006,13.14999999999418],[114.18881206000003,22.32903421000003,13.14999999999418],[114.18881196000007,22.329034380000053,13.14999999999418],[114.18881187000011,22.329034560000025,13.14999999999418],[114.18881178000004,22.329034740000054,13.14999999999418],[114.18881169000008,22.329034920000026,13.14999999999418],[114.18881161000002,22.329035100000056,13.14999999999418],[114.18881152000006,22.329035280000028,13.14999999999418],[114.18881144000011,22.329035470000065,13.14999999999418],[114.18881137000005,22.329035650000037,13.14999999999418],[114.1888112900001,22.329035840000074,13.14999999999418],[114.18881122000005,22.329036020000046,13.14999999999418],[114.1888111500001,22.329036210000027,13.14999999999418],[114.18881108000005,22.329036400000064,13.14999999999418],[114.18881102000012,22.329036580000036,13.14999999999418],[114.18881096000007,22.329036770000073,13.14999999999418],[114.18881090000002,22.329036960000053,13.14999999999418],[114.18881084000009,22.329037150000033,13.14999999999418],[114.18881079000005,22.32903735000008,13.14999999999418],[114.18881074000001,22.32903754000006,13.14999999999418],[114.18881069000008,22.32903773000004,13.14999999999418],[114.18881064000004,22.329037920000076,13.14999999999418],[114.18881060000001,22.329038120000064,13.14999999999418],[114.18881056000009,22.329038310000044,13.14999999999418],[114.18881052000006,22.329038500000024,13.14999999999418],[114.18881049000004,22.32903870000007,13.14999999999418],[114.18881045,22.32903889000005,13.14999999999418],[114.1888104300001,22.329039090000038,13.14999999999418],[114.18881040000008,22.329039290000026,13.14999999999418],[114.18881038000006,22.329039480000063,13.14999999999418],[114.18881035000004,22.32903968000005,13.14999999999418],[114.18881034000003,22.32903988000004,13.14999999999418],[114.18881032000002,22.329040070000076,13.14999999999418],[114.18881031000001,22.329040270000064,13.14999999999418],[114.18881030000011,22.329040470000052,13.14999999999418],[114.1888102900001,22.32904067000004,13.14999999999418],[114.1888102900001,22.329040860000077,13.14999999999418],[114.1888102900001,22.329041060000065,13.14999999999418],[114.1888102900001,22.329041330000052,13.14999999999418],[114.1888104200001,22.329044370000076,13.14999999999418],[114.18881050000005,22.329045990000054,13.14999999999418],[114.18881104000002,22.32905814000003,13.14999999999418],[114.18881107000004,22.329058700000076,13.14999999999418],[114.18882583000004,22.32938585000005,13.14999999999418],[114.1888264700001,22.329399850000073,13.14999999999418],[114.18882670000005,22.329405030000032,13.14999999999418],[114.18882679000001,22.329406990000052,13.14999999999418],[114.18882723000002,22.329416800000047,13.14999999999418],[114.1888134300001,22.32941739000006,13.14999999999418],[114.1888165900001,22.329489230000036,13.14999999999418],[114.18883047000008,22.329488510000033,13.14999999999418],[114.18883843000003,22.32948810000005,13.14999999999418],[114.1888396700001,22.329517920000058,13.14999999999418],[114.18884093000008,22.329548260000024,13.14999999999418],[114.18884094000009,22.329548310000064,13.14999999999418],[114.18884114000002,22.32955318000006,13.14999999999418],[114.18884380000009,22.32961714000004,13.14999999999418],[114.18884402000003,22.329622260000065,13.14999999999418],[114.18884387000003,22.329622330000063,13.14999999999418],[114.18884372000002,22.329622400000062,13.14999999999418],[114.18884358000003,22.32962247000006,13.14999999999418],[114.18884343000002,22.32962254000006,13.14999999999418],[114.18884329000002,22.329622610000058,13.14999999999418],[114.18884315000003,22.329622690000065,13.14999999999418],[114.18884301000003,22.32962277000007,13.14999999999418],[114.18884287000003,22.329622850000078,13.14999999999418],[114.18884273000003,22.329622930000028,13.14999999999418],[114.18884259000004,22.329623010000034,13.14999999999418],[114.18884246000005,22.32962310000005,13.14999999999418],[114.18884232000005,22.329623180000056,13.14999999999418],[114.18884219000006,22.32962327000007,13.14999999999418],[114.18884206000007,22.329623360000028,13.14999999999418],[114.18884193000008,22.329623450000042,13.14999999999418],[114.18884180000009,22.329623550000065,13.14999999999418],[114.1888416700001,22.329623640000023,13.14999999999418],[114.18884154000011,22.329623740000045,13.14999999999418],[114.18884141000001,22.329623840000068,13.14999999999418],[114.18884129000003,22.329623930000025,13.14999999999418],[114.18884117000005,22.329624030000048,13.14999999999418],[114.18884104000006,22.329624140000078,13.14999999999418],[114.18884092000008,22.329624240000044,13.14999999999418],[114.1888408100001,22.329624350000074,13.14999999999418],[114.18884069,22.32962445000004,13.14999999999418],[114.18884057000002,22.32962456000007,13.14999999999418],[114.18884046000005,22.329624670000044,13.14999999999418],[114.18884035000008,22.329624780000074,13.14999999999418],[114.1888402300001,22.329624890000048,13.14999999999418],[114.18884012000001,22.329625000000078,13.14999999999418],[114.18884002000004,22.32962512000006,13.14999999999418],[114.18883991000007,22.32962524000004,13.14999999999418],[114.1888398100001,22.32962535000007,13.14999999999418],[114.18883970000002,22.329625470000053,13.14999999999418],[114.18883960000005,22.329625590000035,13.14999999999418],[114.18883950000009,22.329625710000073,13.14999999999418],[114.1888394,22.329625830000055,13.14999999999418],[114.18883931000005,22.329625960000044,13.14999999999418],[114.18883921000008,22.329626080000025,13.14999999999418],[114.18883912000001,22.32962621000007,13.14999999999418],[114.18883903000005,22.329626330000053,13.14999999999418],[114.1888389400001,22.329626460000043,13.14999999999418],[114.18883885000002,22.329626590000032,13.14999999999418],[114.18883877000007,22.32962672000008,13.14999999999418],[114.18883868000012,22.329626850000068,13.14999999999418],[114.18883860000005,22.329626990000065,13.14999999999418],[114.1888385200001,22.329627120000055,13.14999999999418],[114.18883844000004,22.329627250000044,13.14999999999418],[114.1888383700001,22.32962739000004,13.14999999999418],[114.18883829000004,22.32962752000003,13.14999999999418],[114.1888382200001,22.32962766000003,13.14999999999418],[114.18883815000004,22.329627800000026,13.14999999999418],[114.1888380800001,22.329627940000023,13.14999999999418],[114.18883801000004,22.32962807000007,13.14999999999418],[114.1888379500001,22.329628210000067,13.14999999999418],[114.18883789000006,22.329628360000072,13.14999999999418],[114.18883783000001,22.32962850000007,13.14999999999418],[114.18883777000008,22.329628640000067,13.14999999999418],[114.18883771000003,22.329628780000064,13.14999999999418],[114.1888376600001,22.32962893000007,13.14999999999418],[114.18883760000006,22.329629070000067,13.14999999999418],[114.18883755000002,22.329629220000072,13.14999999999418],[114.18883750000009,22.32962936000007,13.14999999999418],[114.18883746000006,22.329629510000075,13.14999999999418],[114.18883741000002,22.329629650000072,13.14999999999418],[114.1888373700001,22.329629800000077,13.14999999999418],[114.18883733000007,22.329629950000026,13.14999999999418],[114.18883729000004,22.32963010000003,13.14999999999418],[114.18883726000001,22.329630250000037,13.14999999999418],[114.1888372200001,22.329630400000042,13.14999999999418],[114.18883719000007,22.32963054000004,13.14999999999418],[114.18883716000005,22.329630690000045,13.14999999999418],[114.18883713000002,22.32963084000005,13.14999999999418],[114.18883711000001,22.329630990000055,13.14999999999418],[114.1888370800001,22.32963115000007,13.14999999999418],[114.18883706000008,22.329631300000074,13.14999999999418],[114.18883704000007,22.329631450000022,13.14999999999418],[114.18883702000005,22.329631600000027,13.14999999999418],[114.18883701000004,22.329631750000033,13.14999999999418],[114.18883700000004,22.329631900000038,13.14999999999418],[114.18883699000003,22.32963206000005,13.14999999999418],[114.18883698000002,22.329632210000057,13.14999999999418],[114.18883697000001,22.329632360000062,13.14999999999418],[114.18883697000001,22.329632510000067,13.14999999999418],[114.18883701000004,22.329633580000063,13.14999999999418],[114.18883724000011,22.329638570000043,13.14999999999418],[114.1888377900001,22.329650680000043,13.14999999999418],[114.1888524100001,22.32997466000006,13.14999999999418],[114.18885294000006,22.329986570000074,13.14999999999418],[114.18885317000002,22.329991590000077,13.14999999999418],[114.18885319000003,22.329992020000077,13.14999999999418],[114.18885319000003,22.32999219000004,13.14999999999418],[114.18885319000003,22.329992350000055,13.14999999999418],[114.18885320000004,22.329992510000068,13.14999999999418],[114.18885320000004,22.329992680000032,13.14999999999418],[114.18885321000005,22.329992840000045,13.14999999999418],[114.18885323000006,22.32999300000006,13.14999999999418],[114.18885324000007,22.329993170000023,13.14999999999418],[114.18885326000009,22.329993330000036,13.14999999999418],[114.1888532800001,22.32999349000005,13.14999999999418],[114.1888533,22.329993650000063,13.14999999999418],[114.18885332000002,22.329993820000027,13.14999999999418],[114.18885335000004,22.32999398000004,13.14999999999418],[114.18885337000006,22.329994140000053,13.14999999999418],[114.18885340000008,22.329994300000067,13.14999999999418],[114.18885344000012,22.329994460000023,13.14999999999418],[114.18885347000003,22.329994620000036,13.14999999999418],[114.18885351000006,22.32999478000005,13.14999999999418],[114.18885355000009,22.329994940000063,13.14999999999418],[114.18885359000001,22.329995100000076,13.14999999999418],[114.18885363000004,22.329995260000032,13.14999999999418],[114.18885368000008,22.329995410000038,13.14999999999418],[114.18885372000011,22.32999557000005,13.14999999999418],[114.18885377000004,22.329995730000064,13.14999999999418],[114.18885383000008,22.329995890000077,13.14999999999418],[114.18885388000001,22.329996040000026,13.14999999999418],[114.18885394000006,22.32999619000003,13.14999999999418],[114.1888540000001,22.329996350000044,13.14999999999418],[114.18885406000004,22.32999650000005,13.14999999999418],[114.18885412000009,22.329996650000055,13.14999999999418],[114.18885419000003,22.32999681000007,13.14999999999418],[114.18885425000008,22.329996960000074,13.14999999999418],[114.18885432000002,22.329997110000022,13.14999999999418],[114.18885439000007,22.329997260000027,13.14999999999418],[114.18885447000002,22.329997400000025,13.14999999999418],[114.18885454000008,22.32999755000003,13.14999999999418],[114.18885462000003,22.329997700000035,13.14999999999418],[114.18885470000009,22.329997840000033,13.14999999999418],[114.18885478000004,22.329997990000038,13.14999999999418],[114.18885487000011,22.329998130000035,13.14999999999418],[114.18885495000006,22.32999828000004,13.14999999999418],[114.18885504000002,22.329998420000038,13.14999999999418],[114.18885513000009,22.329998560000035,13.14999999999418],[114.18885522000005,22.329998700000033,13.14999999999418],[114.18885531000001,22.32999884000003,13.14999999999418],[114.18885541000009,22.329998970000076,13.14999999999418],[114.18885551000005,22.329999110000074,13.14999999999418],[114.18885561000002,22.329999240000063,13.14999999999418],[114.1888557100001,22.32999938000006,13.14999999999418],[114.18885581000006,22.32999951000005,13.14999999999418],[114.18885592000004,22.32999964000004,13.14999999999418],[114.18885602000012,22.32999977000003,13.14999999999418],[114.18885613000009,22.329999900000075,13.14999999999418],[114.18885624000006,22.330000030000065,13.14999999999418],[114.18885635000004,22.330000150000046,13.14999999999418],[114.18885647000002,22.330000280000036,13.14999999999418],[114.1888565800001,22.330000400000074,13.14999999999418],[114.18885670000009,22.330000520000056,13.14999999999418],[114.18885682000007,22.330000640000037,13.14999999999418],[114.18885694000005,22.330000760000075,13.14999999999418],[114.18885706000003,22.330000880000057,13.14999999999418],[114.18885719000002,22.33000099000003,13.14999999999418],[114.18885731000012,22.33000111000007,13.14999999999418],[114.1888574400001,22.330001220000042,13.14999999999418],[114.1888575700001,22.330001330000073,13.14999999999418],[114.18885770000009,22.330001440000046,13.14999999999418],[114.18885783000007,22.330001550000077,13.14999999999418],[114.18885796000006,22.330001650000042,13.14999999999418],[114.18885810000006,22.330001760000073,13.14999999999418],[114.18885823000005,22.33000186000004,13.14999999999418],[114.18885837000005,22.33000196000006,13.14999999999418],[114.18885851000005,22.330002060000027,13.14999999999418],[114.18885865000004,22.33000216000005,13.14999999999418],[114.18885879000004,22.33000226000007,13.14999999999418],[114.18885893000004,22.33000235000003,13.14999999999418],[114.18885908000004,22.330002450000052,13.14999999999418],[114.18885922000004,22.330002540000066,13.14999999999418],[114.18885937000005,22.330002630000024,13.14999999999418],[114.18885952000005,22.33000272000004,13.14999999999418],[114.18885967000006,22.330002800000045,13.14999999999418],[114.18885982000006,22.33000289000006,13.14999999999418],[114.18885997000007,22.330002970000066,13.14999999999418],[114.18886012000007,22.330003050000073,13.14999999999418],[114.18886028000009,22.330003130000023,13.14999999999418],[114.18886043000009,22.33000320000008,13.14999999999418],[114.1888605900001,22.330003280000028,13.14999999999418],[114.18886075000012,22.330003350000027,13.14999999999418],[114.18886090000001,22.330003420000025,13.14999999999418],[114.18886106000002,22.330003490000024,13.14999999999418],[114.18886122000004,22.330003560000023,13.14999999999418],[114.18886138000005,22.33000362000007,13.14999999999418],[114.18886155000007,22.33000369000007,13.14999999999418],[114.18886171000008,22.33000375000006,13.14999999999418],[114.1888618700001,22.33000381000005,13.14999999999418],[114.18886204000012,22.330003860000033,13.14999999999418],[114.18886220000002,22.330003920000024,13.14999999999418],[114.18886237000004,22.330003970000064,13.14999999999418],[114.18886254000006,22.330004020000047,13.14999999999418],[114.18886270000007,22.33000407000003,13.14999999999418],[114.1888628700001,22.33000412000007,13.14999999999418],[114.18886304000011,22.330004170000052,13.14999999999418],[114.18886321000002,22.330004210000027,13.14999999999418],[114.18886338000004,22.33000425000006,13.14999999999418],[114.18886355000006,22.330004290000034,13.14999999999418],[114.18886372000009,22.330004330000065,13.14999999999418],[114.1888638900001,22.330004360000032,13.14999999999418],[114.18886406000001,22.330004390000056,13.14999999999418],[114.18886424000004,22.33000443000003,13.14999999999418],[114.18886441000006,22.330004450000047,13.14999999999418],[114.18886458000009,22.33000448000007,13.14999999999418],[114.18886476000011,22.330004510000037,13.14999999999418],[114.18886493000002,22.330004530000053,13.14999999999418],[114.18886510000004,22.33000455000007,13.14999999999418],[114.18886528000007,22.33000457000003,13.14999999999418],[114.1888654500001,22.330004580000036,13.14999999999418],[114.18886563000001,22.330004600000052,13.14999999999418],[114.18886580000003,22.33000461000006,13.14999999999418],[114.18886598000006,22.330004620000068,13.14999999999418],[114.18886615000008,22.330004630000076,13.14999999999418],[114.18886633000011,22.330004630000076,13.14999999999418],[114.18886651000003,22.330004630000076,13.14999999999418],[114.18886668000005,22.330004640000027,13.14999999999418],[114.18886686000008,22.330004640000027,13.14999999999418],[114.1888670300001,22.330004630000076,13.14999999999418],[114.18886721000001,22.330004630000076,13.14999999999418],[114.18886738000003,22.330004620000068,13.14999999999418],[114.18886756000006,22.33000461000006,13.14999999999418],[114.18886773000008,22.330004600000052,13.14999999999418],[114.18886791000011,22.330004590000044,13.14999999999418],[114.18886808000002,22.33000457000003,13.14999999999418],[114.1888743500001,22.330004340000073,13.14999999999418],[114.18887475000008,22.33001297000004,13.14999999999418],[114.18887539000002,22.33002655000007,13.14999999999418],[114.18887623,22.330044720000046,13.14999999999418],[114.18887687000006,22.330058440000073,13.14999999999418],[114.18887775000007,22.33007740000005,13.14999999999418],[114.1888783600001,22.330090530000064,13.14999999999418],[114.18887846000007,22.330092730000047,13.14999999999418],[114.18887880000011,22.33009990000005,13.14999999999418],[114.18894567000007,22.330096230000038,13.14999999999418],[114.18899820000001,22.330093340000076,13.14999999999418],[114.18900922000012,22.330092740000055,13.14999999999418],[114.18907667000008,22.330089040000075,13.14999999999418],[114.18907636000006,22.330081850000056,13.14999999999418],[114.18907624000008,22.330078900000046,13.14999999999418],[114.18907572,22.33006664000004,13.14999999999418],[114.18907486,22.330046210000035,13.14999999999418],[114.18907433000004,22.33003352000003,13.14999999999418],[114.1890735500001,22.330015080000067,13.14999999999418]]]},"geometry_name":"shape","properties":{"level_id":"59388cb2-b045-4ef9-8ce3-98dd7c877b17","level_floorpolyid":"F3750621178T2005043001000100","level_ordinal":1,"level_z_value":13.15,"level_name_en":"FIRST FLOOR","level_name_zh":null,"level_short_name_en":"1/F","level_category":"unspecified","level_restriction":null,"level_outdoor":0,"venue_id":"2b9f5d77-6a27-4dc3-bbc8-2c98e25fdb48","venue_category":"governmentfacility","venue_name_en":"Kowloon City Municipal Services Building","venue_name_zh":"九龍城市政大廈","venue_alt_name":null,"venue_restriction":null,"venue_hours":null,"venue_website":null,"venue_phone":null,"address_address":"100 NGA TSIN WAI ROAD","address_unit":null,"address_locality":"KOWLOON CITY DISTRICT","building_id":"08999590-8656-48ce-99dd-7b3ba9a6db59","building_category":"unspecified","building_name_en":"Kowloon City Municipal Services Building","building_name_zh":"九龍城市政大廈","building_alt_name":null,"building_restriction":"","bbox":[114.1888102900001,22.32900766000006,114.18923250000012,22.33009990000005]}}]}