{"type":"FeatureCollection","features":[{"type":"Feature","id":445281,"geometry":{"type":"LineString","coordinates":[[114.14164049697712,22.286205493332844,22.539999999993597],[114.14161813372714,22.286206141398434,22.716000000000349]]},"properties":{"OBJECTID":445281,"PedestrianRouteID":290044832,"Location":1,"FeatureType":1,"AliasNameEN":"Second Street","AliasNameTC":"第二街","CrossingFeature":null,"WeatherProof":2,"WheelchairBarrier":2,"WheelchairAccess":2,"ObstaclesType":null,"Gradient":0.076175909999999999,"Direction":0,"PositionCertainty":1,"Enabled":1,"DataSource":1,"LevelSource":12,"StreetNameEN":"Second Street","StreetNameTC":"第二街","ST_CODE":11947,"FloorID":null,"BuildingID_1":null,"BuildingID_2":null,"SiteID":null,"TerminalID":null,"AccessTimeID":null,"CreationDate":1723305600000,"ModifiedBy":"LANDSD","LastAmendmentDate":1723305600000,"Shape__Length":2.3057338197377479}},{"type":"Feature","id":445282,"geometry":{"type":"LineString","coordinates":[[114.141682884874,22.286204265318961,22.206500000000233],[114.14164049697712,22.286205493332844,22.539999999993597]]},"properties":{"OBJECTID":445282,"PedestrianRouteID":290044833,"Location":1,"FeatureType":1,"AliasNameEN":"Second Street","AliasNameTC":"第二街","CrossingFeature":null,"WeatherProof":2,"WheelchairBarrier":2,"WheelchairAccess":2,"ObstaclesType":null,"Gradient":0.076175909999999999,"Direction":0,"PositionCertainty":1,"Enabled":1,"DataSource":1,"LevelSource":12,"StreetNameEN":"Second Street","StreetNameTC":"第二街","ST_CODE":11947,"FloorID":null,"BuildingID_1":null,"BuildingID_2":null,"SiteID":null,"TerminalID":null,"AccessTimeID":null,"CreationDate":1723305600000,"ModifiedBy":"LANDSD","LastAmendmentDate":1723305600000,"Shape__Length":4.3703478400819744}},{"type":"Feature","id":445283,"geometry":{"type":"LineString","coordinates":[[114.14353220106253,22.284677287395954,50.50340000000142],[114.1435327086255,22.284689300949438,49.822899999999208]]},"properties":{"OBJECTID":445283,"PedestrianRouteID":290044823,"Location":1,"FeatureType":1,"AliasNameEN":"Eastern Street","AliasNameTC":"東邊街","CrossingFeature":null,"WeatherProof":2,"WheelchairBarrier":2,"WheelchairAccess":2,"ObstaclesType":null,"Gradient":0.034350279999999997,"Direction":0,"PositionCertainty":1,"Enabled":1,"DataSource":1,"LevelSource":2,"StreetNameEN":"Eastern Street","StreetNameTC":"東邊街","ST_CODE":10402,"FloorID":null,"BuildingID_1":null,"BuildingID_2":null,"SiteID":null,"TerminalID":null,"AccessTimeID":null,"CreationDate":1723305600000,"ModifiedBy":"LANDSD","LastAmendmentDate":1723305600000,"Shape__Length":1.3313394942117429}},{"type":"Feature","id":445284,"geometry":{"type":"LineString","coordinates":[[114.1456662208639,22.286344382620499,10.998399999996764],[114.14544743373649,22.286531785647551,7.3723000000027241],[114.14536116009251,22.286566534162596,7.4226999999955297],[114.145352050638,22.2865735121703,7.4179000000003725]]},"properties":{"OBJECTID":445284,"PedestrianRouteID":290044839,"Location":1,"FeatureType":1,"AliasNameEN":"Queen's Road West","AliasNameTC":"皇后大道西","CrossingFeature":null,"WeatherProof":2,"WheelchairBarrier":2,"WheelchairAccess":2,"ObstaclesType":null,"Gradient":0.00155714,"Direction":0,"PositionCertainty":1,"Enabled":1,"DataSource":1,"LevelSource":12,"StreetNameEN":"Queen's Road West","StreetNameTC":"皇后大道西","ST_CODE":11806,"FloorID":null,"BuildingID_1":null,"BuildingID_2":null,"SiteID":null,"TerminalID":null,"AccessTimeID":null,"CreationDate":1723305600000,"ModifiedBy":"LANDSD","LastAmendmentDate":1764518400000,"Shape__Length":41.546730145727949}},{"type":"Feature","id":445285,"geometry":{"type":"LineString","coordinates":[[114.14526903718958,22.284957706718547,63.04320000000007],[114.14504133052696,22.284967690809658,62.922800000000279],[114.14484929635272,22.284934201830517,62.134600000004866],[114.14466459011294,22.284838411748687,62.900999999998021],[114.14458909999748,22.284788251483562,62.733800000001793],[114.14454080137781,22.284741929193366,62.78190000000177]]},"properties":{"OBJECTID":445285,"PedestrianRouteID":290044840,"Location":1,"FeatureType":1,"AliasNameEN":"Bonham Road","AliasNameTC":"般咸道","CrossingFeature":null,"WeatherProof":2,"WheelchairBarrier":2,"WheelchairAccess":2,"ObstaclesType":null,"Gradient":0.0081910200000000002,"Direction":0,"PositionCertainty":1,"Enabled":1,"DataSource":1,"LevelSource":12,"StreetNameEN":"Bonham Road","StreetNameTC":"般咸道","ST_CODE":10069,"FloorID":null,"BuildingID_1":null,"BuildingID_2":null,"SiteID":null,"TerminalID":null,"AccessTimeID":null,"CreationDate":1723305600000,"ModifiedBy":"LANDSD","LastAmendmentDate":1723305600000,"Shape__Length":82.123973953839737}},{"type":"Feature","id":452220,"geometry":{"type":"LineString","coordinates":[[114.14533653496298,22.287155943219037,4.6876999999949476],[114.14536698580039,22.287218749924346,4.1652999999932945],[114.14536826399163,22.287243839065653,4.1606999999930849],[114.14537724809182,22.287255189598021,4.1886999999987893],[114.14539072512652,22.287261762894275,4.2308999999950174],[114.14540420380038,22.287265349760702,4.2308000000048196],[114.14542749365575,22.287291907928978,3.9786000000021886]]},"properties":{"OBJECTID":452220,"PedestrianRouteID":290052475,"Location":1,"FeatureType":1,"AliasNameEN":"Li Sing Street Playground","AliasNameTC":"李陞街遊樂場","CrossingFeature":null,"WeatherProof":2,"WheelchairBarrier":2,"WheelchairAccess":2,"ObstaclesType":null,"Gradient":0.037738050000000002,"Direction":0,"PositionCertainty":1,"Enabled":1,"DataSource":1,"LevelSource":12,"StreetNameEN":null,"StreetNameTC":null,"ST_CODE":null,"FloorID":null,"BuildingID_1":null,"BuildingID_2":null,"SiteID":1503015219,"TerminalID":null,"AccessTimeID":250000040,"CreationDate":1748275200000,"ModifiedBy":"LANDSD","LastAmendmentDate":1765987200000,"Shape__Length":18.781134904052017}},{"type":"Feature","id":452221,"geometry":{"type":"LineString","coordinates":[[114.14542749365575,22.287291907928978,3.9786000000021886],[114.14534811487614,22.287357662625194,3.7921999999962281]]},"properties":{"OBJECTID":452221,"PedestrianRouteID":290052474,"Location":1,"FeatureType":5,"AliasNameEN":"Lane beside Elite's Place","AliasNameTC":"俊陞華庭旁的小巷","CrossingFeature":null,"WeatherProof":2,"WheelchairBarrier":2,"WheelchairAccess":2,"ObstaclesType":null,"Gradient":0.017019010000000001,"Direction":0,"PositionCertainty":1,"Enabled":1,"DataSource":1,"LevelSource":12,"StreetNameEN":null,"StreetNameTC":null,"ST_CODE":811064,"FloorID":null,"BuildingID_1":null,"BuildingID_2":null,"SiteID":null,"TerminalID":null,"AccessTimeID":null,"CreationDate":1748275200000,"ModifiedBy":"LANDSD","LastAmendmentDate":1748275200000,"Shape__Length":10.951402772621202}},{"type":"Feature","id":452222,"geometry":{"type":"LineString","coordinates":[[114.14551254233525,22.28722145565094,4.0093000000051688],[114.14549664929893,22.287187713250894,4.1628999999957159],[114.1454876660307,22.287176959649766,4.1815000000060536],[114.14544041510611,22.287127021978009,4.2600999999995111]]},"properties":{"OBJECTID":452222,"PedestrianRouteID":290052477,"Location":1,"FeatureType":1,"AliasNameEN":"Li Sing Street Playground","AliasNameTC":"李陞街遊樂場","CrossingFeature":null,"WeatherProof":2,"WheelchairBarrier":2,"WheelchairAccess":2,"ObstaclesType":null,"Gradient":0.019355279999999999,"Direction":0,"PositionCertainty":1,"Enabled":1,"DataSource":1,"LevelSource":12,"StreetNameEN":null,"StreetNameTC":null,"ST_CODE":null,"FloorID":null,"BuildingID_1":null,"BuildingID_2":null,"SiteID":1503015219,"TerminalID":null,"AccessTimeID":250000040,"CreationDate":1748275200000,"ModifiedBy":"LANDSD","LastAmendmentDate":1765987200000,"Shape__Length":12.956084683040082}},{"type":"Feature","id":452223,"geometry":{"type":"LineString","coordinates":[[114.14551254233525,22.28722145565094,4.0093000000051688],[114.14542749365575,22.287291907928978,3.9786000000021886]]},"properties":{"OBJECTID":452223,"PedestrianRouteID":290052476,"Location":1,"FeatureType":5,"AliasNameEN":"Lane beside Elite's Place","AliasNameTC":"俊陞華庭旁的小巷","CrossingFeature":null,"WeatherProof":2,"WheelchairBarrier":2,"WheelchairAccess":2,"ObstaclesType":null,"Gradient":0.0026163900000000001,"Direction":0,"PositionCertainty":1,"Enabled":1,"DataSource":1,"LevelSource":12,"StreetNameEN":null,"StreetNameTC":null,"ST_CODE":811064,"FloorID":null,"BuildingID_1":null,"BuildingID_2":null,"SiteID":null,"TerminalID":null,"AccessTimeID":null,"CreationDate":1748275200000,"ModifiedBy":"LANDSD","LastAmendmentDate":1748275200000,"Shape__Length":11.733708163817393}},{"type":"Feature","id":452224,"geometry":{"type":"LineString","coordinates":[[114.14544041510611,22.287127021978009,4.2600999999995111],[114.14549359216505,22.287080908312905,4.3839000000007218],[114.14552247781752,22.287074104791685,4.2869000000064261],[114.14554866711865,22.287065866681857,4.1389000000053784],[114.14558197422633,22.287048350966451,4.1689000000042142]]},"properties":{"OBJECTID":452224,"PedestrianRouteID":290052479,"Location":1,"FeatureType":1,"AliasNameEN":"Sutherland Street","AliasNameTC":"修打蘭街","CrossingFeature":null,"WeatherProof":2,"WheelchairBarrier":2,"WheelchairAccess":2,"ObstaclesType":null,"Gradient":0.0052557100000000002,"Direction":0,"PositionCertainty":1,"Enabled":1,"DataSource":1,"LevelSource":12,"StreetNameEN":"Sutherland Street","StreetNameTC":"修打蘭街","ST_CODE":12195,"FloorID":null,"BuildingID_1":null,"BuildingID_2":null,"SiteID":1503015219,"TerminalID":null,"AccessTimeID":250000040,"CreationDate":1748275200000,"ModifiedBy":"LANDSD","LastAmendmentDate":1765987200000,"Shape__Length":17.352408923102125}},{"type":"Feature","id":452225,"geometry":{"type":"LineString","coordinates":[[114.14538973903061,22.287141130657115,4.5402999999932945],[114.1453703770165,22.287029014353838,5.0644999999931315],[114.14543007287929,22.287013972755283,4.8793000000005122],[114.14547880916517,22.286986648265781,4.542700000005425]]},"properties":{"OBJECTID":452225,"PedestrianRouteID":290052481,"Location":1,"FeatureType":1,"AliasNameEN":"Sutherland Street","AliasNameTC":"修打蘭街","CrossingFeature":null,"WeatherProof":2,"WheelchairBarrier":2,"WheelchairAccess":2,"ObstaclesType":null,"Gradient":9.6730000000000004e-05,"Direction":0,"PositionCertainty":1,"Enabled":1,"DataSource":1,"LevelSource":12,"StreetNameEN":"Sutherland Street","StreetNameTC":"修打蘭街","ST_CODE":12195,"FloorID":null,"BuildingID_1":null,"BuildingID_2":null,"SiteID":1503015219,"TerminalID":null,"AccessTimeID":250000040,"CreationDate":1748275200000,"ModifiedBy":"LANDSD","LastAmendmentDate":1765987200000,"Shape__Length":24.811222673691098}},{"type":"Feature","id":452226,"geometry":{"type":"LineString","coordinates":[[114.14544041510611,22.287127021978009,4.2600999999995111],[114.14538973903061,22.287141130657115,4.5402999999932945]]},"properties":{"OBJECTID":452226,"PedestrianRouteID":290052480,"Location":1,"FeatureType":1,"AliasNameEN":"Li Sing Street Playground","AliasNameTC":"李陞街遊樂場","CrossingFeature":null,"WeatherProof":2,"WheelchairBarrier":2,"WheelchairAccess":2,"ObstaclesType":null,"Gradient":0.05135812,"Direction":0,"PositionCertainty":1,"Enabled":1,"DataSource":1,"LevelSource":12,"StreetNameEN":null,"StreetNameTC":null,"ST_CODE":null,"FloorID":null,"BuildingID_1":null,"BuildingID_2":null,"SiteID":1503015219,"TerminalID":null,"AccessTimeID":250000040,"CreationDate":1748275200000,"ModifiedBy":"LANDSD","LastAmendmentDate":1765987200000,"Shape__Length":5.4510094076000275}},{"type":"Feature","id":458606,"geometry":{"type":"LineString","coordinates":[[114.1414971549269,22.287639447534712,5.1747999999934109],[114.14155959870688,22.287639450277027,5.1867999999958556],[114.14155523578029,22.287469712346617,5.5564000000013039]]},"properties":{"OBJECTID":458606,"PedestrianRouteID":290059674,"Location":1,"FeatureType":1,"AliasNameEN":"Sai Ying Pun Station","AliasNameTC":"西營盤站","CrossingFeature":null,"WeatherProof":2,"WheelchairBarrier":2,"WheelchairAccess":2,"ObstaclesType":null,"Gradient":0.02445402,"Direction":0,"PositionCertainty":1,"Enabled":1,"DataSource":1,"LevelSource":12,"StreetNameEN":"Ki Ling Lane","StreetNameTC":"奇靈里","ST_CODE":10988,"FloorID":null,"BuildingID_1":null,"BuildingID_2":null,"SiteID":1810037162,"TerminalID":1810000155,"AccessTimeID":null,"CreationDate":1759852800000,"ModifiedBy":"LANDSD","LastAmendmentDate":1759852800000,"Shape__Length":25.236182375166852}},{"type":"Feature","id":458607,"geometry":{"type":"LineString","coordinates":[[114.14149666335621,22.287622368703431,5.2511999999987893],[114.1414971549269,22.287639447534712,5.1747999999934109]]},"properties":{"OBJECTID":458607,"PedestrianRouteID":290059672,"Location":1,"FeatureType":1,"AliasNameEN":"Ki Ling Lane","AliasNameTC":"奇靈里","CrossingFeature":null,"WeatherProof":2,"WheelchairBarrier":2,"WheelchairAccess":2,"ObstaclesType":null,"Gradient":0.040360960000000001,"Direction":0,"PositionCertainty":1,"Enabled":1,"DataSource":1,"LevelSource":12,"StreetNameEN":"Ki Ling Lane","StreetNameTC":"奇靈里","ST_CODE":10988,"FloorID":null,"BuildingID_1":null,"BuildingID_2":null,"SiteID":1810037162,"TerminalID":null,"AccessTimeID":null,"CreationDate":1759852800000,"ModifiedBy":"LANDSD","LastAmendmentDate":1759852800000,"Shape__Length":1.8918902324315139}},{"type":"Feature","id":458608,"geometry":{"type":"LineString","coordinates":[[114.14142276762455,22.287424135726962,6.2559999999939464],[114.14141544038804,22.287200411140134,7.274199999999837]]},"properties":{"OBJECTID":458608,"PedestrianRouteID":290059673,"Location":1,"FeatureType":1,"AliasNameEN":"Ki Ling Lane","AliasNameTC":"奇靈里","CrossingFeature":null,"WeatherProof":2,"WheelchairBarrier":2,"WheelchairAccess":2,"ObstaclesType":null,"Gradient":0.041057410000000003,"Direction":0,"PositionCertainty":1,"Enabled":1,"DataSource":1,"LevelSource":12,"StreetNameEN":"Ki Ling Lane","StreetNameTC":"奇靈里","ST_CODE":10988,"FloorID":null,"BuildingID_1":null,"BuildingID_2":null,"SiteID":null,"TerminalID":null,"AccessTimeID":null,"CreationDate":1759852800000,"ModifiedBy":"LANDSD","LastAmendmentDate":1759852800000,"Shape__Length":24.785482349067177}},{"type":"Feature","id":458609,"geometry":{"type":"LineString","coordinates":[[114.14155523578029,22.287469712346617,5.5564000000013039],[114.14157029602411,22.287469688526532,5.4805999999953201],[114.14160368265873,22.287431466414969,5.6766999999963446],[114.1416021626557,22.287347837949003,6.2630999999964843]]},"properties":{"OBJECTID":458609,"PedestrianRouteID":290059677,"Location":1,"FeatureType":1,"AliasNameEN":"Footway","AliasNameTC":"行人道","CrossingFeature":null,"WeatherProof":2,"WheelchairBarrier":2,"WheelchairAccess":2,"ObstaclesType":null,"Gradient":0.034797599999999998,"Direction":0,"PositionCertainty":1,"Enabled":1,"DataSource":1,"LevelSource":12,"StreetNameEN":null,"StreetNameTC":null,"ST_CODE":null,"FloorID":null,"BuildingID_1":null,"BuildingID_2":null,"SiteID":null,"TerminalID":null,"AccessTimeID":null,"CreationDate":1759852800000,"ModifiedBy":"LANDSD","LastAmendmentDate":1759852800000,"Shape__Length":16.268374148294271}},{"type":"Feature","id":458610,"geometry":{"type":"LineString","coordinates":[[114.14155397303253,22.287420583646881,5.9611000000004424],[114.14142276762455,22.287424135726962,6.2559999999939464]]},"properties":{"OBJECTID":458610,"PedestrianRouteID":290059675,"Location":1,"FeatureType":1,"AliasNameEN":"Sai Ying Pun Station","AliasNameTC":"西營盤站","CrossingFeature":null,"WeatherProof":2,"WheelchairBarrier":2,"WheelchairAccess":2,"ObstaclesType":null,"Gradient":0.036865299999999997,"Direction":0,"PositionCertainty":1,"Enabled":1,"DataSource":1,"LevelSource":12,"StreetNameEN":"Ki Ling Lane","StreetNameTC":"奇靈里","ST_CODE":10988,"FloorID":null,"BuildingID_1":null,"BuildingID_2":null,"SiteID":1810037162,"TerminalID":1810000155,"AccessTimeID":null,"CreationDate":1759852800000,"ModifiedBy":"LANDSD","LastAmendmentDate":1759852800000,"Shape__Length":13.5268123838585}},{"type":"Feature","id":458611,"geometry":{"type":"LineString","coordinates":[[114.14163495716271,22.287329642024051,6.3524999999935972],[114.14163568813828,22.287347893986098,6.256599999993341]]},"properties":{"OBJECTID":458611,"PedestrianRouteID":290059676,"Location":1,"FeatureType":11,"AliasNameEN":"Sai Yuen Lane Ramp","AliasNameTC":"西源里斜道","CrossingFeature":null,"WeatherProof":2,"WheelchairBarrier":2,"WheelchairAccess":2,"ObstaclesType":null,"Gradient":0.054087549999999998,"Direction":0,"PositionCertainty":1,"Enabled":1,"DataSource":1,"LevelSource":12,"StreetNameEN":"Sai Yuen Lane","StreetNameTC":"西源里","ST_CODE":11866,"FloorID":null,"BuildingID_1":null,"BuildingID_2":null,"SiteID":null,"TerminalID":null,"AccessTimeID":null,"CreationDate":1759852800000,"ModifiedBy":"LANDSD","LastAmendmentDate":1759852800000,"Shape__Length":2.0225209141396552}},{"type":"Feature","id":458612,"geometry":{"type":"LineString","coordinates":[[114.14155523578029,22.287469712346617,5.5564000000013039],[114.14155397303253,22.287420583646881,5.9611000000004424]]},"properties":{"OBJECTID":458612,"PedestrianRouteID":290059678,"Location":1,"FeatureType":1,"AliasNameEN":"Sai Ying Pun Station","AliasNameTC":"西營盤站","CrossingFeature":null,"WeatherProof":2,"WheelchairBarrier":2,"WheelchairAccess":2,"ObstaclesType":null,"Gradient":0.074232309999999996,"Direction":0,"PositionCertainty":1,"Enabled":1,"DataSource":1,"LevelSource":12,"StreetNameEN":null,"StreetNameTC":null,"ST_CODE":null,"FloorID":null,"BuildingID_1":null,"BuildingID_2":null,"SiteID":1810037162,"TerminalID":1810000155,"AccessTimeID":null,"CreationDate":1759852800000,"ModifiedBy":"LANDSD","LastAmendmentDate":1759852800000,"Shape__Length":5.4417866561204242}},{"type":"Feature","id":458613,"geometry":{"type":"LineString","coordinates":[[114.1416021626557,22.287347837949003,6.2630999999964843],[114.14156902685528,22.28732232735662,6.385599999994156],[114.14149277318056,22.287324819484482,6.4248999999981606],[114.14148726089448,22.28718805844289,7.2670000000071013]]},"properties":{"OBJECTID":458613,"PedestrianRouteID":290059680,"Location":1,"FeatureType":1,"AliasNameEN":"Footway","AliasNameTC":"行人道","CrossingFeature":null,"WeatherProof":2,"WheelchairBarrier":2,"WheelchairAccess":2,"ObstaclesType":null,"Gradient":0.036556249999999998,"Direction":0,"PositionCertainty":1,"Enabled":1,"DataSource":1,"LevelSource":12,"StreetNameEN":null,"StreetNameTC":null,"ST_CODE":null,"FloorID":null,"BuildingID_1":null,"BuildingID_2":null,"SiteID":null,"TerminalID":null,"AccessTimeID":null,"CreationDate":1759852800000,"ModifiedBy":"LANDSD","LastAmendmentDate":1759852800000,"Shape__Length":27.449552499910823}},{"type":"Feature","id":458614,"geometry":{"type":"LineString","coordinates":[[114.1416021626557,22.287347837949003,6.2630999999964843],[114.14163568813828,22.287347893986098,6.256599999993341]]},"properties":{"OBJECTID":458614,"PedestrianRouteID":290059679,"Location":1,"FeatureType":1,"AliasNameEN":"Sai Ying Pun Station","AliasNameTC":"西營盤站","CrossingFeature":null,"WeatherProof":2,"WheelchairBarrier":2,"WheelchairAccess":2,"ObstaclesType":null,"Gradient":0.00188138,"Direction":0,"PositionCertainty":1,"Enabled":1,"DataSource":1,"LevelSource":12,"StreetNameEN":null,"StreetNameTC":null,"ST_CODE":null,"FloorID":null,"BuildingID_1":null,"BuildingID_2":null,"SiteID":1810037162,"TerminalID":1810000155,"AccessTimeID":null,"CreationDate":1759852800000,"ModifiedBy":"LANDSD","LastAmendmentDate":1759852800000,"Shape__Length":3.4549042203352212}},{"type":"Feature","id":460670,"geometry":{"type":"LineString","coordinates":[[114.14448726117566,22.287069585207153,7.1900000000023283],[114.14449837836095,22.287054370811497,7.1438000000052853]]},"properties":{"OBJECTID":460670,"PedestrianRouteID":290061806,"Location":1,"FeatureType":1,"AliasNameEN":"Sai Ying Pun Station","AliasNameTC":"西營盤站","CrossingFeature":null,"WeatherProof":2,"WheelchairBarrier":2,"WheelchairAccess":2,"ObstaclesType":null,"Gradient":0.02267224,"Direction":0,"PositionCertainty":1,"Enabled":1,"DataSource":1,"LevelSource":12,"StreetNameEN":"Queen's Road West","StreetNameTC":"皇后大道西","ST_CODE":11806,"FloorID":null,"BuildingID_1":null,"BuildingID_2":null,"SiteID":null,"TerminalID":1810000155,"AccessTimeID":null,"CreationDate":1764604800000,"ModifiedBy":"LANDSD","LastAmendmentDate":1764604800000,"Shape__Length":2.0373848658757545}},{"type":"Feature","id":460678,"geometry":{"type":"LineString","coordinates":[[114.14090227167326,22.288540302698973,3.7612999999983003],[114.14090372141045,22.288551756564388,3.7915000000066357]]},"properties":{"OBJECTID":460678,"PedestrianRouteID":290061929,"Location":1,"FeatureType":1,"AliasNameEN":"Connaught Road West","AliasNameTC":"干諾道西","CrossingFeature":null,"WeatherProof":1,"WheelchairBarrier":2,"WheelchairAccess":2,"ObstaclesType":null,"Gradient":0.023642839999999998,"Direction":0,"PositionCertainty":1,"Enabled":1,"DataSource":1,"LevelSource":12,"StreetNameEN":"Connaught Road West","StreetNameTC":"干諾道西","ST_CODE":10329,"FloorID":null,"BuildingID_1":null,"BuildingID_2":null,"SiteID":null,"TerminalID":null,"AccessTimeID":null,"CreationDate":1765814400000,"ModifiedBy":"LANDSD","LastAmendmentDate":1765814400000,"Shape__Length":1.2771041388437556}},{"type":"Feature","id":460679,"geometry":{"type":"LineString","coordinates":[[114.14070232402383,22.288567211132406,9.8999999999941792],[114.14080998336283,22.288562966279578,9.8999999999941792],[114.14092320402041,22.288558501335224,9.8999999999941792]]},"properties":{"OBJECTID":460679,"PedestrianRouteID":290061930,"Location":1,"FeatureType":2,"AliasNameEN":"Western Street Footbridge","AliasNameTC":"西邊街天橋","CrossingFeature":null,"WeatherProof":1,"WheelchairBarrier":2,"WheelchairAccess":2,"ObstaclesType":null,"Gradient":0,"Direction":0,"PositionCertainty":1,"Enabled":1,"DataSource":1,"LevelSource":12,"StreetNameEN":"Western Street","StreetNameTC":"西邊街","ST_CODE":12700,"FloorID":null,"BuildingID_1":null,"BuildingID_2":null,"SiteID":null,"TerminalID":null,"AccessTimeID":null,"CreationDate":1765814400000,"ModifiedBy":"LANDSD","LastAmendmentDate":1765814400000,"Shape__Length":22.782554677657991}},{"type":"Feature","id":460680,"geometry":{"type":"LineString","coordinates":[[114.1409828590629,22.288563340486956,3.9367999999958556],[114.14102204654726,22.288569077262824,4.0160999999934575]]},"properties":{"OBJECTID":460680,"PedestrianRouteID":290061931,"Location":1,"FeatureType":1,"AliasNameEN":"Connaught Road West","AliasNameTC":"干諾道西","CrossingFeature":null,"WeatherProof":2,"WheelchairBarrier":2,"WheelchairAccess":2,"ObstaclesType":null,"Gradient":0.019395760000000001,"Direction":0,"PositionCertainty":1,"Enabled":1,"DataSource":1,"LevelSource":12,"StreetNameEN":"Connaught Road West","StreetNameTC":"干諾道西","ST_CODE":10329,"FloorID":null,"BuildingID_1":null,"BuildingID_2":null,"SiteID":null,"TerminalID":null,"AccessTimeID":null,"CreationDate":1765814400000,"ModifiedBy":"LANDSD","LastAmendmentDate":1765814400000,"Shape__Length":4.0880091410339343}},{"type":"Feature","id":460681,"geometry":{"type":"LineString","coordinates":[[114.14134730363635,22.288534526162696,3.7590000000054715],[114.14130294686503,22.288536669362522,4.0381000000052154]]},"properties":{"OBJECTID":460681,"PedestrianRouteID":290061932,"Location":1,"FeatureType":1,"AliasNameEN":"Connaught Road West","AliasNameTC":"干諾道西","CrossingFeature":null,"WeatherProof":2,"WheelchairBarrier":2,"WheelchairAccess":2,"ObstaclesType":null,"Gradient":0.060900570000000001,"Direction":0,"PositionCertainty":1,"Enabled":1,"DataSource":1,"LevelSource":12,"StreetNameEN":"Connaught Road West","StreetNameTC":"干諾道西","ST_CODE":10329,"FloorID":null,"BuildingID_1":null,"BuildingID_2":null,"SiteID":null,"TerminalID":null,"AccessTimeID":null,"CreationDate":1765814400000,"ModifiedBy":"LANDSD","LastAmendmentDate":1765814400000,"Shape__Length":4.5772126403888151}},{"type":"Feature","id":460703,"geometry":{"type":"LineString","coordinates":[[114.14230530994807,22.286096100854696,18.43399999999383],[114.1423032453152,22.286059283439752,19.785600000002887]]},"properties":{"OBJECTID":460703,"PedestrianRouteID":290061956,"Location":1,"FeatureType":12,"AliasNameEN":"Centre Street Staircase","AliasNameTC":"正街樓梯","CrossingFeature":null,"WeatherProof":1,"WheelchairBarrier":1,"WheelchairAccess":2,"ObstaclesType":null,"Gradient":0.31970465999999997,"Direction":0,"PositionCertainty":1,"Enabled":1,"DataSource":1,"LevelSource":12,"StreetNameEN":"Centre Street","StreetNameTC":"正街","ST_CODE":10152,"FloorID":null,"BuildingID_1":null,"BuildingID_2":null,"SiteID":null,"TerminalID":null,"AccessTimeID":null,"CreationDate":1765814400000,"ModifiedBy":"LANDSD","LastAmendmentDate":1765814400000,"Shape__Length":4.0824969440364738}},{"type":"Feature","id":460704,"geometry":{"type":"LineString","coordinates":[[114.14230608865617,22.28610997838954,17.924599999998463],[114.14230530994807,22.286096100854696,18.43399999999383]]},"properties":{"OBJECTID":460704,"PedestrianRouteID":290061957,"Location":1,"FeatureType":12,"AliasNameEN":"Centre Street Staircase","AliasNameTC":"正街樓梯","CrossingFeature":null,"WeatherProof":2,"WheelchairBarrier":1,"WheelchairAccess":2,"ObstaclesType":null,"Gradient":0.31968021000000002,"Direction":0,"PositionCertainty":1,"Enabled":1,"DataSource":1,"LevelSource":12,"StreetNameEN":"Centre Street","StreetNameTC":"正街","ST_CODE":10152,"FloorID":null,"BuildingID_1":null,"BuildingID_2":null,"SiteID":null,"TerminalID":null,"AccessTimeID":null,"CreationDate":1765814400000,"ModifiedBy":"LANDSD","LastAmendmentDate":1765814400000,"Shape__Length":1.5388122864825373}},{"type":"Feature","id":460705,"geometry":{"type":"LineString","coordinates":[[114.14224698629617,22.286114863120897,18.138099999996484],[114.14220671953377,22.286112633906267,18.130600000004051]]},"properties":{"OBJECTID":460705,"PedestrianRouteID":290061958,"Location":1,"FeatureType":33,"AliasNameEN":"Second Street Crossing","AliasNameTC":"第二街過路處","CrossingFeature":1,"WeatherProof":2,"WheelchairBarrier":2,"WheelchairAccess":2,"ObstaclesType":null,"Gradient":0.00180419,"Direction":0,"PositionCertainty":1,"Enabled":1,"DataSource":1,"LevelSource":12,"StreetNameEN":"Second Street","StreetNameTC":"第二街","ST_CODE":11947,"FloorID":null,"BuildingID_1":null,"BuildingID_2":null,"SiteID":null,"TerminalID":null,"AccessTimeID":null,"CreationDate":1765814400000,"ModifiedBy":"LANDSD","LastAmendmentDate":1765814400000,"Shape__Length":4.1569792998465829}},{"type":"Feature","id":460706,"geometry":{"type":"LineString","coordinates":[[114.14229840630466,22.286117708781088,17.761799999992945],[114.14228534825581,22.286116986261849,17.842799999998533]]},"properties":{"OBJECTID":460706,"PedestrianRouteID":290061959,"Location":1,"FeatureType":33,"AliasNameEN":"Second Street Crossing","AliasNameTC":"第二街過路處","CrossingFeature":1,"WeatherProof":2,"WheelchairBarrier":2,"WheelchairAccess":2,"ObstaclesType":null,"Gradient":0.060014280000000003,"Direction":0,"PositionCertainty":1,"Enabled":1,"DataSource":1,"LevelSource":12,"StreetNameEN":"Second Street","StreetNameTC":"第二街","ST_CODE":11947,"FloorID":null,"BuildingID_1":null,"BuildingID_2":null,"SiteID":null,"TerminalID":null,"AccessTimeID":null,"CreationDate":1765814400000,"ModifiedBy":"LANDSD","LastAmendmentDate":1765814400000,"Shape__Length":1.3480580767906665}},{"type":"Feature","id":460707,"geometry":{"type":"LineString","coordinates":[[114.14215756123272,22.28618938738218,17.944900000002235],[114.14217199750564,22.286188907326029,17.736399999994319]]},"properties":{"OBJECTID":460707,"PedestrianRouteID":290061960,"Location":1,"FeatureType":1,"AliasNameEN":"Second Street","AliasNameTC":"第二街","CrossingFeature":null,"WeatherProof":2,"WheelchairBarrier":2,"WheelchairAccess":2,"ObstaclesType":null,"Gradient":0.13915350000000001,"Direction":0,"PositionCertainty":1,"Enabled":1,"DataSource":1,"LevelSource":12,"StreetNameEN":"Second Street","StreetNameTC":"第二街","ST_CODE":11947,"FloorID":null,"BuildingID_1":null,"BuildingID_2":null,"SiteID":null,"TerminalID":null,"AccessTimeID":null,"CreationDate":1765814400000,"ModifiedBy":"LANDSD","LastAmendmentDate":1765814400000,"Shape__Length":1.4886616611061827}},{"type":"Feature","id":461028,"geometry":{"type":"LineString","coordinates":[[114.14169865899497,22.284103780969229,70.412200000006123],[114.14168014326708,22.284155942408667,69.66030000000319]]},"properties":{"OBJECTID":461028,"PedestrianRouteID":290062332,"Location":1,"FeatureType":5,"AliasNameEN":"Lane between Grand Court and Cheery Garden","AliasNameTC":"格蘭閣與時樂花園之間的小巷","CrossingFeature":null,"WeatherProof":1,"WheelchairBarrier":2,"WheelchairAccess":2,"ObstaclesType":null,"Gradient":0.12298141,"Direction":0,"PositionCertainty":1,"Enabled":1,"DataSource":1,"LevelSource":12,"StreetNameEN":"Babington Path","StreetNameTC":"巴丙頓道","ST_CODE":10038,"FloorID":null,"BuildingID_1":null,"BuildingID_2":1103123811,"SiteID":null,"TerminalID":null,"AccessTimeID":null,"CreationDate":1765987200000,"ModifiedBy":"LANDSD","LastAmendmentDate":1765987200000,"Shape__Length":6.0830780437516516}},{"type":"Feature","id":465592,"geometry":{"type":"LineString","coordinates":[[114.14364932701433,22.286293391532134,17.916500000006636],[114.14337017586254,22.2863037483604,17.782500000001164],[114.14336494658455,22.28620167136264,19.338600000002771]]},"properties":{"OBJECTID":465592,"PedestrianRouteID":250004022,"Location":1,"FeatureType":5,"AliasNameEN":"Lane between Island Crest Tower 1 and Tung Cheung Building","AliasNameTC":"縉城峰第一座與東祥大廈之間的小巷","CrossingFeature":null,"WeatherProof":2,"WheelchairBarrier":2,"WheelchairAccess":2,"ObstaclesType":null,"Gradient":0.03545794834750586,"Direction":0,"PositionCertainty":1,"Enabled":1,"DataSource":1,"LevelSource":2,"StreetNameEN":"Yu Po Lane East","StreetNameTC":"餘步里東","ST_CODE":12895,"FloorID":null,"BuildingID_1":null,"BuildingID_2":1103122208,"SiteID":null,"TerminalID":null,"AccessTimeID":null,"CreationDate":1614441600000,"ModifiedBy":"LANDSD","LastAmendmentDate":1782662400000,"Shape__Length":40.106663421663164}},{"type":"Feature","id":465593,"geometry":{"type":"LineString","coordinates":[[114.14054310252367,22.284818453032351,43.877600000007078],[114.1399697424221,22.284832922788404,37.094800000006217]]},"properties":{"OBJECTID":465593,"PedestrianRouteID":250004856,"Location":1,"FeatureType":5,"AliasNameEN":"Lane beside Sui Wah House","AliasNameTC":"萃華樓旁小巷","CrossingFeature":null,"WeatherProof":2,"WheelchairBarrier":2,"WheelchairAccess":2,"ObstaclesType":null,"Gradient":0.11475030586684574,"Direction":0,"PositionCertainty":1,"Enabled":1,"DataSource":1,"LevelSource":2,"StreetNameEN":"Sui Wah Terrace","StreetNameTC":"瑞華坊","ST_CODE":12173,"FloorID":null,"BuildingID_1":null,"BuildingID_2":1810152706,"SiteID":null,"TerminalID":null,"AccessTimeID":null,"CreationDate":1614441600000,"ModifiedBy":"LANDSD","LastAmendmentDate":1782662400000,"Shape__Length":59.109210635756426}},{"type":"Feature","id":466917,"geometry":{"type":"LineString","coordinates":[[114.14333235873605,22.284417577691613,59.984700000000885],[114.14336178227317,22.284423925972536,59.786699999996927],[114.14336182496665,22.284423935011976,59.786399999997229]]},"properties":{"OBJECTID":466917,"PedestrianRouteID":250005998,"Location":1,"FeatureType":1,"AliasNameEN":"Bonham Road","AliasNameTC":"般咸道","CrossingFeature":null,"WeatherProof":2,"WheelchairBarrier":2,"WheelchairAccess":2,"ObstaclesType":null,"Gradient":0.063615275067033517,"Direction":0,"PositionCertainty":1,"Enabled":1,"DataSource":1,"LevelSource":12,"StreetNameEN":"Bonham Road","StreetNameTC":"般咸道","ST_CODE":10069,"FloorID":null,"BuildingID_1":null,"BuildingID_2":null,"SiteID":null,"TerminalID":null,"AccessTimeID":null,"CreationDate":1614441600000,"ModifiedBy":"LANDSD","LastAmendmentDate":1781625600000,"Shape__Length":3.1171758637324163}},{"type":"Feature","id":466918,"geometry":{"type":"LineString","coordinates":[[114.14323952091522,22.284397547533032,60.209000000002561],[114.14328197564073,22.284406707953618,60.106400000004214]]},"properties":{"OBJECTID":466918,"PedestrianRouteID":250006822,"Location":1,"FeatureType":1,"AliasNameEN":"Bonham Road","AliasNameTC":"般咸道","CrossingFeature":null,"WeatherProof":2,"WheelchairBarrier":2,"WheelchairAccess":2,"ObstaclesType":null,"Gradient":0.022844545329962402,"Direction":0,"PositionCertainty":1,"Enabled":1,"DataSource":1,"LevelSource":2,"StreetNameEN":"Bonham Road","StreetNameTC":"般咸道","ST_CODE":10069,"FloorID":null,"BuildingID_1":null,"BuildingID_2":null,"SiteID":null,"TerminalID":null,"AccessTimeID":null,"CreationDate":1614441600000,"ModifiedBy":"LANDSD","LastAmendmentDate":1781625600000,"Shape__Length":4.4912253019883481}},{"type":"Feature","id":467006,"geometry":{"type":"LineString","coordinates":[[114.14343307643919,22.284410688201081,60.564299999998184],[114.14343314339671,22.28441067557198,60.564299999998184],[114.14346964782327,22.284403888429356,60.962400000003981],[114.14349906775878,22.284384507510911,61.00789999999688]]},"properties":{"OBJECTID":467006,"PedestrianRouteID":290067016,"Location":1,"FeatureType":1,"AliasNameEN":"Bonham Road","AliasNameTC":"般咸道","CrossingFeature":null,"WeatherProof":2,"WheelchairBarrier":2,"WheelchairAccess":2,"ObstaclesType":null,"Gradient":0.058693311546573632,"Direction":0,"PositionCertainty":1,"Enabled":1,"DataSource":1,"LevelSource":12,"StreetNameEN":"Bonham Road","StreetNameTC":"般咸道","ST_CODE":10069,"FloorID":null,"BuildingID_1":null,"BuildingID_2":null,"SiteID":null,"TerminalID":null,"AccessTimeID":null,"CreationDate":1781625600000,"ModifiedBy":"LANDSD","LastAmendmentDate":1781625600000,"Shape__Length":7.557931019903279}},{"type":"Feature","id":467007,"geometry":{"type":"LineString","coordinates":[[114.1434064477493,22.284415639635245,60.273300000000745],[114.14343307643919,22.284410688201081,60.564299999998184]]},"properties":{"OBJECTID":467007,"PedestrianRouteID":290067017,"Location":1,"FeatureType":1,"AliasNameEN":"Bonham Road","AliasNameTC":"般咸道","CrossingFeature":null,"WeatherProof":2,"WheelchairBarrier":2,"WheelchairAccess":2,"ObstaclesType":null,"Gradient":0.1039857792126359,"Direction":0,"PositionCertainty":1,"Enabled":1,"DataSource":1,"LevelSource":12,"StreetNameEN":"Bonham Road","StreetNameTC":"般咸道","ST_CODE":10069,"FloorID":null,"BuildingID_1":null,"BuildingID_2":null,"SiteID":null,"TerminalID":null,"AccessTimeID":null,"CreationDate":1781625600000,"ModifiedBy":"LANDSD","LastAmendmentDate":1781625600000,"Shape__Length":2.7984595797699021}},{"type":"Feature","id":467008,"geometry":{"type":"LineString","coordinates":[[114.14338458856406,22.284419703433429,60.034599999999045],[114.14340642154863,22.28441564414516,60.273300000000745],[114.1434064477493,22.284415639635245,60.273300000000745]]},"properties":{"OBJECTID":467008,"PedestrianRouteID":290067018,"Location":1,"FeatureType":1,"AliasNameEN":"Bonham Road","AliasNameTC":"般咸道","CrossingFeature":null,"WeatherProof":2,"WheelchairBarrier":2,"WheelchairAccess":2,"ObstaclesType":null,"Gradient":0.10390880686953909,"Direction":0,"PositionCertainty":1,"Enabled":1,"DataSource":1,"LevelSource":12,"StreetNameEN":"Bonham Road","StreetNameTC":"般咸道","ST_CODE":10069,"FloorID":null,"BuildingID_1":null,"BuildingID_2":null,"SiteID":null,"TerminalID":null,"AccessTimeID":null,"CreationDate":1781625600000,"ModifiedBy":"LANDSD","LastAmendmentDate":1781625600000,"Shape__Length":2.2972066294765114}},{"type":"Feature","id":467009,"geometry":{"type":"LineString","coordinates":[[114.14336182496665,22.284423935011976,59.786399999997229],[114.14338455945213,22.28441970884581,60.034599999999045],[114.14338458856406,22.284419703433429,60.034599999999045]]},"properties":{"OBJECTID":467009,"PedestrianRouteID":290067019,"Location":1,"FeatureType":1,"AliasNameEN":"Bonham Road","AliasNameTC":"般咸道","CrossingFeature":null,"WeatherProof":2,"WheelchairBarrier":2,"WheelchairAccess":2,"ObstaclesType":null,"Gradient":0.10375194853421325,"Direction":0,"PositionCertainty":1,"Enabled":1,"DataSource":1,"LevelSource":12,"StreetNameEN":"Bonham Road","StreetNameTC":"般咸道","ST_CODE":10069,"FloorID":null,"BuildingID_1":null,"BuildingID_2":null,"SiteID":null,"TerminalID":null,"AccessTimeID":null,"CreationDate":1781625600000,"ModifiedBy":"LANDSD","LastAmendmentDate":1781625600000,"Shape__Length":2.392244227779198}},{"type":"Feature","id":467010,"geometry":{"type":"LineString","coordinates":[[114.14330589948372,22.28441186938619,60.048599999994622],[114.14333235873605,22.284417577691613,59.984700000000885]]},"properties":{"OBJECTID":467010,"PedestrianRouteID":290067020,"Location":1,"FeatureType":1,"AliasNameEN":"Bonham Road","AliasNameTC":"般咸道","CrossingFeature":null,"WeatherProof":2,"WheelchairBarrier":2,"WheelchairAccess":2,"ObstaclesType":null,"Gradient":0.02282903583538037,"Direction":0,"PositionCertainty":1,"Enabled":1,"DataSource":1,"LevelSource":2,"StreetNameEN":"Bonham Road","StreetNameTC":"般咸道","ST_CODE":10069,"FloorID":null,"BuildingID_1":null,"BuildingID_2":null,"SiteID":null,"TerminalID":null,"AccessTimeID":null,"CreationDate":1781625600000,"ModifiedBy":"LANDSD","LastAmendmentDate":1781625600000,"Shape__Length":2.7990669625523488}},{"type":"Feature","id":467011,"geometry":{"type":"LineString","coordinates":[[114.14328197564073,22.284406707953618,60.106400000004214],[114.14330589948372,22.28441186938619,60.048599999994622]]},"properties":{"OBJECTID":467011,"PedestrianRouteID":290067021,"Location":1,"FeatureType":1,"AliasNameEN":"Bonham Road","AliasNameTC":"般咸道","CrossingFeature":null,"WeatherProof":2,"WheelchairBarrier":2,"WheelchairAccess":2,"ObstaclesType":null,"Gradient":0.022838136536178857,"Direction":0,"PositionCertainty":1,"Enabled":1,"DataSource":1,"LevelSource":2,"StreetNameEN":"Bonham Road","StreetNameTC":"般咸道","ST_CODE":10069,"FloorID":null,"BuildingID_1":null,"BuildingID_2":null,"SiteID":null,"TerminalID":null,"AccessTimeID":null,"CreationDate":1781625600000,"ModifiedBy":"LANDSD","LastAmendmentDate":1781625600000,"Shape__Length":2.5308544730884326}},{"type":"Feature","id":471338,"geometry":{"type":"LineString","coordinates":[[114.14132343363842,22.285792997225698,32.809800000002724],[114.14131918095208,22.285722167255312,33.626399999993737]]},"properties":{"OBJECTID":471338,"PedestrianRouteID":250004368,"Location":1,"FeatureType":1,"AliasNameEN":"Third Street","AliasNameTC":"第三街","CrossingFeature":null,"WeatherProof":2,"WheelchairBarrier":2,"WheelchairAccess":2,"ObstaclesType":null,"Gradient":0.10358011616308081,"Direction":0,"PositionCertainty":1,"Enabled":1,"DataSource":1,"LevelSource":12,"StreetNameEN":"Third Street","StreetNameTC":"第三街","ST_CODE":12351,"FloorID":null,"BuildingID_1":null,"BuildingID_2":null,"SiteID":null,"TerminalID":null,"AccessTimeID":null,"CreationDate":1614441600000,"ModifiedBy":"LANDSD","LastAmendmentDate":1788105600000,"Shape__Length":7.8555378077785463}},{"type":"Feature","id":471339,"geometry":{"type":"LineString","coordinates":[[114.14132535671622,22.285839844041067,30.617400000002817],[114.14132343363842,22.285792997225698,32.809800000002724]]},"properties":{"OBJECTID":471339,"PedestrianRouteID":250004452,"Location":1,"FeatureType":12,"AliasNameEN":"Sheung Fung Lane Staircase","AliasNameTC":"常豐里樓梯","CrossingFeature":null,"WeatherProof":2,"WheelchairBarrier":1,"WheelchairAccess":2,"ObstaclesType":null,"Gradient":0.39959800605964158,"Direction":0,"PositionCertainty":1,"Enabled":1,"DataSource":1,"LevelSource":2,"StreetNameEN":"Sheung Fung Lane","StreetNameTC":"常豐里","ST_CODE":12026,"FloorID":null,"BuildingID_1":null,"BuildingID_2":null,"SiteID":null,"TerminalID":null,"AccessTimeID":null,"CreationDate":1614441600000,"ModifiedBy":"LANDSD","LastAmendmentDate":1788105600000,"Shape__Length":5.1913309093246349}},{"type":"Feature","id":472906,"geometry":{"type":"LineString","coordinates":[[114.14133476591964,22.286076006107987,27.044899999993504],[114.14133218942787,22.286011332687405,27.777100000006612]]},"properties":{"OBJECTID":472906,"PedestrianRouteID":250004050,"Location":1,"FeatureType":1,"AliasNameEN":"Sheung Fung Lane","AliasNameTC":"常豐里","CrossingFeature":null,"WeatherProof":2,"WheelchairBarrier":2,"WheelchairAccess":2,"ObstaclesType":null,"Gradient":0.10181676267013388,"Direction":0,"PositionCertainty":1,"Enabled":1,"DataSource":1,"LevelSource":2,"StreetNameEN":"Sheung Fung Lane","StreetNameTC":"常豐里","ST_CODE":12026,"FloorID":null,"BuildingID_1":null,"BuildingID_2":null,"SiteID":null,"TerminalID":null,"AccessTimeID":null,"CreationDate":1614441600000,"ModifiedBy":"LANDSD","LastAmendmentDate":1787673600000,"Shape__Length":7.1664829646159767}},{"type":"Feature","id":472907,"geometry":{"type":"LineString","coordinates":[[114.14133218942787,22.286011332687405,27.777100000006612],[114.14132702487366,22.285881721244575,30.053100000004633]]},"properties":{"OBJECTID":472907,"PedestrianRouteID":250004398,"Location":1,"FeatureType":12,"AliasNameEN":"Sheung Fung Lane Staircase","AliasNameTC":"常豐里樓梯","CrossingFeature":null,"WeatherProof":2,"WheelchairBarrier":1,"WheelchairAccess":2,"ObstaclesType":null,"Gradient":0.1571636310460211,"Direction":0,"PositionCertainty":1,"Enabled":1,"DataSource":1,"LevelSource":2,"StreetNameEN":"Sheung Fung Lane","StreetNameTC":"常豐里","ST_CODE":12026,"FloorID":null,"BuildingID_1":null,"BuildingID_2":null,"SiteID":null,"TerminalID":null,"AccessTimeID":null,"CreationDate":1614441600000,"ModifiedBy":"LANDSD","LastAmendmentDate":1787673600000,"Shape__Length":14.362290300910239}},{"type":"Feature","id":472908,"geometry":{"type":"LineString","coordinates":[[114.14132702487366,22.285881721244575,30.053100000004633],[114.14132535671622,22.285839844041067,30.617400000002817]]},"properties":{"OBJECTID":472908,"PedestrianRouteID":250004491,"Location":1,"FeatureType":1,"AliasNameEN":"Sheung Fung Lane","AliasNameTC":"常豐里","CrossingFeature":null,"WeatherProof":2,"WheelchairBarrier":2,"WheelchairAccess":2,"ObstaclesType":null,"Gradient":0.12101105373480449,"Direction":0,"PositionCertainty":1,"Enabled":1,"DataSource":1,"LevelSource":2,"StreetNameEN":"Sheung Fung Lane","StreetNameTC":"常豐里","ST_CODE":12026,"FloorID":null,"BuildingID_1":null,"BuildingID_2":null,"SiteID":null,"TerminalID":null,"AccessTimeID":null,"CreationDate":1614441600000,"ModifiedBy":"LANDSD","LastAmendmentDate":1788105600000,"Shape__Length":4.6404259328170312}},{"type":"Feature","id":472909,"geometry":{"type":"LineString","coordinates":[[114.14133753430085,22.286145496507988,24.818700000003446],[114.141336446618,22.286118197578848,24.949699999997392]]},"properties":{"OBJECTID":472909,"PedestrianRouteID":250004534,"Location":1,"FeatureType":1,"AliasNameEN":"Second Street","AliasNameTC":"第二街","CrossingFeature":null,"WeatherProof":2,"WheelchairBarrier":2,"WheelchairAccess":2,"ObstaclesType":null,"Gradient":0.043278688867062237,"Direction":0,"PositionCertainty":1,"Enabled":1,"DataSource":1,"LevelSource":2,"StreetNameEN":"Second Street","StreetNameTC":"第二街","ST_CODE":11947,"FloorID":null,"BuildingID_1":null,"BuildingID_2":null,"SiteID":null,"TerminalID":null,"AccessTimeID":null,"CreationDate":1614441600000,"ModifiedBy":"LANDSD","LastAmendmentDate":1787673600000,"Shape__Length":3.025003843195972}},{"type":"Feature","id":472910,"geometry":{"type":"LineString","coordinates":[[114.141336446618,22.286118197578848,24.949699999997392],[114.14133476591964,22.286076006107987,27.044899999993504]]},"properties":{"OBJECTID":472910,"PedestrianRouteID":250004749,"Location":1,"FeatureType":12,"AliasNameEN":"Sheung Fung Lane Staircase","AliasNameTC":"常豐里樓梯","CrossingFeature":null,"WeatherProof":2,"WheelchairBarrier":1,"WheelchairAccess":2,"ObstaclesType":null,"Gradient":0.4213120167477013,"Direction":0,"PositionCertainty":1,"Enabled":1,"DataSource":1,"LevelSource":2,"StreetNameEN":"Sheung Fung Lane","StreetNameTC":"常豐里","ST_CODE":12026,"FloorID":null,"BuildingID_1":null,"BuildingID_2":null,"SiteID":null,"TerminalID":null,"AccessTimeID":null,"CreationDate":1614441600000,"ModifiedBy":"LANDSD","LastAmendmentDate":1787673600000,"Shape__Length":4.6752502063945149}}]}