{"type":"FeatureCollection","features":[{"type":"Feature","id":"level_polygon.10890","geometry":{"type":"Polygon","coordinates":[[[114.18669451000005,22.385359610000023,7.399999999994179],[114.18669661000001,22.38537051000003,7.399999999994179],[114.18669011000009,22.38537161000005,7.399999999994179],[114.18669261000002,22.385384610000074,7.399999999994179],[114.18669501000011,22.385397010000077,7.399999999994179],[114.18669751000004,22.385409710000033,7.399999999994179],[114.18670401000008,22.38540861000007,7.399999999994179],[114.18671181000002,22.385407310000062,7.399999999994179],[114.18671511000002,22.385424310000076,7.399999999994179],[114.18672361000006,22.385467710000057,7.399999999994179],[114.18672631000004,22.385481610000056,7.399999999994179],[114.18672671000002,22.38548351000003,7.399999999994179],[114.18672971000001,22.38549881000006,7.399999999994179],[114.18673271000011,22.385513810000077,7.399999999994179],[114.18673301000001,22.385515610000027,7.399999999994179],[114.18673581000007,22.385530010000025,7.399999999994179],[114.18674031,22.385552910000058,7.399999999994179],[114.1867450100001,22.385576710000066,7.399999999994179],[114.18675001000008,22.38560201000007,7.399999999994179],[114.18675041000006,22.385603710000055,7.399999999994179],[114.18675321,22.38561851000003,7.399999999994179],[114.18675331000009,22.38561881000004,7.399999999994179],[114.18675441000005,22.385624310000026,7.399999999994179],[114.18675721000011,22.385638710000023,7.399999999994179],[114.18674921000002,22.385640110000054,7.399999999994179],[114.18674901000009,22.385640110000054,7.399999999994179],[114.18675151000002,22.385653010000055,7.399999999994179],[114.18675441000005,22.385667910000052,7.399999999994179],[114.18675761000009,22.385684610000055,7.399999999994179],[114.18675781000002,22.385684610000055,7.399999999994179],[114.18676601000004,22.385683210000025,7.399999999994179],[114.18676631000005,22.385684610000055,7.399999999994179],[114.18678241000009,22.38576691000003,7.399999999994179],[114.18678281000007,22.38576881000006,7.399999999994179],[114.18678311000008,22.385770410000077,7.399999999994179],[114.18678391000003,22.385774210000022,7.399999999994179],[114.18678401000011,22.385774910000066,7.399999999994179],[114.1867847100001,22.385778410000057,7.399999999994179],[114.18678491000003,22.385779710000065,7.399999999994179],[114.18678631000012,22.385786610000025,7.399999999994179],[114.18678761000001,22.385793410000076,7.399999999994179],[114.18678961,22.38580341000005,7.399999999994179],[114.18678961,22.385803510000073,7.399999999994179],[114.1867923100001,22.38581701000004,7.399999999994179],[114.18679241000007,22.385817710000026,7.399999999994179],[114.18679311000005,22.385821510000028,7.399999999994179],[114.18678481000006,22.38582291000006,7.399999999994179],[114.18678451000005,22.38582291000006,7.399999999994179],[114.18678731000011,22.385837010000046,7.399999999994179],[114.18679101000009,22.385856010000055,7.399999999994179],[114.18679101000009,22.385856110000077,7.399999999994179],[114.18679401000009,22.385871010000074,7.399999999994179],[114.18679421000002,22.385871010000074,7.399999999994179],[114.18680261000009,22.385869610000043,7.399999999994179],[114.18680361000008,22.385874810000075,7.399999999994179],[114.18680461000008,22.38587621000005,7.399999999994179],[114.18681601000003,22.385892210000065,7.399999999994179],[114.18681751000008,22.385894310000026,7.399999999994179],[114.18681991000005,22.385897810000074,7.399999999994179],[114.18683351000004,22.38591691000005,7.399999999994179],[114.18683651000003,22.385921110000027,7.399999999994179],[114.18684281000003,22.38593001000004,7.399999999994179],[114.18684451000001,22.385932510000032,7.399999999994179],[114.1868446100001,22.385932610000054,7.399999999994179],[114.18685231000006,22.38594351000006,7.399999999994179],[114.18685771000003,22.385951010000042,7.399999999994179],[114.18686151000009,22.385956410000063,7.399999999994179],[114.1868631100001,22.385961810000026,7.399999999994179],[114.18686361000005,22.385963410000045,7.399999999994179],[114.18686491000005,22.385968210000044,7.399999999994179],[114.18686561000004,22.385970610000072,7.399999999994179],[114.18687291000003,22.385981110000046,7.399999999994179],[114.18687501000011,22.385984110000038,7.399999999994179],[114.18688091000001,22.385983710000062,7.399999999994179],[114.18688451000003,22.38598881000007,7.399999999994179],[114.18688451000003,22.385988910000037,7.399999999994179],[114.1868846100001,22.38598901000006,7.399999999994179],[114.18688471000007,22.385989110000025,7.399999999994179],[114.18688481000004,22.38598931000007,7.399999999994179],[114.18689051000001,22.38599761000006,7.399999999994179],[114.18688651000002,22.385998210000025,7.399999999994179],[114.18688631000009,22.385998210000025,7.399999999994179],[114.18688521000001,22.38599841000007,7.399999999994179],[114.18688551000002,22.38599891000007,7.399999999994179],[114.18688711000004,22.386000910000064,7.399999999994179],[114.18688711000004,22.38600101000003,7.399999999994179],[114.18688921000012,22.386003910000056,7.399999999994179],[114.18688921000012,22.386004010000022,7.399999999994179],[114.18690641,22.386027710000064,7.399999999994179],[114.18690821000007,22.386027510000076,7.399999999994179],[114.18690831000004,22.386027410000054,7.399999999994179],[114.18691161000004,22.386027010000078,7.399999999994179],[114.18691711000008,22.38603481000007,7.399999999994179],[114.18691891000003,22.38603721000004,7.399999999994179],[114.18692511000006,22.38604601000003,7.399999999994179],[114.18693131000009,22.386054810000076,7.399999999994179],[114.18693141000006,22.386055010000064,7.399999999994179],[114.18693801000006,22.38606421000003,7.399999999994179],[114.18694361000007,22.386072110000043,7.399999999994179],[114.18694541000002,22.38607471000006,7.399999999994179],[114.18694721000008,22.386077210000053,7.399999999994179],[114.18695501000002,22.386088310000048,7.399999999994179],[114.18696131000002,22.386097110000037,7.399999999994179],[114.18696211000008,22.386098210000057,7.399999999994179],[114.18696921000003,22.386108310000054,7.399999999994179],[114.18696981000005,22.386109110000064,7.399999999994179],[114.1869753100001,22.38610871000003,7.399999999994179],[114.18698511000002,22.386108010000044,7.399999999994179],[114.1869958100001,22.386107310000057,7.399999999994179],[114.18700571000011,22.38610661000007,7.399999999994179],[114.18700611000008,22.38610661000007,7.399999999994179],[114.18701031,22.38610631000006,7.399999999994179],[114.18701891,22.386105710000038,7.399999999994179],[114.18703421000009,22.38610471000004,7.399999999994179],[114.18704971000011,22.386103610000077,7.399999999994179],[114.18706061000012,22.386102910000034,7.399999999994179],[114.18706941000005,22.38610231000007,7.399999999994179],[114.18707131000008,22.386102210000047,7.399999999994179],[114.18707941000002,22.386101610000026,7.399999999994179],[114.18709881000007,22.386100310000074,7.399999999994179],[114.18711621000011,22.386099110000032,7.399999999994179],[114.18711701000007,22.386099010000066,7.399999999994179],[114.18711981000001,22.386098910000044,7.399999999994179],[114.18712071000004,22.386098810000078,7.399999999994179],[114.18714091000004,22.386097410000048,7.399999999994179],[114.18714131000002,22.386097410000048,7.399999999994179],[114.18714181000007,22.386097310000025,7.399999999994179],[114.18714221000005,22.386097310000025,7.399999999994179],[114.18716151000001,22.386096010000074,7.399999999994179],[114.18716271000005,22.386102110000024,7.399999999994179],[114.18717751000008,22.38609961000003,7.399999999994179],[114.18717761000005,22.38609961000003,7.399999999994179],[114.18718851000006,22.386097810000024,7.399999999994179],[114.18719221000003,22.38609721000006,7.399999999994179],[114.1871996100001,22.38609591000005,7.399999999994179],[114.1871973100001,22.386084210000035,7.399999999994179],[114.18719551000004,22.386074910000048,7.399999999994179],[114.18719411000006,22.386067810000043,7.399999999994179],[114.18719311000007,22.386062610000067,7.399999999994179],[114.18719311000007,22.386062510000045,7.399999999994179],[114.18719251000005,22.386059810000063,7.399999999994179],[114.18719021000004,22.38604761000005,7.399999999994179],[114.18719011000007,22.386047010000027,7.399999999994179],[114.18718961000002,22.38604471000008,7.399999999994179],[114.1871877100001,22.386034710000047,7.399999999994179],[114.18718701000012,22.386031510000066,7.399999999994179],[114.18718591000004,22.386025610000047,7.399999999994179],[114.18718501000001,22.386021010000036,7.399999999994179],[114.1871844100001,22.38601821000003,7.399999999994179],[114.1871844100001,22.386017910000078,7.399999999994179],[114.1871834100001,22.386012910000034,7.399999999994179],[114.18718331000002,22.386012110000024,7.399999999994179],[114.18718131000003,22.386002210000072,7.399999999994179],[114.18718091000005,22.386000110000055,7.399999999994179],[114.18717921000007,22.385991210000043,7.399999999994179],[114.18717391000007,22.38596411000003,7.399999999994179],[114.1871738100001,22.385963610000033,7.399999999994179],[114.18717201000004,22.385954410000068,7.399999999994179],[114.18717191000007,22.385953710000024,7.399999999994179],[114.18717181000011,22.385953510000036,7.399999999994179],[114.18716781,22.385932510000032,7.399999999994179],[114.18716771000004,22.385932010000033,7.399999999994179],[114.18715891000011,22.385886910000067,7.399999999994179],[114.18715881000003,22.385886710000023,7.399999999994179],[114.1871586100001,22.385885710000025,7.399999999994179],[114.1871546100001,22.385865210000077,7.399999999994179],[114.1871546100001,22.385864910000066,7.399999999994179],[114.18715441000006,22.385864210000022,7.399999999994179],[114.18715091000001,22.385846210000068,7.399999999994179],[114.18715061000012,22.38584431000004,7.399999999994179],[114.18715051000004,22.385844210000073,7.399999999994179],[114.18715021000003,22.385842510000032,7.399999999994179],[114.18714621000004,22.38582191000006,7.399999999994179],[114.1871460100001,22.38582111000005,7.399999999994179],[114.1871460100001,22.385820910000064,7.399999999994179],[114.18714221000005,22.385801610000044,7.399999999994179],[114.18714221000005,22.38580151000008,7.399999999994179],[114.18714201000012,22.385800610000047,7.399999999994179],[114.18714111000008,22.38579561000006,7.399999999994179],[114.1871321100001,22.385749710000027,7.399999999994179],[114.1871321100001,22.38574951000004,7.399999999994179],[114.18713061000005,22.385742110000024,7.399999999994179],[114.18713051000009,22.385741610000025,7.399999999994179],[114.18713041000001,22.385740810000073,7.399999999994179],[114.18712961000006,22.38573691000005,7.399999999994179],[114.18712891000007,22.38573321000007,7.399999999994179],[114.18712821000008,22.385729710000078,7.399999999994179],[114.18712671000003,22.38572171000004,7.399999999994179],[114.18712661000006,22.385721110000077,7.399999999994179],[114.18712631000005,22.385720010000057,7.399999999994179],[114.18712591000008,22.38571791000004,7.399999999994179],[114.18712441000002,22.38570991000006,7.399999999994179],[114.18712391000008,22.385707410000066,7.399999999994179],[114.18712371000004,22.385706510000034,7.399999999994179],[114.1871232100001,22.38570371000003,7.399999999994179],[114.18712211000002,22.385698410000032,7.399999999994179],[114.18712211000002,22.385698310000066,7.399999999994179],[114.18712201000005,22.385697710000045,7.399999999994179],[114.18712101000006,22.385692410000047,7.399999999994179],[114.1871192100001,22.385683510000035,7.399999999994179],[114.18711811000003,22.38567771000004,7.399999999994179],[114.18711811000003,22.38567751000005,7.399999999994179],[114.18711771000005,22.385675610000078,7.399999999994179],[114.18711501000007,22.385661810000045,7.399999999994179],[114.18711481000003,22.385661010000035,7.399999999994179],[114.18711081000004,22.385640110000054,7.399999999994179],[114.1871106100001,22.385639410000067,7.399999999994179],[114.18710911000005,22.38563141000003,7.399999999994179],[114.18710221000003,22.385632610000073,7.399999999994179],[114.1871020100001,22.385632610000073,7.399999999994179],[114.18710061000002,22.385625410000046,7.399999999994179],[114.18709051000008,22.38562711000003,7.399999999994179],[114.18708471000002,22.385628110000027,7.399999999994179],[114.18708411000011,22.38562471000006,7.399999999994179],[114.18708341000001,22.385621210000068,7.399999999994179],[114.18708231000005,22.385615810000047,7.399999999994179],[114.18708111000001,22.38560951000005,7.399999999994179],[114.18708691000006,22.385608610000077,7.399999999994179],[114.18709351000007,22.385607510000057,7.399999999994179],[114.18709701000012,22.385606910000035,7.399999999994179],[114.18709721000005,22.385606910000035,7.399999999994179],[114.1871010100001,22.38560621000005,7.399999999994179],[114.18709311000009,22.38556531000006,7.399999999994179],[114.18708931000003,22.385566010000048,7.399999999994179],[114.18708901000002,22.385566010000048,7.399999999994179],[114.18708501000003,22.385566710000035,7.399999999994179],[114.18707901000005,22.385567710000032,7.399999999994179],[114.18707701000005,22.385557710000057,7.399999999994179],[114.18707501000006,22.38554761000006,7.399999999994179],[114.18707491000009,22.38554711000006,7.399999999994179],[114.18707481000001,22.38554651000004,7.399999999994179],[114.18707251000001,22.38553451000007,7.399999999994179],[114.18707221000011,22.385533310000028,7.399999999994179],[114.18707051000001,22.38552461000006,7.399999999994179],[114.1870699100001,22.385521210000036,7.399999999994179],[114.18706341000006,22.385488010000074,7.399999999994179],[114.18706121000002,22.385476510000046,7.399999999994179],[114.18707141000004,22.38547471000004,7.399999999994179],[114.18707111000003,22.385473110000078,7.399999999994179],[114.18706981000003,22.38546651000007,7.399999999994179],[114.18706931000008,22.385463910000055,7.399999999994179],[114.18706931000008,22.385463810000033,7.399999999994179],[114.18706931000008,22.385463710000067,7.399999999994179],[114.18706931000008,22.385463610000045,7.399999999994179],[114.18706931000008,22.385463510000022,7.399999999994179],[114.18706921000012,22.385463410000057,7.399999999994179],[114.18706921000012,22.38546321000007,7.399999999994179],[114.18706891000011,22.385461710000072,7.399999999994179],[114.18706871000006,22.38546051000003,7.399999999994179],[114.18706781000003,22.38545621000003,7.399999999994179],[114.18706751000002,22.385454510000045,7.399999999994179],[114.18706751000002,22.385454410000023,7.399999999994179],[114.18706741000005,22.385454210000034,7.399999999994179],[114.18706741000005,22.38545411000007,7.399999999994179],[114.18706741000005,22.385454010000046,7.399999999994179],[114.18706741000005,22.385453910000024,7.399999999994179],[114.18706721000001,22.38545301000005,7.399999999994179],[114.18706721000001,22.38545281000006,7.399999999994179],[114.18706721000001,22.385452710000038,7.399999999994179],[114.18706711000004,22.385452710000038,7.399999999994179],[114.18706711000004,22.385452610000073,7.399999999994179],[114.18706711000004,22.385452410000028,7.399999999994179],[114.18706711000004,22.385452310000062,7.399999999994179],[114.18706711000004,22.38545221000004,7.399999999994179],[114.18706701000008,22.385451810000063,7.399999999994179],[114.18706671000007,22.385450310000067,7.399999999994179],[114.18706631000009,22.385448410000038,7.399999999994179],[114.18706571000007,22.385445510000068,7.399999999994179],[114.18706441000006,22.385438710000074,7.399999999994179],[114.18706441000006,22.38543861000005,7.399999999994179],[114.18706441000006,22.385438410000063,7.399999999994179],[114.18706441000006,22.38543831000004,7.399999999994179],[114.1870643100001,22.385438210000075,7.399999999994179],[114.1870643100001,22.385438110000052,7.399999999994179],[114.1870643100001,22.38543801000003,7.399999999994179],[114.1870643100001,22.385437910000064,7.399999999994179],[114.18706411000005,22.385437210000077,7.399999999994179],[114.18706411000005,22.385437010000032,7.399999999994179],[114.18706411000005,22.385436810000044,7.399999999994179],[114.18706401000009,22.385436510000034,7.399999999994179],[114.18706401000009,22.385436410000068,7.399999999994179],[114.18706391,22.385436210000023,7.399999999994179],[114.18706381000004,22.38543561000006,7.399999999994179],[114.18706321000002,22.385432410000078,7.399999999994179],[114.1870623100001,22.385427810000067,7.399999999994179],[114.1870613100001,22.385422710000057,7.399999999994179],[114.1870613100001,22.385422610000035,7.399999999994179],[114.1870613100001,22.38542251000007,7.399999999994179],[114.18706121000002,22.385422410000047,7.399999999994179],[114.18706121000002,22.385422310000024,7.399999999994179],[114.18706121000002,22.38542201000007,7.399999999994179],[114.18706111000006,22.385421910000048,7.399999999994179],[114.1870610100001,22.385421010000073,7.399999999994179],[114.1870610100001,22.38542091000005,7.399999999994179],[114.18706091000001,22.385420810000028,7.399999999994179],[114.18706091000001,22.385420710000062,7.399999999994179],[114.18706091000001,22.38542061000004,7.399999999994179],[114.18706091000001,22.385420510000074,7.399999999994179],[114.18706091000001,22.38542041000005,7.399999999994179],[114.18705821000003,22.38540671000004,7.399999999994179],[114.18705811000007,22.385406210000042,7.399999999994179],[114.18705811000007,22.385406110000076,7.399999999994179],[114.1870580100001,22.38540591000003,7.399999999994179],[114.1870580100001,22.385405710000043,7.399999999994179],[114.1870580100001,22.385405610000078,7.399999999994179],[114.1870580100001,22.385405510000055,7.399999999994179],[114.18705781000006,22.385404710000046,7.399999999994179],[114.18705781000006,22.385404610000023,7.399999999994179],[114.18705771000009,22.38540431000007,7.399999999994179],[114.18705771000009,22.385404210000047,7.399999999994179],[114.18705771000009,22.385404110000025,7.399999999994179],[114.18705771000009,22.38540401000006,7.399999999994179],[114.1870560100001,22.385395310000035,7.399999999994179],[114.18705591000003,22.38539521000007,7.399999999994179],[114.18705591000003,22.38539491000006,7.399999999994179],[114.18705591000003,22.385394810000037,7.399999999994179],[114.18705591000003,22.38539471000007,7.399999999994179],[114.18705581000006,22.38539461000005,7.399999999994179],[114.18705581000006,22.38539441000006,7.399999999994179],[114.18705561000002,22.385393410000063,7.399999999994179],[114.18705561000002,22.385393210000075,7.399999999994179],[114.18705391000003,22.38538451000005,7.399999999994179],[114.18705381000007,22.385384310000063,7.399999999994179],[114.18705381000007,22.385384110000075,7.399999999994179],[114.18705381000007,22.385384010000053,7.399999999994179],[114.1870537100001,22.38538391000003,7.399999999994179],[114.1870537100001,22.385383810000064,7.399999999994179],[114.18705361000002,22.385383310000066,7.399999999994179],[114.18705361000002,22.385383010000055,7.399999999994179],[114.18705191000004,22.385374510000076,7.399999999994179],[114.18705191000004,22.385374410000054,7.399999999994179],[114.18705191000004,22.38537431000003,7.399999999994179],[114.18705191000004,22.385374210000066,7.399999999994179],[114.18705181000007,22.385374110000043,7.399999999994179],[114.18705181000007,22.385374010000078,7.399999999994179],[114.18705181000007,22.385373910000055,7.399999999994179],[114.1870517100001,22.385373510000022,7.399999999994179],[114.1870517100001,22.385373410000057,7.399999999994179],[114.18705161000003,22.385372910000058,7.399999999994179],[114.18705161000003,22.38537271000007,7.399999999994179],[114.18705151000006,22.385372510000025,7.399999999994179],[114.18705151000006,22.38537241000006,7.399999999994179],[114.18705151000006,22.385372310000037,7.399999999994179],[114.1870514100001,22.38537191000006,7.399999999994179],[114.1870514100001,22.385371710000072,7.399999999994179],[114.18705021000005,22.385365510000042,7.399999999994179],[114.18704881000008,22.385358310000072,7.399999999994179],[114.18704871000011,22.385358110000027,7.399999999994179],[114.18704871000011,22.38535801000006,7.399999999994179],[114.18704871000011,22.38535791000004,7.399999999994179],[114.18704871000011,22.385357810000073,7.399999999994179],[114.18704861000003,22.385357610000028,7.399999999994179],[114.18704861000003,22.385357510000063,7.399999999994179],[114.18704861000003,22.38535741000004,7.399999999994179],[114.18704851000007,22.385357210000052,7.399999999994179],[114.1870484100001,22.385356410000043,7.399999999994179],[114.18704831000002,22.385356210000054,7.399999999994179],[114.18704831000002,22.385356110000032,7.399999999994179],[114.18704831000002,22.385356010000066,7.399999999994179],[114.18704831000002,22.385355910000044,7.399999999994179],[114.18704831000002,22.38535581000008,7.399999999994179],[114.18704821000006,22.385355510000068,7.399999999994179],[114.18704561000004,22.385342210000033,7.399999999994179],[114.18704561000004,22.385342110000067,7.399999999994179],[114.18704561000004,22.385342010000045,7.399999999994179],[114.18704561000004,22.385341910000022,7.399999999994179],[114.18704551000008,22.385341810000057,7.399999999994179],[114.18704551000008,22.385341710000034,7.399999999994179],[114.18704551000008,22.385341510000046,7.399999999994179],[114.18704551000008,22.385341410000024,7.399999999994179],[114.18704541000011,22.385341010000047,7.399999999994179],[114.18704531000003,22.385340410000026,7.399999999994179],[114.18704531000003,22.38534031000006,7.399999999994179],[114.18704521000006,22.385340110000072,7.399999999994179],[114.18704521000006,22.38534001000005,7.399999999994179],[114.1870451100001,22.385339810000062,7.399999999994179],[114.1870451100001,22.38533971000004,7.399999999994179],[114.1870451100001,22.385339610000074,7.399999999994179],[114.1870451100001,22.38533951000005,7.399999999994179],[114.18704271000001,22.385327310000037,7.399999999994179],[114.18704261000005,22.385326510000027,7.399999999994179],[114.18704251000008,22.385326210000073,7.399999999994179],[114.18704251000008,22.38532611000005,7.399999999994179],[114.18704251000008,22.38532601000003,7.399999999994179],[114.18704241000012,22.38532581000004,7.399999999994179],[114.18704241000012,22.385325710000075,7.399999999994179],[114.18704231000004,22.38532531000004,7.399999999994179],[114.18704231000004,22.385325210000076,7.399999999994179],[114.18704221000007,22.385324910000065,7.399999999994179],[114.18704221000007,22.385324710000077,7.399999999994179],[114.1870421100001,22.385324310000044,7.399999999994179],[114.1870421100001,22.38532421000008,7.399999999994179],[114.1870421100001,22.385324110000056,7.399999999994179],[114.1870421100001,22.385324010000033,7.399999999994179],[114.18704201000003,22.385323810000045,7.399999999994179],[114.18704201000003,22.385323710000023,7.399999999994179],[114.18704201000003,22.38532341000007,7.399999999994179],[114.18704041000001,22.385315310000067,7.399999999994179],[114.18704031000004,22.38531511000008,7.399999999994179],[114.18704031000004,22.385314710000046,7.399999999994179],[114.18704021000008,22.385314610000023,7.399999999994179],[114.18704021000008,22.385314510000057,7.399999999994179],[114.18704021000008,22.385314410000035,7.399999999994179],[114.18704021000008,22.38531431000007,7.399999999994179],[114.18704001000003,22.385313610000026,7.399999999994179],[114.18704001000003,22.38531351000006,7.399999999994179],[114.18704001000003,22.385313410000037,7.399999999994179],[114.1870398100001,22.38531241000004,7.399999999994179],[114.18703821000008,22.385304010000027,7.399999999994179],[114.1870279100001,22.38530571000007,7.399999999994179],[114.18702701000007,22.385305910000056,7.399999999994179],[114.18701331000011,22.38530811000004,7.399999999994179],[114.18700901000011,22.385308810000026,7.399999999994179],[114.18700831000001,22.38530521000007,7.399999999994179],[114.18700471000011,22.385286610000037,7.399999999994179],[114.18700461000003,22.385286110000038,7.399999999994179],[114.18700381000008,22.385282010000026,7.399999999994179],[114.1870021100001,22.38527311000007,7.399999999994179],[114.18699961000004,22.385260410000058,7.399999999994179],[114.1869819100001,22.385263310000028,7.399999999994179],[114.18697191000001,22.38526501000007,7.399999999994179],[114.18696771000009,22.385265710000056,7.399999999994179],[114.1869657100001,22.385266010000066,7.399999999994179],[114.18696461000002,22.385266210000054,7.399999999994179],[114.18695021000008,22.385268610000026,7.399999999994179],[114.18694991000007,22.385268610000026,7.399999999994179],[114.18694401000005,22.385269610000023,7.399999999994179],[114.18693991000009,22.385276610000062,7.399999999994179],[114.1869389100001,22.385278310000047,7.399999999994179],[114.18693741000004,22.385280910000063,7.399999999994179],[114.1869369100001,22.385281710000072,7.399999999994179],[114.18693551000001,22.385284210000066,7.399999999994179],[114.18693371000006,22.385284510000076,7.399999999994179],[114.18693271000006,22.385284610000042,7.399999999994179],[114.18693231000009,22.385284710000064,7.399999999994179],[114.1869336100001,22.385291610000024,7.399999999994179],[114.1869316100001,22.385291910000035,7.399999999994179],[114.18692681000005,22.385292710000044,7.399999999994179],[114.18692001000011,22.385293810000064,7.399999999994179],[114.18691821000004,22.385294110000075,7.399999999994179],[114.18691691000004,22.385287310000024,7.399999999994179],[114.18691651000006,22.38528511000004,7.399999999994179],[114.18691631000002,22.385284410000054,7.399999999994179],[114.18691121000006,22.385258210000075,7.399999999994179],[114.18690971000001,22.38525031000006,7.399999999994179],[114.1869078100001,22.38524061000004,7.399999999994179],[114.18684761000009,22.38525061000007,7.399999999994179],[114.18684951000012,22.385260310000035,7.399999999994179],[114.18684951000012,22.385260410000058,7.399999999994179],[114.18684681000002,22.385260810000034,7.399999999994179],[114.18684501000007,22.385261110000044,7.399999999994179],[114.18684481000003,22.385261110000044,7.399999999994179],[114.18684431000008,22.385261210000067,7.399999999994179],[114.18684351000002,22.385261310000033,7.399999999994179],[114.18684281000003,22.385261410000055,7.399999999994179],[114.1868426100001,22.385261510000078,7.399999999994179],[114.18684211000004,22.385261610000043,7.399999999994179],[114.18684141000006,22.385261710000066,7.399999999994179],[114.1868403100001,22.38526181000003,7.399999999994179],[114.18683451000004,22.38526291000005,7.399999999994179],[114.18683171000009,22.385263310000028,7.399999999994179],[114.18682941000009,22.38526371000006,7.399999999994179],[114.18682921000004,22.38526371000006,7.399999999994179],[114.1868287100001,22.385263810000026,7.399999999994179],[114.18682851000005,22.385263810000026,7.399999999994179],[114.18682801000011,22.38526391000005,7.399999999994179],[114.18682751000006,22.38526401000007,7.399999999994179],[114.18682741000009,22.38526401000007,7.399999999994179],[114.18682701000012,22.385264110000037,7.399999999994179],[114.1868267100001,22.385264110000037,7.399999999994179],[114.18682561000003,22.385264310000025,7.399999999994179],[114.1868224100001,22.385264910000046,7.399999999994179],[114.18681861000005,22.385265510000067,7.399999999994179],[114.18681671000002,22.385265810000078,7.399999999994179],[114.18681621000007,22.385265910000044,7.399999999994179],[114.18681511000011,22.385266110000032,7.399999999994179],[114.18681451000009,22.385266210000054,7.399999999994179],[114.18681411000011,22.385266210000054,7.399999999994179],[114.18681101000004,22.385266710000053,7.399999999994179],[114.18681061000007,22.385266810000076,7.399999999994179],[114.18681031000006,22.38526691000004,7.399999999994179],[114.18680921000009,22.38526711000003,7.399999999994179],[114.18680911000001,22.38526711000003,7.399999999994179],[114.18680901000005,22.38526711000003,7.399999999994179],[114.18681061000007,22.385275010000043,7.399999999994179],[114.18680941000002,22.38527521000003,7.399999999994179],[114.18680561000008,22.385275810000053,7.399999999994179],[114.18680351000012,22.385276110000063,7.399999999994179],[114.1867996100001,22.38527681000005,7.399999999994179],[114.18679571000007,22.38527741000007,7.399999999994179],[114.18679311000005,22.38527791000007,7.399999999994179],[114.18678101000012,22.385279910000065,7.399999999994179],[114.18677721000006,22.38528051000003,7.399999999994179],[114.18677071000002,22.38528161000005,7.399999999994179],[114.18675911000003,22.385283510000022,7.399999999994179],[114.18674271000009,22.38528621000006,7.399999999994179],[114.1867354100001,22.385287410000046,7.399999999994179],[114.18672341000001,22.38528941000004,7.399999999994179],[114.18672331000005,22.38528941000004,7.399999999994179],[114.18671321000011,22.385291110000026,7.399999999994179],[114.18671311000003,22.385291110000026,7.399999999994179],[114.18671221000011,22.38528641000005,7.399999999994179],[114.18668901000001,22.385290310000073,7.399999999994179],[114.18668131000004,22.385291610000024,7.399999999994179],[114.18668561000004,22.385313610000026,7.399999999994179],[114.1866884100001,22.385328010000023,7.399999999994179],[114.18669101000012,22.385341710000034,7.399999999994179],[114.18669411000008,22.385357510000063,7.399999999994179],[114.18669451000005,22.385359610000023,7.399999999994179]]]},"geometry_name":"shape","properties":{"level_id":"5b37b74c-8cdb-4ebb-afa2-5fd3fb907619","level_floorpolyid":"F3731227412P2006031102000000","level_ordinal":0,"level_z_value":7.4,"level_name_en":"Ground Floor","level_name_zh":null,"level_short_name_en":"G/F","level_category":"unspecified","level_restriction":null,"level_outdoor":0,"venue_id":"13bf925f-387d-4559-a5c1-db10e9981fea","venue_category":"governmentfacility","venue_name_en":"Sha Tin Government Offices","venue_name_zh":"沙田政府合署","venue_alt_name":null,"venue_restriction":null,"venue_hours":null,"venue_website":null,"venue_phone":null,"address_address":"1 SHEUNG WO CHE ROAD","address_unit":null,"address_locality":"SHA TIN DISTRICT","building_id":"3bad0b76-eecd-4dff-ae4f-d560727c5bfe","building_category":"unspecified","building_name_en":"Sha Tin Government Offices","building_name_zh":"沙田政府合署","building_alt_name":null,"building_restriction":"","bbox":[114.18668131000004,22.38524061000004,114.1871996100001,22.386109110000064]}},{"type":"Feature","id":"level_polygon.10892","geometry":{"type":"Polygon","coordinates":[[[114.18669451000005,22.385359610000023,14.39999999999418],[114.18669661000001,22.38537051000003,14.39999999999418],[114.18669721000003,22.385373310000034,14.39999999999418],[114.18669721000003,22.385373510000022,14.39999999999418],[114.18669731000011,22.385374010000078,14.39999999999418],[114.18669751000004,22.385374710000065,14.39999999999418],[114.18669891000002,22.385382010000058,14.39999999999418],[114.1866990100001,22.385382710000044,14.39999999999418],[114.18669921000003,22.38538341000003,14.39999999999418],[114.18669921000003,22.385383510000054,14.39999999999418],[114.18669921000003,22.385383610000076,14.39999999999418],[114.18669931000011,22.385384010000053,14.39999999999418],[114.18669931000011,22.385384310000063,14.39999999999418],[114.18669941000007,22.385384610000074,14.39999999999418],[114.18669941000007,22.385384910000028,14.39999999999418],[114.18670161000011,22.385395910000057,14.39999999999418],[114.1867023100001,22.385399410000048,14.39999999999418],[114.1867023100001,22.38539951000007,14.39999999999418],[114.1867023100001,22.38539971000006,14.39999999999418],[114.1867023100001,22.385399810000024,14.39999999999418],[114.18670251000003,22.385400610000033,14.39999999999418],[114.18670251000003,22.38540081000008,14.39999999999418],[114.18670261000011,22.385401310000077,14.39999999999418],[114.18670301000009,22.385403310000072,14.39999999999418],[114.18670401000008,22.38540861000007,14.39999999999418],[114.1867053100001,22.38541501000003,14.39999999999418],[114.18670541000006,22.38541531000004,14.39999999999418],[114.18670541000006,22.385415410000064,14.39999999999418],[114.18670551000002,22.38541581000004,14.39999999999418],[114.18670551000002,22.385416210000074,14.39999999999418],[114.18670571000007,22.385417010000026,14.39999999999418],[114.18670581000003,22.385417310000037,14.39999999999418],[114.18670581000003,22.38541741000006,14.39999999999418],[114.18670851000002,22.385431210000036,14.39999999999418],[114.18670851000002,22.385431410000024,14.39999999999418],[114.18670851000002,22.385431510000046,14.39999999999418],[114.1867086100001,22.385432010000045,14.39999999999418],[114.18670871000006,22.385432610000066,14.39999999999418],[114.18670881000003,22.385432910000077,14.39999999999418],[114.18670881000003,22.385433010000042,14.39999999999418],[114.18670901000007,22.38543371000003,14.39999999999418],[114.18671061000009,22.385442210000065,14.39999999999418],[114.18671071000006,22.38544261000004,14.39999999999418],[114.18671271000005,22.385452910000026,14.39999999999418],[114.18671271000005,22.38545301000005,14.39999999999418],[114.18671271000005,22.38545311000007,14.39999999999418],[114.1867129100001,22.385453910000024,14.39999999999418],[114.18671461000008,22.385462610000047,14.39999999999418],[114.18671471000005,22.385463010000024,14.39999999999418],[114.18671481000001,22.385463610000045,14.39999999999418],[114.18671491000009,22.385464010000078,14.39999999999418],[114.18671491000009,22.385464210000066,14.39999999999418],[114.18671501000006,22.385465010000075,14.39999999999418],[114.1867152100001,22.385465710000062,14.39999999999418],[114.18671581000001,22.385469010000065,14.39999999999418],[114.18671771000004,22.38547851000004,14.39999999999418],[114.18671771000004,22.38547871000003,14.39999999999418],[114.18671771000004,22.385478810000052,14.39999999999418],[114.18671791000008,22.385479410000073,14.39999999999418],[114.18671801000005,22.385480010000038,14.39999999999418],[114.18671811000002,22.385480710000024,14.39999999999418],[114.18671811000002,22.385480810000047,14.39999999999418],[114.18671891000008,22.385484810000037,14.39999999999418],[114.18672091000008,22.385494910000034,14.39999999999418],[114.18672091000008,22.385495010000056,14.39999999999418],[114.18672101000004,22.385495510000055,14.39999999999418],[114.18672101000004,22.385495610000078,14.39999999999418],[114.18672121000009,22.38549641000003,14.39999999999418],[114.18672121000009,22.385496810000063,14.39999999999418],[114.18672131000005,22.385497110000074,14.39999999999418],[114.18672391000007,22.385510510000074,14.39999999999418],[114.18672401000003,22.385510710000062,14.39999999999418],[114.18672401000003,22.38551091000005,14.39999999999418],[114.18672411000011,22.38551141000005,14.39999999999418],[114.18672421000008,22.385511810000025,14.39999999999418],[114.18672421000008,22.385511910000048,14.39999999999418],[114.18672431000005,22.385512410000047,14.39999999999418],[114.18672431000005,22.38551251000007,14.39999999999418],[114.18672511000011,22.385516910000035,14.39999999999418],[114.18672601000003,22.385521410000024,14.39999999999418],[114.18672611000011,22.38552161000007,14.39999999999418],[114.18672621000007,22.385522110000068,14.39999999999418],[114.18672791000006,22.385531310000033,14.39999999999418],[114.1867281100001,22.385532210000065,14.39999999999418],[114.18672821000007,22.385532710000064,14.39999999999418],[114.18672831000003,22.385533010000074,14.39999999999418],[114.1867301100001,22.385542310000062,14.39999999999418],[114.1867301100001,22.38554271000004,14.39999999999418],[114.18673021000006,22.385542910000026,14.39999999999418],[114.18673041000011,22.385543710000036,14.39999999999418],[114.18673051000007,22.385544210000035,14.39999999999418],[114.18673051000007,22.385544310000057,14.39999999999418],[114.18673061000004,22.385545010000044,14.39999999999418],[114.18673091000005,22.385546910000073,14.39999999999418],[114.18673191000005,22.385551810000038,14.39999999999418],[114.18673231000002,22.385554210000066,14.39999999999418],[114.18673291000005,22.385557310000024,14.39999999999418],[114.18673401000001,22.385563110000078,14.39999999999418],[114.18673461000003,22.38556611000007,14.39999999999418],[114.18673691000004,22.385578010000074,14.39999999999418],[114.1867397100001,22.385592510000038,14.39999999999418],[114.18674031,22.385595610000053,14.39999999999418],[114.18674141000008,22.38560111000004,14.39999999999418],[114.18674191000002,22.385603410000044,14.39999999999418],[114.18674391000002,22.385614110000063,14.39999999999418],[114.18674491000002,22.385618910000062,14.39999999999418],[114.18674561000012,22.385622710000064,14.39999999999418],[114.18674621000002,22.385625610000034,14.39999999999418],[114.18674691000001,22.38562931000007,14.39999999999418],[114.18674761000011,22.38563271000004,14.39999999999418],[114.18674871000007,22.38563841000007,14.39999999999418],[114.18674901000009,22.385640110000054,14.39999999999418],[114.18675151000002,22.385653010000055,14.39999999999418],[114.18675441000005,22.385667910000052,14.39999999999418],[114.18675761000009,22.385684610000055,14.39999999999418],[114.18677431000003,22.385770210000032,14.39999999999418],[114.18677531000003,22.385775610000053,14.39999999999418],[114.18677541000011,22.38577631000004,14.39999999999418],[114.1867764100001,22.38578111000004,14.39999999999418],[114.18678101000012,22.385804810000025,14.39999999999418],[114.18678451000005,22.38582291000006,14.39999999999418],[114.18678731000011,22.385837010000046,14.39999999999418],[114.18679101000009,22.385856010000055,14.39999999999418],[114.18679101000009,22.385856110000077,14.39999999999418],[114.18679391,22.385871010000074,14.39999999999418],[114.18679521000001,22.385877810000068,14.39999999999418],[114.18682701000012,22.385922710000045,14.39999999999418],[114.18683751000003,22.385937610000042,14.39999999999418],[114.18683911000005,22.385939810000025,14.39999999999418],[114.18684151000002,22.38594321000005,14.39999999999418],[114.1868439100001,22.385946610000076,14.39999999999418],[114.1868449100001,22.38594801000005,14.39999999999418],[114.18684631000008,22.385949910000022,14.39999999999418],[114.18684961000008,22.385954610000056,14.39999999999418],[114.18685181000001,22.385957810000036,14.39999999999418],[114.18685661000006,22.38596461000003,14.39999999999418],[114.18686171000002,22.385971710000035,14.39999999999418],[114.18686891000004,22.385981810000033,14.39999999999418],[114.18687331000001,22.385988110000028,14.39999999999418],[114.18688141000007,22.385999610000056,14.39999999999418],[114.18690181000011,22.38602841000005,14.39999999999418],[114.18691101000002,22.386041310000053,14.39999999999418],[114.18691251000007,22.38604341000007,14.39999999999418],[114.18691511000009,22.38604711000005,14.39999999999418],[114.18691851000005,22.38605191000005,14.39999999999418],[114.18692381000005,22.38605941000003,14.39999999999418],[114.18692471000008,22.386060710000038,14.39999999999418],[114.1869273100001,22.386064410000074,14.39999999999418],[114.1869293100001,22.386067110000056,14.39999999999418],[114.18693561000009,22.386076010000068,14.39999999999418],[114.18693971000005,22.386081810000064,14.39999999999418],[114.18694081000001,22.386083410000026,14.39999999999418],[114.18694261000007,22.386086010000042,14.39999999999418],[114.18694601000004,22.386090710000076,14.39999999999418],[114.1869475100001,22.386092810000036,14.39999999999418],[114.18694871000002,22.386094610000043,14.39999999999418],[114.18694991000007,22.386096210000062,14.39999999999418],[114.18695171000002,22.386098810000078,14.39999999999418],[114.18695251000008,22.38609991000004,14.39999999999418],[114.18695791000005,22.386107510000045,14.39999999999418],[114.18696541000008,22.38611811000004,14.39999999999418],[114.18697111000006,22.386117610000042,14.39999999999418],[114.18698591000009,22.386116410000056,14.39999999999418],[114.18699651000009,22.386115610000047,14.39999999999418],[114.1870196100001,22.386113710000075,14.39999999999418],[114.18703491000008,22.386112410000067,14.39999999999418],[114.1870504100001,22.386111210000024,14.39999999999418],[114.18706201000009,22.386110210000027,14.39999999999418],[114.18707081000002,22.38610951000004,14.39999999999418],[114.18707271000005,22.386109410000074,14.39999999999418],[114.18708071000003,22.38610871000003,14.39999999999418],[114.18710011000007,22.386107210000034,14.39999999999418],[114.18711831000007,22.386105710000038,14.39999999999418],[114.18712111000002,22.38610551000005,14.39999999999418],[114.18712201000005,22.386105410000027,14.39999999999418],[114.18714211000008,22.386103810000066,14.39999999999418],[114.18714311000008,22.386103710000043,14.39999999999418],[114.18714341000009,22.386103710000043,14.39999999999418],[114.18716271000005,22.386102110000024,14.39999999999418],[114.18717751000008,22.38609961000003,14.39999999999418],[114.18717761000005,22.38609961000003,14.39999999999418],[114.18718851000006,22.386097810000024,14.39999999999418],[114.18719221000003,22.38609721000006,14.39999999999418],[114.1871996100001,22.38609591000005,14.39999999999418],[114.1871973100001,22.386084210000035,14.39999999999418],[114.18719551000004,22.386074910000048,14.39999999999418],[114.18719411000006,22.386067810000043,14.39999999999418],[114.18719311000007,22.386062610000067,14.39999999999418],[114.18719311000007,22.386062510000045,14.39999999999418],[114.18719251000005,22.386059810000063,14.39999999999418],[114.18719021000004,22.38604761000005,14.39999999999418],[114.18719011000007,22.386047010000027,14.39999999999418],[114.18718961000002,22.38604471000008,14.39999999999418],[114.1871877100001,22.386034710000047,14.39999999999418],[114.18718701000012,22.386031510000066,14.39999999999418],[114.18718591000004,22.386025610000047,14.39999999999418],[114.18718501000001,22.386021010000036,14.39999999999418],[114.1871844100001,22.38601821000003,14.39999999999418],[114.1871844100001,22.386017910000078,14.39999999999418],[114.1871834100001,22.386012910000034,14.39999999999418],[114.18718331000002,22.386012110000024,14.39999999999418],[114.18718131000003,22.386002210000072,14.39999999999418],[114.18718091000005,22.386000110000055,14.39999999999418],[114.18717921000007,22.385991210000043,14.39999999999418],[114.18717391000007,22.38596411000003,14.39999999999418],[114.1871738100001,22.385963610000033,14.39999999999418],[114.18717201000004,22.385954410000068,14.39999999999418],[114.18717191000007,22.385953710000024,14.39999999999418],[114.18717181000011,22.385953510000036,14.39999999999418],[114.18716781,22.385932510000032,14.39999999999418],[114.18716771000004,22.385932010000033,14.39999999999418],[114.18715891000011,22.385886910000067,14.39999999999418],[114.18715881000003,22.385886710000023,14.39999999999418],[114.1871586100001,22.385885710000025,14.39999999999418],[114.1871546100001,22.385865210000077,14.39999999999418],[114.1871546100001,22.385864910000066,14.39999999999418],[114.18715441000006,22.385864210000022,14.39999999999418],[114.18715091000001,22.385846210000068,14.39999999999418],[114.18715061000012,22.38584431000004,14.39999999999418],[114.18715051000004,22.385844210000073,14.39999999999418],[114.18715021000003,22.385842510000032,14.39999999999418],[114.18714621000004,22.38582191000006,14.39999999999418],[114.1871460100001,22.38582111000005,14.39999999999418],[114.1871460100001,22.385820910000064,14.39999999999418],[114.18714221000005,22.385801610000044,14.39999999999418],[114.18714221000005,22.38580151000008,14.39999999999418],[114.18714201000012,22.385800610000047,14.39999999999418],[114.18714111000008,22.38579561000006,14.39999999999418],[114.1871321100001,22.385749710000027,14.39999999999418],[114.1871321100001,22.38574951000004,14.39999999999418],[114.18713061000005,22.385742110000024,14.39999999999418],[114.18713051000009,22.385741610000025,14.39999999999418],[114.18713041000001,22.385740810000073,14.39999999999418],[114.18712961000006,22.38573691000005,14.39999999999418],[114.18712891000007,22.38573321000007,14.39999999999418],[114.18712821000008,22.385729710000078,14.39999999999418],[114.18712671000003,22.38572171000004,14.39999999999418],[114.18712661000006,22.385721110000077,14.39999999999418],[114.18712631000005,22.385720010000057,14.39999999999418],[114.18712591000008,22.38571791000004,14.39999999999418],[114.18712441000002,22.38570991000006,14.39999999999418],[114.18712391000008,22.385707410000066,14.39999999999418],[114.18712371000004,22.385706510000034,14.39999999999418],[114.1871232100001,22.38570371000003,14.39999999999418],[114.18712211000002,22.385698410000032,14.39999999999418],[114.18712211000002,22.385698310000066,14.39999999999418],[114.18712201000005,22.385697710000045,14.39999999999418],[114.18712101000006,22.385692410000047,14.39999999999418],[114.1871192100001,22.385683510000035,14.39999999999418],[114.18711811000003,22.38567771000004,14.39999999999418],[114.18711811000003,22.38567751000005,14.39999999999418],[114.18711771000005,22.385675610000078,14.39999999999418],[114.18711501000007,22.385661810000045,14.39999999999418],[114.18711481000003,22.385661010000035,14.39999999999418],[114.18711081000004,22.385640110000054,14.39999999999418],[114.1871106100001,22.385639410000067,14.39999999999418],[114.18710911000005,22.38563141000003,14.39999999999418],[114.18710221000003,22.385632610000073,14.39999999999418],[114.1871020100001,22.385632610000073,14.39999999999418],[114.18709191000005,22.385634310000057,14.39999999999418],[114.18709051000008,22.38562711000003,14.39999999999418],[114.18708691000006,22.385608610000077,14.39999999999418],[114.18707901000005,22.385567710000032,14.39999999999418],[114.18707701000005,22.385557710000057,14.39999999999418],[114.18707501000006,22.38554761000006,14.39999999999418],[114.18707491000009,22.38554711000006,14.39999999999418],[114.18707481000001,22.38554651000004,14.39999999999418],[114.18707251000001,22.38553451000007,14.39999999999418],[114.18707221000011,22.385533310000028,14.39999999999418],[114.18707051000001,22.38552461000006,14.39999999999418],[114.1870699100001,22.385521210000036,14.39999999999418],[114.18706341000006,22.385488010000074,14.39999999999418],[114.18706121000002,22.385476510000046,14.39999999999418],[114.18706091000001,22.385474810000062,14.39999999999418],[114.18705961,22.385468210000056,14.39999999999418],[114.18705891000002,22.385464910000053,14.39999999999418],[114.18705871000009,22.385463410000057,14.39999999999418],[114.18705681000006,22.385454010000046,14.39999999999418],[114.18705641000008,22.38545201000005,14.39999999999418],[114.18705551000005,22.385447210000052,14.39999999999418],[114.18705391000003,22.38543891000006,14.39999999999418],[114.18705201000012,22.38542951000005,14.39999999999418],[114.18704531000003,22.385395110000047,14.39999999999418],[114.18704531000003,22.38539491000006,14.39999999999418],[114.18705561000002,22.385393210000075,14.39999999999418],[114.18706241000007,22.385392010000032,14.39999999999418],[114.18705961,22.385377410000046,14.39999999999418],[114.18705931000011,22.385376010000073,14.39999999999418],[114.18705551000005,22.385356510000065,14.39999999999418],[114.18705541000008,22.385356210000054,14.39999999999418],[114.18705211000008,22.385339010000052,14.39999999999418],[114.18704521000006,22.385340110000072,14.39999999999418],[114.18704521000006,22.38534001000005,14.39999999999418],[114.1870451100001,22.385339810000062,14.39999999999418],[114.1870451100001,22.38533971000004,14.39999999999418],[114.1870451100001,22.385339610000074,14.39999999999418],[114.1870451100001,22.38533951000005,14.39999999999418],[114.18704271000001,22.385327310000037,14.39999999999418],[114.18704261000005,22.385326510000027,14.39999999999418],[114.18704251000008,22.385326210000073,14.39999999999418],[114.18704251000008,22.38532611000005,14.39999999999418],[114.18704251000008,22.38532601000003,14.39999999999418],[114.18704241000012,22.38532581000004,14.39999999999418],[114.18704241000012,22.385325710000075,14.39999999999418],[114.18704231000004,22.38532531000004,14.39999999999418],[114.18704231000004,22.385325210000076,14.39999999999418],[114.18704221000007,22.385324910000065,14.39999999999418],[114.18704221000007,22.385324710000077,14.39999999999418],[114.1870421100001,22.385324310000044,14.39999999999418],[114.1870421100001,22.38532421000008,14.39999999999418],[114.1870421100001,22.385324110000056,14.39999999999418],[114.1870421100001,22.385324010000033,14.39999999999418],[114.18704201000003,22.385323810000045,14.39999999999418],[114.18704201000003,22.385323710000023,14.39999999999418],[114.18704201000003,22.38532341000007,14.39999999999418],[114.18704041000001,22.385315310000067,14.39999999999418],[114.18704031000004,22.38531511000008,14.39999999999418],[114.18704031000004,22.385314710000046,14.39999999999418],[114.18704021000008,22.385314610000023,14.39999999999418],[114.18704021000008,22.385314510000057,14.39999999999418],[114.18704021000008,22.385314410000035,14.39999999999418],[114.18704021000008,22.38531431000007,14.39999999999418],[114.18704001000003,22.385313610000026,14.39999999999418],[114.18704001000003,22.38531351000006,14.39999999999418],[114.18704001000003,22.385313410000037,14.39999999999418],[114.1870398100001,22.38531241000004,14.39999999999418],[114.18703821000008,22.385304010000027,14.39999999999418],[114.1870375100001,22.385300310000048,14.39999999999418],[114.18703041000003,22.385301510000033,14.39999999999418],[114.18703031000007,22.385301510000033,14.39999999999418],[114.18702911000003,22.38530171000008,14.39999999999418],[114.18702851,22.385301810000044,14.39999999999418],[114.1870206100001,22.385303110000052,14.39999999999418],[114.18702051000002,22.385303110000052,14.39999999999418],[114.18702001000008,22.385303210000075,14.39999999999418],[114.18701981000004,22.385303210000075,14.39999999999418],[114.18701881000004,22.385303410000063,14.39999999999418],[114.18701861000011,22.38530351000003,14.39999999999418],[114.1870183100001,22.38530351000003,14.39999999999418],[114.18701791000001,22.38530361000005,14.39999999999418],[114.18701001000011,22.38530491000006,14.39999999999418],[114.18700991000003,22.38530491000006,14.39999999999418],[114.18700831000001,22.38530521000007,14.39999999999418],[114.18700471000011,22.385286610000037,14.39999999999418],[114.18700461000003,22.385286110000038,14.39999999999418],[114.18700381000008,22.385282010000026,14.39999999999418],[114.1870021100001,22.38527311000007,14.39999999999418],[114.18699451000009,22.385274310000057,14.39999999999418],[114.18699371000002,22.385274510000045,14.39999999999418],[114.18699361000006,22.385274510000045,14.39999999999418],[114.18699191000007,22.385274810000055,14.39999999999418],[114.18699121000009,22.385274910000078,14.39999999999418],[114.18698941000002,22.38527521000003,14.39999999999418],[114.18698491000009,22.385275910000075,14.39999999999418],[114.18698381000002,22.385276110000063,14.39999999999418],[114.18698311000003,22.38527621000003,14.39999999999418],[114.18698261000009,22.38527631000005,14.39999999999418],[114.18698251,22.38527631000005,14.39999999999418],[114.18698171000005,22.38527651000004,14.39999999999418],[114.18698111000003,22.385276610000062,14.39999999999418],[114.18698061000009,22.385276710000028,14.39999999999418],[114.18697931000008,22.385276910000073,14.39999999999418],[114.18697781000003,22.38527711000006,14.39999999999418],[114.18697441000006,22.385277710000025,14.39999999999418],[114.1869733100001,22.38527791000007,14.39999999999418],[114.1869723100001,22.385278010000036,14.39999999999418],[114.18697211000006,22.38527811000006,14.39999999999418],[114.18697021000003,22.38527841000007,14.39999999999418],[114.18696661000001,22.385279010000033,14.39999999999418],[114.18696561000002,22.38527921000008,14.39999999999418],[114.18696411000008,22.385279410000066,14.39999999999418],[114.18695931000002,22.385280210000076,14.39999999999418],[114.18695241000012,22.38528141000006,14.39999999999418],[114.18694991000007,22.385281810000038,14.39999999999418],[114.18694941000001,22.385281810000038,14.39999999999418],[114.18694791000007,22.38528211000005,14.39999999999418],[114.18694771000003,22.38528211000005,14.39999999999418],[114.18693551000001,22.385284210000066,14.39999999999418],[114.18693371000006,22.385284510000076,14.39999999999418],[114.18693271000006,22.385284610000042,14.39999999999418],[114.18693231000009,22.385284710000064,14.39999999999418],[114.18693091000011,22.385284910000053,14.39999999999418],[114.18691901000011,22.385286910000048,14.39999999999418],[114.18691811000008,22.385287110000036,14.39999999999418],[114.18691691000004,22.385287310000024,14.39999999999418],[114.18691651000006,22.38528511000004,14.39999999999418],[114.18691631000002,22.385284410000054,14.39999999999418],[114.18691121000006,22.385258210000075,14.39999999999418],[114.18690971000001,22.38525031000006,14.39999999999418],[114.18690931000003,22.385250410000026,14.39999999999418],[114.18690871000001,22.38525051000005,14.39999999999418],[114.18690771000001,22.38525061000007,14.39999999999418],[114.18689551000011,22.38525271000003,14.39999999999418],[114.18689541000003,22.38525271000003,14.39999999999418],[114.18689441000004,22.385252910000077,14.39999999999418],[114.18689411000003,22.385252910000077,14.39999999999418],[114.18689401000006,22.385252910000077,14.39999999999418],[114.18689361000008,22.385253010000042,14.39999999999418],[114.18689171000005,22.385253310000053,14.39999999999418],[114.18689151000001,22.385253310000053,14.39999999999418],[114.1868899100001,22.385253610000063,14.39999999999418],[114.18688881000003,22.38525381000005,14.39999999999418],[114.18687751000004,22.385255710000024,14.39999999999418],[114.18687741000008,22.385255710000024,14.39999999999418],[114.18687731000011,22.385255710000024,14.39999999999418],[114.18687721000003,22.385255710000024,14.39999999999418],[114.18687611000007,22.38525591000007,14.39999999999418],[114.1868760100001,22.38525591000007,14.39999999999418],[114.18687561000002,22.385256010000035,14.39999999999418],[114.18687521000004,22.385256110000057,14.39999999999418],[114.18687451000005,22.385256210000023,14.39999999999418],[114.18686691000005,22.385257410000065,14.39999999999418],[114.18686151000009,22.38525831000004,14.39999999999418],[114.18686121000007,22.385258410000063,14.39999999999418],[114.18686061000005,22.38525851000003,14.39999999999418],[114.18686011000011,22.38525861000005,14.39999999999418],[114.18685991000007,22.38525861000005,14.39999999999418],[114.18685911000011,22.385258710000073,14.39999999999418],[114.18685901000003,22.385258710000073,14.39999999999418],[114.18685831000005,22.38525891000006,14.39999999999418],[114.18685811000012,22.38525891000006,14.39999999999418],[114.18685431000006,22.385259510000026,14.39999999999418],[114.18684951000012,22.385260310000035,14.39999999999418],[114.18684681000002,22.385260810000034,14.39999999999418],[114.18684501000007,22.385261110000044,14.39999999999418],[114.18684481000003,22.385261110000044,14.39999999999418],[114.18684431000008,22.385261210000067,14.39999999999418],[114.18684351000002,22.385261310000033,14.39999999999418],[114.18684281000003,22.385261410000055,14.39999999999418],[114.1868426100001,22.385261510000078,14.39999999999418],[114.18684211000004,22.385261610000043,14.39999999999418],[114.18684141000006,22.385261710000066,14.39999999999418],[114.18683451000004,22.38526291000005,14.39999999999418],[114.18683171000009,22.385263310000028,14.39999999999418],[114.18682941000009,22.38526371000006,14.39999999999418],[114.18682921000004,22.38526371000006,14.39999999999418],[114.1868287100001,22.385263810000026,14.39999999999418],[114.18682851000005,22.385263810000026,14.39999999999418],[114.18682801000011,22.38526391000005,14.39999999999418],[114.18682751000006,22.38526401000007,14.39999999999418],[114.18682741000009,22.38526401000007,14.39999999999418],[114.18682701000012,22.385264110000037,14.39999999999418],[114.1868267100001,22.385264110000037,14.39999999999418],[114.18682561000003,22.385264310000025,14.39999999999418],[114.1868224100001,22.385264910000046,14.39999999999418],[114.18681861000005,22.385265510000067,14.39999999999418],[114.18681671000002,22.385265810000078,14.39999999999418],[114.18681621000007,22.385265910000044,14.39999999999418],[114.18681511000011,22.385266110000032,14.39999999999418],[114.18681451000009,22.385266210000054,14.39999999999418],[114.18681411000011,22.385266210000054,14.39999999999418],[114.18681101000004,22.385266710000053,14.39999999999418],[114.18681061000007,22.385266810000076,14.39999999999418],[114.18681031000006,22.38526691000004,14.39999999999418],[114.18680921000009,22.38526711000003,14.39999999999418],[114.18680911000001,22.38526711000003,14.39999999999418],[114.18680901000005,22.38526711000003,14.39999999999418],[114.1868085100001,22.385267210000052,14.39999999999418],[114.18680791000008,22.385267310000074,14.39999999999418],[114.18680641000003,22.385267510000062,14.39999999999418],[114.18680581000001,22.385267610000028,14.39999999999418],[114.1867966100001,22.385269210000047,14.39999999999418],[114.18679521000001,22.385269410000035,14.39999999999418],[114.18679491000012,22.385269410000035,14.39999999999418],[114.18679451000003,22.385269510000057,14.39999999999418],[114.18679351000003,22.385269710000046,14.39999999999418],[114.18679341000006,22.385269710000046,14.39999999999418],[114.18679161000011,22.385270010000056,14.39999999999418],[114.18679311000005,22.38527791000007,14.39999999999418],[114.1867946100001,22.385285710000062,14.39999999999418],[114.18679581000004,22.385292010000057,14.39999999999418],[114.18679641000006,22.38529481000006,14.39999999999418],[114.18679701000008,22.385297810000054,14.39999999999418],[114.18679811000004,22.38530361000005,14.39999999999418],[114.18679821,22.385304010000027,14.39999999999418],[114.18679831000009,22.385304810000036,14.39999999999418],[114.1867986100001,22.385306210000067,14.39999999999418],[114.18679881000003,22.385307010000076,14.39999999999418],[114.18679671000007,22.38530731000003,14.39999999999418],[114.18679591000011,22.385307410000053,14.39999999999418],[114.18678461000002,22.385309310000025,14.39999999999418],[114.18678411000008,22.385309410000048,14.39999999999418],[114.18678241000009,22.385309710000058,14.39999999999418],[114.18678231000001,22.385309710000058,14.39999999999418],[114.18676901000003,22.38531191000004,14.39999999999418],[114.18676841000001,22.385312010000064,14.39999999999418],[114.18676701000004,22.385312210000052,14.39999999999418],[114.18676641000002,22.385312310000074,14.39999999999418],[114.18675281000003,22.385314610000023,14.39999999999418],[114.18675201000008,22.385314710000046,14.39999999999418],[114.18675041000006,22.385315010000056,14.39999999999418],[114.18674841000006,22.385315310000067,14.39999999999418],[114.18674641000007,22.385315710000043,14.39999999999418],[114.18674621000002,22.385315710000043,14.39999999999418],[114.18674601000009,22.385315710000043,14.39999999999418],[114.18673921000004,22.38531691000003,14.39999999999418],[114.18673741000009,22.38531721000004,14.39999999999418],[114.1867367100001,22.38531731000006,14.39999999999418],[114.18673661000003,22.38531731000006,14.39999999999418],[114.18673621000005,22.385317410000027,14.39999999999418],[114.18673561000003,22.38531751000005,14.39999999999418],[114.18673501,22.385317610000072,14.39999999999418],[114.18673481000008,22.385317610000072,14.39999999999418],[114.1867344100001,22.385317710000038,14.39999999999418],[114.18672901000002,22.38531861000007,14.39999999999418],[114.18672611000011,22.38531911000007,14.39999999999418],[114.18672491000007,22.385319210000034,14.39999999999418],[114.18672471000002,22.385319310000057,14.39999999999418],[114.18672451000009,22.385319310000057,14.39999999999418],[114.18672441000001,22.385319310000057,14.39999999999418],[114.18671881000012,22.385320310000054,14.39999999999418],[114.18671901000005,22.38532121000003,14.39999999999418],[114.18672061000007,22.385329210000066,14.39999999999418],[114.18672111000001,22.38533221000006,14.39999999999418],[114.18672121000009,22.385332410000046,14.39999999999418],[114.18672181000011,22.38533571000005,14.39999999999418],[114.1867228100001,22.385341010000047,14.39999999999418],[114.18672451000009,22.385349510000026,14.39999999999418],[114.1867248100001,22.385350910000057,14.39999999999418],[114.18672501000003,22.385352410000053,14.39999999999418],[114.18672491000007,22.385352410000053,14.39999999999418],[114.18672231000005,22.38535281000003,14.39999999999418],[114.18672171000003,22.38535291000005,14.39999999999418],[114.18672161000006,22.38535291000005,14.39999999999418],[114.18671331000007,22.385354310000025,14.39999999999418],[114.18671281000002,22.385354410000048,14.39999999999418],[114.18671261000009,22.385354410000048,14.39999999999418],[114.18671131000008,22.38535471000006,14.39999999999418],[114.18671121000011,22.38535471000006,14.39999999999418],[114.18671101000007,22.38535471000006,14.39999999999418],[114.18671081000002,22.38535471000006,14.39999999999418],[114.18670191000001,22.385356210000054,14.39999999999418],[114.18670101000009,22.385356410000043,14.39999999999418],[114.18670091000001,22.385356410000043,14.39999999999418],[114.18670081000005,22.385356410000043,14.39999999999418],[114.18670041000007,22.385356510000065,14.39999999999418],[114.18669411000008,22.385357510000063,14.39999999999418],[114.18669451000005,22.385359610000023,14.39999999999418]]]},"geometry_name":"shape","properties":{"level_id":"c00ca2db-d066-41b9-b71b-f857caef58de","level_floorpolyid":"F3731227412P2006031101000200","level_ordinal":2,"level_z_value":14.4,"level_name_en":"1 Floor","level_name_zh":null,"level_short_name_en":"1/F","level_category":"unspecified","level_restriction":null,"level_outdoor":0,"venue_id":"13bf925f-387d-4559-a5c1-db10e9981fea","venue_category":"governmentfacility","venue_name_en":"Sha Tin Government Offices","venue_name_zh":"沙田政府合署","venue_alt_name":null,"venue_restriction":null,"venue_hours":null,"venue_website":null,"venue_phone":null,"address_address":"1 SHEUNG WO CHE ROAD","address_unit":null,"address_locality":"SHA TIN DISTRICT","building_id":"3bad0b76-eecd-4dff-ae4f-d560727c5bfe","building_category":"unspecified","building_name_en":"Sha Tin Government Offices","building_name_zh":"沙田政府合署","building_alt_name":null,"building_restriction":"","bbox":[114.18669411000008,22.38525031000006,114.1871996100001,22.38611811000004]}},{"type":"Feature","id":454112,"geometry":{"type":"LineString","coordinates":[[114.1873849068539,22.3832500606338,4.702199999999721],[114.18737916841428,22.383242510587234,4.702199999999721]]},"properties":{"OBJECTID":454112,"PedestrianRouteID":290054590,"Location":2,"FeatureType":1,"AliasNameEN":"Footway","AliasNameTC":"行人道","CrossingFeature":null,"WeatherProof":1,"WheelchairBarrier":2,"WheelchairAccess":2,"ObstaclesType":null,"Gradient":0,"Direction":0,"PositionCertainty":1,"Enabled":1,"DataSource":1,"LevelSource":12,"StreetNameEN":null,"StreetNameTC":null,"ST_CODE":null,"FloorID":null,"BuildingID_1":1810186727,"BuildingID_2":null,"SiteID":null,"TerminalID":null,"AccessTimeID":null,"CreationDate":1753718400000,"ModifiedBy":"LANDSD","LastAmendmentDate":1753718400000,"Shape__Length":1.0238290978984055,"level_id":"ped-z-4702","representation":"official network centreline"}},{"type":"Feature","id":454113,"geometry":{"type":"LineString","coordinates":[[114.18737916841428,22.383242510587234,4.702199999999721],[114.18737409423187,22.38323583465189,10.264999999999418]]},"properties":{"OBJECTID":454113,"PedestrianRouteID":290054591,"Location":2,"FeatureType":10,"AliasNameEN":"Lift","AliasNameTC":"升降機","CrossingFeature":null,"WeatherProof":1,"WheelchairBarrier":2,"WheelchairAccess":2,"ObstaclesType":null,"Gradient":1.40946861,"Direction":0,"PositionCertainty":1,"Enabled":1,"DataSource":1,"LevelSource":12,"StreetNameEN":null,"StreetNameTC":null,"ST_CODE":null,"FloorID":null,"BuildingID_1":1810186727,"BuildingID_2":null,"SiteID":null,"TerminalID":null,"AccessTimeID":290001158,"CreationDate":1753718400000,"ModifiedBy":"LANDSD","LastAmendmentDate":1772208000000,"Shape__Length":0.905301463213044,"level_id":"ped-z-4702","representation":"official network centreline"}},{"type":"Feature","id":454113,"geometry":{"type":"LineString","coordinates":[[114.18737916841428,22.383242510587234,4.702199999999721],[114.18737409423187,22.38323583465189,10.264999999999418]]},"properties":{"OBJECTID":454113,"PedestrianRouteID":290054591,"Location":2,"FeatureType":10,"AliasNameEN":"Lift","AliasNameTC":"升降機","CrossingFeature":null,"WeatherProof":1,"WheelchairBarrier":2,"WheelchairAccess":2,"ObstaclesType":null,"Gradient":1.40946861,"Direction":0,"PositionCertainty":1,"Enabled":1,"DataSource":1,"LevelSource":12,"StreetNameEN":null,"StreetNameTC":null,"ST_CODE":null,"FloorID":null,"BuildingID_1":1810186727,"BuildingID_2":null,"SiteID":null,"TerminalID":null,"AccessTimeID":290001158,"CreationDate":1753718400000,"ModifiedBy":"LANDSD","LastAmendmentDate":1772208000000,"Shape__Length":0.905301463213044,"level_id":"ped-z-10265","representation":"official network centreline"}},{"type":"Feature","id":454114,"geometry":{"type":"LineString","coordinates":[[114.18737409423187,22.38323583465189,10.264999999999418],[114.18738701236369,22.383228245460913,10.264999999999418]]},"properties":{"OBJECTID":454114,"PedestrianRouteID":290054592,"Location":2,"FeatureType":2,"AliasNameEN":"Footbridge","AliasNameTC":"天橋","CrossingFeature":null,"WeatherProof":1,"WheelchairBarrier":2,"WheelchairAccess":2,"ObstaclesType":null,"Gradient":0,"Direction":0,"PositionCertainty":1,"Enabled":1,"DataSource":1,"LevelSource":12,"StreetNameEN":null,"StreetNameTC":null,"ST_CODE":null,"FloorID":null,"BuildingID_1":1810186727,"BuildingID_2":null,"SiteID":null,"TerminalID":null,"AccessTimeID":null,"CreationDate":1753718400000,"ModifiedBy":"LANDSD","LastAmendmentDate":1753718400000,"Shape__Length":1.5735527469021668,"level_id":"ped-z-10265","representation":"official network centreline"}}]}