{"type":"FeatureCollection","features":[{"type":"Feature","id":"level_polygon.10745","geometry":{"type":"Polygon","coordinates":[[[114.14411289000009,22.285035850000043,52.5],[114.14413308000007,22.28503494000006,52.5],[114.14413343000001,22.285041560000025,52.5],[114.14417248000007,22.28503992000003,52.5],[114.14417205000007,22.28503321000005,52.5],[114.14434761000007,22.285024830000054,52.5],[114.14438539000002,22.285023480000064,52.5],[114.14438421000011,22.284998220000034,52.5],[114.14446226000007,22.284994720000043,52.5],[114.14446366000004,22.285020690000067,52.5],[114.14446372000009,22.285026490000064,52.5],[114.1444706100001,22.285026110000047,52.5],[114.14447149000011,22.28502607000007,52.5],[114.14448183000002,22.28502566000003,52.5],[114.14450353000007,22.28502462000006,52.5],[114.14450471000009,22.285024570000076,52.5],[114.1445057300001,22.285024520000036,52.5],[114.14451732000009,22.285023960000046,52.5],[114.14452440000002,22.28502362000006,52.5],[114.14454553000007,22.285022610000055,52.5],[114.14455466000004,22.285022260000062,52.5],[114.1445641900001,22.28502190000006,52.5],[114.14456499000005,22.285021870000037,52.5],[114.14456557000005,22.285021850000078,52.5],[114.14457961000005,22.285021320000055,52.5],[114.14459826000007,22.28502061000006,52.5],[114.1446067500001,22.285020290000034,52.5],[114.14461715000004,22.285019890000058,52.5],[114.14462450000008,22.285019610000063,52.5],[114.14462473000003,22.285019600000055,52.5],[114.14462742,22.285019500000033,52.5],[114.14463363000004,22.285019270000078,52.5],[114.14464155000007,22.285018970000067,52.5],[114.14464792000001,22.28501872000004,52.5],[114.14464778000001,22.285014150000052,52.5],[114.14464650000002,22.28498348000005,52.5],[114.14464411000006,22.28492656000003,52.5],[114.14464279000003,22.284925780000037,52.5],[114.1446398600001,22.284924060000037,52.5],[114.14462164000008,22.284911150000028,52.5],[114.14459699000008,22.284893460000035,52.5],[114.1445736500001,22.284874650000063,52.5],[114.14457030000005,22.284871950000024,52.5],[114.14454386000011,22.284846620000053,52.5],[114.1445414000001,22.284843980000062,52.5],[114.14452692000009,22.28482846000003,52.5],[114.14451204000011,22.284794050000073,52.5],[114.14449218000004,22.284748110000066,52.5],[114.14447973000006,22.284720680000078,52.5],[114.14446855000006,22.284720950000064,52.5],[114.14424350000002,22.284729910000067,52.5],[114.1441954500001,22.284731820000047,52.5],[114.14415336000002,22.284733500000073,52.5],[114.14364024000008,22.284753930000022,52.5],[114.14364823000005,22.284884160000047,52.5],[114.14365452000004,22.284883870000044,52.5],[114.14365485000008,22.28488385000003,52.5],[114.14365544000009,22.28489477000005,52.5],[114.14365584000006,22.284902140000042,52.5],[114.14365649000001,22.284914170000036,52.5],[114.14365697000005,22.28492300000005,52.5],[114.14365740000005,22.28493104000006,52.5],[114.14365811000005,22.284944050000036,52.5],[114.1436584700001,22.28495066000005,52.5],[114.1436587500001,22.28495588000004,52.5],[114.14366186000007,22.284955740000044,52.5],[114.1436620400001,22.284959230000027,52.5],[114.14366300000006,22.284977990000073,52.5],[114.14366336,22.28498491000005,52.5],[114.14366411000003,22.284999490000075,52.5],[114.14366551,22.28502676000005,52.5],[114.1436571700001,22.285027110000044,52.5],[114.1436593200001,22.285064100000056,52.5],[114.14366324000002,22.285063910000076,52.5],[114.14369955000006,22.285062090000054,52.5],[114.1436991600001,22.28505456000005,52.5],[114.14411289000009,22.285035850000043,52.5]]]},"geometry_name":"shape","properties":{"level_id":"b6e6d6b0-52ff-4678-af80-7c7a7cdadd85","level_floorpolyid":"F3289716223P2006031201000200","level_ordinal":2,"level_z_value":52.5,"level_name_en":"Ground Floor","level_name_zh":"地下","level_short_name_en":"G/F","level_category":"unspecified","level_restriction":null,"level_outdoor":0,"venue_id":"468dc65e-e6fd-4312-9925-59016a938d36","venue_category":"healthcarefacility","venue_name_en":"Sai Ying Pun Community Complex","venue_name_zh":"西營盤社區綜合大樓","venue_alt_name":null,"venue_restriction":null,"venue_hours":null,"venue_website":null,"venue_phone":null,"address_address":"2 HIGH STREET","address_unit":null,"address_locality":"CENTRAL & WESTERN DISTRICT","building_id":"d505dc27-3394-4458-8d4b-980fe411c365,2dffe1c9-0ade-4981-9afe-fa12713bde47","building_category":"unspecified,unspecified","building_name_en":"Sai Ying Pun Community Complex,Sai Ying Pun Community Complex Podium","building_name_zh":"西營盤社區綜合大樓,西營盤社區綜合大樓平台","building_alt_name":null,"building_restriction":",","bbox":[114.14364024000008,22.284720680000078,114.14464792000001,22.285064100000056]}},{"type":"Feature","id":"level_polygon.10746","geometry":{"type":"Polygon","coordinates":[[[114.1436593200001,22.285064110000064,58],[114.14369954000006,22.28506210000006,58],[114.14369955000006,22.28506210000006,58],[114.1436991600001,22.28505456000005,58],[114.14413308000007,22.28503494000006,58],[114.14413343000001,22.285041560000025,58],[114.14417248000007,22.28503992000003,58],[114.14417205000007,22.28503321000005,58],[114.14434760000006,22.285024840000062,58],[114.14434642000003,22.285000910000065,58],[114.14434628000004,22.28499449000003,58],[114.14413374000003,22.285002380000037,58],[114.14413374000003,22.285004300000026,58],[114.14369568000006,22.28502461000005,58],[114.1436947200001,22.285009160000072,58],[114.14422116000003,22.28498447000004,58],[114.14424780000002,22.284983220000072,58],[114.14425272000005,22.284983010000076,58],[114.14435721000007,22.284978670000044,58],[114.14435849000006,22.284998140000027,58],[114.14447955000003,22.284993100000065,58],[114.14448154000002,22.285021630000074,58],[114.14457905000006,22.28501749000003,58],[114.14464607000002,22.285015910000027,58],[114.14464608000003,22.285015910000027,58],[114.14464190000001,22.284930280000026,58],[114.14464190000001,22.284930270000075,58],[114.14463748000003,22.284927550000077,58],[114.1446257,22.284919740000078,58],[114.14461345000007,22.28491106000007,58],[114.1445995900001,22.284900810000067,58],[114.14458981000007,22.28489335000006,58],[114.14458219000005,22.284888760000058,58],[114.1445746500001,22.284877160000065,58],[114.14455972000007,22.284864060000075,58],[114.1445498700001,22.284855410000034,58],[114.14453927000011,22.284844320000047,58],[114.14451887000007,22.284845140000073,58],[114.14451795000002,22.284845180000048,58],[114.14451672000007,22.28484523000003,58],[114.14448854000011,22.284846360000074,58],[114.14447685000005,22.28484683000005,58],[114.1444763500001,22.284846850000065,58],[114.1444753400001,22.28484689000004,58],[114.14447117000009,22.28476199000005,58],[114.14441037000006,22.284764300000063,58],[114.14440983000009,22.284764320000022,58],[114.14438431000008,22.28476530000006,58],[114.1443516600001,22.284766540000078,58],[114.14429545000007,22.28476868000007,58],[114.14423779000003,22.284770880000053,58],[114.14418407000005,22.284772920000023,58],[114.14418346000002,22.28475977000005,58],[114.1441657900001,22.284760490000053,58],[114.14415541000005,22.284760920000053,58],[114.14414141000009,22.28476149000005,58],[114.1441384100001,22.28476162000004,58],[114.1441369800001,22.28476168000003,58],[114.14413402000002,22.28476180000007,58],[114.14412047000008,22.28476235000005,58],[114.14411453000002,22.28476260000008,58],[114.14410742000007,22.284762890000025,58],[114.14410011000007,22.284763190000035,58],[114.14409964000004,22.28476321000005,58],[114.14409961000001,22.28476321000005,58],[114.14409956000009,22.28476321000005,58],[114.1440921300001,22.28476352000007,58],[114.14409278000005,22.28477201000004,58],[114.14407143000005,22.284772910000072,58],[114.14407095000001,22.28476351000006,58],[114.14405226000008,22.284764650000056,58],[114.14403894000009,22.284765460000074,58],[114.14403847000005,22.28476549000004,58],[114.14403904000005,22.284783170000026,58],[114.14403120000009,22.284783480000044,58],[114.14402257000006,22.28478381000008,58],[114.14398245000007,22.284785370000066,58],[114.14397249000001,22.284785760000034,58],[114.14395752000007,22.28478634000004,58],[114.14393135000012,22.284787360000053,58],[114.14392031000011,22.284787780000045,58],[114.14392032,22.284787920000042,58],[114.14386662000004,22.28479001000005,58],[114.14386437000007,22.284790100000066,58],[114.14381356000001,22.284792070000037,58],[114.14380616000005,22.284792460000062,58],[114.14374823000003,22.284795470000063,58],[114.14371899000002,22.284797000000026,58],[114.14368886000011,22.284798570000078,58],[114.14368910000007,22.284805730000073,58],[114.14369021000005,22.284826530000032,58],[114.14369146000001,22.284849810000026,58],[114.1436928600001,22.28487597000003,58],[114.14369317,22.28488200000004,58],[114.14368794000006,22.28488224000006,58],[114.14368378000006,22.28488243000004,58],[114.14366080000002,22.284883560000026,58],[114.14365484000007,22.284883860000036,58],[114.14365584000006,22.284902140000042,58],[114.14365649000001,22.284914170000036,58],[114.14365740000005,22.28493104000006,58],[114.14365811000005,22.284944050000036,58],[114.1436584700001,22.28495066000005,58],[114.1436587500001,22.28495588000004,58],[114.14366186000007,22.284955740000044,58],[114.1436620400001,22.284959230000027,58],[114.14366300000006,22.284977990000073,58],[114.14366336,22.28498491000005,58],[114.14366410000002,22.284999490000075,58],[114.14366550000011,22.28502676000005,58],[114.1436571700001,22.285027110000044,58],[114.1436593200001,22.285064110000064,58]]]},"geometry_name":"shape","properties":{"level_id":"2f7a459c-e7ff-42bc-bbd3-07b8b5bb4831","level_floorpolyid":"F3289716223P2006031201000300","level_ordinal":3,"level_z_value":58,"level_name_en":"1st Floor","level_name_zh":"一樓","level_short_name_en":"1/F","level_category":"unspecified","level_restriction":null,"level_outdoor":0,"venue_id":"468dc65e-e6fd-4312-9925-59016a938d36","venue_category":"healthcarefacility","venue_name_en":"Sai Ying Pun Community Complex","venue_name_zh":"西營盤社區綜合大樓","venue_alt_name":null,"venue_restriction":null,"venue_hours":null,"venue_website":null,"venue_phone":null,"address_address":"2 HIGH STREET","address_unit":null,"address_locality":"CENTRAL & WESTERN DISTRICT","building_id":"d505dc27-3394-4458-8d4b-980fe411c365,2dffe1c9-0ade-4981-9afe-fa12713bde47","building_category":"unspecified,unspecified","building_name_en":"Sai Ying Pun Community Complex,Sai Ying Pun Community Complex Podium","building_name_zh":"西營盤社區綜合大樓,西營盤社區綜合大樓平台","building_alt_name":null,"building_restriction":",","bbox":[114.14365484000007,22.28475977000005,114.14464608000003,22.285064110000064]}}]}