{"type":"FeatureCollection","features":[{"type":"Feature","id":"opening_line.303224","geometry":{"type":"LineString","coordinates":[[114.14409515000011,22.284807440000066,52.5],[114.14409567000007,22.284815880000053,52.5]]},"geometry_name":"shape","properties":{"opening_id":"4f191031-cd4a-43d4-8c24-fb764ca85605","opening_category":"pedestrian","opening_accessibility":null,"opening_access_control":null,"opening_door_automatic":"No","opening_door_material":null,"opening_door_type":null,"opening_name":null,"opening_alt_name":null,"opening_display_height":null,"level_id":"b6e6d6b0-52ff-4678-af80-7c7a7cdadd85","level_floorpolyid":"F3289716223P2006031201000200","level_ordinal":2,"level_z_value":52.5,"level_name_en":"Ground Floor","level_name_zh":"地下","level_short_name_en":"G/F","venue_id":"468dc65e-e6fd-4312-9925-59016a938d36","building_id":"d505dc27-3394-4458-8d4b-980fe411c365,2dffe1c9-0ade-4981-9afe-fa12713bde47","bbox":[114.14409515000011,22.284807440000066,114.14409567000007,22.284815880000053]}},{"type":"Feature","id":"opening_line.303227","geometry":{"type":"LineString","coordinates":[[114.14407232000008,22.284803710000062,52.5],[114.14407298000003,22.284817170000053,52.5]]},"geometry_name":"shape","properties":{"opening_id":"14e0949f-503c-476d-a05b-b525803e80a2","opening_category":"pedestrian","opening_accessibility":null,"opening_access_control":null,"opening_door_automatic":"No","opening_door_material":null,"opening_door_type":null,"opening_name":null,"opening_alt_name":null,"opening_display_height":null,"level_id":"b6e6d6b0-52ff-4678-af80-7c7a7cdadd85","level_floorpolyid":"F3289716223P2006031201000200","level_ordinal":2,"level_z_value":52.5,"level_name_en":"Ground Floor","level_name_zh":"地下","level_short_name_en":"G/F","venue_id":"468dc65e-e6fd-4312-9925-59016a938d36","building_id":"d505dc27-3394-4458-8d4b-980fe411c365,2dffe1c9-0ade-4981-9afe-fa12713bde47","bbox":[114.14407232000008,22.284803710000062,114.14407298000003,22.284817170000053]}},{"type":"Feature","id":"opening_line.303229","geometry":{"type":"LineString","coordinates":[[114.14407345000006,22.28482665000007,52.5],[114.14407411000002,22.284840260000067,52.5]]},"geometry_name":"shape","properties":{"opening_id":"734eb1d5-9963-402e-b2c8-44e8faee60c6","opening_category":"pedestrian","opening_accessibility":null,"opening_access_control":null,"opening_door_automatic":"No","opening_door_material":null,"opening_door_type":null,"opening_name":null,"opening_alt_name":null,"opening_display_height":null,"level_id":"b6e6d6b0-52ff-4678-af80-7c7a7cdadd85","level_floorpolyid":"F3289716223P2006031201000200","level_ordinal":2,"level_z_value":52.5,"level_name_en":"Ground Floor","level_name_zh":"地下","level_short_name_en":"G/F","venue_id":"468dc65e-e6fd-4312-9925-59016a938d36","building_id":"d505dc27-3394-4458-8d4b-980fe411c365,2dffe1c9-0ade-4981-9afe-fa12713bde47","bbox":[114.14407345000006,22.28482665000007,114.14407411000002,22.284840260000067]}},{"type":"Feature","id":"opening_line.303231","geometry":{"type":"LineString","coordinates":[[114.14407195000001,22.284795400000064,52.5],[114.14407202000007,22.28478608000006,52.5]]},"geometry_name":"shape","properties":{"opening_id":"194d0ea6-7c54-4422-be92-cf9fe8e2b584","opening_category":"pedestrian","opening_accessibility":null,"opening_access_control":null,"opening_door_automatic":"No","opening_door_material":null,"opening_door_type":null,"opening_name":null,"opening_alt_name":null,"opening_display_height":null,"level_id":"b6e6d6b0-52ff-4678-af80-7c7a7cdadd85","level_floorpolyid":"F3289716223P2006031201000200","level_ordinal":2,"level_z_value":52.5,"level_name_en":"Ground Floor","level_name_zh":"地下","level_short_name_en":"G/F","venue_id":"468dc65e-e6fd-4312-9925-59016a938d36","building_id":"d505dc27-3394-4458-8d4b-980fe411c365,2dffe1c9-0ade-4981-9afe-fa12713bde47","bbox":[114.14407195000001,22.28478608000006,114.14407202000007,22.284795400000064]}},{"type":"Feature","id":"opening_line.303233","geometry":{"type":"LineString","coordinates":[[114.14409616000012,22.284823780000067,52.5],[114.14409691000003,22.284835970000074,52.5]]},"geometry_name":"shape","properties":{"opening_id":"3dcee69b-7caa-4c1d-aa1c-7ce56d3aa594","opening_category":"pedestrian","opening_accessibility":null,"opening_access_control":null,"opening_door_automatic":"No","opening_door_material":null,"opening_door_type":null,"opening_name":null,"opening_alt_name":null,"opening_display_height":null,"level_id":"b6e6d6b0-52ff-4678-af80-7c7a7cdadd85","level_floorpolyid":"F3289716223P2006031201000200","level_ordinal":2,"level_z_value":52.5,"level_name_en":"Ground Floor","level_name_zh":"地下","level_short_name_en":"G/F","venue_id":"468dc65e-e6fd-4312-9925-59016a938d36","building_id":"d505dc27-3394-4458-8d4b-980fe411c365,2dffe1c9-0ade-4981-9afe-fa12713bde47","bbox":[114.14409616000012,22.284823780000067,114.14409691000003,22.284835970000074]}},{"type":"Feature","id":"opening_line.303235","geometry":{"type":"LineString","coordinates":[[114.14407458000005,22.284849720000068,52.5],[114.14407524,22.284863150000035,52.5]]},"geometry_name":"shape","properties":{"opening_id":"31e06d0b-3322-4b32-b9dc-edfe2fa7415b","opening_category":"pedestrian","opening_accessibility":null,"opening_access_control":null,"opening_door_automatic":"No","opening_door_material":null,"opening_door_type":null,"opening_name":null,"opening_alt_name":null,"opening_display_height":null,"level_id":"b6e6d6b0-52ff-4678-af80-7c7a7cdadd85","level_floorpolyid":"F3289716223P2006031201000200","level_ordinal":2,"level_z_value":52.5,"level_name_en":"Ground Floor","level_name_zh":"地下","level_short_name_en":"G/F","venue_id":"468dc65e-e6fd-4312-9925-59016a938d36","building_id":"d505dc27-3394-4458-8d4b-980fe411c365,2dffe1c9-0ade-4981-9afe-fa12713bde47","bbox":[114.14407458000005,22.284849720000068,114.14407524,22.284863150000035]}},{"type":"Feature","id":"opening_line.303237","geometry":{"type":"LineString","coordinates":[[114.14409759000011,22.28484700000007,52.5],[114.14409833000002,22.284859050000023,52.5]]},"geometry_name":"shape","properties":{"opening_id":"832021d9-3e81-49e4-9e4d-93153580386e","opening_category":"pedestrian","opening_accessibility":null,"opening_access_control":null,"opening_door_automatic":"No","opening_door_material":null,"opening_door_type":null,"opening_name":null,"opening_alt_name":null,"opening_display_height":null,"level_id":"b6e6d6b0-52ff-4678-af80-7c7a7cdadd85","level_floorpolyid":"F3289716223P2006031201000200","level_ordinal":2,"level_z_value":52.5,"level_name_en":"Ground Floor","level_name_zh":"地下","level_short_name_en":"G/F","venue_id":"468dc65e-e6fd-4312-9925-59016a938d36","building_id":"d505dc27-3394-4458-8d4b-980fe411c365,2dffe1c9-0ade-4981-9afe-fa12713bde47","bbox":[114.14409759000011,22.28484700000007,114.14409833000002,22.284859050000023]}},{"type":"Feature","id":"opening_line.303239","geometry":{"type":"LineString","coordinates":[[114.14407446000007,22.284825510000076,58],[114.14407517000006,22.284840200000076,58]]},"geometry_name":"shape","properties":{"opening_id":"55409862-bb9c-4aef-8a87-27a097f87b57","opening_category":"pedestrian","opening_accessibility":null,"opening_access_control":null,"opening_door_automatic":"No","opening_door_material":null,"opening_door_type":null,"opening_name":null,"opening_alt_name":null,"opening_display_height":null,"level_id":"2f7a459c-e7ff-42bc-bbd3-07b8b5bb4831","level_floorpolyid":"F3289716223P2006031201000300","level_ordinal":3,"level_z_value":58,"level_name_en":"1st Floor","level_name_zh":"一樓","level_short_name_en":"1/F","venue_id":"468dc65e-e6fd-4312-9925-59016a938d36","building_id":"d505dc27-3394-4458-8d4b-980fe411c365,2dffe1c9-0ade-4981-9afe-fa12713bde47","bbox":[114.14407446000007,22.284825510000076,114.14407517000006,22.284840200000076]}},{"type":"Feature","id":"opening_line.303241","geometry":{"type":"LineString","coordinates":[[114.1440957100001,22.284822830000053,58],[114.14409637000006,22.284835500000042,58]]},"geometry_name":"shape","properties":{"opening_id":"30593eee-9174-4155-a75c-aeba44845385","opening_category":"pedestrian","opening_accessibility":null,"opening_access_control":null,"opening_door_automatic":"No","opening_door_material":null,"opening_door_type":null,"opening_name":null,"opening_alt_name":null,"opening_display_height":null,"level_id":"2f7a459c-e7ff-42bc-bbd3-07b8b5bb4831","level_floorpolyid":"F3289716223P2006031201000300","level_ordinal":3,"level_z_value":58,"level_name_en":"1st Floor","level_name_zh":"一樓","level_short_name_en":"1/F","venue_id":"468dc65e-e6fd-4312-9925-59016a938d36","building_id":"d505dc27-3394-4458-8d4b-980fe411c365,2dffe1c9-0ade-4981-9afe-fa12713bde47","bbox":[114.1440957100001,22.284822830000053,114.14409637000006,22.284835500000042]}},{"type":"Feature","id":"opening_line.303243","geometry":{"type":"LineString","coordinates":[[114.14407337000011,22.284802720000073,58],[114.1440740600001,22.284816980000073,58]]},"geometry_name":"shape","properties":{"opening_id":"0aab9d84-1c9f-4baa-ad52-7d0cd6f40a43","opening_category":"pedestrian","opening_accessibility":null,"opening_access_control":null,"opening_door_automatic":"No","opening_door_material":null,"opening_door_type":null,"opening_name":null,"opening_alt_name":null,"opening_display_height":null,"level_id":"2f7a459c-e7ff-42bc-bbd3-07b8b5bb4831","level_floorpolyid":"F3289716223P2006031201000300","level_ordinal":3,"level_z_value":58,"level_name_en":"1st Floor","level_name_zh":"一樓","level_short_name_en":"1/F","venue_id":"468dc65e-e6fd-4312-9925-59016a938d36","building_id":"d505dc27-3394-4458-8d4b-980fe411c365,2dffe1c9-0ade-4981-9afe-fa12713bde47","bbox":[114.14407337000011,22.284802720000073,114.1440740600001,22.284816980000073]}},{"type":"Feature","id":"opening_line.303245","geometry":{"type":"LineString","coordinates":[[114.14409691000003,22.28484583000005,58],[114.14409756000009,22.28485831000006,58]]},"geometry_name":"shape","properties":{"opening_id":"260586a3-fadb-40f8-950e-0f6bf8b2efe5","opening_category":"pedestrian","opening_accessibility":null,"opening_access_control":null,"opening_door_automatic":"No","opening_door_material":null,"opening_door_type":null,"opening_name":null,"opening_alt_name":null,"opening_display_height":null,"level_id":"2f7a459c-e7ff-42bc-bbd3-07b8b5bb4831","level_floorpolyid":"F3289716223P2006031201000300","level_ordinal":3,"level_z_value":58,"level_name_en":"1st Floor","level_name_zh":"一樓","level_short_name_en":"1/F","venue_id":"468dc65e-e6fd-4312-9925-59016a938d36","building_id":"d505dc27-3394-4458-8d4b-980fe411c365,2dffe1c9-0ade-4981-9afe-fa12713bde47","bbox":[114.14409691000003,22.28484583000005,114.14409756000009,22.28485831000006]}},{"type":"Feature","id":"opening_line.303247","geometry":{"type":"LineString","coordinates":[[114.14407987000004,22.284861440000043,58],[114.14409515000011,22.28486084000008,58]]},"geometry_name":"shape","properties":{"opening_id":"d52c7b49-b49a-4054-9c7f-78c0f3de7511","opening_category":"pedestrian","opening_accessibility":null,"opening_access_control":null,"opening_door_automatic":"No","opening_door_material":null,"opening_door_type":null,"opening_name":null,"opening_alt_name":null,"opening_display_height":null,"level_id":"2f7a459c-e7ff-42bc-bbd3-07b8b5bb4831","level_floorpolyid":"F3289716223P2006031201000300","level_ordinal":3,"level_z_value":58,"level_name_en":"1st Floor","level_name_zh":"一樓","level_short_name_en":"1/F","venue_id":"468dc65e-e6fd-4312-9925-59016a938d36","building_id":"d505dc27-3394-4458-8d4b-980fe411c365,2dffe1c9-0ade-4981-9afe-fa12713bde47","bbox":[114.14407987000004,22.28486084000008,114.14409515000011,22.284861440000043]}},{"type":"Feature","id":"opening_line.303249","geometry":{"type":"LineString","coordinates":[[114.14407557000004,22.28484867000003,58],[114.14407625000001,22.284862710000027,58]]},"geometry_name":"shape","properties":{"opening_id":"c82805ef-3974-4105-b559-18869bd87527","opening_category":"pedestrian","opening_accessibility":null,"opening_access_control":null,"opening_door_automatic":"No","opening_door_material":null,"opening_door_type":null,"opening_name":null,"opening_alt_name":null,"opening_display_height":null,"level_id":"2f7a459c-e7ff-42bc-bbd3-07b8b5bb4831","level_floorpolyid":"F3289716223P2006031201000300","level_ordinal":3,"level_z_value":58,"level_name_en":"1st Floor","level_name_zh":"一樓","level_short_name_en":"1/F","venue_id":"468dc65e-e6fd-4312-9925-59016a938d36","building_id":"d505dc27-3394-4458-8d4b-980fe411c365,2dffe1c9-0ade-4981-9afe-fa12713bde47","bbox":[114.14407557000004,22.28484867000003,114.14407625000001,22.284862710000027]}}]}