{"type":"FeatureCollection","features":[{"type":"Feature","id":"amenity_point.42633","geometry":{"type":"Point","coordinates":[114.16034663000005,22.331789050000054,8.69999999999709]},"geometry_name":"shape","properties":{"amenity_id":"d612cd3c-f3bf-484d-a533-831f02b24734","amenity_category":"elevator","amenity_name_en":"LIFT 16","amenity_name_zh":"升降機","amenity_alt_name":null,"amenity_accessibility":null,"amenity_phone":null,"amenity_website":null,"amenity_hours":null,"amenity_correlation_id":null,"unit_id":"387a2b8a-ea82-4329-9284-4d373cc00140","level_id":"efa3b69e-2bed-4508-bd74-461aeaadd2a4","level_floorpolyid":"F3456021411P2006031101000100","level_ordinal":1,"level_z_value":8.7,"level_name_en":"1ST FLOOR","level_name_zh":null,"level_short_name_en":"1/F","venue_id":"bd9576da-e2d9-47ff-9ab1-447a54ddff47","building_id":"1237fb23-4f64-4512-be03-9991c720e20f","bbox":[114.16034663000005,22.331789050000054,114.16034663000005,22.331789050000054]}},{"type":"Feature","id":"amenity_point.42634","geometry":{"type":"Point","coordinates":[114.16036459000009,22.33180905000006,8.69999999999709]},"geometry_name":"shape","properties":{"amenity_id":"c8f068b6-c852-4447-965e-69106a461bb1","amenity_category":"elevator","amenity_name_en":"LIFT 15","amenity_name_zh":"升降機","amenity_alt_name":null,"amenity_accessibility":null,"amenity_phone":null,"amenity_website":null,"amenity_hours":null,"amenity_correlation_id":null,"unit_id":"7b4dfca0-6800-4b8f-a011-8ebfac23cbb4","level_id":"efa3b69e-2bed-4508-bd74-461aeaadd2a4","level_floorpolyid":"F3456021411P2006031101000100","level_ordinal":1,"level_z_value":8.7,"level_name_en":"1ST FLOOR","level_name_zh":null,"level_short_name_en":"1/F","venue_id":"bd9576da-e2d9-47ff-9ab1-447a54ddff47","building_id":"1237fb23-4f64-4512-be03-9991c720e20f","bbox":[114.16036459000009,22.33180905000006,114.16036459000009,22.33180905000006]}},{"type":"Feature","id":"amenity_point.42635","geometry":{"type":"Point","coordinates":[114.16058011000007,22.33176283000006,8.69999999999709]},"geometry_name":"shape","properties":{"amenity_id":"e01ae846-f901-4ef4-8d1f-30ebf99bc0ed","amenity_category":"elevator","amenity_name_en":"LIFT 1","amenity_name_zh":"升降機","amenity_alt_name":null,"amenity_accessibility":null,"amenity_phone":null,"amenity_website":null,"amenity_hours":null,"amenity_correlation_id":null,"unit_id":"03497c62-7ed9-42d4-90cb-cfd711276583","level_id":"efa3b69e-2bed-4508-bd74-461aeaadd2a4","level_floorpolyid":"F3456021411P2006031101000100","level_ordinal":1,"level_z_value":8.7,"level_name_en":"1ST FLOOR","level_name_zh":null,"level_short_name_en":"1/F","venue_id":"bd9576da-e2d9-47ff-9ab1-447a54ddff47","building_id":"1237fb23-4f64-4512-be03-9991c720e20f","bbox":[114.16058011000007,22.33176283000006,114.16058011000007,22.33176283000006]}},{"type":"Feature","id":"amenity_point.42636","geometry":{"type":"Point","coordinates":[114.16056931000003,22.331684110000026,8.69999999999709]},"geometry_name":"shape","properties":{"amenity_id":"f7e35b9f-104b-4a82-b4ac-405f95f715c4","amenity_category":"elevator","amenity_name_en":"LIFT 19","amenity_name_zh":"升降機","amenity_alt_name":null,"amenity_accessibility":null,"amenity_phone":null,"amenity_website":null,"amenity_hours":null,"amenity_correlation_id":null,"unit_id":"1b43c040-86e8-49b8-bd59-908197aeddf0","level_id":"efa3b69e-2bed-4508-bd74-461aeaadd2a4","level_floorpolyid":"F3456021411P2006031101000100","level_ordinal":1,"level_z_value":8.7,"level_name_en":"1ST FLOOR","level_name_zh":null,"level_short_name_en":"1/F","venue_id":"bd9576da-e2d9-47ff-9ab1-447a54ddff47","building_id":"1237fb23-4f64-4512-be03-9991c720e20f","bbox":[114.16056931000003,22.331684110000026,114.16056931000003,22.331684110000026]}},{"type":"Feature","id":"amenity_point.42637","geometry":{"type":"Point","coordinates":[114.16055382000002,22.331666950000056,8.69999999999709]},"geometry_name":"shape","properties":{"amenity_id":"46b7d345-3259-4d25-8746-c5c0e1e449ea","amenity_category":"elevator","amenity_name_en":"LIFT 20","amenity_name_zh":"升降機","amenity_alt_name":null,"amenity_accessibility":null,"amenity_phone":null,"amenity_website":null,"amenity_hours":null,"amenity_correlation_id":null,"unit_id":"2dd2b07e-de74-4450-a6d3-d6859bea855b","level_id":"efa3b69e-2bed-4508-bd74-461aeaadd2a4","level_floorpolyid":"F3456021411P2006031101000100","level_ordinal":1,"level_z_value":8.7,"level_name_en":"1ST FLOOR","level_name_zh":null,"level_short_name_en":"1/F","venue_id":"bd9576da-e2d9-47ff-9ab1-447a54ddff47","building_id":"1237fb23-4f64-4512-be03-9991c720e20f","bbox":[114.16055382000002,22.331666950000056,114.16055382000002,22.331666950000056]}},{"type":"Feature","id":"amenity_point.42638","geometry":{"type":"Point","coordinates":[114.16051438000011,22.33175446000007,8.69999999999709]},"geometry_name":"shape","properties":{"amenity_id":"bf35558d-71e6-40ad-8b00-eb1719e3cf98","amenity_category":"escalator","amenity_name_en":"E3","amenity_name_zh":"扶手電梯","amenity_alt_name":null,"amenity_accessibility":null,"amenity_phone":null,"amenity_website":null,"amenity_hours":null,"amenity_correlation_id":null,"unit_id":"eee3ce0c-2fdd-4944-889c-1a5b6a591a42","level_id":"efa3b69e-2bed-4508-bd74-461aeaadd2a4","level_floorpolyid":"F3456021411P2006031101000100","level_ordinal":1,"level_z_value":8.7,"level_name_en":"1ST FLOOR","level_name_zh":null,"level_short_name_en":"1/F","venue_id":"bd9576da-e2d9-47ff-9ab1-447a54ddff47","building_id":"1237fb23-4f64-4512-be03-9991c720e20f","bbox":[114.16051438000011,22.33175446000007,114.16051438000011,22.33175446000007]}},{"type":"Feature","id":"amenity_point.42639","geometry":{"type":"Point","coordinates":[114.16047999000011,22.33171679000003,8.69999999999709]},"geometry_name":"shape","properties":{"amenity_id":"c08463e0-508b-4f54-a5a5-02cc6a8e8d90","amenity_category":"escalator","amenity_name_en":"E1","amenity_name_zh":"扶手電梯","amenity_alt_name":null,"amenity_accessibility":null,"amenity_phone":null,"amenity_website":null,"amenity_hours":null,"amenity_correlation_id":null,"unit_id":"3bd06f05-e154-40cf-862f-05c5c358a173","level_id":"efa3b69e-2bed-4508-bd74-461aeaadd2a4","level_floorpolyid":"F3456021411P2006031101000100","level_ordinal":1,"level_z_value":8.7,"level_name_en":"1ST FLOOR","level_name_zh":null,"level_short_name_en":"1/F","venue_id":"bd9576da-e2d9-47ff-9ab1-447a54ddff47","building_id":"1237fb23-4f64-4512-be03-9991c720e20f","bbox":[114.16047999000011,22.33171679000003,114.16047999000011,22.33171679000003]}},{"type":"Feature","id":"amenity_point.42640","geometry":{"type":"Point","coordinates":[114.16033304000007,22.33187865000008,5.149999999994179]},"geometry_name":"shape","properties":{"amenity_id":"1e39d7c9-12f3-4fe1-9a1e-3733263ef4fb","amenity_category":"elevator","amenity_name_en":"LIFT 6","amenity_name_zh":"升降機","amenity_alt_name":null,"amenity_accessibility":null,"amenity_phone":null,"amenity_website":null,"amenity_hours":null,"amenity_correlation_id":null,"unit_id":"55d01ea2-15b7-4ca8-80cd-47e8a3501186","level_id":"216adbc9-b1fc-4a3c-98f1-2c35ca686816","level_floorpolyid":"F3456021411P2006031102000000","level_ordinal":0,"level_z_value":5.15,"level_name_en":"GROUND FLOOR","level_name_zh":null,"level_short_name_en":"G/F","venue_id":"bd9576da-e2d9-47ff-9ab1-447a54ddff47","building_id":"1237fb23-4f64-4512-be03-9991c720e20f","bbox":[114.16033304000007,22.33187865000008,114.16033304000007,22.33187865000008]}},{"type":"Feature","id":"amenity_point.42641","geometry":{"type":"Point","coordinates":[114.16028774000006,22.331913520000057,5.149999999994179]},"geometry_name":"shape","properties":{"amenity_id":"eb98d225-8276-4691-a6d7-f51dece855b6","amenity_category":"elevator","amenity_name_en":"LIFT 3","amenity_name_zh":"升降機","amenity_alt_name":null,"amenity_accessibility":null,"amenity_phone":null,"amenity_website":null,"amenity_hours":null,"amenity_correlation_id":null,"unit_id":"1690198f-6121-4154-90a8-350591a1b1ea","level_id":"216adbc9-b1fc-4a3c-98f1-2c35ca686816","level_floorpolyid":"F3456021411P2006031102000000","level_ordinal":0,"level_z_value":5.15,"level_name_en":"GROUND FLOOR","level_name_zh":null,"level_short_name_en":"G/F","venue_id":"bd9576da-e2d9-47ff-9ab1-447a54ddff47","building_id":"1237fb23-4f64-4512-be03-9991c720e20f","bbox":[114.16028774000006,22.331913520000057,114.16028774000006,22.331913520000057]}},{"type":"Feature","id":"amenity_point.42642","geometry":{"type":"Point","coordinates":[114.16029262000006,22.331833000000074,5.149999999994179]},"geometry_name":"shape","properties":{"amenity_id":"ee95f68d-49cc-4281-aaa3-9299909973c3","amenity_category":"elevator","amenity_name_en":"LIFT 8","amenity_name_zh":"升降機","amenity_alt_name":null,"amenity_accessibility":null,"amenity_phone":null,"amenity_website":null,"amenity_hours":null,"amenity_correlation_id":null,"unit_id":"d4adc262-b7c6-4a27-9a49-70a5e02d4472","level_id":"216adbc9-b1fc-4a3c-98f1-2c35ca686816","level_floorpolyid":"F3456021411P2006031102000000","level_ordinal":0,"level_z_value":5.15,"level_name_en":"GROUND FLOOR","level_name_zh":null,"level_short_name_en":"G/F","venue_id":"bd9576da-e2d9-47ff-9ab1-447a54ddff47","building_id":"1237fb23-4f64-4512-be03-9991c720e20f","bbox":[114.16029262000006,22.331833000000074,114.16029262000006,22.331833000000074]}},{"type":"Feature","id":"amenity_point.42643","geometry":{"type":"Point","coordinates":[114.16024731000005,22.331867860000045,5.149999999994179]},"geometry_name":"shape","properties":{"amenity_id":"2ee848b9-545c-45cc-814c-7b5629ca394d","amenity_category":"elevator","amenity_name_en":"LIFT 5","amenity_name_zh":"升降機","amenity_alt_name":null,"amenity_accessibility":null,"amenity_phone":null,"amenity_website":null,"amenity_hours":null,"amenity_correlation_id":null,"unit_id":"0096f661-00d3-4d15-877e-331ce00bdb97","level_id":"216adbc9-b1fc-4a3c-98f1-2c35ca686816","level_floorpolyid":"F3456021411P2006031102000000","level_ordinal":0,"level_z_value":5.15,"level_name_en":"GROUND FLOOR","level_name_zh":null,"level_short_name_en":"G/F","venue_id":"bd9576da-e2d9-47ff-9ab1-447a54ddff47","building_id":"1237fb23-4f64-4512-be03-9991c720e20f","bbox":[114.16024731000005,22.331867860000045,114.16024731000005,22.331867860000045]}},{"type":"Feature","id":"amenity_point.42644","geometry":{"type":"Point","coordinates":[114.16031286000009,22.331855860000076,5.149999999994179]},"geometry_name":"shape","properties":{"amenity_id":"8058dadd-6e98-4d2c-aaab-62ca0789a3d6","amenity_category":"elevator","amenity_name_en":"LIFT 7","amenity_name_zh":"升降機","amenity_alt_name":null,"amenity_accessibility":null,"amenity_phone":null,"amenity_website":null,"amenity_hours":null,"amenity_correlation_id":null,"unit_id":"adc123cc-fdb1-42c0-a6d1-e3e5057245fd","level_id":"216adbc9-b1fc-4a3c-98f1-2c35ca686816","level_floorpolyid":"F3456021411P2006031102000000","level_ordinal":0,"level_z_value":5.15,"level_name_en":"GROUND FLOOR","level_name_zh":null,"level_short_name_en":"G/F","venue_id":"bd9576da-e2d9-47ff-9ab1-447a54ddff47","building_id":"1237fb23-4f64-4512-be03-9991c720e20f","bbox":[114.16031286000009,22.331855860000076,114.16031286000009,22.331855860000076]}},{"type":"Feature","id":"amenity_point.42645","geometry":{"type":"Point","coordinates":[114.16026749000002,22.331890650000048,5.149999999994179]},"geometry_name":"shape","properties":{"amenity_id":"c036d302-71d7-42b6-a0ec-3419ce7799e0","amenity_category":"elevator","amenity_name_en":"LIFT 4","amenity_name_zh":"升降機","amenity_alt_name":null,"amenity_accessibility":null,"amenity_phone":null,"amenity_website":null,"amenity_hours":null,"amenity_correlation_id":null,"unit_id":"60833096-54d6-4942-9d88-e3fc6b873d99","level_id":"216adbc9-b1fc-4a3c-98f1-2c35ca686816","level_floorpolyid":"F3456021411P2006031102000000","level_ordinal":0,"level_z_value":5.15,"level_name_en":"GROUND FLOOR","level_name_zh":null,"level_short_name_en":"G/F","venue_id":"bd9576da-e2d9-47ff-9ab1-447a54ddff47","building_id":"1237fb23-4f64-4512-be03-9991c720e20f","bbox":[114.16026749000002,22.331890650000048,114.16026749000002,22.331890650000048]}},{"type":"Feature","id":"amenity_point.42646","geometry":{"type":"Point","coordinates":[114.16038508000008,22.33183666000008,5.149999999994179]},"geometry_name":"shape","properties":{"amenity_id":"de42e58b-b5bc-4951-80db-f8a9b78c9e0a","amenity_category":"stairs","amenity_name_en":"BST-8","amenity_name_zh":"樓梯","amenity_alt_name":null,"amenity_accessibility":null,"amenity_phone":null,"amenity_website":null,"amenity_hours":null,"amenity_correlation_id":null,"unit_id":"c1c8f1c5-2b0e-427b-95b9-67765b6914f4","level_id":"216adbc9-b1fc-4a3c-98f1-2c35ca686816","level_floorpolyid":"F3456021411P2006031102000000","level_ordinal":0,"level_z_value":5.15,"level_name_en":"GROUND FLOOR","level_name_zh":null,"level_short_name_en":"G/F","venue_id":"bd9576da-e2d9-47ff-9ab1-447a54ddff47","building_id":"1237fb23-4f64-4512-be03-9991c720e20f","bbox":[114.16038508000008,22.33183666000008,114.16038508000008,22.33183666000008]}},{"type":"Feature","id":"amenity_point.42647","geometry":{"type":"Point","coordinates":[114.16034663000005,22.331789050000054,5.149999999994179]},"geometry_name":"shape","properties":{"amenity_id":"4c61a17e-d1b5-4ba3-be7c-b34831cd3140","amenity_category":"elevator","amenity_name_en":"LIFT 16","amenity_name_zh":"升降機","amenity_alt_name":null,"amenity_accessibility":null,"amenity_phone":null,"amenity_website":null,"amenity_hours":null,"amenity_correlation_id":null,"unit_id":"71dc5f7e-5fdc-4bb0-83a1-81c98cda26d3","level_id":"216adbc9-b1fc-4a3c-98f1-2c35ca686816","level_floorpolyid":"F3456021411P2006031102000000","level_ordinal":0,"level_z_value":5.15,"level_name_en":"GROUND FLOOR","level_name_zh":null,"level_short_name_en":"G/F","venue_id":"bd9576da-e2d9-47ff-9ab1-447a54ddff47","building_id":"1237fb23-4f64-4512-be03-9991c720e20f","bbox":[114.16034663000005,22.331789050000054,114.16034663000005,22.331789050000054]}},{"type":"Feature","id":"amenity_point.42648","geometry":{"type":"Point","coordinates":[114.16036459000009,22.33180905000006,5.149999999994179]},"geometry_name":"shape","properties":{"amenity_id":"32c888a6-1f7c-4615-a9ec-85bc81a4c206","amenity_category":"elevator","amenity_name_en":"LIFT 15","amenity_name_zh":"升降機","amenity_alt_name":null,"amenity_accessibility":null,"amenity_phone":null,"amenity_website":null,"amenity_hours":null,"amenity_correlation_id":null,"unit_id":"cc389afc-c286-4c54-9c2b-6b3c0c7dfecd","level_id":"216adbc9-b1fc-4a3c-98f1-2c35ca686816","level_floorpolyid":"F3456021411P2006031102000000","level_ordinal":0,"level_z_value":5.15,"level_name_en":"GROUND FLOOR","level_name_zh":null,"level_short_name_en":"G/F","venue_id":"bd9576da-e2d9-47ff-9ab1-447a54ddff47","building_id":"1237fb23-4f64-4512-be03-9991c720e20f","bbox":[114.16036459000009,22.33180905000006,114.16036459000009,22.33180905000006]}},{"type":"Feature","id":"amenity_point.42649","geometry":{"type":"Point","coordinates":[114.1604547500001,22.331784500000026,5.149999999994179]},"geometry_name":"shape","properties":{"amenity_id":"ecb22506-5093-4f92-9825-f3e5390220da","amenity_category":"elevator","amenity_name_en":"LIFT 12","amenity_name_zh":"升降機","amenity_alt_name":null,"amenity_accessibility":null,"amenity_phone":null,"amenity_website":null,"amenity_hours":null,"amenity_correlation_id":null,"unit_id":"05bb2511-acea-4795-b429-b50b6325b6ef","level_id":"216adbc9-b1fc-4a3c-98f1-2c35ca686816","level_floorpolyid":"F3456021411P2006031102000000","level_ordinal":0,"level_z_value":5.15,"level_name_en":"GROUND FLOOR","level_name_zh":null,"level_short_name_en":"G/F","venue_id":"bd9576da-e2d9-47ff-9ab1-447a54ddff47","building_id":"1237fb23-4f64-4512-be03-9991c720e20f","bbox":[114.1604547500001,22.331784500000026,114.1604547500001,22.331784500000026]}},{"type":"Feature","id":"amenity_point.42650","geometry":{"type":"Point","coordinates":[114.16041002000009,22.331819100000075,5.149999999994179]},"geometry_name":"shape","properties":{"amenity_id":"b0198c38-6125-48c7-a5e4-4eac7b4475e6","amenity_category":"elevator","amenity_name_en":"LIFT 9","amenity_name_zh":"升降機","amenity_alt_name":null,"amenity_accessibility":null,"amenity_phone":null,"amenity_website":null,"amenity_hours":null,"amenity_correlation_id":null,"unit_id":"867b6130-3207-43b3-972b-5be580ab3b6a","level_id":"216adbc9-b1fc-4a3c-98f1-2c35ca686816","level_floorpolyid":"F3456021411P2006031102000000","level_ordinal":0,"level_z_value":5.15,"level_name_en":"GROUND FLOOR","level_name_zh":null,"level_short_name_en":"G/F","venue_id":"bd9576da-e2d9-47ff-9ab1-447a54ddff47","building_id":"1237fb23-4f64-4512-be03-9991c720e20f","bbox":[114.16041002000009,22.331819100000075,114.16041002000009,22.331819100000075]}},{"type":"Feature","id":"amenity_point.42651","geometry":{"type":"Point","coordinates":[114.16041401000007,22.33173916000004,5.149999999994179]},"geometry_name":"shape","properties":{"amenity_id":"8045c38e-f267-4985-be20-bb4f62349c16","amenity_category":"elevator","amenity_name_en":"LIFT 14","amenity_name_zh":"升降機","amenity_alt_name":null,"amenity_accessibility":null,"amenity_phone":null,"amenity_website":null,"amenity_hours":null,"amenity_correlation_id":null,"unit_id":"858b4243-064d-414e-9353-f8ddc9a65005","level_id":"216adbc9-b1fc-4a3c-98f1-2c35ca686816","level_floorpolyid":"F3456021411P2006031102000000","level_ordinal":0,"level_z_value":5.15,"level_name_en":"GROUND FLOOR","level_name_zh":null,"level_short_name_en":"G/F","venue_id":"bd9576da-e2d9-47ff-9ab1-447a54ddff47","building_id":"1237fb23-4f64-4512-be03-9991c720e20f","bbox":[114.16041401000007,22.33173916000004,114.16041401000007,22.33173916000004]}},{"type":"Feature","id":"amenity_point.42652","geometry":{"type":"Point","coordinates":[114.16036912000004,22.33177359000007,5.149999999994179]},"geometry_name":"shape","properties":{"amenity_id":"016592cb-995a-432f-bcc6-69430c7eb6ea","amenity_category":"elevator","amenity_name_en":"LIFT 11","amenity_name_zh":"升降機","amenity_alt_name":null,"amenity_accessibility":null,"amenity_phone":null,"amenity_website":null,"amenity_hours":null,"amenity_correlation_id":null,"unit_id":"b887a9a6-c118-45f7-b073-0db434754f17","level_id":"216adbc9-b1fc-4a3c-98f1-2c35ca686816","level_floorpolyid":"F3456021411P2006031102000000","level_ordinal":0,"level_z_value":5.15,"level_name_en":"GROUND FLOOR","level_name_zh":null,"level_short_name_en":"G/F","venue_id":"bd9576da-e2d9-47ff-9ab1-447a54ddff47","building_id":"1237fb23-4f64-4512-be03-9991c720e20f","bbox":[114.16036912000004,22.33177359000007,114.16036912000004,22.33177359000007]}},{"type":"Feature","id":"amenity_point.42653","geometry":{"type":"Point","coordinates":[114.16043433000004,22.331761810000046,5.149999999994179]},"geometry_name":"shape","properties":{"amenity_id":"5061d402-69c9-46ef-8b07-a8199ade0e0f","amenity_category":"elevator","amenity_name_en":"LIFT 13","amenity_name_zh":"升降機","amenity_alt_name":null,"amenity_accessibility":null,"amenity_phone":null,"amenity_website":null,"amenity_hours":null,"amenity_correlation_id":null,"unit_id":"94a44623-17ec-4ca8-a979-e99b373a07a5","level_id":"216adbc9-b1fc-4a3c-98f1-2c35ca686816","level_floorpolyid":"F3456021411P2006031102000000","level_ordinal":0,"level_z_value":5.15,"level_name_en":"GROUND FLOOR","level_name_zh":null,"level_short_name_en":"G/F","venue_id":"bd9576da-e2d9-47ff-9ab1-447a54ddff47","building_id":"1237fb23-4f64-4512-be03-9991c720e20f","bbox":[114.16043433000004,22.331761810000046,114.16043433000004,22.331761810000046]}},{"type":"Feature","id":"amenity_point.42654","geometry":{"type":"Point","coordinates":[114.16038953000009,22.33179634000004,5.149999999994179]},"geometry_name":"shape","properties":{"amenity_id":"bd30592e-93d3-49c0-a2c0-e000360c379e","amenity_category":"elevator","amenity_name_en":"LIFT 10","amenity_name_zh":"升降機","amenity_alt_name":null,"amenity_accessibility":null,"amenity_phone":null,"amenity_website":null,"amenity_hours":null,"amenity_correlation_id":null,"unit_id":"3fa3397d-671b-4e85-ad99-ae084b030f3e","level_id":"216adbc9-b1fc-4a3c-98f1-2c35ca686816","level_floorpolyid":"F3456021411P2006031102000000","level_ordinal":0,"level_z_value":5.15,"level_name_en":"GROUND FLOOR","level_name_zh":null,"level_short_name_en":"G/F","venue_id":"bd9576da-e2d9-47ff-9ab1-447a54ddff47","building_id":"1237fb23-4f64-4512-be03-9991c720e20f","bbox":[114.16038953000009,22.33179634000004,114.16038953000009,22.33179634000004]}},{"type":"Feature","id":"amenity_point.42655","geometry":{"type":"Point","coordinates":[114.16058011000007,22.33176283000006,5.149999999994179]},"geometry_name":"shape","properties":{"amenity_id":"f5678cf0-d26b-4443-a8de-4d30d98d7577","amenity_category":"elevator","amenity_name_en":"LIFT 1","amenity_name_zh":"升降機","amenity_alt_name":null,"amenity_accessibility":null,"amenity_phone":null,"amenity_website":null,"amenity_hours":null,"amenity_correlation_id":null,"unit_id":"3c0e2302-a0e5-44d7-8082-3610daa849e7","level_id":"216adbc9-b1fc-4a3c-98f1-2c35ca686816","level_floorpolyid":"F3456021411P2006031102000000","level_ordinal":0,"level_z_value":5.15,"level_name_en":"GROUND FLOOR","level_name_zh":null,"level_short_name_en":"G/F","venue_id":"bd9576da-e2d9-47ff-9ab1-447a54ddff47","building_id":"1237fb23-4f64-4512-be03-9991c720e20f","bbox":[114.16058011000007,22.33176283000006,114.16058011000007,22.33176283000006]}},{"type":"Feature","id":"amenity_point.42656","geometry":{"type":"Point","coordinates":[114.16056932000004,22.331684110000026,5.149999999994179]},"geometry_name":"shape","properties":{"amenity_id":"ebfdfcca-9497-4f97-81d4-36c2679d1f18","amenity_category":"elevator","amenity_name_en":"LIFT 19","amenity_name_zh":"升降機","amenity_alt_name":null,"amenity_accessibility":null,"amenity_phone":null,"amenity_website":null,"amenity_hours":null,"amenity_correlation_id":null,"unit_id":"5187c44c-a34b-4c02-a58a-54b89e04c28d","level_id":"216adbc9-b1fc-4a3c-98f1-2c35ca686816","level_floorpolyid":"F3456021411P2006031102000000","level_ordinal":0,"level_z_value":5.15,"level_name_en":"GROUND FLOOR","level_name_zh":null,"level_short_name_en":"G/F","venue_id":"bd9576da-e2d9-47ff-9ab1-447a54ddff47","building_id":"1237fb23-4f64-4512-be03-9991c720e20f","bbox":[114.16056932000004,22.331684110000026,114.16056932000004,22.331684110000026]}},{"type":"Feature","id":"amenity_point.42657","geometry":{"type":"Point","coordinates":[114.16055382000002,22.331666950000056,5.149999999994179]},"geometry_name":"shape","properties":{"amenity_id":"e16a0d10-3503-4cd3-acf9-deb9f1ebc952","amenity_category":"elevator","amenity_name_en":"LIFT 20","amenity_name_zh":"升降機","amenity_alt_name":null,"amenity_accessibility":null,"amenity_phone":null,"amenity_website":null,"amenity_hours":null,"amenity_correlation_id":null,"unit_id":"8e93af8d-5d83-4e8a-9399-a05051117cf4","level_id":"216adbc9-b1fc-4a3c-98f1-2c35ca686816","level_floorpolyid":"F3456021411P2006031102000000","level_ordinal":0,"level_z_value":5.15,"level_name_en":"GROUND FLOOR","level_name_zh":null,"level_short_name_en":"G/F","venue_id":"bd9576da-e2d9-47ff-9ab1-447a54ddff47","building_id":"1237fb23-4f64-4512-be03-9991c720e20f","bbox":[114.16055382000002,22.331666950000056,114.16055382000002,22.331666950000056]}},{"type":"Feature","id":"amenity_point.42658","geometry":{"type":"Point","coordinates":[114.1605142200001,22.331754730000057,5.149999999994179]},"geometry_name":"shape","properties":{"amenity_id":"1d1acc0c-895c-4b05-8c2f-4b9cea3ab627","amenity_category":"escalator","amenity_name_en":"E1","amenity_name_zh":"扶手電梯","amenity_alt_name":null,"amenity_accessibility":null,"amenity_phone":null,"amenity_website":null,"amenity_hours":null,"amenity_correlation_id":null,"unit_id":"fc2022d4-8204-46d9-8a86-5a697bf206eb","level_id":"216adbc9-b1fc-4a3c-98f1-2c35ca686816","level_floorpolyid":"F3456021411P2006031102000000","level_ordinal":0,"level_z_value":5.15,"level_name_en":"GROUND FLOOR","level_name_zh":null,"level_short_name_en":"G/F","venue_id":"bd9576da-e2d9-47ff-9ab1-447a54ddff47","building_id":"1237fb23-4f64-4512-be03-9991c720e20f","bbox":[114.1605142200001,22.331754730000057,114.1605142200001,22.331754730000057]}},{"type":"Feature","id":"amenity_point.42659","geometry":{"type":"Point","coordinates":[114.16055559000006,22.33163974000007,5.149999999994179]},"geometry_name":"shape","properties":{"amenity_id":"70511c03-b9b3-46a6-841e-9fd4719f22a6","amenity_category":"stairs","amenity_name_en":"ST-6","amenity_name_zh":"樓梯","amenity_alt_name":null,"amenity_accessibility":null,"amenity_phone":null,"amenity_website":null,"amenity_hours":null,"amenity_correlation_id":null,"unit_id":"4fc683dc-de95-4c84-bc42-5ad259b7a5ff","level_id":"216adbc9-b1fc-4a3c-98f1-2c35ca686816","level_floorpolyid":"F3456021411P2006031102000000","level_ordinal":0,"level_z_value":5.15,"level_name_en":"GROUND FLOOR","level_name_zh":null,"level_short_name_en":"G/F","venue_id":"bd9576da-e2d9-47ff-9ab1-447a54ddff47","building_id":"1237fb23-4f64-4512-be03-9991c720e20f","bbox":[114.16055559000006,22.33163974000007,114.16055559000006,22.33163974000007]}},{"type":"Feature","id":"amenity_point.42660","geometry":{"type":"Point","coordinates":[114.1602684500001,22.331930740000075,5.149999999994179]},"geometry_name":"shape","properties":{"amenity_id":"3db0522f-a766-4a5c-8e08-8856a1c10be1","amenity_category":"elevator","amenity_name_en":"LIFT 17","amenity_name_zh":"升降機","amenity_alt_name":null,"amenity_accessibility":null,"amenity_phone":null,"amenity_website":null,"amenity_hours":null,"amenity_correlation_id":null,"unit_id":"ab95c252-239f-4903-9d26-faee4525e88a","level_id":"216adbc9-b1fc-4a3c-98f1-2c35ca686816","level_floorpolyid":"F3456021411P2006031102000000","level_ordinal":0,"level_z_value":5.15,"level_name_en":"GROUND FLOOR","level_name_zh":null,"level_short_name_en":"G/F","venue_id":"bd9576da-e2d9-47ff-9ab1-447a54ddff47","building_id":"1237fb23-4f64-4512-be03-9991c720e20f","bbox":[114.1602684500001,22.331930740000075,114.1602684500001,22.331930740000075]}},{"type":"Feature","id":"amenity_point.42661","geometry":{"type":"Point","coordinates":[114.16047950000006,22.331770560000052,5.149999999994179]},"geometry_name":"shape","properties":{"amenity_id":"de93ad77-3661-47a9-a9e9-3ad825f838bf","amenity_category":"stairs","amenity_name_en":"ST-8","amenity_name_zh":"樓梯","amenity_alt_name":null,"amenity_accessibility":null,"amenity_phone":null,"amenity_website":null,"amenity_hours":null,"amenity_correlation_id":null,"unit_id":"02a57b26-b02d-4eee-8b71-990f5c207f5c","level_id":"216adbc9-b1fc-4a3c-98f1-2c35ca686816","level_floorpolyid":"F3456021411P2006031102000000","level_ordinal":0,"level_z_value":5.15,"level_name_en":"GROUND FLOOR","level_name_zh":null,"level_short_name_en":"G/F","venue_id":"bd9576da-e2d9-47ff-9ab1-447a54ddff47","building_id":"1237fb23-4f64-4512-be03-9991c720e20f","bbox":[114.16047950000006,22.331770560000052,114.16047950000006,22.331770560000052]}},{"type":"Feature","id":"amenity_point.42662","geometry":{"type":"Point","coordinates":[114.16014404000009,22.331533110000066,5.149999999994179]},"geometry_name":"shape","properties":{"amenity_id":"9aa64b84-2862-4833-a41e-3811a74d8acb","amenity_category":"stairs","amenity_name_en":"BST-3","amenity_name_zh":"樓梯","amenity_alt_name":null,"amenity_accessibility":null,"amenity_phone":null,"amenity_website":null,"amenity_hours":null,"amenity_correlation_id":null,"unit_id":"0727628c-cd39-43db-8df7-852740249388","level_id":"216adbc9-b1fc-4a3c-98f1-2c35ca686816","level_floorpolyid":"F3456021411P2006031102000000","level_ordinal":0,"level_z_value":5.15,"level_name_en":"GROUND FLOOR","level_name_zh":null,"level_short_name_en":"G/F","venue_id":"bd9576da-e2d9-47ff-9ab1-447a54ddff47","building_id":"1237fb23-4f64-4512-be03-9991c720e20f","bbox":[114.16014404000009,22.331533110000066,114.16014404000009,22.331533110000066]}},{"type":"Feature","id":"amenity_point.42663","geometry":{"type":"Point","coordinates":[114.1601735700001,22.332131710000056,5.149999999994179]},"geometry_name":"shape","properties":{"amenity_id":"81cee7d8-dc75-4f4f-a89c-34b8578ea519","amenity_category":"stairs","amenity_name_en":"ST-3","amenity_name_zh":"樓梯","amenity_alt_name":null,"amenity_accessibility":null,"amenity_phone":null,"amenity_website":null,"amenity_hours":null,"amenity_correlation_id":null,"unit_id":"bf8e56cd-f520-4853-89c9-799533f06273","level_id":"216adbc9-b1fc-4a3c-98f1-2c35ca686816","level_floorpolyid":"F3456021411P2006031102000000","level_ordinal":0,"level_z_value":5.15,"level_name_en":"GROUND FLOOR","level_name_zh":null,"level_short_name_en":"G/F","venue_id":"bd9576da-e2d9-47ff-9ab1-447a54ddff47","building_id":"1237fb23-4f64-4512-be03-9991c720e20f","bbox":[114.1601735700001,22.332131710000056,114.1601735700001,22.332131710000056]}},{"type":"Feature","id":"amenity_point.42664","geometry":{"type":"Point","coordinates":[114.16024842000002,22.33146787000004,5.149999999994179]},"geometry_name":"shape","properties":{"amenity_id":"3657aeb9-d655-40af-acb5-aaaa615b6742","amenity_category":"stairs","amenity_name_en":"BST-2","amenity_name_zh":"樓梯","amenity_alt_name":null,"amenity_accessibility":null,"amenity_phone":null,"amenity_website":null,"amenity_hours":null,"amenity_correlation_id":null,"unit_id":"0b0daa2c-677f-46a7-b631-d721dd689543","level_id":"216adbc9-b1fc-4a3c-98f1-2c35ca686816","level_floorpolyid":"F3456021411P2006031102000000","level_ordinal":0,"level_z_value":5.15,"level_name_en":"GROUND FLOOR","level_name_zh":null,"level_short_name_en":"G/F","venue_id":"bd9576da-e2d9-47ff-9ab1-447a54ddff47","building_id":"1237fb23-4f64-4512-be03-9991c720e20f","bbox":[114.16024842000002,22.33146787000004,114.16024842000002,22.33146787000004]}},{"type":"Feature","id":"amenity_point.42665","geometry":{"type":"Point","coordinates":[114.16021353000008,22.331486270000028,5.149999999994179]},"geometry_name":"shape","properties":{"amenity_id":"dc47f7e6-2d2d-4070-b294-c52d1bc9d300","amenity_category":"stairs","amenity_name_en":"BST-1","amenity_name_zh":"樓梯","amenity_alt_name":null,"amenity_accessibility":null,"amenity_phone":null,"amenity_website":null,"amenity_hours":null,"amenity_correlation_id":null,"unit_id":"07ee3252-9cbe-407d-8ec9-2ff88dc38c89","level_id":"216adbc9-b1fc-4a3c-98f1-2c35ca686816","level_floorpolyid":"F3456021411P2006031102000000","level_ordinal":0,"level_z_value":5.15,"level_name_en":"GROUND FLOOR","level_name_zh":null,"level_short_name_en":"G/F","venue_id":"bd9576da-e2d9-47ff-9ab1-447a54ddff47","building_id":"1237fb23-4f64-4512-be03-9991c720e20f","bbox":[114.16021353000008,22.331486270000028,114.16021353000008,22.331486270000028]}},{"type":"Feature","id":"amenity_point.42666","geometry":{"type":"Point","coordinates":[114.16017938000005,22.331520780000062,5.149999999994179]},"geometry_name":"shape","properties":{"amenity_id":"2e0e9f00-71ee-4dde-8b1d-c9905ecaa635","amenity_category":"stairs","amenity_name_en":"BST-4","amenity_name_zh":"樓梯","amenity_alt_name":null,"amenity_accessibility":null,"amenity_phone":null,"amenity_website":null,"amenity_hours":null,"amenity_correlation_id":null,"unit_id":"42028d21-2f22-4c76-8caf-f8328bfea041","level_id":"216adbc9-b1fc-4a3c-98f1-2c35ca686816","level_floorpolyid":"F3456021411P2006031102000000","level_ordinal":0,"level_z_value":5.15,"level_name_en":"GROUND FLOOR","level_name_zh":null,"level_short_name_en":"G/F","venue_id":"bd9576da-e2d9-47ff-9ab1-447a54ddff47","building_id":"1237fb23-4f64-4512-be03-9991c720e20f","bbox":[114.16017938000005,22.331520780000062,114.16017938000005,22.331520780000062]}},{"type":"Feature","id":"amenity_point.42667","geometry":{"type":"Point","coordinates":[114.15987087000008,22.331734690000076,5.149999999994179]},"geometry_name":"shape","properties":{"amenity_id":"ad63d3ed-1e61-4d1e-8a53-78a9900d0ef4","amenity_category":"stairs","amenity_name_en":"ST-4","amenity_name_zh":"樓梯","amenity_alt_name":null,"amenity_accessibility":null,"amenity_phone":null,"amenity_website":null,"amenity_hours":null,"amenity_correlation_id":null,"unit_id":"13d985b4-cc61-4ff9-8669-a2da61b6c94f","level_id":"216adbc9-b1fc-4a3c-98f1-2c35ca686816","level_floorpolyid":"F3456021411P2006031102000000","level_ordinal":0,"level_z_value":5.15,"level_name_en":"GROUND FLOOR","level_name_zh":null,"level_short_name_en":"G/F","venue_id":"bd9576da-e2d9-47ff-9ab1-447a54ddff47","building_id":"1237fb23-4f64-4512-be03-9991c720e20f","bbox":[114.15987087000008,22.331734690000076,114.15987087000008,22.331734690000076]}},{"type":"Feature","id":"amenity_point.42668","geometry":{"type":"Point","coordinates":[114.15999984000007,22.33164737000004,5.149999999994179]},"geometry_name":"shape","properties":{"amenity_id":"8cd7ce2c-1563-40d9-8df6-a73d1c6a294e","amenity_category":"stairs","amenity_name_en":"BST-5","amenity_name_zh":"樓梯","amenity_alt_name":null,"amenity_accessibility":null,"amenity_phone":null,"amenity_website":null,"amenity_hours":null,"amenity_correlation_id":null,"unit_id":"f99576bc-b7b5-43c9-a45b-65f9b177a350","level_id":"216adbc9-b1fc-4a3c-98f1-2c35ca686816","level_floorpolyid":"F3456021411P2006031102000000","level_ordinal":0,"level_z_value":5.15,"level_name_en":"GROUND FLOOR","level_name_zh":null,"level_short_name_en":"G/F","venue_id":"bd9576da-e2d9-47ff-9ab1-447a54ddff47","building_id":"1237fb23-4f64-4512-be03-9991c720e20f","bbox":[114.15999984000007,22.33164737000004,114.15999984000007,22.33164737000004]}},{"type":"Feature","id":"amenity_point.42669","geometry":{"type":"Point","coordinates":[114.16025006000007,22.331910120000032,5.149999999994179]},"geometry_name":"shape","properties":{"amenity_id":"999ecd7f-cde5-4967-bb18-99a0d6310646","amenity_category":"elevator","amenity_name_en":"LIFT 18","amenity_name_zh":"升降機","amenity_alt_name":null,"amenity_accessibility":null,"amenity_phone":null,"amenity_website":null,"amenity_hours":null,"amenity_correlation_id":null,"unit_id":"0b827b81-d130-4eb3-a6f5-25575ee40414","level_id":"216adbc9-b1fc-4a3c-98f1-2c35ca686816","level_floorpolyid":"F3456021411P2006031102000000","level_ordinal":0,"level_z_value":5.15,"level_name_en":"GROUND FLOOR","level_name_zh":null,"level_short_name_en":"G/F","venue_id":"bd9576da-e2d9-47ff-9ab1-447a54ddff47","building_id":"1237fb23-4f64-4512-be03-9991c720e20f","bbox":[114.16025006000007,22.331910120000032,114.16025006000007,22.331910120000032]}},{"type":"Feature","id":"amenity_point.42670","geometry":{"type":"Point","coordinates":[114.16058593000002,22.33155547000007,5.149999999994179]},"geometry_name":"shape","properties":{"amenity_id":"834bce6b-e6ab-4fef-a35d-2af52578ba0b","amenity_category":"stairs","amenity_name_en":"ST-9","amenity_name_zh":"樓梯","amenity_alt_name":null,"amenity_accessibility":null,"amenity_phone":null,"amenity_website":null,"amenity_hours":null,"amenity_correlation_id":null,"unit_id":"fc7542d6-680c-429a-81cf-c3650ba8fccf","level_id":"216adbc9-b1fc-4a3c-98f1-2c35ca686816","level_floorpolyid":"F3456021411P2006031102000000","level_ordinal":0,"level_z_value":5.15,"level_name_en":"GROUND FLOOR","level_name_zh":null,"level_short_name_en":"G/F","venue_id":"bd9576da-e2d9-47ff-9ab1-447a54ddff47","building_id":"1237fb23-4f64-4512-be03-9991c720e20f","bbox":[114.16058593000002,22.33155547000007,114.16058593000002,22.33155547000007]}},{"type":"Feature","id":"amenity_point.42671","geometry":{"type":"Point","coordinates":[114.16013181000005,22.331845410000028,5.149999999994179]},"geometry_name":"shape","properties":{"amenity_id":"8c611250-4533-4563-80f0-a505e2d16f7d","amenity_category":"parking","amenity_name_en":"AMBULANCE PARKING","amenity_name_zh":"停車位( 一般)","amenity_alt_name":null,"amenity_accessibility":null,"amenity_phone":null,"amenity_website":null,"amenity_hours":null,"amenity_correlation_id":null,"unit_id":"613854ff-cdb2-4119-9d1f-23fe6deebe8d","level_id":"216adbc9-b1fc-4a3c-98f1-2c35ca686816","level_floorpolyid":"F3456021411P2006031102000000","level_ordinal":0,"level_z_value":5.15,"level_name_en":"GROUND FLOOR","level_name_zh":null,"level_short_name_en":"G/F","venue_id":"bd9576da-e2d9-47ff-9ab1-447a54ddff47","building_id":"1237fb23-4f64-4512-be03-9991c720e20f","bbox":[114.16013181000005,22.331845410000028,114.16013181000005,22.331845410000028]}},{"type":"Feature","id":"amenity_point.42672","geometry":{"type":"Point","coordinates":[114.16000190000011,22.33178257000003,5.149999999994179]},"geometry_name":"shape","properties":{"amenity_id":"10299f30-3169-415b-84d0-1c6983f2c102","amenity_category":"security","amenity_name_en":"GUARD RM","amenity_name_zh":"保安/控制室","amenity_alt_name":null,"amenity_accessibility":null,"amenity_phone":null,"amenity_website":null,"amenity_hours":null,"amenity_correlation_id":null,"unit_id":"7a141f3c-4f80-40fb-91bf-de0dfaddc8b0","level_id":"216adbc9-b1fc-4a3c-98f1-2c35ca686816","level_floorpolyid":"F3456021411P2006031102000000","level_ordinal":0,"level_z_value":5.15,"level_name_en":"GROUND FLOOR","level_name_zh":null,"level_short_name_en":"G/F","venue_id":"bd9576da-e2d9-47ff-9ab1-447a54ddff47","building_id":"1237fb23-4f64-4512-be03-9991c720e20f","bbox":[114.16000190000011,22.33178257000003,114.16000190000011,22.33178257000003]}},{"type":"Feature","id":"amenity_point.42673","geometry":{"type":"Point","coordinates":[114.1601830300001,22.33150285000005,5.149999999994179]},"geometry_name":"shape","properties":{"amenity_id":"5e171ab4-ec2c-4e24-8555-ba7a27eafab7","amenity_category":"stairs","amenity_name_en":"TST-1","amenity_name_zh":"樓梯","amenity_alt_name":null,"amenity_accessibility":null,"amenity_phone":null,"amenity_website":null,"amenity_hours":null,"amenity_correlation_id":null,"unit_id":"39a51eee-e359-46f7-9294-7225029d7829","level_id":"216adbc9-b1fc-4a3c-98f1-2c35ca686816","level_floorpolyid":"F3456021411P2006031102000000","level_ordinal":0,"level_z_value":5.15,"level_name_en":"GROUND FLOOR","level_name_zh":null,"level_short_name_en":"G/F","venue_id":"bd9576da-e2d9-47ff-9ab1-447a54ddff47","building_id":"1237fb23-4f64-4512-be03-9991c720e20f","bbox":[114.1601830300001,22.33150285000005,114.1601830300001,22.33150285000005]}},{"type":"Feature","id":"amenity_point.42674","geometry":{"type":"Point","coordinates":[114.16034448000005,22.33139121000005,5.149999999994179]},"geometry_name":"shape","properties":{"amenity_id":"eadb965b-431b-4be9-aa0a-2d6e6c3a83b9","amenity_category":"stairs","amenity_name_en":"ST-5","amenity_name_zh":"樓梯","amenity_alt_name":null,"amenity_accessibility":null,"amenity_phone":null,"amenity_website":null,"amenity_hours":null,"amenity_correlation_id":null,"unit_id":"f73a588e-9ef0-4ce7-843d-13ed4f65de4d","level_id":"216adbc9-b1fc-4a3c-98f1-2c35ca686816","level_floorpolyid":"F3456021411P2006031102000000","level_ordinal":0,"level_z_value":5.15,"level_name_en":"GROUND FLOOR","level_name_zh":null,"level_short_name_en":"G/F","venue_id":"bd9576da-e2d9-47ff-9ab1-447a54ddff47","building_id":"1237fb23-4f64-4512-be03-9991c720e20f","bbox":[114.16034448000005,22.33139121000005,114.16034448000005,22.33139121000005]}},{"type":"Feature","id":"amenity_point.42675","geometry":{"type":"Point","coordinates":[114.16047593000008,22.331430760000046,5.149999999994179]},"geometry_name":"shape","properties":{"amenity_id":"3005ec3c-f951-46ab-b303-50adb35d079f","amenity_category":"stairs","amenity_name_en":"ST-10","amenity_name_zh":"樓梯","amenity_alt_name":null,"amenity_accessibility":null,"amenity_phone":null,"amenity_website":null,"amenity_hours":null,"amenity_correlation_id":null,"unit_id":"3525c62e-d12c-481b-a512-0634ba9858f7","level_id":"216adbc9-b1fc-4a3c-98f1-2c35ca686816","level_floorpolyid":"F3456021411P2006031102000000","level_ordinal":0,"level_z_value":5.15,"level_name_en":"GROUND FLOOR","level_name_zh":null,"level_short_name_en":"G/F","venue_id":"bd9576da-e2d9-47ff-9ab1-447a54ddff47","building_id":"1237fb23-4f64-4512-be03-9991c720e20f","bbox":[114.16047593000008,22.331430760000046,114.16047593000008,22.331430760000046]}},{"type":"Feature","id":"amenity_point.42676","geometry":{"type":"Point","coordinates":[114.1603325100001,22.331528280000043,5.149999999994179]},"geometry_name":"shape","properties":{"amenity_id":"3b3df380-cc60-4a98-a875-933455ac601e","amenity_category":"stairs","amenity_name_en":"Stair","amenity_name_zh":"樓梯","amenity_alt_name":null,"amenity_accessibility":null,"amenity_phone":null,"amenity_website":null,"amenity_hours":null,"amenity_correlation_id":null,"unit_id":"5de39185-d797-44db-a76c-76ea3fdd38a7","level_id":"216adbc9-b1fc-4a3c-98f1-2c35ca686816","level_floorpolyid":"F3456021411P2006031102000000","level_ordinal":0,"level_z_value":5.15,"level_name_en":"GROUND FLOOR","level_name_zh":null,"level_short_name_en":"G/F","venue_id":"bd9576da-e2d9-47ff-9ab1-447a54ddff47","building_id":"1237fb23-4f64-4512-be03-9991c720e20f","bbox":[114.1603325100001,22.331528280000043,114.1603325100001,22.331528280000043]}},{"type":"Feature","id":"amenity_point.42677","geometry":{"type":"Point","coordinates":[114.1605094900001,22.331465210000033,5.149999999994179]},"geometry_name":"shape","properties":{"amenity_id":"1ab40f00-caf9-458e-8207-0a709e4161a8","amenity_category":"stairs","amenity_name_en":"Stair","amenity_name_zh":"樓梯","amenity_alt_name":null,"amenity_accessibility":null,"amenity_phone":null,"amenity_website":null,"amenity_hours":null,"amenity_correlation_id":null,"unit_id":"d0428b46-1c51-403d-b396-ac90065e16f3","level_id":"216adbc9-b1fc-4a3c-98f1-2c35ca686816","level_floorpolyid":"F3456021411P2006031102000000","level_ordinal":0,"level_z_value":5.15,"level_name_en":"GROUND FLOOR","level_name_zh":null,"level_short_name_en":"G/F","venue_id":"bd9576da-e2d9-47ff-9ab1-447a54ddff47","building_id":"1237fb23-4f64-4512-be03-9991c720e20f","bbox":[114.1605094900001,22.331465210000033,114.1605094900001,22.331465210000033]}},{"type":"Feature","id":"amenity_point.42678","geometry":{"type":"Point","coordinates":[114.16064497000002,22.331622050000078,5.149999999994179]},"geometry_name":"shape","properties":{"amenity_id":"b1bdc41f-c798-4853-9113-49d21db810dc","amenity_category":"ramp","amenity_name_en":"RAMP","amenity_name_zh":"斜道","amenity_alt_name":null,"amenity_accessibility":null,"amenity_phone":null,"amenity_website":null,"amenity_hours":null,"amenity_correlation_id":null,"unit_id":"763f734f-0b63-4572-a09a-f3d14bdb7825","level_id":"216adbc9-b1fc-4a3c-98f1-2c35ca686816","level_floorpolyid":"F3456021411P2006031102000000","level_ordinal":0,"level_z_value":5.15,"level_name_en":"GROUND FLOOR","level_name_zh":null,"level_short_name_en":"G/F","venue_id":"bd9576da-e2d9-47ff-9ab1-447a54ddff47","building_id":"1237fb23-4f64-4512-be03-9991c720e20f","bbox":[114.16064497000002,22.331622050000078,114.16064497000002,22.331622050000078]}},{"type":"Feature","id":"amenity_point.42679","geometry":{"type":"Point","coordinates":[114.16062072000011,22.33158689000004,5.149999999994179]},"geometry_name":"shape","properties":{"amenity_id":"1efb5f31-ea8a-4904-b502-327f2518cddb","amenity_category":"stairs","amenity_name_en":"Stair","amenity_name_zh":"樓梯","amenity_alt_name":null,"amenity_accessibility":null,"amenity_phone":null,"amenity_website":null,"amenity_hours":null,"amenity_correlation_id":null,"unit_id":"65648d44-e015-44fa-ae86-54ef9d1cfc72","level_id":"216adbc9-b1fc-4a3c-98f1-2c35ca686816","level_floorpolyid":"F3456021411P2006031102000000","level_ordinal":0,"level_z_value":5.15,"level_name_en":"GROUND FLOOR","level_name_zh":null,"level_short_name_en":"G/F","venue_id":"bd9576da-e2d9-47ff-9ab1-447a54ddff47","building_id":"1237fb23-4f64-4512-be03-9991c720e20f","bbox":[114.16062072000011,22.33158689000004,114.16062072000011,22.33158689000004]}},{"type":"Feature","id":"amenity_point.42680","geometry":{"type":"Point","coordinates":[114.16064372000005,22.331672180000055,5.149999999994179]},"geometry_name":"shape","properties":{"amenity_id":"71ed6079-2faa-4cb7-aba6-13bc92c5ff0e","amenity_category":"stairs","amenity_name_en":"ST-1","amenity_name_zh":"樓梯","amenity_alt_name":null,"amenity_accessibility":null,"amenity_phone":null,"amenity_website":null,"amenity_hours":null,"amenity_correlation_id":null,"unit_id":"38a95ea3-7006-49b8-b5f6-263cc9a82cb4","level_id":"216adbc9-b1fc-4a3c-98f1-2c35ca686816","level_floorpolyid":"F3456021411P2006031102000000","level_ordinal":0,"level_z_value":5.15,"level_name_en":"GROUND FLOOR","level_name_zh":null,"level_short_name_en":"G/F","venue_id":"bd9576da-e2d9-47ff-9ab1-447a54ddff47","building_id":"1237fb23-4f64-4512-be03-9991c720e20f","bbox":[114.16064372000005,22.331672180000055,114.16064372000005,22.331672180000055]}},{"type":"Feature","id":"amenity_point.42681","geometry":{"type":"Point","coordinates":[114.16063501000008,22.33169515000003,5.149999999994179]},"geometry_name":"shape","properties":{"amenity_id":"b46da3b3-2429-4054-890e-03f6dad630ba","amenity_category":"stairs","amenity_name_en":"BST-6","amenity_name_zh":"樓梯","amenity_alt_name":null,"amenity_accessibility":null,"amenity_phone":null,"amenity_website":null,"amenity_hours":null,"amenity_correlation_id":null,"unit_id":"a320caaf-6695-4c60-b4a1-ee26536c2048","level_id":"216adbc9-b1fc-4a3c-98f1-2c35ca686816","level_floorpolyid":"F3456021411P2006031102000000","level_ordinal":0,"level_z_value":5.15,"level_name_en":"GROUND FLOOR","level_name_zh":null,"level_short_name_en":"G/F","venue_id":"bd9576da-e2d9-47ff-9ab1-447a54ddff47","building_id":"1237fb23-4f64-4512-be03-9991c720e20f","bbox":[114.16063501000008,22.33169515000003,114.16063501000008,22.33169515000003]}},{"type":"Feature","id":"amenity_point.42682","geometry":{"type":"Point","coordinates":[114.16032285000006,22.33202404000008,5.149999999994179]},"geometry_name":"shape","properties":{"amenity_id":"9821f7a4-060e-495c-8287-693670acdcb0","amenity_category":"stairs","amenity_name_en":"BST-7","amenity_name_zh":"樓梯","amenity_alt_name":null,"amenity_accessibility":null,"amenity_phone":null,"amenity_website":null,"amenity_hours":null,"amenity_correlation_id":null,"unit_id":"d75b365b-4e8d-459a-97af-c445631145cf","level_id":"216adbc9-b1fc-4a3c-98f1-2c35ca686816","level_floorpolyid":"F3456021411P2006031102000000","level_ordinal":0,"level_z_value":5.15,"level_name_en":"GROUND FLOOR","level_name_zh":null,"level_short_name_en":"G/F","venue_id":"bd9576da-e2d9-47ff-9ab1-447a54ddff47","building_id":"1237fb23-4f64-4512-be03-9991c720e20f","bbox":[114.16032285000006,22.33202404000008,114.16032285000006,22.33202404000008]}},{"type":"Feature","id":"amenity_point.42683","geometry":{"type":"Point","coordinates":[114.16030196000008,22.33205225000006,5.149999999994179]},"geometry_name":"shape","properties":{"amenity_id":"fdd909b9-872e-426e-a9f7-35080f240f22","amenity_category":"ramp","amenity_name_en":"Ramp","amenity_name_zh":"斜道","amenity_alt_name":null,"amenity_accessibility":null,"amenity_phone":null,"amenity_website":null,"amenity_hours":null,"amenity_correlation_id":null,"unit_id":"3a9b367d-846c-4331-9259-96b56db87f00","level_id":"216adbc9-b1fc-4a3c-98f1-2c35ca686816","level_floorpolyid":"F3456021411P2006031102000000","level_ordinal":0,"level_z_value":5.15,"level_name_en":"GROUND FLOOR","level_name_zh":null,"level_short_name_en":"G/F","venue_id":"bd9576da-e2d9-47ff-9ab1-447a54ddff47","building_id":"1237fb23-4f64-4512-be03-9991c720e20f","bbox":[114.16030196000008,22.33205225000006,114.16030196000008,22.33205225000006]}},{"type":"Feature","id":"amenity_point.42684","geometry":{"type":"Point","coordinates":[114.16030879000004,22.33203431000004,5.149999999994179]},"geometry_name":"shape","properties":{"amenity_id":"a06c2154-b6d3-4370-b70c-cb3a310255fa","amenity_category":"stairs","amenity_name_en":"ST-7","amenity_name_zh":"樓梯","amenity_alt_name":null,"amenity_accessibility":null,"amenity_phone":null,"amenity_website":null,"amenity_hours":null,"amenity_correlation_id":null,"unit_id":"bf2d98a4-bd2d-43b9-a65f-c2e2a131a82b","level_id":"216adbc9-b1fc-4a3c-98f1-2c35ca686816","level_floorpolyid":"F3456021411P2006031102000000","level_ordinal":0,"level_z_value":5.15,"level_name_en":"GROUND FLOOR","level_name_zh":null,"level_short_name_en":"G/F","venue_id":"bd9576da-e2d9-47ff-9ab1-447a54ddff47","building_id":"1237fb23-4f64-4512-be03-9991c720e20f","bbox":[114.16030879000004,22.33203431000004,114.16030879000004,22.33203431000004]}},{"type":"Feature","id":"amenity_point.42685","geometry":{"type":"Point","coordinates":[114.1602771800001,22.33199262000005,5.149999999994179]},"geometry_name":"shape","properties":{"amenity_id":"77f3ab51-df98-4eb3-b217-aed8b8c873d1","amenity_category":"security","amenity_name_en":"F.S CONTROL","amenity_name_zh":"保安/控制室","amenity_alt_name":null,"amenity_accessibility":null,"amenity_phone":null,"amenity_website":null,"amenity_hours":null,"amenity_correlation_id":null,"unit_id":"3f6fb899-b9f4-414e-8109-d3c6448c9bf5","level_id":"216adbc9-b1fc-4a3c-98f1-2c35ca686816","level_floorpolyid":"F3456021411P2006031102000000","level_ordinal":0,"level_z_value":5.15,"level_name_en":"GROUND FLOOR","level_name_zh":null,"level_short_name_en":"G/F","venue_id":"bd9576da-e2d9-47ff-9ab1-447a54ddff47","building_id":"1237fb23-4f64-4512-be03-9991c720e20f","bbox":[114.1602771800001,22.33199262000005,114.1602771800001,22.33199262000005]}},{"type":"Feature","id":"amenity_point.42686","geometry":{"type":"Point","coordinates":[114.16031223000005,22.331978500000048,5.149999999994179]},"geometry_name":"shape","properties":{"amenity_id":"a054c8ed-cdf3-4db8-aadf-d3615c7164f1","amenity_category":"security","amenity_name_en":"BUILDNG MANAGEMENT","amenity_name_zh":"保安/控制室","amenity_alt_name":null,"amenity_accessibility":null,"amenity_phone":null,"amenity_website":null,"amenity_hours":null,"amenity_correlation_id":null,"unit_id":"f06bbba5-5744-46f5-8970-0f5e877ca223","level_id":"216adbc9-b1fc-4a3c-98f1-2c35ca686816","level_floorpolyid":"F3456021411P2006031102000000","level_ordinal":0,"level_z_value":5.15,"level_name_en":"GROUND FLOOR","level_name_zh":null,"level_short_name_en":"G/F","venue_id":"bd9576da-e2d9-47ff-9ab1-447a54ddff47","building_id":"1237fb23-4f64-4512-be03-9991c720e20f","bbox":[114.16031223000005,22.331978500000048,114.16031223000005,22.331978500000048]}},{"type":"Feature","id":"amenity_point.42687","geometry":{"type":"Point","coordinates":[114.16017846000011,22.331914590000054,5.149999999994179]},"geometry_name":"shape","properties":{"amenity_id":"31c3a4d1-efbf-4325-91ba-0afda19db50f","amenity_category":"ramp","amenity_name_en":"RAMP","amenity_name_zh":"斜道","amenity_alt_name":null,"amenity_accessibility":null,"amenity_phone":null,"amenity_website":null,"amenity_hours":null,"amenity_correlation_id":null,"unit_id":"879b06b6-4646-4cb5-b4b8-847454a0131c","level_id":"216adbc9-b1fc-4a3c-98f1-2c35ca686816","level_floorpolyid":"F3456021411P2006031102000000","level_ordinal":0,"level_z_value":5.15,"level_name_en":"GROUND FLOOR","level_name_zh":null,"level_short_name_en":"G/F","venue_id":"bd9576da-e2d9-47ff-9ab1-447a54ddff47","building_id":"1237fb23-4f64-4512-be03-9991c720e20f","bbox":[114.16017846000011,22.331914590000054,114.16017846000011,22.331914590000054]}},{"type":"Feature","id":"amenity_point.42703","geometry":{"type":"Point","coordinates":[114.16050151000002,22.33176431000004,5.149999999994179]},"geometry_name":"shape","properties":{"amenity_id":"db2ad4ad-e549-4bde-b845-e5ad9d87b6b7","amenity_category":"escalator","amenity_name_en":"E2","amenity_name_zh":"扶手電梯","amenity_alt_name":null,"amenity_accessibility":null,"amenity_phone":null,"amenity_website":null,"amenity_hours":null,"amenity_correlation_id":null,"unit_id":"40aeec26-e468-4cc5-8f7a-36543b0c0c9e","level_id":"216adbc9-b1fc-4a3c-98f1-2c35ca686816","level_floorpolyid":"F3456021411P2006031102000000","level_ordinal":0,"level_z_value":5.15,"level_name_en":"GROUND FLOOR","level_name_zh":null,"level_short_name_en":"G/F","venue_id":"bd9576da-e2d9-47ff-9ab1-447a54ddff47","building_id":"1237fb23-4f64-4512-be03-9991c720e20f","bbox":[114.16050151000002,22.33176431000004,114.16050151000002,22.33176431000004]}},{"type":"Feature","id":"amenity_point.42704","geometry":{"type":"Point","coordinates":[114.16037398000003,22.33185511000005,5.149999999994179]},"geometry_name":"shape","properties":{"amenity_id":"388508c2-89f0-4768-ac69-362a5a386be8","amenity_category":"stairs","amenity_name_en":"ST-2","amenity_name_zh":"樓梯","amenity_alt_name":null,"amenity_accessibility":null,"amenity_phone":null,"amenity_website":null,"amenity_hours":null,"amenity_correlation_id":null,"unit_id":"7d632236-f00a-49f5-94ea-336f7c5b3346","level_id":"216adbc9-b1fc-4a3c-98f1-2c35ca686816","level_floorpolyid":"F3456021411P2006031102000000","level_ordinal":0,"level_z_value":5.15,"level_name_en":"GROUND FLOOR","level_name_zh":null,"level_short_name_en":"G/F","venue_id":"bd9576da-e2d9-47ff-9ab1-447a54ddff47","building_id":"1237fb23-4f64-4512-be03-9991c720e20f","bbox":[114.16037398000003,22.33185511000005,114.16037398000003,22.33185511000005]}},{"type":"Feature","id":"amenity_point.42709","geometry":{"type":"Point","coordinates":[114.16050186000007,22.33176425000005,8.69999999999709]},"geometry_name":"shape","properties":{"amenity_id":"b2910eae-59aa-4316-ac48-7579c8fbee08","amenity_category":"escalator","amenity_name_en":"E4","amenity_name_zh":"扶手電梯","amenity_alt_name":null,"amenity_accessibility":null,"amenity_phone":null,"amenity_website":null,"amenity_hours":null,"amenity_correlation_id":null,"unit_id":"1f2a2b9d-d59c-4864-92fe-248772c36c02","level_id":"efa3b69e-2bed-4508-bd74-461aeaadd2a4","level_floorpolyid":"F3456021411P2006031101000100","level_ordinal":1,"level_z_value":8.7,"level_name_en":"1ST FLOOR","level_name_zh":null,"level_short_name_en":"1/F","venue_id":"bd9576da-e2d9-47ff-9ab1-447a54ddff47","building_id":"1237fb23-4f64-4512-be03-9991c720e20f","bbox":[114.16050186000007,22.33176425000005,114.16050186000007,22.33176425000005]}},{"type":"Feature","id":"amenity_point.42710","geometry":{"type":"Point","coordinates":[114.1604670700001,22.331725650000067,8.69999999999709]},"geometry_name":"shape","properties":{"amenity_id":"b3d5c534-075e-4bb5-84aa-0f18f8cf5b30","amenity_category":"escalator","amenity_name_en":"E2","amenity_name_zh":"扶手電梯","amenity_alt_name":null,"amenity_accessibility":null,"amenity_phone":null,"amenity_website":null,"amenity_hours":null,"amenity_correlation_id":null,"unit_id":"a77f27dd-6add-4a57-8701-ca6bf2ce93fc","level_id":"efa3b69e-2bed-4508-bd74-461aeaadd2a4","level_floorpolyid":"F3456021411P2006031101000100","level_ordinal":1,"level_z_value":8.7,"level_name_en":"1ST FLOOR","level_name_zh":null,"level_short_name_en":"1/F","venue_id":"bd9576da-e2d9-47ff-9ab1-447a54ddff47","building_id":"1237fb23-4f64-4512-be03-9991c720e20f","bbox":[114.1604670700001,22.331725650000067,114.1604670700001,22.331725650000067]}}]}