{"type":"FeatureCollection","features":[{"type":"Feature","id":"level_polygon.1588","geometry":{"type":"Polygon","coordinates":[[[114.16044344000011,22.331372120000026,5.149999999994179],[114.1604256500001,22.33135240000007,5.149999999994179],[114.16042166000011,22.331355460000054,5.149999999994179],[114.16042126000002,22.33135501000004,5.149999999994179],[114.16041816000006,22.331351510000047,5.149999999994179],[114.16041537000001,22.331348370000057,5.149999999994179],[114.16038487000003,22.331371760000025,5.149999999994179],[114.16036988000008,22.331354840000074,5.149999999994179],[114.16036408000002,22.33134829000005,5.149999999994179],[114.16036005000001,22.331343740000023,5.149999999994179],[114.16034088000004,22.331358600000044,5.149999999994179],[114.16033510000011,22.331363090000025,5.149999999994179],[114.16032110000003,22.331373950000057,5.149999999994179],[114.1603158800001,22.33137800000003,5.149999999994179],[114.16030344,22.331387650000067,5.149999999994179],[114.16029680000008,22.33139280000006,5.149999999994179],[114.16029476000006,22.331394380000063,5.149999999994179],[114.16026039000008,22.331421040000066,5.149999999994179],[114.16025880000007,22.331422270000076,5.149999999994179],[114.16025231000003,22.331427310000038,5.149999999994179],[114.16024340000001,22.331434220000062,5.149999999994179],[114.16021959000011,22.331452700000057,5.149999999994179],[114.16021489000002,22.331456340000045,5.149999999994179],[114.16020571000001,22.331463460000066,5.149999999994179],[114.16019763000008,22.331469730000038,5.149999999994179],[114.1601907700001,22.33147505000005,5.149999999994179],[114.16018006000002,22.33148336000005,5.149999999994179],[114.16016810000008,22.33149264000008,5.149999999994179],[114.1601347400001,22.331518510000024,5.149999999994179],[114.16013415000009,22.331518970000047,5.149999999994179],[114.16011300000002,22.331535380000048,5.149999999994179],[114.1601022100001,22.331543750000037,5.149999999994179],[114.16006894000009,22.33156955000004,5.149999999994179],[114.16000377000012,22.331620110000074,5.149999999994179],[114.15998057000002,22.33163811000003,5.149999999994179],[114.1599677800001,22.331648030000053,5.149999999994179],[114.15995702000009,22.331656380000027,5.149999999994179],[114.15995566000004,22.331657430000064,5.149999999994179],[114.15994867000006,22.331662850000043,5.149999999994179],[114.15994744000011,22.331663810000066,5.149999999994179],[114.15994561000002,22.331665230000056,5.149999999994179],[114.15993778000006,22.33167130000004,5.149999999994179],[114.15991874000008,22.331686070000046,5.149999999994179],[114.15988393000009,22.331713070000035,5.149999999994179],[114.15985486000011,22.331735620000075,5.149999999994179],[114.15984564000007,22.331742770000062,5.149999999994179],[114.15982356000006,22.331759900000065,5.149999999994179],[114.15983548000008,22.33177321000005,5.149999999994179],[114.15984160000005,22.33178006000003,5.149999999994179],[114.15985391000004,22.331793810000022,5.149999999994179],[114.15987458000006,22.331816900000035,5.149999999994179],[114.1599045800001,22.331850410000072,5.149999999994179],[114.15992759000005,22.331876100000045,5.149999999994179],[114.15997287000005,22.331926680000038,5.149999999994179],[114.15997375000006,22.331927660000076,5.149999999994179],[114.16004369000007,22.332004850000033,5.149999999994179],[114.1600493300001,22.33201107000008,5.149999999994179],[114.16007829000011,22.332043030000023,5.149999999994179],[114.16010259000006,22.33206984000003,5.149999999994179],[114.16010268000002,22.33206995000006,5.149999999994179],[114.16011756000012,22.332086660000073,5.149999999994179],[114.16012698000009,22.332097240000053,5.149999999994179],[114.16013260000011,22.332103560000064,5.149999999994179],[114.16014786000005,22.332120690000067,5.149999999994179],[114.16016772000012,22.33214301000004,5.149999999994179],[114.16017159,22.33214735000007,5.149999999994179],[114.16020269,22.33218246000007,5.149999999994179],[114.16021273000001,22.332174760000044,5.149999999994179],[114.16031802000009,22.332093180000072,5.149999999994179],[114.1607025400001,22.331795240000076,5.149999999994179],[114.16074074000005,22.33176564000007,5.149999999994179],[114.16074378000008,22.33173497000007,5.149999999994179],[114.1607438200001,22.33173456000003,5.149999999994179],[114.16074647000005,22.331707750000078,5.149999999994179],[114.16070413000011,22.33166085000005,5.149999999994179],[114.16069285000003,22.331648350000023,5.149999999994179],[114.16068041000005,22.33163458000007,5.149999999994179],[114.16067991000011,22.331634030000032,5.149999999994179],[114.16067264000003,22.33162597000006,5.149999999994179],[114.16064571000004,22.331596150000053,5.149999999994179],[114.16062047000003,22.33156819000004,5.149999999994179],[114.16061338000009,22.331560340000067,5.149999999994179],[114.16061206000006,22.331558880000046,5.149999999994179],[114.16058865000002,22.331532940000045,5.149999999994179],[114.16058191000002,22.33152548000004,5.149999999994179],[114.16057847000002,22.33152167000003,5.149999999994179],[114.1605734200001,22.331516070000077,5.149999999994179],[114.1605708300001,22.331513210000026,5.149999999994179],[114.16056593000008,22.331507790000046,5.149999999994179],[114.1605628000001,22.33150432000008,5.149999999994179],[114.16055746000006,22.331498390000036,5.149999999994179],[114.16055588000006,22.331496650000076,5.149999999994179],[114.16055108,22.33149134000007,5.149999999994179],[114.1605470500001,22.33148687000005,5.149999999994179],[114.16051235000009,22.331448430000023,5.149999999994179],[114.16050395000002,22.331439130000035,5.149999999994179],[114.16048432000002,22.33141739000007,5.149999999994179],[114.16047400000002,22.33140596000004,5.149999999994179],[114.16045541000005,22.331385370000078,5.149999999994179],[114.16044344000011,22.331372120000026,5.149999999994179]]]},"geometry_name":"shape","properties":{"level_id":"216adbc9-b1fc-4a3c-98f1-2c35ca686816","level_floorpolyid":"F3456021411P2006031102000000","level_ordinal":0,"level_z_value":5.15,"level_name_en":"GROUND FLOOR","level_name_zh":null,"level_short_name_en":"G/F","level_category":"unspecified","level_restriction":null,"level_outdoor":0,"venue_id":"bd9576da-e2d9-47ff-9ab1-447a54ddff47","venue_category":"governmentfacility","venue_name_en":"Cheung Sha Wan Government Offices","venue_name_zh":"長沙灣政府合署","venue_alt_name":null,"venue_restriction":null,"venue_hours":null,"venue_website":null,"venue_phone":null,"address_address":"303 CHEUNG SHA WAN ROAD","address_unit":null,"address_locality":"SHAM SHUI PO DISTRICT","building_id":"1237fb23-4f64-4512-be03-9991c720e20f","building_category":"unspecified","building_name_en":"Cheung Sha Wan Government Offices Podium","building_name_zh":"長沙灣政府合署平台","building_alt_name":null,"building_restriction":"","bbox":[114.15982356000006,22.331343740000023,114.16074647000005,22.33218246000007]}},{"type":"Feature","id":"level_polygon.1589","geometry":{"type":"Polygon","coordinates":[[[114.16018129000008,22.33213980000005,8.69999999999709],[114.16019759000005,22.332127310000033,8.69999999999709],[114.16020845000003,22.332139570000038,8.69999999999709],[114.16029856000011,22.332070480000027,8.69999999999709],[114.16036760000009,22.332017540000038,8.69999999999709],[114.1603632,22.332012570000074,8.69999999999709],[114.1603657500001,22.332010610000054,8.69999999999709],[114.16054595000003,22.33187245000005,8.69999999999709],[114.16060819000006,22.33182473000005,8.69999999999709],[114.16061548000005,22.331832960000042,8.69999999999709],[114.1606330300001,22.33181951000006,8.69999999999709],[114.16063381000004,22.331820380000067,8.69999999999709],[114.16064409,22.331831690000058,8.69999999999709],[114.16072135000002,22.331772000000058,8.69999999999709],[114.1607416700001,22.331756270000028,8.69999999999709],[114.16075497000008,22.33174598000005,8.69999999999709],[114.16076006000003,22.33173652000005,8.69999999999709],[114.16076276000001,22.331708180000078,8.69999999999709],[114.16075949000003,22.331697930000075,8.69999999999709],[114.16068507000011,22.33161644000006,8.69999999999709],[114.16067264000003,22.33162597000006,8.69999999999709],[114.16066863000003,22.331629160000034,8.69999999999709],[114.16064638000012,22.331604370000036,8.69999999999709],[114.16061668000009,22.33157128000005,8.69999999999709],[114.16062047000003,22.33156819000004,8.69999999999709],[114.16063253000004,22.33155897000006,8.69999999999709],[114.16043630000001,22.33134423000007,8.69999999999709],[114.1604256500001,22.33135240000007,8.69999999999709],[114.16042166000011,22.331355460000054,8.69999999999709],[114.16042126000002,22.33135501000004,8.69999999999709],[114.16041816000006,22.331351510000047,8.69999999999709],[114.16038764000007,22.33137490000007,8.69999999999709],[114.16038632000004,22.331373410000026,8.69999999999709],[114.16038486000002,22.331371760000025,8.69999999999709],[114.16036005000001,22.331343740000023,8.69999999999709],[114.16034088000004,22.331358600000044,8.69999999999709],[114.1603158800001,22.33137800000003,8.69999999999709],[114.16025880000007,22.331422270000076,8.69999999999709],[114.16025231000003,22.331427310000038,8.69999999999709],[114.16024340000001,22.331434220000062,8.69999999999709],[114.16021959000011,22.331452700000057,8.69999999999709],[114.1602057,22.331463470000074,8.69999999999709],[114.1601907700001,22.33147505000005,8.69999999999709],[114.16018006000002,22.33148336000005,8.69999999999709],[114.1601347400001,22.331518510000024,8.69999999999709],[114.16013415000009,22.331518980000055,8.69999999999709],[114.16011299000002,22.331535380000048,8.69999999999709],[114.1601022100001,22.331543750000037,8.69999999999709],[114.16006894000009,22.33156955000004,8.69999999999709],[114.16000377000012,22.331620110000074,8.69999999999709],[114.15998057000002,22.33163811000003,8.69999999999709],[114.1599677800001,22.331648030000053,8.69999999999709],[114.15995702000009,22.331656380000027,8.69999999999709],[114.15994744000011,22.331663810000066,8.69999999999709],[114.1599374000001,22.33167159000004,8.69999999999709],[114.15991874000008,22.331686070000046,8.69999999999709],[114.15988393000009,22.331713070000035,8.69999999999709],[114.15985486000011,22.331735620000075,8.69999999999709],[114.15982356000006,22.331759910000073,8.69999999999709],[114.15983547000008,22.33177322000006,8.69999999999709],[114.15984160000005,22.33178006000003,8.69999999999709],[114.15985391000004,22.331793810000022,8.69999999999709],[114.1599045800001,22.331850410000072,8.69999999999709],[114.15997287000005,22.331926680000038,8.69999999999709],[114.15997375000006,22.331927660000076,8.69999999999709],[114.16004369000007,22.332004850000033,8.69999999999709],[114.1600493300001,22.33201107000008,8.69999999999709],[114.16007829000011,22.332043030000023,8.69999999999709],[114.16010258000006,22.33206984000003,8.69999999999709],[114.16010268000002,22.33206995000006,8.69999999999709],[114.16011756000012,22.332086660000073,8.69999999999709],[114.16012698000009,22.332097240000053,8.69999999999709],[114.16017159,22.33214735000007,8.69999999999709],[114.16018129000008,22.33213980000005,8.69999999999709]]]},"geometry_name":"shape","properties":{"level_id":"efa3b69e-2bed-4508-bd74-461aeaadd2a4","level_floorpolyid":"F3456021411P2006031101000100","level_ordinal":1,"level_z_value":8.7,"level_name_en":"1ST FLOOR","level_name_zh":null,"level_short_name_en":"1/F","level_category":"unspecified","level_restriction":null,"level_outdoor":0,"venue_id":"bd9576da-e2d9-47ff-9ab1-447a54ddff47","venue_category":"governmentfacility","venue_name_en":"Cheung Sha Wan Government Offices","venue_name_zh":"長沙灣政府合署","venue_alt_name":null,"venue_restriction":null,"venue_hours":null,"venue_website":null,"venue_phone":null,"address_address":"303 CHEUNG SHA WAN ROAD","address_unit":null,"address_locality":"SHAM SHUI PO DISTRICT","building_id":"1237fb23-4f64-4512-be03-9991c720e20f","building_category":"unspecified","building_name_en":"Cheung Sha Wan Government Offices Podium","building_name_zh":"長沙灣政府合署平台","building_alt_name":null,"building_restriction":"","bbox":[114.15982356000006,22.331343740000023,114.16076276000001,22.33214735000007]}}]}