{"type":"FeatureCollection","features":[{"type":"Feature","id":"amenity_point.274453","geometry":{"type":"Point","coordinates":[114.16715809000004,22.33311439000005,9.10000000000582]},"geometry_name":"shape","properties":{"amenity_id":"68817d72-f1e5-40d6-b2ed-c8d156a08dbe","amenity_category":"stairs","amenity_name_en":"STAIRCASE NO. 1","amenity_name_zh":"樓梯","amenity_alt_name":null,"amenity_accessibility":null,"amenity_phone":null,"amenity_website":null,"amenity_hours":null,"amenity_correlation_id":null,"unit_id":"f2615334-9127-4fdc-a56c-9b8e45683abf","level_id":"dc269231-91d9-4c8b-8427-a31f996715ca","level_floorpolyid":"F3526421568T2012122002000000","level_ordinal":0,"level_z_value":9.1,"level_name_en":"G/F","level_name_zh":null,"level_short_name_en":"G/F","venue_id":"0409d24b-80aa-4de5-adc5-ab0aa2864176","building_id":"ff59118b-d2a6-4e11-ba2d-e8ca2fcfbf65","bbox":[114.16715809000004,22.33311439000005,114.16715809000004,22.33311439000005]}},{"type":"Feature","id":"amenity_point.274454","geometry":{"type":"Point","coordinates":[114.16734735000011,22.333463300000062,9.10000000000582]},"geometry_name":"shape","properties":{"amenity_id":"dadf6d7e-048e-4ce5-af71-a7fc00cf34c1","amenity_category":"stairs","amenity_name_en":"STAIRCASE NO. 2","amenity_name_zh":"樓梯","amenity_alt_name":null,"amenity_accessibility":null,"amenity_phone":null,"amenity_website":null,"amenity_hours":null,"amenity_correlation_id":null,"unit_id":"34923d7f-8570-417c-986b-6765d03b7d9b","level_id":"dc269231-91d9-4c8b-8427-a31f996715ca","level_floorpolyid":"F3526421568T2012122002000000","level_ordinal":0,"level_z_value":9.1,"level_name_en":"G/F","level_name_zh":null,"level_short_name_en":"G/F","venue_id":"0409d24b-80aa-4de5-adc5-ab0aa2864176","building_id":"ff59118b-d2a6-4e11-ba2d-e8ca2fcfbf65","bbox":[114.16734735000011,22.333463300000062,114.16734735000011,22.333463300000062]}},{"type":"Feature","id":"amenity_point.274455","geometry":{"type":"Point","coordinates":[114.16708276000008,22.33306257000004,9.10000000000582]},"geometry_name":"shape","properties":{"amenity_id":"5b99b2bd-e6b6-4cd7-81f9-098f7d36ed99","amenity_category":"elevator","amenity_name_en":"LIFT NO.2","amenity_name_zh":"升降機","amenity_alt_name":null,"amenity_accessibility":null,"amenity_phone":null,"amenity_website":null,"amenity_hours":null,"amenity_correlation_id":null,"unit_id":"f2111427-e7cd-4b3c-96ba-e411b7646650","level_id":"dc269231-91d9-4c8b-8427-a31f996715ca","level_floorpolyid":"F3526421568T2012122002000000","level_ordinal":0,"level_z_value":9.1,"level_name_en":"G/F","level_name_zh":null,"level_short_name_en":"G/F","venue_id":"0409d24b-80aa-4de5-adc5-ab0aa2864176","building_id":"ff59118b-d2a6-4e11-ba2d-e8ca2fcfbf65","bbox":[114.16708276000008,22.33306257000004,114.16708276000008,22.33306257000004]}},{"type":"Feature","id":"amenity_point.274456","geometry":{"type":"Point","coordinates":[114.16705032000004,22.33302131000005,9.10000000000582]},"geometry_name":"shape","properties":{"amenity_id":"00c8ed16-e2bb-437d-8e22-7b0b5f1759dc","amenity_category":"elevator","amenity_name_en":"LIFT NO.4","amenity_name_zh":"升降機","amenity_alt_name":null,"amenity_accessibility":null,"amenity_phone":null,"amenity_website":null,"amenity_hours":null,"amenity_correlation_id":null,"unit_id":"f9368ee6-36d1-464a-a2df-8d438118d1f4","level_id":"dc269231-91d9-4c8b-8427-a31f996715ca","level_floorpolyid":"F3526421568T2012122002000000","level_ordinal":0,"level_z_value":9.1,"level_name_en":"G/F","level_name_zh":null,"level_short_name_en":"G/F","venue_id":"0409d24b-80aa-4de5-adc5-ab0aa2864176","building_id":"ff59118b-d2a6-4e11-ba2d-e8ca2fcfbf65","bbox":[114.16705032000004,22.33302131000005,114.16705032000004,22.33302131000005]}},{"type":"Feature","id":"amenity_point.274457","geometry":{"type":"Point","coordinates":[114.16706840000006,22.333041560000026,9.10000000000582]},"geometry_name":"shape","properties":{"amenity_id":"62cc7cc3-6a43-4489-b717-ad0be72f423e","amenity_category":"elevator","amenity_name_en":"LIFT NO.3","amenity_name_zh":"升降機","amenity_alt_name":null,"amenity_accessibility":null,"amenity_phone":null,"amenity_website":null,"amenity_hours":null,"amenity_correlation_id":null,"unit_id":"d922f575-617e-4ee0-a9ae-c00f92b4af54","level_id":"dc269231-91d9-4c8b-8427-a31f996715ca","level_floorpolyid":"F3526421568T2012122002000000","level_ordinal":0,"level_z_value":9.1,"level_name_en":"G/F","level_name_zh":null,"level_short_name_en":"G/F","venue_id":"0409d24b-80aa-4de5-adc5-ab0aa2864176","building_id":"ff59118b-d2a6-4e11-ba2d-e8ca2fcfbf65","bbox":[114.16706840000006,22.333041560000026,114.16706840000006,22.333041560000026]}},{"type":"Feature","id":"amenity_point.274458","geometry":{"type":"Point","coordinates":[114.16709927000011,22.333081020000066,9.10000000000582]},"geometry_name":"shape","properties":{"amenity_id":"a7c60b0b-f484-4384-84ae-4f24bb4961f7","amenity_category":"elevator","amenity_name_en":"LIFT NO.1","amenity_name_zh":"升降機","amenity_alt_name":null,"amenity_accessibility":null,"amenity_phone":null,"amenity_website":null,"amenity_hours":null,"amenity_correlation_id":null,"unit_id":"d57bbb5d-bcda-4ab9-89f2-9d66b2148bdc","level_id":"dc269231-91d9-4c8b-8427-a31f996715ca","level_floorpolyid":"F3526421568T2012122002000000","level_ordinal":0,"level_z_value":9.1,"level_name_en":"G/F","level_name_zh":null,"level_short_name_en":"G/F","venue_id":"0409d24b-80aa-4de5-adc5-ab0aa2864176","building_id":"ff59118b-d2a6-4e11-ba2d-e8ca2fcfbf65","bbox":[114.16709927000011,22.333081020000066,114.16709927000011,22.333081020000066]}},{"type":"Feature","id":"amenity_point.274459","geometry":{"type":"Point","coordinates":[114.16715808000004,22.33311439000005,14.39999999999418]},"geometry_name":"shape","properties":{"amenity_id":"4c8260f7-189f-42db-83ab-834cf52c8fd0","amenity_category":"stairs","amenity_name_en":"STAIRCASE NO. 1","amenity_name_zh":"樓梯","amenity_alt_name":null,"amenity_accessibility":null,"amenity_phone":null,"amenity_website":null,"amenity_hours":null,"amenity_correlation_id":null,"unit_id":"8712a30d-361d-4994-80b9-894355a31e08","level_id":"012c4a74-a042-481b-ada0-80b739a5bf63","level_floorpolyid":"F3526421568T2012122001000100","level_ordinal":1,"level_z_value":14.4,"level_name_en":"1/F","level_name_zh":null,"level_short_name_en":"1/F","venue_id":"0409d24b-80aa-4de5-adc5-ab0aa2864176","building_id":"ff59118b-d2a6-4e11-ba2d-e8ca2fcfbf65","bbox":[114.16715808000004,22.33311439000005,114.16715808000004,22.33311439000005]}},{"type":"Feature","id":"amenity_point.274460","geometry":{"type":"Point","coordinates":[114.16734735000011,22.333463300000062,14.39999999999418]},"geometry_name":"shape","properties":{"amenity_id":"e4e3c8a5-444d-4277-8648-cd7b42ea01c2","amenity_category":"stairs","amenity_name_en":"STAIRCASE NO. 2","amenity_name_zh":"樓梯","amenity_alt_name":null,"amenity_accessibility":null,"amenity_phone":null,"amenity_website":null,"amenity_hours":null,"amenity_correlation_id":null,"unit_id":"4a8e52bf-d855-4997-a42e-60cbcda04364","level_id":"012c4a74-a042-481b-ada0-80b739a5bf63","level_floorpolyid":"F3526421568T2012122001000100","level_ordinal":1,"level_z_value":14.4,"level_name_en":"1/F","level_name_zh":null,"level_short_name_en":"1/F","venue_id":"0409d24b-80aa-4de5-adc5-ab0aa2864176","building_id":"ff59118b-d2a6-4e11-ba2d-e8ca2fcfbf65","bbox":[114.16734735000011,22.333463300000062,114.16734735000011,22.333463300000062]}},{"type":"Feature","id":"amenity_point.274461","geometry":{"type":"Point","coordinates":[114.16708276000008,22.33306257000004,14.39999999999418]},"geometry_name":"shape","properties":{"amenity_id":"8a159f2d-4bc2-4d3b-8fe8-513ed08ccb09","amenity_category":"elevator","amenity_name_en":"LIFT NO.2","amenity_name_zh":"升降機","amenity_alt_name":null,"amenity_accessibility":null,"amenity_phone":null,"amenity_website":null,"amenity_hours":null,"amenity_correlation_id":null,"unit_id":"df6aca88-2482-47fc-98e4-b38f0e3bf8e1","level_id":"012c4a74-a042-481b-ada0-80b739a5bf63","level_floorpolyid":"F3526421568T2012122001000100","level_ordinal":1,"level_z_value":14.4,"level_name_en":"1/F","level_name_zh":null,"level_short_name_en":"1/F","venue_id":"0409d24b-80aa-4de5-adc5-ab0aa2864176","building_id":"ff59118b-d2a6-4e11-ba2d-e8ca2fcfbf65","bbox":[114.16708276000008,22.33306257000004,114.16708276000008,22.33306257000004]}},{"type":"Feature","id":"amenity_point.274462","geometry":{"type":"Point","coordinates":[114.16705031000004,22.33302131000005,14.39999999999418]},"geometry_name":"shape","properties":{"amenity_id":"e952f3af-4507-47d3-a8c2-1e3f71122d3e","amenity_category":"elevator","amenity_name_en":"LIFT NO.4","amenity_name_zh":"升降機","amenity_alt_name":null,"amenity_accessibility":null,"amenity_phone":null,"amenity_website":null,"amenity_hours":null,"amenity_correlation_id":null,"unit_id":"7bf055a1-a025-4155-b34d-ff8ff99d30f4","level_id":"012c4a74-a042-481b-ada0-80b739a5bf63","level_floorpolyid":"F3526421568T2012122001000100","level_ordinal":1,"level_z_value":14.4,"level_name_en":"1/F","level_name_zh":null,"level_short_name_en":"1/F","venue_id":"0409d24b-80aa-4de5-adc5-ab0aa2864176","building_id":"ff59118b-d2a6-4e11-ba2d-e8ca2fcfbf65","bbox":[114.16705031000004,22.33302131000005,114.16705031000004,22.33302131000005]}},{"type":"Feature","id":"amenity_point.274463","geometry":{"type":"Point","coordinates":[114.16706840000006,22.333041560000026,14.39999999999418]},"geometry_name":"shape","properties":{"amenity_id":"7b526fb7-ff81-4ba2-ab48-524ca3e82dc8","amenity_category":"elevator","amenity_name_en":"LIFT NO.3","amenity_name_zh":"升降機","amenity_alt_name":null,"amenity_accessibility":null,"amenity_phone":null,"amenity_website":null,"amenity_hours":null,"amenity_correlation_id":null,"unit_id":"29d20231-805c-4c73-89b1-b33daacc3640","level_id":"012c4a74-a042-481b-ada0-80b739a5bf63","level_floorpolyid":"F3526421568T2012122001000100","level_ordinal":1,"level_z_value":14.4,"level_name_en":"1/F","level_name_zh":null,"level_short_name_en":"1/F","venue_id":"0409d24b-80aa-4de5-adc5-ab0aa2864176","building_id":"ff59118b-d2a6-4e11-ba2d-e8ca2fcfbf65","bbox":[114.16706840000006,22.333041560000026,114.16706840000006,22.333041560000026]}},{"type":"Feature","id":"amenity_point.274464","geometry":{"type":"Point","coordinates":[114.16709927000011,22.333081020000066,14.39999999999418]},"geometry_name":"shape","properties":{"amenity_id":"06ed5965-302f-4ae2-8f3a-a8213586462c","amenity_category":"elevator","amenity_name_en":"LIFT NO.1","amenity_name_zh":"升降機","amenity_alt_name":null,"amenity_accessibility":null,"amenity_phone":null,"amenity_website":null,"amenity_hours":null,"amenity_correlation_id":null,"unit_id":"7059c356-aac7-4dc6-8856-6ebe16fa532d","level_id":"012c4a74-a042-481b-ada0-80b739a5bf63","level_floorpolyid":"F3526421568T2012122001000100","level_ordinal":1,"level_z_value":14.4,"level_name_en":"1/F","level_name_zh":null,"level_short_name_en":"1/F","venue_id":"0409d24b-80aa-4de5-adc5-ab0aa2864176","building_id":"ff59118b-d2a6-4e11-ba2d-e8ca2fcfbf65","bbox":[114.16709927000011,22.333081020000066,114.16709927000011,22.333081020000066]}}]}