{"type":"FeatureCollection","features":[{"type":"Feature","id":"level_polygon.10929","geometry":{"type":"Polygon","coordinates":[[[114.16729722000002,22.333480850000058,9.10000000000582],[114.16731286000004,22.33346854000007,9.10000000000582],[114.16732650000006,22.33348366000007,9.10000000000582],[114.16732767000008,22.333484960000078,9.10000000000582],[114.16733361000001,22.333491580000043,9.10000000000582],[114.1673338700001,22.333491870000046,9.10000000000582],[114.16733622000004,22.333494460000054,9.10000000000582],[114.16735678000009,22.333478310000032,9.10000000000582],[114.16737922000004,22.333460670000022,9.10000000000582],[114.16744512000002,22.333408880000036,9.10000000000582],[114.16744698000002,22.33340742000007,9.10000000000582],[114.16745405000006,22.333401870000046,9.10000000000582],[114.16743036000003,22.333375600000068,9.10000000000582],[114.16743926000004,22.33336870000005,9.10000000000582],[114.1674359000001,22.33336496000004,9.10000000000582],[114.16743880000001,22.333362600000044,9.10000000000582],[114.1674175500001,22.333338980000065,9.10000000000582],[114.1674212800001,22.333336040000063,9.10000000000582],[114.16737897000007,22.333289000000036,9.10000000000582],[114.16737522000005,22.33329193000003,9.10000000000582],[114.16733006000004,22.333241720000046,9.10000000000582],[114.16733375000001,22.33323876000003,9.10000000000582],[114.16729142000008,22.33319165000006,9.10000000000582],[114.16728766000006,22.333194570000046,9.10000000000582],[114.16726732000006,22.333171940000057,9.10000000000582],[114.16727107000008,22.333169050000038,9.10000000000582],[114.16720936000002,22.333100560000048,9.10000000000582],[114.16720282000006,22.333105610000075,9.10000000000582],[114.16719754000007,22.333099740000023,9.10000000000582],[114.16717652000011,22.333076350000056,9.10000000000582],[114.16711103000011,22.33300348000006,9.10000000000582],[114.16709638000009,22.332987180000032,9.10000000000582],[114.16708598000002,22.332975600000054,9.10000000000582],[114.16707640000004,22.33296506000005,9.10000000000582],[114.16706863000002,22.332971190000023,9.10000000000582],[114.16707793,22.332981430000075,9.10000000000582],[114.16705072000002,22.333002960000044,9.10000000000582],[114.16703099000006,22.333018570000036,9.10000000000582],[114.16694199000005,22.33308898000007,9.10000000000582],[114.16694486000006,22.33309218000005,9.10000000000582],[114.16694756000004,22.33309009000004,9.10000000000582],[114.16698701000007,22.33313418000006,9.10000000000582],[114.16698712000004,22.33313430000004,9.10000000000582],[114.16698457000007,22.333136280000076,9.10000000000582],[114.16698944000007,22.33314168000004,9.10000000000582],[114.16699197000003,22.333139720000077,9.10000000000582],[114.1670307500001,22.33318305000006,9.10000000000582],[114.16702837000003,22.33318490000005,9.10000000000582],[114.16703311000003,22.333190160000072,9.10000000000582],[114.16703547000009,22.33318834000005,9.10000000000582],[114.16707425000004,22.333231670000032,9.10000000000582],[114.16707215000008,22.333233310000026,9.10000000000582],[114.16707696000003,22.333238680000022,9.10000000000582],[114.16712096000003,22.333287660000053,9.10000000000582],[114.16712296000003,22.333286110000074,9.10000000000582],[114.16715665000004,22.333323750000034,9.10000000000582],[114.1671547200001,22.33332525000003,9.10000000000582],[114.16715663000002,22.333327370000063,9.10000000000582],[114.1671551600001,22.33332850000005,9.10000000000582],[114.16716634000011,22.333340930000077,9.10000000000582],[114.16716780000002,22.333339800000033,9.10000000000582],[114.16716971000005,22.333341940000025,9.10000000000582],[114.16717161000008,22.333340470000053,9.10000000000582],[114.16720538000004,22.333378210000035,9.10000000000582],[114.16720356000008,22.333379620000073,9.10000000000582],[114.16720821000001,22.333384790000025,9.10000000000582],[114.16721001000008,22.33338339000005,9.10000000000582],[114.16724383000007,22.333421190000024,9.10000000000582],[114.16724211000007,22.333422520000056,9.10000000000582],[114.1672441400001,22.33342478000003,9.10000000000582],[114.16724274,22.333425870000042,9.10000000000582],[114.16725373000008,22.333438090000072,9.10000000000582],[114.16725513000006,22.33343701000007,9.10000000000582],[114.16725731000008,22.333439440000063,9.10000000000582],[114.16725900000006,22.333438130000047,9.10000000000582],[114.1672925900001,22.33347567000004,9.10000000000582],[114.16729098000008,22.333476920000066,9.10000000000582],[114.16728817,22.333479090000026,9.10000000000582],[114.16730740000003,22.33350046000004,9.10000000000582],[114.1673105000001,22.333498090000035,9.10000000000582],[114.16729607000002,22.333481750000033,9.10000000000582],[114.16729722000002,22.333480850000058,9.10000000000582]]]},"geometry_name":"shape","properties":{"level_id":"dc269231-91d9-4c8b-8427-a31f996715ca","level_floorpolyid":"F3526421568T2012122002000000","level_ordinal":0,"level_z_value":9.1,"level_name_en":"G/F","level_name_zh":null,"level_short_name_en":"G/F","level_category":"unspecified","level_restriction":"restricted","level_outdoor":0,"venue_id":"0409d24b-80aa-4de5-adc5-ab0aa2864176","venue_category":"governmentfacility","venue_name_en":"Shek Kip Mei Estate Ancillary Facilities Block","venue_name_zh":"石硤尾邨服務設施大樓","venue_alt_name":null,"venue_restriction":null,"venue_hours":null,"venue_website":null,"venue_phone":null,"address_address":"100 WOH CHAI STREET","address_unit":null,"address_locality":"SHAM SHUI PO DISTRICT","building_id":"ff59118b-d2a6-4e11-ba2d-e8ca2fcfbf65","building_category":"unspecified","building_name_en":"Shek Kip Mei Estate Ancillary Facilities Block","building_name_zh":"石硤尾邨服務設施大樓","building_alt_name":null,"building_restriction":"","bbox":[114.16694199000005,22.33296506000005,114.16745405000006,22.33350046000004]}},{"type":"Feature","id":"level_polygon.10930","geometry":{"type":"Polygon","coordinates":[[[114.16729722000002,22.333480850000058,14.39999999999418],[114.16731286000004,22.33346854000007,14.39999999999418],[114.16732767000008,22.333484960000078,14.39999999999418],[114.1673338600001,22.333491870000046,14.39999999999418],[114.16733622000004,22.333494460000054,14.39999999999418],[114.16735678000009,22.333478310000032,14.39999999999418],[114.16737922000004,22.33346068000003,14.39999999999418],[114.1673994900001,22.33344475000007,14.39999999999418],[114.16743749000011,22.333414880000078,14.39999999999418],[114.16744512000002,22.333408880000036,14.39999999999418],[114.16744698000002,22.33340742000007,14.39999999999418],[114.16745404000005,22.333401870000046,14.39999999999418],[114.16743036000003,22.333375600000068,14.39999999999418],[114.16743926000004,22.33336870000005,14.39999999999418],[114.16743589000009,22.33336496000004,14.39999999999418],[114.16743879,22.333362600000044,14.39999999999418],[114.1674175500001,22.333338980000065,14.39999999999418],[114.1674212800001,22.333336040000063,14.39999999999418],[114.16740744000003,22.333320650000076,14.39999999999418],[114.16739265000001,22.33330421000005,14.39999999999418],[114.16737897000007,22.333289000000036,14.39999999999418],[114.16737522000005,22.33329193000003,14.39999999999418],[114.16735470000003,22.33326911000006,14.39999999999418],[114.16735044000006,22.33326438000006,14.39999999999418],[114.16733006000004,22.333241720000046,14.39999999999418],[114.16733375000001,22.33323876000003,14.39999999999418],[114.16732014000002,22.33322361000006,14.39999999999418],[114.16730523000001,22.33320702000003,14.39999999999418],[114.16729142000008,22.33319165000006,14.39999999999418],[114.16728766000006,22.333194570000046,14.39999999999418],[114.16726732000006,22.333171940000057,14.39999999999418],[114.16727107000008,22.333169050000038,14.39999999999418],[114.16726687000005,22.333164390000036,14.39999999999418],[114.1672270900001,22.333120240000028,14.39999999999418],[114.16720936000002,22.333100560000048,14.39999999999418],[114.16720282000006,22.333105620000026,14.39999999999418],[114.16720247,22.333105230000058,14.39999999999418],[114.16719922000004,22.33310161000003,14.39999999999418],[114.16719754000007,22.333099740000023,14.39999999999418],[114.16719623000006,22.33309828000006,14.39999999999418],[114.16717770000002,22.333077670000023,14.39999999999418],[114.16717652000011,22.333076350000056,14.39999999999418],[114.16717253000002,22.333071920000066,14.39999999999418],[114.16714635000005,22.333042780000028,14.39999999999418],[114.16711464000002,22.333007500000065,14.39999999999418],[114.16708875000006,22.33297869000006,14.39999999999418],[114.16708597000002,22.332975600000054,14.39999999999418],[114.16707639000003,22.33296506000005,14.39999999999418],[114.16706863000002,22.332971190000023,14.39999999999418],[114.16707793,22.332981430000075,14.39999999999418],[114.16705072000002,22.333002960000044,14.39999999999418],[114.16703099000006,22.333018570000036,14.39999999999418],[114.16701916000011,22.33302793000007,14.39999999999418],[114.16700909000008,22.333035900000027,14.39999999999418],[114.1669967900001,22.333045630000072,14.39999999999418],[114.16694937000011,22.33308315000005,14.39999999999418],[114.16694199000005,22.33308899000008,14.39999999999418],[114.16694485000005,22.33309218000005,14.39999999999418],[114.16694756000004,22.33309009000004,14.39999999999418],[114.16698701000007,22.33313418000006,14.39999999999418],[114.16698712000004,22.33313430000004,14.39999999999418],[114.16698457000007,22.333136280000076,14.39999999999418],[114.16698944000007,22.33314168000004,14.39999999999418],[114.16699197000003,22.333139720000077,14.39999999999418],[114.16703074000009,22.33318305000006,14.39999999999418],[114.16702836000002,22.33318490000005,14.39999999999418],[114.16703311000003,22.333190170000023,14.39999999999418],[114.16703547000009,22.33318834000005,14.39999999999418],[114.16707425000004,22.333231670000032,14.39999999999418],[114.16707214000007,22.333233310000026,14.39999999999418],[114.16707695000002,22.333238680000022,14.39999999999418],[114.16712096000003,22.333287660000053,14.39999999999418],[114.16712296000003,22.333286110000074,14.39999999999418],[114.16715665000004,22.333323750000034,14.39999999999418],[114.1671547200001,22.33332525000003,14.39999999999418],[114.16715662000001,22.333327370000063,14.39999999999418],[114.1671551600001,22.33332850000005,14.39999999999418],[114.16716634000011,22.333340930000077,14.39999999999418],[114.16716780000002,22.333339800000033,14.39999999999418],[114.16716971000005,22.333341940000025,14.39999999999418],[114.16717161000008,22.333340470000053,14.39999999999418],[114.16720538000004,22.333378210000035,14.39999999999418],[114.16720356000008,22.333379620000073,14.39999999999418],[114.16720821000001,22.333384790000025,14.39999999999418],[114.16721001000008,22.33338339000005,14.39999999999418],[114.16724383000007,22.333421190000024,14.39999999999418],[114.16724210000007,22.333422520000056,14.39999999999418],[114.1672441400001,22.33342478000003,14.39999999999418],[114.16724274,22.333425870000042,14.39999999999418],[114.16725373000008,22.333438090000072,14.39999999999418],[114.16725512000005,22.33343701000007,14.39999999999418],[114.16725731000008,22.33343945000007,14.39999999999418],[114.16725900000006,22.333438140000055,14.39999999999418],[114.1672925800001,22.33347567000004,14.39999999999418],[114.16729097000007,22.333476920000066,14.39999999999418],[114.16728816000011,22.333479100000034,14.39999999999418],[114.16730740000003,22.33350046000004,14.39999999999418],[114.1673105000001,22.333498090000035,14.39999999999418],[114.16729607000002,22.333481750000033,14.39999999999418],[114.16729722000002,22.333480850000058,14.39999999999418]]]},"geometry_name":"shape","properties":{"level_id":"012c4a74-a042-481b-ada0-80b739a5bf63","level_floorpolyid":"F3526421568T2012122001000100","level_ordinal":1,"level_z_value":14.4,"level_name_en":"1/F","level_name_zh":null,"level_short_name_en":"1/F","level_category":"unspecified","level_restriction":"restricted","level_outdoor":0,"venue_id":"0409d24b-80aa-4de5-adc5-ab0aa2864176","venue_category":"governmentfacility","venue_name_en":"Shek Kip Mei Estate Ancillary Facilities Block","venue_name_zh":"石硤尾邨服務設施大樓","venue_alt_name":null,"venue_restriction":null,"venue_hours":null,"venue_website":null,"venue_phone":null,"address_address":"100 WOH CHAI STREET","address_unit":null,"address_locality":"SHAM SHUI PO DISTRICT","building_id":"ff59118b-d2a6-4e11-ba2d-e8ca2fcfbf65","building_category":"unspecified","building_name_en":"Shek Kip Mei Estate Ancillary Facilities Block","building_name_zh":"石硤尾邨服務設施大樓","building_alt_name":null,"building_restriction":"","bbox":[114.16694199000005,22.33296506000005,114.16745404000005,22.33350046000004]}}]}