{"type":"FeatureCollection","features":[{"type":"Feature","id":"unit_polygon.359291","geometry":{"type":"Polygon","coordinates":[[[114.16717377000009,22.333118140000067,9.10000000000582],[114.16719754000007,22.333099740000023,9.10000000000582],[114.16717652000011,22.333076350000056,9.10000000000582],[114.16713969000011,22.333104870000057,9.10000000000582],[114.16713630000004,22.333101080000063,9.10000000000582],[114.16711820000012,22.333115090000035,9.10000000000582],[114.16715480000005,22.333155990000023,9.10000000000582],[114.16716323000003,22.333149450000064,9.10000000000582],[114.16716058000009,22.33314648000004,9.10000000000582],[114.16717457000004,22.33313565000003,9.10000000000582],[114.16716499000006,22.33312494000006,9.10000000000582],[114.16717377000009,22.333118140000067,9.10000000000582]]]},"geometry_name":"shape","properties":{"unit_id":"f2615334-9127-4fdc-a56c-9b8e45683abf","unit_category":"stairs","unit_name_en":"STAIRCASE NO. 1","unit_name_zh":"樓梯","unit_alt_name":null,"unit_unitnumbername":null,"unit_restriction":null,"unit_accessibility":null,"level_id":"dc269231-91d9-4c8b-8427-a31f996715ca","level_floorpolyid":"F3526421568T2012122002000000","level_ordinal":0,"level_z_value":9.1,"level_name_en":"G/F","level_name_zh":null,"level_short_name_en":"G/F","level_category":"unspecified","level_restriction":"restricted","level_outdoor":0,"venue_id":"0409d24b-80aa-4de5-adc5-ab0aa2864176","venue_category":"governmentfacility","venue_name_en":"Shek Kip Mei Estate Ancillary Facilities Block","venue_name_zh":"石硤尾邨服務設施大樓","venue_alt_name":null,"venue_restriction":null,"venue_hours":null,"venue_website":null,"venue_phone":null,"address_address":"100 WOH CHAI STREET","address_unit":null,"address_locality":"SHAM SHUI PO DISTRICT","building_id":"ff59118b-d2a6-4e11-ba2d-e8ca2fcfbf65","building_category":"unspecified","building_name_en":"Shek Kip Mei Estate Ancillary Facilities Block","building_name_zh":"石硤尾邨服務設施大樓","building_alt_name":null,"building_restriction":"","bbox":[114.16711820000012,22.333076350000056,114.16719754000007,22.333155990000023]}},{"type":"Feature","id":"unit_polygon.359293","geometry":{"type":"Polygon","coordinates":[[[114.16737922000004,22.333460670000022,9.10000000000582],[114.16737253000008,22.333453200000065,9.10000000000582],[114.16737662000003,22.33345004000006,9.10000000000582],[114.16736030000004,22.333431800000028,9.10000000000582],[114.16731286000004,22.33346854000007,9.10000000000582],[114.16733622000004,22.333494460000054,9.10000000000582],[114.16737922000004,22.333460670000022,9.10000000000582]]]},"geometry_name":"shape","properties":{"unit_id":"34923d7f-8570-417c-986b-6765d03b7d9b","unit_category":"stairs","unit_name_en":"STAIRCASE NO. 2","unit_name_zh":"樓梯","unit_alt_name":null,"unit_unitnumbername":null,"unit_restriction":null,"unit_accessibility":null,"level_id":"dc269231-91d9-4c8b-8427-a31f996715ca","level_floorpolyid":"F3526421568T2012122002000000","level_ordinal":0,"level_z_value":9.1,"level_name_en":"G/F","level_name_zh":null,"level_short_name_en":"G/F","level_category":"unspecified","level_restriction":"restricted","level_outdoor":0,"venue_id":"0409d24b-80aa-4de5-adc5-ab0aa2864176","venue_category":"governmentfacility","venue_name_en":"Shek Kip Mei Estate Ancillary Facilities Block","venue_name_zh":"石硤尾邨服務設施大樓","venue_alt_name":null,"venue_restriction":null,"venue_hours":null,"venue_website":null,"venue_phone":null,"address_address":"100 WOH CHAI STREET","address_unit":null,"address_locality":"SHAM SHUI PO DISTRICT","building_id":"ff59118b-d2a6-4e11-ba2d-e8ca2fcfbf65","building_category":"unspecified","building_name_en":"Shek Kip Mei Estate Ancillary Facilities Block","building_name_zh":"石硤尾邨服務設施大樓","building_alt_name":null,"building_restriction":"","bbox":[114.16731286000004,22.333431800000028,114.16737922000004,22.333494460000054]}},{"type":"Feature","id":"unit_polygon.359295","geometry":{"type":"Polygon","coordinates":[[[114.16731286000004,22.33346854000007,9.10000000000582],[114.16736030000004,22.333431800000028,9.10000000000582],[114.16737662000003,22.33345004000006,9.10000000000582],[114.16737253000008,22.333453200000065,9.10000000000582],[114.16737922000004,22.333460670000022,9.10000000000582],[114.16745405000006,22.333401870000046,9.10000000000582],[114.16743036000003,22.333375600000068,9.10000000000582],[114.16743926000004,22.33336870000005,9.10000000000582],[114.1674359000001,22.33336496000004,9.10000000000582],[114.16743880000001,22.333362600000044,9.10000000000582],[114.1674175500001,22.333338980000065,9.10000000000582],[114.1674212800001,22.333336040000063,9.10000000000582],[114.16737897000007,22.333289000000036,9.10000000000582],[114.16737522000005,22.33329193000003,9.10000000000582],[114.16733006000004,22.333241720000046,9.10000000000582],[114.16733375000001,22.33323876000003,9.10000000000582],[114.16729142000008,22.33319165000006,9.10000000000582],[114.16728766000006,22.333194570000046,9.10000000000582],[114.16726732000006,22.333171940000057,9.10000000000582],[114.16727107000008,22.333169050000038,9.10000000000582],[114.16720936000002,22.333100560000048,9.10000000000582],[114.16720282000006,22.333105610000075,9.10000000000582],[114.16719754000007,22.333099740000023,9.10000000000582],[114.16716499000006,22.33312494000006,9.10000000000582],[114.16717457000004,22.33313565000003,9.10000000000582],[114.16716058000009,22.33314648000004,9.10000000000582],[114.16716323000003,22.333149450000064,9.10000000000582],[114.16715480000005,22.333155990000023,9.10000000000582],[114.16711820000012,22.333115090000035,9.10000000000582],[114.1671124500001,22.33311955000005,9.10000000000582],[114.1670618600001,22.33306300000004,9.10000000000582],[114.16706711000006,22.333058940000058,9.10000000000582],[114.16703099000006,22.333018570000036,9.10000000000582],[114.16694199000005,22.33308898000007,9.10000000000582],[114.16694486000006,22.33309218000005,9.10000000000582],[114.16694756000004,22.33309009000004,9.10000000000582],[114.16698712000004,22.33313430000004,9.10000000000582],[114.16698457000007,22.333136280000076,9.10000000000582],[114.16698944000007,22.33314168000004,9.10000000000582],[114.16699197000003,22.333139720000077,9.10000000000582],[114.1670307500001,22.33318305000006,9.10000000000582],[114.16702837000003,22.33318490000005,9.10000000000582],[114.16703311000003,22.333190160000072,9.10000000000582],[114.16703547000009,22.33318834000005,9.10000000000582],[114.16707425000004,22.333231670000032,9.10000000000582],[114.16707215000008,22.333233310000026,9.10000000000582],[114.16712096000003,22.333287660000053,9.10000000000582],[114.16712296000003,22.333286110000074,9.10000000000582],[114.16715665000004,22.333323750000034,9.10000000000582],[114.1671547200001,22.33332525000003,9.10000000000582],[114.16715663000002,22.333327370000063,9.10000000000582],[114.1671551600001,22.33332850000005,9.10000000000582],[114.16716634000011,22.333340930000077,9.10000000000582],[114.16716780000002,22.333339800000033,9.10000000000582],[114.16716971000005,22.333341940000025,9.10000000000582],[114.16717161000008,22.333340470000053,9.10000000000582],[114.16720538000004,22.333378210000035,9.10000000000582],[114.16720356000008,22.333379620000073,9.10000000000582],[114.16720821000001,22.333384790000025,9.10000000000582],[114.16721001000008,22.33338339000005,9.10000000000582],[114.16724383000007,22.333421190000024,9.10000000000582],[114.16724211000007,22.333422520000056,9.10000000000582],[114.1672441400001,22.33342478000003,9.10000000000582],[114.16724274,22.333425870000042,9.10000000000582],[114.16725373000008,22.333438090000072,9.10000000000582],[114.16725513000006,22.33343701000007,9.10000000000582],[114.16725731000008,22.333439440000063,9.10000000000582],[114.16725900000006,22.333438130000047,9.10000000000582],[114.1672925900001,22.33347567000004,9.10000000000582],[114.16728817,22.333479090000026,9.10000000000582],[114.16730740000003,22.33350046000004,9.10000000000582],[114.1673105000001,22.333498090000035,9.10000000000582],[114.16729607000002,22.333481750000033,9.10000000000582],[114.16731286000004,22.33346854000007,9.10000000000582]]]},"geometry_name":"shape","properties":{"unit_id":"74fdc7eb-a079-4be1-84f0-f81694f5a06d","unit_category":"unspecified","unit_name_en":"Restricted Space","unit_name_zh":"限制區域","unit_alt_name":null,"unit_unitnumbername":null,"unit_restriction":"restricted","unit_accessibility":null,"level_id":"dc269231-91d9-4c8b-8427-a31f996715ca","level_floorpolyid":"F3526421568T2012122002000000","level_ordinal":0,"level_z_value":9.1,"level_name_en":"G/F","level_name_zh":null,"level_short_name_en":"G/F","level_category":"unspecified","level_restriction":"restricted","level_outdoor":0,"venue_id":"0409d24b-80aa-4de5-adc5-ab0aa2864176","venue_category":"governmentfacility","venue_name_en":"Shek Kip Mei Estate Ancillary Facilities Block","venue_name_zh":"石硤尾邨服務設施大樓","venue_alt_name":null,"venue_restriction":null,"venue_hours":null,"venue_website":null,"venue_phone":null,"address_address":"100 WOH CHAI STREET","address_unit":null,"address_locality":"SHAM SHUI PO DISTRICT","building_id":"ff59118b-d2a6-4e11-ba2d-e8ca2fcfbf65","building_category":"unspecified","building_name_en":"Shek Kip Mei Estate Ancillary Facilities Block","building_name_zh":"石硤尾邨服務設施大樓","building_alt_name":null,"building_restriction":"","bbox":[114.16694199000005,22.333018570000036,114.16745405000006,22.33350046000004]}},{"type":"Feature","id":"unit_polygon.359297","geometry":{"type":"Polygon","coordinates":[[[114.16710366000007,22.33306213000003,9.10000000000582],[114.16708701000005,22.333043520000047,9.10000000000582],[114.1670618600001,22.33306300000004,9.10000000000582],[114.16707851000001,22.333081610000022,9.10000000000582],[114.16710366000007,22.33306213000003,9.10000000000582]]]},"geometry_name":"shape","properties":{"unit_id":"f2111427-e7cd-4b3c-96ba-e411b7646650","unit_category":"elevator","unit_name_en":"LIFT NO.2","unit_name_zh":"升降機","unit_alt_name":null,"unit_unitnumbername":null,"unit_restriction":null,"unit_accessibility":null,"level_id":"dc269231-91d9-4c8b-8427-a31f996715ca","level_floorpolyid":"F3526421568T2012122002000000","level_ordinal":0,"level_z_value":9.1,"level_name_en":"G/F","level_name_zh":null,"level_short_name_en":"G/F","level_category":"unspecified","level_restriction":"restricted","level_outdoor":0,"venue_id":"0409d24b-80aa-4de5-adc5-ab0aa2864176","venue_category":"governmentfacility","venue_name_en":"Shek Kip Mei Estate Ancillary Facilities Block","venue_name_zh":"石硤尾邨服務設施大樓","venue_alt_name":null,"venue_restriction":null,"venue_hours":null,"venue_website":null,"venue_phone":null,"address_address":"100 WOH CHAI STREET","address_unit":null,"address_locality":"SHAM SHUI PO DISTRICT","building_id":"ff59118b-d2a6-4e11-ba2d-e8ca2fcfbf65","building_category":"unspecified","building_name_en":"Shek Kip Mei Estate Ancillary Facilities Block","building_name_zh":"石硤尾邨服務設施大樓","building_alt_name":null,"building_restriction":"","bbox":[114.1670618600001,22.333043520000047,114.16710366000007,22.333081610000022]}},{"type":"Feature","id":"unit_polygon.359299","geometry":{"type":"Polygon","coordinates":[[[114.16706970000007,22.333024180000052,9.10000000000582],[114.16705072000002,22.333002960000044,9.10000000000582],[114.16703099000006,22.333018570000036,9.10000000000582],[114.16704980000009,22.333039590000055,9.10000000000582],[114.16706970000007,22.333024180000052,9.10000000000582]]]},"geometry_name":"shape","properties":{"unit_id":"f9368ee6-36d1-464a-a2df-8d438118d1f4","unit_category":"elevator","unit_name_en":"LIFT NO.4","unit_name_zh":"升降機","unit_alt_name":null,"unit_unitnumbername":null,"unit_restriction":null,"unit_accessibility":null,"level_id":"dc269231-91d9-4c8b-8427-a31f996715ca","level_floorpolyid":"F3526421568T2012122002000000","level_ordinal":0,"level_z_value":9.1,"level_name_en":"G/F","level_name_zh":null,"level_short_name_en":"G/F","level_category":"unspecified","level_restriction":"restricted","level_outdoor":0,"venue_id":"0409d24b-80aa-4de5-adc5-ab0aa2864176","venue_category":"governmentfacility","venue_name_en":"Shek Kip Mei Estate Ancillary Facilities Block","venue_name_zh":"石硤尾邨服務設施大樓","venue_alt_name":null,"venue_restriction":null,"venue_hours":null,"venue_website":null,"venue_phone":null,"address_address":"100 WOH CHAI STREET","address_unit":null,"address_locality":"SHAM SHUI PO DISTRICT","building_id":"ff59118b-d2a6-4e11-ba2d-e8ca2fcfbf65","building_category":"unspecified","building_name_en":"Shek Kip Mei Estate Ancillary Facilities Block","building_name_zh":"石硤尾邨服務設施大樓","building_alt_name":null,"building_restriction":"","bbox":[114.16703099000006,22.333002960000044,114.16706970000007,22.333039590000055]}},{"type":"Feature","id":"unit_polygon.359301","geometry":{"type":"Polygon","coordinates":[[[114.16708701000005,22.333043520000047,9.10000000000582],[114.16706970000007,22.333024180000052,9.10000000000582],[114.16704980000009,22.333039590000055,9.10000000000582],[114.16706711000006,22.333058940000058,9.10000000000582],[114.16708701000005,22.333043520000047,9.10000000000582]]]},"geometry_name":"shape","properties":{"unit_id":"d922f575-617e-4ee0-a9ae-c00f92b4af54","unit_category":"elevator","unit_name_en":"LIFT NO.3","unit_name_zh":"升降機","unit_alt_name":null,"unit_unitnumbername":null,"unit_restriction":null,"unit_accessibility":null,"level_id":"dc269231-91d9-4c8b-8427-a31f996715ca","level_floorpolyid":"F3526421568T2012122002000000","level_ordinal":0,"level_z_value":9.1,"level_name_en":"G/F","level_name_zh":null,"level_short_name_en":"G/F","level_category":"unspecified","level_restriction":"restricted","level_outdoor":0,"venue_id":"0409d24b-80aa-4de5-adc5-ab0aa2864176","venue_category":"governmentfacility","venue_name_en":"Shek Kip Mei Estate Ancillary Facilities Block","venue_name_zh":"石硤尾邨服務設施大樓","venue_alt_name":null,"venue_restriction":null,"venue_hours":null,"venue_website":null,"venue_phone":null,"address_address":"100 WOH CHAI STREET","address_unit":null,"address_locality":"SHAM SHUI PO DISTRICT","building_id":"ff59118b-d2a6-4e11-ba2d-e8ca2fcfbf65","building_category":"unspecified","building_name_en":"Shek Kip Mei Estate Ancillary Facilities Block","building_name_zh":"石硤尾邨服務設施大樓","building_alt_name":null,"building_restriction":"","bbox":[114.16704980000009,22.333024180000052,114.16708701000005,22.333058940000058]}},{"type":"Feature","id":"unit_polygon.359303","geometry":{"type":"Polygon","coordinates":[[[114.16710366000007,22.33306213000003,9.10000000000582],[114.16707851000001,22.333081610000022,9.10000000000582],[114.16709489000004,22.333099910000044,9.10000000000582],[114.1671200400001,22.33308044000006,9.10000000000582],[114.16710366000007,22.33306213000003,9.10000000000582]]]},"geometry_name":"shape","properties":{"unit_id":"d57bbb5d-bcda-4ab9-89f2-9d66b2148bdc","unit_category":"elevator","unit_name_en":"LIFT NO.1","unit_name_zh":"升降機","unit_alt_name":null,"unit_unitnumbername":null,"unit_restriction":null,"unit_accessibility":null,"level_id":"dc269231-91d9-4c8b-8427-a31f996715ca","level_floorpolyid":"F3526421568T2012122002000000","level_ordinal":0,"level_z_value":9.1,"level_name_en":"G/F","level_name_zh":null,"level_short_name_en":"G/F","level_category":"unspecified","level_restriction":"restricted","level_outdoor":0,"venue_id":"0409d24b-80aa-4de5-adc5-ab0aa2864176","venue_category":"governmentfacility","venue_name_en":"Shek Kip Mei Estate Ancillary Facilities Block","venue_name_zh":"石硤尾邨服務設施大樓","venue_alt_name":null,"venue_restriction":null,"venue_hours":null,"venue_website":null,"venue_phone":null,"address_address":"100 WOH CHAI STREET","address_unit":null,"address_locality":"SHAM SHUI PO DISTRICT","building_id":"ff59118b-d2a6-4e11-ba2d-e8ca2fcfbf65","building_category":"unspecified","building_name_en":"Shek Kip Mei Estate Ancillary Facilities Block","building_name_zh":"石硤尾邨服務設施大樓","building_alt_name":null,"building_restriction":"","bbox":[114.16707851000001,22.33306213000003,114.1671200400001,22.333099910000044]}},{"type":"Feature","id":"unit_polygon.359305","geometry":{"type":"Polygon","coordinates":[[[114.16711820000012,22.333115090000035,9.10000000000582],[114.16713630000004,22.333101080000063,9.10000000000582],[114.16713969000011,22.333104870000057,9.10000000000582],[114.16717652000011,22.333076350000056,9.10000000000582],[114.16707640000004,22.33296506000005,9.10000000000582],[114.16706863000002,22.332971190000023,9.10000000000582],[114.16707793,22.332981430000075,9.10000000000582],[114.16705072000002,22.333002960000044,9.10000000000582],[114.1671200400001,22.33308044000006,9.10000000000582],[114.16709489000004,22.333099910000044,9.10000000000582],[114.1671124500001,22.33311955000005,9.10000000000582],[114.16711820000012,22.333115090000035,9.10000000000582]]]},"geometry_name":"shape","properties":{"unit_id":"e0636984-e3f2-41d8-970b-4650614852d4","unit_category":"lobby","unit_name_en":"LIFT LOBBY","unit_name_zh":"升降機大堂","unit_alt_name":null,"unit_unitnumbername":null,"unit_restriction":null,"unit_accessibility":null,"level_id":"dc269231-91d9-4c8b-8427-a31f996715ca","level_floorpolyid":"F3526421568T2012122002000000","level_ordinal":0,"level_z_value":9.1,"level_name_en":"G/F","level_name_zh":null,"level_short_name_en":"G/F","level_category":"unspecified","level_restriction":"restricted","level_outdoor":0,"venue_id":"0409d24b-80aa-4de5-adc5-ab0aa2864176","venue_category":"governmentfacility","venue_name_en":"Shek Kip Mei Estate Ancillary Facilities Block","venue_name_zh":"石硤尾邨服務設施大樓","venue_alt_name":null,"venue_restriction":null,"venue_hours":null,"venue_website":null,"venue_phone":null,"address_address":"100 WOH CHAI STREET","address_unit":null,"address_locality":"SHAM SHUI PO DISTRICT","building_id":"ff59118b-d2a6-4e11-ba2d-e8ca2fcfbf65","building_category":"unspecified","building_name_en":"Shek Kip Mei Estate Ancillary Facilities Block","building_name_zh":"石硤尾邨服務設施大樓","building_alt_name":null,"building_restriction":"","bbox":[114.16705072000002,22.33296506000005,114.16717652000011,22.33311955000005]}},{"type":"Feature","id":"unit_polygon.359307","geometry":{"type":"Polygon","coordinates":[[[114.16717377000009,22.333118140000067,14.39999999999418],[114.16719754000007,22.333099740000023,14.39999999999418],[114.16717652000011,22.333076350000056,14.39999999999418],[114.16713969000011,22.333104870000057,14.39999999999418],[114.16713630000004,22.333101080000063,14.39999999999418],[114.16711820000012,22.333115090000035,14.39999999999418],[114.16715479000004,22.333155990000023,14.39999999999418],[114.16716323000003,22.333149450000064,14.39999999999418],[114.16716057000008,22.33314648000004,14.39999999999418],[114.16717456000003,22.33313565000003,14.39999999999418],[114.16716499000006,22.33312495000007,14.39999999999418],[114.16717377000009,22.333118140000067,14.39999999999418]]]},"geometry_name":"shape","properties":{"unit_id":"8712a30d-361d-4994-80b9-894355a31e08","unit_category":"stairs","unit_name_en":"STAIRCASE NO. 1","unit_name_zh":"樓梯","unit_alt_name":null,"unit_unitnumbername":null,"unit_restriction":null,"unit_accessibility":null,"level_id":"012c4a74-a042-481b-ada0-80b739a5bf63","level_floorpolyid":"F3526421568T2012122001000100","level_ordinal":1,"level_z_value":14.4,"level_name_en":"1/F","level_name_zh":null,"level_short_name_en":"1/F","level_category":"unspecified","level_restriction":"restricted","level_outdoor":0,"venue_id":"0409d24b-80aa-4de5-adc5-ab0aa2864176","venue_category":"governmentfacility","venue_name_en":"Shek Kip Mei Estate Ancillary Facilities Block","venue_name_zh":"石硤尾邨服務設施大樓","venue_alt_name":null,"venue_restriction":null,"venue_hours":null,"venue_website":null,"venue_phone":null,"address_address":"100 WOH CHAI STREET","address_unit":null,"address_locality":"SHAM SHUI PO DISTRICT","building_id":"ff59118b-d2a6-4e11-ba2d-e8ca2fcfbf65","building_category":"unspecified","building_name_en":"Shek Kip Mei Estate Ancillary Facilities Block","building_name_zh":"石硤尾邨服務設施大樓","building_alt_name":null,"building_restriction":"","bbox":[114.16711820000012,22.333076350000056,114.16719754000007,22.333155990000023]}},{"type":"Feature","id":"unit_polygon.359309","geometry":{"type":"Polygon","coordinates":[[[114.16737922000004,22.33346068000003,14.39999999999418],[114.16737253000008,22.333453200000065,14.39999999999418],[114.16737661000002,22.33345004000006,14.39999999999418],[114.16736029000003,22.333431800000028,14.39999999999418],[114.16731286000004,22.33346854000007,14.39999999999418],[114.16733622000004,22.333494460000054,14.39999999999418],[114.16737922000004,22.33346068000003,14.39999999999418]]]},"geometry_name":"shape","properties":{"unit_id":"4a8e52bf-d855-4997-a42e-60cbcda04364","unit_category":"stairs","unit_name_en":"STAIRCASE NO. 2","unit_name_zh":"樓梯","unit_alt_name":null,"unit_unitnumbername":null,"unit_restriction":null,"unit_accessibility":null,"level_id":"012c4a74-a042-481b-ada0-80b739a5bf63","level_floorpolyid":"F3526421568T2012122001000100","level_ordinal":1,"level_z_value":14.4,"level_name_en":"1/F","level_name_zh":null,"level_short_name_en":"1/F","level_category":"unspecified","level_restriction":"restricted","level_outdoor":0,"venue_id":"0409d24b-80aa-4de5-adc5-ab0aa2864176","venue_category":"governmentfacility","venue_name_en":"Shek Kip Mei Estate Ancillary Facilities Block","venue_name_zh":"石硤尾邨服務設施大樓","venue_alt_name":null,"venue_restriction":null,"venue_hours":null,"venue_website":null,"venue_phone":null,"address_address":"100 WOH CHAI STREET","address_unit":null,"address_locality":"SHAM SHUI PO DISTRICT","building_id":"ff59118b-d2a6-4e11-ba2d-e8ca2fcfbf65","building_category":"unspecified","building_name_en":"Shek Kip Mei Estate Ancillary Facilities Block","building_name_zh":"石硤尾邨服務設施大樓","building_alt_name":null,"building_restriction":"","bbox":[114.16731286000004,22.333431800000028,114.16737922000004,22.333494460000054]}},{"type":"Feature","id":"unit_polygon.359311","geometry":{"type":"Polygon","coordinates":[[[114.16731286000004,22.33346854000007,14.39999999999418],[114.16736029000003,22.333431800000028,14.39999999999418],[114.16737661000002,22.33345004000006,14.39999999999418],[114.16737253000008,22.333453200000065,14.39999999999418],[114.16737922000004,22.33346068000003,14.39999999999418],[114.16745404000005,22.333401870000046,14.39999999999418],[114.16743036000003,22.333375600000068,14.39999999999418],[114.16743926000004,22.33336870000005,14.39999999999418],[114.16743589000009,22.33336496000004,14.39999999999418],[114.16743879,22.333362600000044,14.39999999999418],[114.1674175500001,22.333338980000065,14.39999999999418],[114.1674212800001,22.333336040000063,14.39999999999418],[114.16737897000007,22.333289000000036,14.39999999999418],[114.16737522000005,22.33329193000003,14.39999999999418],[114.16733006000004,22.333241720000046,14.39999999999418],[114.16733375000001,22.33323876000003,14.39999999999418],[114.16729142000008,22.33319165000006,14.39999999999418],[114.16728766000006,22.333194570000046,14.39999999999418],[114.16726732000006,22.333171940000057,14.39999999999418],[114.16727107000008,22.333169050000038,14.39999999999418],[114.16720936000002,22.333100560000048,14.39999999999418],[114.16720282000006,22.333105620000026,14.39999999999418],[114.16719754000007,22.333099740000023,14.39999999999418],[114.16716499000006,22.33312495000007,14.39999999999418],[114.16717456000003,22.33313565000003,14.39999999999418],[114.16716057000008,22.33314648000004,14.39999999999418],[114.16716323000003,22.333149450000064,14.39999999999418],[114.16715479000004,22.333155990000023,14.39999999999418],[114.16711820000012,22.333115090000035,14.39999999999418],[114.16713630000004,22.333101080000063,14.39999999999418],[114.16713969000011,22.333104870000057,14.39999999999418],[114.16717652000011,22.333076350000056,14.39999999999418],[114.16707639000003,22.33296506000005,14.39999999999418],[114.16706863000002,22.332971190000023,14.39999999999418],[114.16707793,22.332981430000075,14.39999999999418],[114.16705072000002,22.333002960000044,14.39999999999418],[114.1671200400001,22.33308044000006,14.39999999999418],[114.16709489000004,22.333099920000052,14.39999999999418],[114.1670618600001,22.333063010000046,14.39999999999418],[114.16706711000006,22.333058940000058,14.39999999999418],[114.16703099000006,22.333018570000036,14.39999999999418],[114.16694199000005,22.33308899000008,14.39999999999418],[114.16694485000005,22.33309218000005,14.39999999999418],[114.16694756000004,22.33309009000004,14.39999999999418],[114.16698712000004,22.33313430000004,14.39999999999418],[114.16698457000007,22.333136280000076,14.39999999999418],[114.16698944000007,22.33314168000004,14.39999999999418],[114.16699197000003,22.333139720000077,14.39999999999418],[114.16703074000009,22.33318305000006,14.39999999999418],[114.16702836000002,22.33318490000005,14.39999999999418],[114.16703311000003,22.333190170000023,14.39999999999418],[114.16703547000009,22.33318834000005,14.39999999999418],[114.16707425000004,22.333231670000032,14.39999999999418],[114.16707214000007,22.333233310000026,14.39999999999418],[114.16712096000003,22.333287660000053,14.39999999999418],[114.16712296000003,22.333286110000074,14.39999999999418],[114.16715665000004,22.333323750000034,14.39999999999418],[114.1671547200001,22.33332525000003,14.39999999999418],[114.16715662000001,22.333327370000063,14.39999999999418],[114.1671551600001,22.33332850000005,14.39999999999418],[114.16716634000011,22.333340930000077,14.39999999999418],[114.16716780000002,22.333339800000033,14.39999999999418],[114.16716971000005,22.333341940000025,14.39999999999418],[114.16717161000008,22.333340470000053,14.39999999999418],[114.16720538000004,22.333378210000035,14.39999999999418],[114.16720356000008,22.333379620000073,14.39999999999418],[114.16720821000001,22.333384790000025,14.39999999999418],[114.16721001000008,22.33338339000005,14.39999999999418],[114.16724383000007,22.333421190000024,14.39999999999418],[114.16724210000007,22.333422520000056,14.39999999999418],[114.1672441400001,22.33342478000003,14.39999999999418],[114.16724274,22.333425870000042,14.39999999999418],[114.16725373000008,22.333438090000072,14.39999999999418],[114.16725512000005,22.33343701000007,14.39999999999418],[114.16725731000008,22.33343945000007,14.39999999999418],[114.16725900000006,22.333438140000055,14.39999999999418],[114.1672925800001,22.33347567000004,14.39999999999418],[114.16728816000011,22.333479100000034,14.39999999999418],[114.16730740000003,22.33350046000004,14.39999999999418],[114.1673105000001,22.333498090000035,14.39999999999418],[114.16729607000002,22.333481750000033,14.39999999999418],[114.16731286000004,22.33346854000007,14.39999999999418]]]},"geometry_name":"shape","properties":{"unit_id":"a9b46514-fd4d-4702-8069-77943746ae72","unit_category":"unspecified","unit_name_en":"Restricted Space","unit_name_zh":"限制區域","unit_alt_name":null,"unit_unitnumbername":null,"unit_restriction":"restricted","unit_accessibility":null,"level_id":"012c4a74-a042-481b-ada0-80b739a5bf63","level_floorpolyid":"F3526421568T2012122001000100","level_ordinal":1,"level_z_value":14.4,"level_name_en":"1/F","level_name_zh":null,"level_short_name_en":"1/F","level_category":"unspecified","level_restriction":"restricted","level_outdoor":0,"venue_id":"0409d24b-80aa-4de5-adc5-ab0aa2864176","venue_category":"governmentfacility","venue_name_en":"Shek Kip Mei Estate Ancillary Facilities Block","venue_name_zh":"石硤尾邨服務設施大樓","venue_alt_name":null,"venue_restriction":null,"venue_hours":null,"venue_website":null,"venue_phone":null,"address_address":"100 WOH CHAI STREET","address_unit":null,"address_locality":"SHAM SHUI PO DISTRICT","building_id":"ff59118b-d2a6-4e11-ba2d-e8ca2fcfbf65","building_category":"unspecified","building_name_en":"Shek Kip Mei Estate Ancillary Facilities Block","building_name_zh":"石硤尾邨服務設施大樓","building_alt_name":null,"building_restriction":"","bbox":[114.16694199000005,22.33296506000005,114.16745404000005,22.33350046000004]}},{"type":"Feature","id":"unit_polygon.359313","geometry":{"type":"Polygon","coordinates":[[[114.16710366000007,22.33306213000003,14.39999999999418],[114.16708701000005,22.333043530000054,14.39999999999418],[114.1670618600001,22.333063010000046,14.39999999999418],[114.16707851000001,22.333081610000022,14.39999999999418],[114.16710366000007,22.33306213000003,14.39999999999418]]]},"geometry_name":"shape","properties":{"unit_id":"df6aca88-2482-47fc-98e4-b38f0e3bf8e1","unit_category":"elevator","unit_name_en":"LIFT NO.2","unit_name_zh":"升降機","unit_alt_name":null,"unit_unitnumbername":null,"unit_restriction":null,"unit_accessibility":null,"level_id":"012c4a74-a042-481b-ada0-80b739a5bf63","level_floorpolyid":"F3526421568T2012122001000100","level_ordinal":1,"level_z_value":14.4,"level_name_en":"1/F","level_name_zh":null,"level_short_name_en":"1/F","level_category":"unspecified","level_restriction":"restricted","level_outdoor":0,"venue_id":"0409d24b-80aa-4de5-adc5-ab0aa2864176","venue_category":"governmentfacility","venue_name_en":"Shek Kip Mei Estate Ancillary Facilities Block","venue_name_zh":"石硤尾邨服務設施大樓","venue_alt_name":null,"venue_restriction":null,"venue_hours":null,"venue_website":null,"venue_phone":null,"address_address":"100 WOH CHAI STREET","address_unit":null,"address_locality":"SHAM SHUI PO DISTRICT","building_id":"ff59118b-d2a6-4e11-ba2d-e8ca2fcfbf65","building_category":"unspecified","building_name_en":"Shek Kip Mei Estate Ancillary Facilities Block","building_name_zh":"石硤尾邨服務設施大樓","building_alt_name":null,"building_restriction":"","bbox":[114.1670618600001,22.333043530000054,114.16710366000007,22.333081610000022]}},{"type":"Feature","id":"unit_polygon.359315","geometry":{"type":"Polygon","coordinates":[[[114.16706970000007,22.333024180000052,14.39999999999418],[114.16705072000002,22.333002960000044,14.39999999999418],[114.16703099000006,22.333018570000036,14.39999999999418],[114.16704979000008,22.333039590000055,14.39999999999418],[114.16706970000007,22.333024180000052,14.39999999999418]]]},"geometry_name":"shape","properties":{"unit_id":"7bf055a1-a025-4155-b34d-ff8ff99d30f4","unit_category":"elevator","unit_name_en":"LIFT NO.4","unit_name_zh":"升降機","unit_alt_name":null,"unit_unitnumbername":null,"unit_restriction":null,"unit_accessibility":null,"level_id":"012c4a74-a042-481b-ada0-80b739a5bf63","level_floorpolyid":"F3526421568T2012122001000100","level_ordinal":1,"level_z_value":14.4,"level_name_en":"1/F","level_name_zh":null,"level_short_name_en":"1/F","level_category":"unspecified","level_restriction":"restricted","level_outdoor":0,"venue_id":"0409d24b-80aa-4de5-adc5-ab0aa2864176","venue_category":"governmentfacility","venue_name_en":"Shek Kip Mei Estate Ancillary Facilities Block","venue_name_zh":"石硤尾邨服務設施大樓","venue_alt_name":null,"venue_restriction":null,"venue_hours":null,"venue_website":null,"venue_phone":null,"address_address":"100 WOH CHAI STREET","address_unit":null,"address_locality":"SHAM SHUI PO DISTRICT","building_id":"ff59118b-d2a6-4e11-ba2d-e8ca2fcfbf65","building_category":"unspecified","building_name_en":"Shek Kip Mei Estate Ancillary Facilities Block","building_name_zh":"石硤尾邨服務設施大樓","building_alt_name":null,"building_restriction":"","bbox":[114.16703099000006,22.333002960000044,114.16706970000007,22.333039590000055]}},{"type":"Feature","id":"unit_polygon.359317","geometry":{"type":"Polygon","coordinates":[[[114.16708701000005,22.333043530000054,14.39999999999418],[114.16706970000007,22.333024180000052,14.39999999999418],[114.16704979000008,22.333039590000055,14.39999999999418],[114.16706711000006,22.333058940000058,14.39999999999418],[114.16708701000005,22.333043530000054,14.39999999999418]]]},"geometry_name":"shape","properties":{"unit_id":"29d20231-805c-4c73-89b1-b33daacc3640","unit_category":"elevator","unit_name_en":"LIFT NO.3","unit_name_zh":"升降機","unit_alt_name":null,"unit_unitnumbername":null,"unit_restriction":null,"unit_accessibility":null,"level_id":"012c4a74-a042-481b-ada0-80b739a5bf63","level_floorpolyid":"F3526421568T2012122001000100","level_ordinal":1,"level_z_value":14.4,"level_name_en":"1/F","level_name_zh":null,"level_short_name_en":"1/F","level_category":"unspecified","level_restriction":"restricted","level_outdoor":0,"venue_id":"0409d24b-80aa-4de5-adc5-ab0aa2864176","venue_category":"governmentfacility","venue_name_en":"Shek Kip Mei Estate Ancillary Facilities Block","venue_name_zh":"石硤尾邨服務設施大樓","venue_alt_name":null,"venue_restriction":null,"venue_hours":null,"venue_website":null,"venue_phone":null,"address_address":"100 WOH CHAI STREET","address_unit":null,"address_locality":"SHAM SHUI PO DISTRICT","building_id":"ff59118b-d2a6-4e11-ba2d-e8ca2fcfbf65","building_category":"unspecified","building_name_en":"Shek Kip Mei Estate Ancillary Facilities Block","building_name_zh":"石硤尾邨服務設施大樓","building_alt_name":null,"building_restriction":"","bbox":[114.16704979000008,22.333024180000052,114.16708701000005,22.333058940000058]}},{"type":"Feature","id":"unit_polygon.359319","geometry":{"type":"Polygon","coordinates":[[[114.16710366000007,22.33306213000003,14.39999999999418],[114.16707851000001,22.333081610000022,14.39999999999418],[114.16709489000004,22.333099920000052,14.39999999999418],[114.1671200400001,22.33308044000006,14.39999999999418],[114.16710366000007,22.33306213000003,14.39999999999418]]]},"geometry_name":"shape","properties":{"unit_id":"7059c356-aac7-4dc6-8856-6ebe16fa532d","unit_category":"elevator","unit_name_en":"LIFT NO.1","unit_name_zh":"升降機","unit_alt_name":null,"unit_unitnumbername":null,"unit_restriction":null,"unit_accessibility":null,"level_id":"012c4a74-a042-481b-ada0-80b739a5bf63","level_floorpolyid":"F3526421568T2012122001000100","level_ordinal":1,"level_z_value":14.4,"level_name_en":"1/F","level_name_zh":null,"level_short_name_en":"1/F","level_category":"unspecified","level_restriction":"restricted","level_outdoor":0,"venue_id":"0409d24b-80aa-4de5-adc5-ab0aa2864176","venue_category":"governmentfacility","venue_name_en":"Shek Kip Mei Estate Ancillary Facilities Block","venue_name_zh":"石硤尾邨服務設施大樓","venue_alt_name":null,"venue_restriction":null,"venue_hours":null,"venue_website":null,"venue_phone":null,"address_address":"100 WOH CHAI STREET","address_unit":null,"address_locality":"SHAM SHUI PO DISTRICT","building_id":"ff59118b-d2a6-4e11-ba2d-e8ca2fcfbf65","building_category":"unspecified","building_name_en":"Shek Kip Mei Estate Ancillary Facilities Block","building_name_zh":"石硤尾邨服務設施大樓","building_alt_name":null,"building_restriction":"","bbox":[114.16707851000001,22.33306213000003,114.1671200400001,22.333099920000052]}}]}