{"type":"FeatureCollection","features":[{"type":"Feature","id":261704,"geometry":{"type":"Polygon","coordinates":[[[114.18506187370599,22.387166130030227],[114.18509953446151,22.387177383749481],[114.18509456364244,22.387191728531462],[114.18508613990859,22.387216037764222],[114.18506382780056,22.387209351259614],[114.18504342406837,22.387203236648162],[114.18505681863186,22.387164582636874],[114.18506187370599,22.387166130030227]]]},"properties":{"OBJECTID":261704,"Shape__Length":18.237530002369105,"Shape__Area":20.776155305558177,"GeoRefNo":"3711227550","DateCreate":1114790400000,"BuildingBlockType":"Tower","BuildingCSUID":"3711227550T20050430","BuildingID":1102445019,"Status":"Active","BuildingNameEN":"TEN THOUSAND BUDDHA MONASTERY","BuildingNameTC":"萬佛寺","BaseHeight":85.299999999999997,"TopHeight":90.700000000000003,"Storeys":null,"StoreysInBasement":null,"DateStamp":1531152000000}},{"type":"Feature","id":262323,"geometry":{"type":"Polygon","coordinates":[[[114.19045691931174,22.387115992789248],[114.19043678304338,22.387132466331163],[114.1904289091478,22.387124412311888],[114.19041983450781,22.387115129971516],[114.19042344998168,22.387112140024175],[114.19040358636775,22.387091390010216],[114.1903975004701,22.387085032583602],[114.19041253962681,22.387071708597038],[114.19045691931174,22.387115992789248]]]},"properties":{"OBJECTID":262323,"Shape__Length":18.715867475239989,"Shape__Area":16.004225255759355,"GeoRefNo":"3766327540","DateCreate":1478448000000,"BuildingBlockType":"Open-sided Structure","BuildingCSUID":"3766327540T20161107","BuildingID":1810155976,"Status":"Active","BuildingNameEN":null,"BuildingNameTC":null,"BaseHeight":null,"TopHeight":null,"Storeys":null,"StoreysInBasement":null,"DateStamp":1576425600000}},{"type":"Feature","id":262604,"geometry":{"type":"Polygon","coordinates":[[[114.18673232734371,22.386785945679865],[114.18672787987464,22.386785986589263],[114.18672574033576,22.386727012008944],[114.18669662982632,22.386727396680339],[114.18669495698637,22.386676574823881],[114.18664154954838,22.386677359210481],[114.18664272780329,22.386654728656715],[114.18672248101069,22.386652141072833],[114.18672314290112,22.386674319988696],[114.18672861001497,22.38667473505831],[114.18673232734371,22.386785945679865]]]},"properties":{"OBJECTID":262604,"Shape__Length":47.191090352742577,"Shape__Area":44.164515747568778,"GeoRefNo":"3727827493","DateCreate":1548950400000,"BuildingBlockType":"Open-sided Structure","BuildingCSUID":"3727827493T20190201","BuildingID":1102445207,"Status":"Active","BuildingNameEN":null,"BuildingNameTC":null,"BaseHeight":null,"TopHeight":null,"Storeys":null,"StoreysInBasement":null,"DateStamp":1548950400000}},{"type":"Feature","id":262774,"geometry":{"type":"Polygon","coordinates":[[[114.19097272034008,22.387558796595297],[114.19091363618102,22.387612406906833],[114.19088763816495,22.387587656516182],[114.19092596277856,22.387552994051791],[114.19089153516938,22.3875210380418],[114.19091248893713,22.3875021804966],[114.19097272034008,22.387558796595297]]]},"properties":{"OBJECTID":262774,"Shape__Length":34.668617670738641,"Shape__Area":47.414417002551154,"GeoRefNo":"3771527592","DateCreate":1416240000000,"BuildingBlockType":"Tower","BuildingCSUID":"3771527592T20141118","BuildingID":1810135796,"Status":"Active","BuildingNameEN":null,"BuildingNameTC":null,"BaseHeight":7.7000000000000002,"TopHeight":15.9,"Storeys":null,"StoreysInBasement":null,"DateStamp":1566144000000}},{"type":"Feature","id":262936,"geometry":{"type":"Polygon","coordinates":[[[114.1910959990815,22.387311755481964],[114.19106140977591,22.387348211481402],[114.1910017484433,22.387299256946864],[114.19103786326828,22.387262501554609],[114.1910959990815,22.387311755481964]]]},"properties":{"OBJECTID":262936,"Shape__Length":27.189487886558766,"Shape__Area":44.381935108749893,"GeoRefNo":"3772827561","DateCreate":1114790400000,"BuildingBlockType":"Tower","BuildingCSUID":"3772827561T20050430","BuildingID":1102444996,"Status":"Active","BuildingNameEN":null,"BuildingNameTC":null,"BaseHeight":5.4000000000000004,"TopHeight":9.5,"Storeys":null,"StoreysInBasement":null,"DateStamp":1577116800000}},{"type":"Feature","id":265300,"geometry":{"type":"Polygon","coordinates":[[[114.18499752616009,22.387450255722868],[114.18498658898697,22.387473066913405],[114.1849439939928,22.387572802103435],[114.18492875168492,22.387567469532815],[114.18490615095327,22.38755956263687],[114.18493301543184,22.387496610451059],[114.18496260132289,22.387427281042093],[114.18493180731905,22.387415973757985],[114.18494906674273,22.387376611841351],[114.18496154951559,22.38738140344017],[114.18498381116781,22.387390051299697],[114.18500132023104,22.387395530948289],[114.18497980623721,22.387444191990546],[114.18499752616009,22.387450255722868]]]},"properties":{"OBJECTID":265300,"Shape__Length":56.23725746386345,"Shape__Area":90.685192402404539,"GeoRefNo":"3710027574","DateCreate":1512662400000,"BuildingBlockType":"Open-sided Structure","BuildingCSUID":"3710027574T20171208","BuildingID":1810169522,"Status":"Active","BuildingNameEN":null,"BuildingNameTC":null,"BaseHeight":null,"TopHeight":null,"Storeys":null,"StoreysInBasement":null,"DateStamp":1512662400000}},{"type":"Feature","id":268800,"geometry":{"type":"Polygon","coordinates":[[[114.19061175374104,22.386854602675033],[114.19063205232371,22.386875675197103],[114.19059916889465,22.386903457230652],[114.19059460507631,22.386907313018543],[114.19059460060895,22.386907308323043],[114.19057398503959,22.386885906841467],[114.19061175374104,22.386854602675033]]]},"properties":{"OBJECTID":268800,"Shape__Length":16.735376849820454,"Shape__Area":16.451225141397309,"GeoRefNo":"3768227517","DateCreate":1577721600000,"BuildingBlockType":"Temporary Structure","BuildingCSUID":"3768227517T20191231","BuildingID":1810194951,"Status":"Active","BuildingNameEN":null,"BuildingNameTC":null,"BaseHeight":null,"TopHeight":null,"Storeys":null,"StoreysInBasement":null,"DateStamp":1586793600000}},{"type":"Feature","id":268833,"geometry":{"type":"Polygon","coordinates":[[[114.18742544754564,22.384402033919873],[114.18744485300371,22.384325878254376],[114.18748099595824,22.384333732434211],[114.18751582108536,22.38437816030801],[114.18750516214689,22.384419565955643],[114.18742544754564,22.384402033919873]]]},"properties":{"OBJECTID":268833,"Shape__Length":31.727406029474469,"Shape__Area":64.082787504923616,"GeoRefNo":"3735927239","DateCreate":1562256000000,"BuildingBlockType":"Tower","BuildingCSUID":"3735927239T20190705","BuildingID":1810188981,"Status":"Active","BuildingNameEN":null,"BuildingNameTC":null,"BaseHeight":4.5999999999999996,"TopHeight":12.699999999999999,"Storeys":null,"StoreysInBasement":null,"DateStamp":1597075200000}},{"type":"Feature","id":269054,"geometry":{"type":"Polygon","coordinates":[[[114.19080748837594,22.387124289477239],[114.19070060255071,22.387216391907845],[114.19065024695956,22.387166697928993],[114.19077002463952,22.387063780193728],[114.19079948921537,22.387093123679247],[114.19078739493555,22.38710340362098],[114.19080734143836,22.387124136693554],[114.19080748837594,22.387124289477239]]]},"properties":{"OBJECTID":269054,"Shape__Length":48.597202608134353,"Shape__Area":121.31737581522549,"GeoRefNo":"3769827539","DateCreate":1114790400000,"BuildingBlockType":"Tower","BuildingCSUID":"3769827539T20050430","BuildingID":1102445024,"Status":"Active","BuildingNameEN":"GOLDEN HSE","BuildingNameTC":"金屋","BaseHeight":6.7999999999999998,"TopHeight":16.300000000000001,"Storeys":3,"StoreysInBasement":null,"DateStamp":1599580800000}},{"type":"Feature","id":269084,"geometry":{"type":"Polygon","coordinates":[[[114.18395726709068,22.382474733638304],[114.18393347272888,22.382527301095404],[114.18388569626525,22.382511331347892],[114.18390653135422,22.382457521246302],[114.18395726709068,22.382474733638304]]]},"properties":{"OBJECTID":269084,"Shape__Length":23.439090005446957,"Shape__Area":34.098705889598008,"GeoRefNo":"3699427031","DateCreate":1536163200000,"BuildingBlockType":"Open-sided Structure","BuildingCSUID":"3699427031T20180906","BuildingID":1810179658,"Status":"Active","BuildingNameEN":null,"BuildingNameTC":null,"BaseHeight":82.299999999999997,"TopHeight":86,"Storeys":null,"StoreysInBasement":null,"DateStamp":1536249600000}},{"type":"Feature","id":270865,"geometry":{"type":"Polygon","coordinates":[[[114.19106417201698,22.38806172279482],[114.19104220061635,22.388038683810866],[114.19103420887377,22.388045274894381],[114.19103026454394,22.388041174572631],[114.19102034175701,22.388030835951508],[114.19101676062583,22.388026901217259],[114.19104497921988,22.388001174858381],[114.19108299947661,22.387966511843437],[114.19108759760383,22.387962743996489],[114.19109751778325,22.38797227031872],[114.19110940385443,22.387983259049587],[114.19110221124325,22.387989190838159],[114.19111036659666,22.387997742470787],[114.19112418254885,22.388012229723813],[114.19106417201698,22.38806172279482]]]},"properties":{"OBJECTID":270865,"Shape__Length":33.262525452698455,"Shape__Area":58.629291415517059,"GeoRefNo":"3772827640","DateCreate":1196870400000,"BuildingBlockType":"Temporary Structure","BuildingCSUID":"3772827640T20071206","BuildingID":1102444798,"Status":"Active","BuildingNameEN":"LUNG WAH HOTEL","BuildingNameTC":"龍華酒店","BaseHeight":null,"TopHeight":null,"Storeys":null,"StoreysInBasement":null,"DateStamp":1544976000000}},{"type":"Feature","id":271124,"geometry":{"type":"Polygon","coordinates":[[[114.1889623254218,22.382663691361174],[114.18883753992418,22.382765487135341],[114.18857391449811,22.382983361184976],[114.18857047503093,22.382986203701563],[114.18805672152958,22.382445450924195],[114.18783997035675,22.382216294491666],[114.18781970235048,22.382194717069332],[114.18747482514618,22.381718556386531],[114.18727362779724,22.381455167131065],[114.18734906217766,22.38139278840665],[114.18757886433619,22.381633626451649],[114.18780994538764,22.38144406120664],[114.18799747623409,22.381290221410755],[114.18796011774262,22.381250769617452],[114.18792003985696,22.381204436741054],[114.18789521811104,22.381174746071235],[114.18787450393292,22.381146617398212],[114.18785083721617,22.381110451755497],[114.1878301906173,22.381077094397483],[114.18788319542537,22.381034051300077],[114.18785400390217,22.381001705946989],[114.18785194511958,22.380999005959943],[114.18785037180122,22.380995700894566],[114.18784957528396,22.380992170013144],[114.18784954589307,22.380988864842635],[114.18785121559777,22.380983076161801],[114.18785302147671,22.380980222392616],[114.18785561389734,22.380977531119299],[114.18785846855113,22.380975562270162],[114.18786167281522,22.380974126198172],[114.18786511988206,22.38097328612427],[114.18786899424904,22.380973078157997],[114.18787250939076,22.380973547505555],[114.18787617024515,22.380974766376767],[114.18787921939334,22.380976472938062],[114.18788186075243,22.380978694267124],[114.18791153773402,22.381010344231527],[114.18797711641936,22.380956942228313],[114.18802513651104,22.380917838452159],[114.18814581787761,22.381050035334766],[114.18831017021597,22.381224484398594],[114.18835592384676,22.38118785541155],[114.18859566152796,22.380995928380106],[114.18863252481087,22.38103422415664],[114.18866901355027,22.381006606143465],[114.18867536387282,22.381004573810507],[114.1886817435025,22.381004627526664],[114.18868531694739,22.381005548378582],[114.18868834665736,22.381006920796576],[114.18869320210224,22.38101077647536],[114.18869657201286,22.381016185513339],[114.18869774744611,22.381022019146904],[114.18869670897357,22.381028187072239],[114.18869518473261,22.381031329807016],[114.18869325261338,22.381033903648518],[114.18865873495348,22.381060374646264],[114.1888374101644,22.381252792963036],[114.18883867261198,22.381254129387173],[114.18887250074278,22.38122632188519],[114.18887577291645,22.381224217529212],[114.18887907428375,22.381222844643567],[114.18888257961368,22.381222022604746],[114.18888691036625,22.381221796519029],[114.1888939407165,22.381223286031922],[114.18889714523408,22.381224848073977],[114.18890052461958,22.381227376369178],[114.18890224363082,22.381230816871245],[114.18890323439351,22.381234492221306],[114.1889034483454,22.381238275995603],[114.18890289518502,22.381242032735543],[114.18890158461006,22.38124561795199],[114.18889977876312,22.381248634282244],[114.18889691451096,22.381251795179786],[114.18889372975102,22.38125415238439],[114.18886484383876,22.381278482770934],[114.18891416676765,22.381331108999099],[114.18891223945901,22.381389419246389],[114.18892648460023,22.381391567447437],[114.188943235157,22.381395647992164],[114.18895944207691,22.38140130891788],[114.18897493057101,22.381408496054693],[114.18898954526918,22.38141713717026],[114.18900093612575,22.381425372153291],[114.18901353130184,22.381436424568847],[114.18902483511356,22.381448614926871],[114.18903192456088,22.381459541328322],[114.18903819838297,22.381470883195142],[114.18904363715522,22.381482595376273],[114.18904820203169,22.381494623691559],[114.18905189300742,22.381506913957917],[114.18905467123636,22.3815194119952],[114.18905653671206,22.381532045559261],[114.18905747972074,22.381544778528745],[114.18911371183482,22.381543862187659],[114.18916724942996,22.381598971411421],[114.18920350512529,22.381570910801617],[114.18920620441575,22.381569032245956],[114.18920926303586,22.381567713555341],[114.18921255475681,22.38156700892258],[114.18921620581706,22.3815669725211],[114.18921977926223,22.381567694689611],[114.18922283811482,22.381569003881591],[114.1892257610892,22.381571053586999],[114.18922779072869,22.381573220757613],[114.18923075285156,22.381578738181627],[114.18923174384052,22.381584842740789],[114.18923079274386,22.381590604288796],[114.18922766654983,22.381596420186582],[114.18919192563952,22.381626088195848],[114.18955563018142,22.382012873515887],[114.18959457559517,22.381984099196899],[114.18960077051455,22.38198130827605],[114.18960465458171,22.381980711954863],[114.18960827653653,22.381980838096283],[114.1896114809978,22.381981506102097],[114.18961509336528,22.381982977792326],[114.18962035672628,22.381987095295759],[114.18962367816208,22.38199269395864],[114.18962444554853,22.381995673971172],[114.18962461095886,22.381999340351161],[114.18962294135338,22.382005544453683],[114.18962112579196,22.382008452426174],[114.18961875670922,22.382010990190853],[114.18958351102229,22.382040884009143],[114.18964704213639,22.382109456795146],[114.18951450603728,22.382216171915978],[114.18925153051592,22.38242792198951],[114.18928290761168,22.38246168470873],[114.18928517042158,22.382465070981205],[114.18928644275142,22.382468168353142],[114.1892871616363,22.38247176244646],[114.18928712312042,22.382475419811765],[114.18928633690126,22.382478995959911],[114.18928483209932,22.38248237349179],[114.18928266696457,22.382485416945077],[114.18928018133069,22.382487810225246],[114.18927698681787,22.382489932644159],[114.18927341354795,22.38249145004702],[114.1892695877505,22.382492308240913],[114.1892656647879,22.382492471091851],[114.18926213018348,22.382492010806651],[114.18925840131055,22.382490855185925],[114.18925527443866,22.382489247992705],[114.18925224460769,22.382486936411087],[114.1892201198369,22.382453390475845],[114.1889623254218,22.382663691361174]],[[114.18823552054421,22.381854016629077],[114.18840562387892,22.381717065670411],[114.18803754400058,22.381330819884429],[114.18787040244227,22.381468221786854],[114.18823552054421,22.381854016629077]],[[114.18847027794985,22.382103332707057],[114.1885773630402,22.382216242650333],[114.1888375162271,22.382489243403906],[114.18894740848862,22.382605494182357],[114.18911159868075,22.382471243063421],[114.18887223633236,22.382216220978982],[114.18883748963083,22.382179198409695],[114.18863816738958,22.38196615590418],[114.18847027794985,22.382103332707057]]]},"properties":{"OBJECTID":271124,"Shape__Length":1199.8480777968909,"Shape__Area":24045.252316317925,"GeoRefNo":"3744326967","DateCreate":1114790400000,"BuildingBlockType":"Tower","BuildingCSUID":"3744326967T20050430","BuildingID":1102446271,"Status":"Active","BuildingNameEN":"SHA TIN CENTRAL (NEW TOWN PLAZA) BUS TERMINUS","BuildingNameTC":"沙田市中心(新城市廣場) 巴士總站","BaseHeight":13.1,"TopHeight":37.200000000000003,"Storeys":null,"StoreysInBasement":null,"DateStamp":1528732800000}},{"type":"Feature","id":271946,"geometry":{"type":"Polygon","coordinates":[[[114.1906804186997,22.386961924624899],[114.19068986743066,22.386971503210091],[114.19061350929728,22.387036682989564],[114.19057521639583,22.386998098838241],[114.19062269393143,22.386957920095192],[114.19063916647814,22.386943979903169],[114.19065200181416,22.386933117711457],[114.1906804186997,22.386961924624899]]]},"properties":{"OBJECTID":271946,"Shape__Length":32.94758077650588,"Shape__Area":61.864873652291436,"GeoRefNo":"3768727524","DateCreate":1114790400000,"BuildingBlockType":"Tower","BuildingCSUID":"3768727524T20050430","BuildingID":1102445089,"Status":"Active","BuildingNameEN":null,"BuildingNameTC":null,"BaseHeight":6,"TopHeight":13,"Storeys":null,"StoreysInBasement":null,"DateStamp":1532361600000}},{"type":"Feature","id":273577,"geometry":{"type":"Polygon","coordinates":[[[114.19063205232371,22.386875675197103],[114.19061175374104,22.386854602675033],[114.19063619186147,22.386834208505039],[114.19065683181707,22.386854734467899],[114.19063205232371,22.386875675197103]]]},"properties":{"OBJECTID":273577,"Shape__Length":13.074145021044373,"Shape__Area":10.661070861445999,"GeoRefNo":"3768527514","DateCreate":1577721600000,"BuildingBlockType":"Open-sided Structure","BuildingCSUID":"3768527514T20191231","BuildingID":1810194949,"Status":"Active","BuildingNameEN":null,"BuildingNameTC":null,"BaseHeight":null,"TopHeight":null,"Storeys":null,"StoreysInBasement":null,"DateStamp":1577721600000}},{"type":"Feature","id":273609,"geometry":{"type":"Polygon","coordinates":[[[114.18735223084437,22.383231244324485],[114.18737707291082,22.383215434144034],[114.18737968129152,22.383218978815741],[114.1873969250229,22.383242412170219],[114.18737208295387,22.383258222353646],[114.18735223084437,22.383231244324485]]]},"properties":{"OBJECTID":273609,"Shape__Length":13.439994097663256,"Shape__Area":11.221990156198116,"GeoRefNo":"3734927113","DateCreate":1554998400000,"BuildingBlockType":"Tower","BuildingCSUID":"3734927113T20190412","BuildingID":1810186727,"Status":"Active","BuildingNameEN":null,"BuildingNameTC":null,"BaseHeight":4.2000000000000002,"TopHeight":19.300000000000001,"Storeys":null,"StoreysInBasement":null,"DateStamp":1555257600000}},{"type":"Feature","id":274550,"geometry":{"type":"Polygon","coordinates":[[[114.18578006324805,22.386935501392227],[114.18580226115441,22.386925602713887],[114.1857710269952,22.386851743823883],[114.18580325803104,22.386843522370974],[114.18581614055486,22.386885849326479],[114.18582158523499,22.386917888042728],[114.18582003389338,22.386950124283672],[114.18579113002205,22.386958787238335],[114.18578006324805,22.386935501392227]]]},"properties":{"OBJECTID":274550,"Shape__Length":32.748283580037032,"Shape__Area":37.051210839631139,"GeoRefNo":"3718727516","DateCreate":1664208000000,"BuildingBlockType":"Open-sided Structure","BuildingCSUID":"3718727516T20220927","BuildingID":1910225761,"Status":"Active","BuildingNameEN":null,"BuildingNameTC":null,"BaseHeight":42,"TopHeight":44.600000000000001,"Storeys":null,"StoreysInBasement":null,"DateStamp":1664208000000}},{"type":"Feature","id":276153,"geometry":{"type":"Polygon","coordinates":[[[114.18593984991539,22.381084842620059],[114.18595264833468,22.381089763535883],[114.18600944156525,22.381107025697325],[114.18598687433852,22.381168787283521],[114.18589630917791,22.381141613749651],[114.18591272018021,22.381095328585168],[114.18593414131037,22.381100483812055],[114.18593984991539,22.381084842620059]]]},"properties":{"OBJECTID":276153,"Shape__Length":34.107582427656702,"Shape__Area":67.19193705462466,"GeoRefNo":"3720326878","DateCreate":1196956800000,"BuildingBlockType":"Temporary Structure","BuildingCSUID":"3720326878T20071207","BuildingID":1102447003,"Status":"Active","BuildingNameEN":null,"BuildingNameTC":null,"BaseHeight":null,"TopHeight":null,"Storeys":null,"StoreysInBasement":null,"DateStamp":1744732800000}},{"type":"Feature","id":276154,"geometry":{"type":"Polygon","coordinates":[[[114.18591272018021,22.381095328585168],[114.18589630917791,22.381141613749651],[114.18584931400403,22.381127858007645],[114.18585243480271,22.381119176428001],[114.18581727922037,22.381108091877991],[114.18582273778674,22.381093755524702],[114.18580282618549,22.381085095361961],[114.18581021105743,22.381062993643322],[114.18591272018021,22.381095328585168]]]},"properties":{"OBJECTID":276154,"Shape__Length":32.965480489945534,"Shape__Area":50.790274489957596,"GeoRefNo":"3719326877","DateCreate":1744732800000,"BuildingBlockType":"Open-sided Structure","BuildingCSUID":"3719326877T20250416","BuildingID":1810132698,"Status":"Active","BuildingNameEN":null,"BuildingNameTC":null,"BaseHeight":null,"TopHeight":null,"Storeys":null,"StoreysInBasement":null,"DateStamp":1744732800000}},{"type":"Feature","id":276155,"geometry":{"type":"Polygon","coordinates":[[[114.18577805738333,22.381376565891372],[114.18577159282059,22.381369656090442],[114.18582646972004,22.381332442407832],[114.18583464294655,22.381329491861258],[114.18584517665056,22.381329730222667],[114.18585596734499,22.381332357865496],[114.18586225496102,22.381335820269832],[114.18587343844604,22.381343108905089],[114.18587986187318,22.381350515473486],[114.18589990324915,22.381378708465409],[114.18586146452142,22.381412206369092],[114.18585305928384,22.381401153384271],[114.18582148800817,22.381351198273574],[114.18577805738333,22.381376565891372]]]},"properties":{"OBJECTID":276155,"Shape__Length":36.722648986537592,"Shape__Area":48.640716200844352,"GeoRefNo":"3719426907","DateCreate":1744646400000,"BuildingBlockType":"Open-sided Structure","BuildingCSUID":"3719426907T20250415","BuildingID":1910262293,"Status":"Active","BuildingNameEN":null,"BuildingNameTC":null,"BaseHeight":16.399999999999999,"TopHeight":18.399999999999999,"Storeys":null,"StoreysInBasement":null,"DateStamp":1744646400000}},{"type":"Feature","id":276156,"geometry":{"type":"Polygon","coordinates":[[[114.18602859859668,22.381182149283283],[114.18598687433852,22.381168787283521],[114.18600944156525,22.381107025697325],[114.18605043246441,22.381118532050369],[114.18602859859668,22.381182149283283]]]},"properties":{"OBJECTID":276156,"Shape__Length":23.572187857603211,"Shape__Area":32.714935184926162,"GeoRefNo":"3721026881","DateCreate":1744732800000,"BuildingBlockType":"Open-sided Structure","BuildingCSUID":"3721026881T20250416","BuildingID":1910262402,"Status":"Active","BuildingNameEN":null,"BuildingNameTC":null,"BaseHeight":null,"TopHeight":null,"Storeys":null,"StoreysInBasement":null,"DateStamp":1744732800000}},{"type":"Feature","id":277775,"geometry":{"type":"Polygon","coordinates":[[[114.18335763042252,22.387442518313158],[114.18339844741075,22.3874854928109],[114.1834006695219,22.387483740890367],[114.18343818800548,22.387526649047093],[114.18337973838298,22.387563686031488],[114.1833462623274,22.387521951214641],[114.18330892590527,22.387547346532013],[114.18326797138427,22.387503527212434],[114.18335763042252,22.387442518313158]]]},"properties":{"OBJECTID":277775,"Shape__Length":48.455910970349279,"Shape__Area":115.58630203485525,"GeoRefNo":"3693227585","DateCreate":1114790400000,"BuildingBlockType":"Temporary Structure","BuildingCSUID":"3693227585T20050430","BuildingID":1102444931,"Status":"Active","BuildingNameEN":null,"BuildingNameTC":null,"BaseHeight":null,"TopHeight":79.599999999999994,"Storeys":null,"StoreysInBasement":null,"DateStamp":1746633600000}},{"type":"Feature","id":277776,"geometry":{"type":"Polygon","coordinates":[[[114.18600138770483,22.385227546238589],[114.18600804830616,22.385283138201412],[114.18603939369306,22.385279885433235],[114.18604040425278,22.38528998149847],[114.18604897402679,22.385289021698298],[114.18601833300615,22.385302110742945],[114.18596360990831,22.385316060848162],[114.18596206700465,22.38529527375908],[114.18594742255283,22.385299814318024],[114.18594408107063,22.385277593734774],[114.18600138770483,22.385227546238589]]]},"properties":{"OBJECTID":277776,"Shape__Length":35.24698025652723,"Shape__Area":45.575803329506414,"GeoRefNo":"3720727337","DateCreate":1114790400000,"BuildingBlockType":"Temporary Structure","BuildingCSUID":"3720727337T20050430","BuildingID":1102445638,"Status":"Active","BuildingNameEN":null,"BuildingNameTC":null,"BaseHeight":null,"TopHeight":16,"Storeys":null,"StoreysInBasement":null,"DateStamp":1746633600000}},{"type":"Feature","id":281197,"geometry":{"type":"Polygon","coordinates":[[[114.18476775338608,22.386083106902511],[114.18478702921129,22.386013337510104],[114.18488079828923,22.386035123519061],[114.18486374232677,22.386104510550354],[114.18476775338608,22.386083106902511]]]},"properties":{"OBJECTID":281197,"Shape__Length":35.977029675542653,"Shape__Area":79.754468165347078,"GeoRefNo":"3708527427","DateCreate":1114790400000,"BuildingBlockType":"Tower","BuildingCSUID":"3708527427T20050430","BuildingID":1102445380,"Status":"Active","BuildingNameEN":null,"BuildingNameTC":null,"BaseHeight":26,"TopHeight":33,"Storeys":null,"StoreysInBasement":null,"DateStamp":1747670400000}},{"type":"Feature","id":281198,"geometry":{"type":"Polygon","coordinates":[[[114.18474039081821,22.38603029622368],[114.18477400595827,22.386033859646233],[114.1847734561082,22.386038345855148],[114.18477994368953,22.38603898363321],[114.18477144391433,22.386069748866074],[114.18473774473802,22.386051883360455],[114.18474039081821,22.38603029622368]]]},"properties":{"OBJECTID":281198,"Shape__Length":14.573983753840599,"Shape__Area":12.470208508156727,"GeoRefNo":"3708027424","DateCreate":1195660800000,"BuildingBlockType":"Temporary Structure","BuildingCSUID":"3708027424T20071122","BuildingID":1102445384,"Status":"Active","BuildingNameEN":null,"BuildingNameTC":null,"BaseHeight":26,"TopHeight":29.600000000000001,"Storeys":null,"StoreysInBasement":null,"DateStamp":1747670400000}},{"type":"Feature","id":281310,"geometry":{"type":"Polygon","coordinates":[[[114.18850670223749,22.387002839792459],[114.18848247244323,22.386982224863445],[114.18851500037937,22.386949351427663],[114.18861339575196,22.387033436488469],[114.18858314206079,22.387067532239918],[114.18850670223749,22.387002839792459]]]},"properties":{"OBJECTID":281310,"Shape__Length":37.62856941070644,"Shape__Area":68.37145814144003,"GeoRefNo":"3747027528","DateCreate":1114790400000,"BuildingBlockType":"Tower","BuildingCSUID":"3747027528T20050430","BuildingID":1102445058,"Status":"Active","BuildingNameEN":null,"BuildingNameTC":"道福山祠","BaseHeight":26.199999999999999,"TopHeight":38.299999999999997,"Storeys":null,"StoreysInBasement":null,"DateStamp":1631808000000}},{"type":"Feature","id":281311,"geometry":{"type":"Polygon","coordinates":[[[114.1883372967913,22.386857491269481],[114.1883317544046,22.386872394639397],[114.18833060919017,22.386875474218215],[114.18832545743231,22.38687347360176],[114.18832857660935,22.386865458884479],[114.18831942762797,22.38686188525471],[114.18832557877109,22.386844561572413],[114.18827773816226,22.386828327367319],[114.18827233069111,22.386825903235874],[114.18820029393389,22.386802898369041],[114.18819424252013,22.386821599825996],[114.18817943390032,22.386818116890833],[114.18818646696901,22.38679588307782],[114.18820103719374,22.386800601223566],[114.18820773701624,22.386779896029054],[114.18828022828318,22.386803664481207],[114.1882893443901,22.386780564670079],[114.18829757326432,22.38678273123125],[114.18828619679347,22.386815079809395],[114.18831307979937,22.386824238824232],[114.18834044544114,22.386833562336331],[114.18833527487681,22.386844929238251],[114.18834169307806,22.386846716011924],[114.1883372967913,22.386857491269481]]]},"properties":{"OBJECTID":281311,"Shape__Length":55.231643516751689,"Shape__Area":43.664308870479779,"GeoRefNo":"3744327509","DateCreate":1299168000000,"BuildingBlockType":"Open-sided Structure","BuildingCSUID":"3744327509T20110304","BuildingID":1810057384,"Status":"Active","BuildingNameEN":null,"BuildingNameTC":null,"BaseHeight":null,"TopHeight":null,"Storeys":null,"StoreysInBasement":null,"DateStamp":1630339200000}},{"type":"Feature","id":281312,"geometry":{"type":"Polygon","coordinates":[[[114.18856516055878,22.387120954755002],[114.18858437633445,22.387101646110427],[114.18857647122265,22.387094079109374],[114.18859368829314,22.387076457690313],[114.18858314206079,22.387067532239918],[114.18860147627655,22.387046869621173],[114.18864542634627,22.387085197811498],[114.18863643451837,22.387092665081639],[114.18865763267793,22.387110882244873],[114.18866309323269,22.387120737844569],[114.18866470019982,22.387135073676159],[114.18866370681405,22.387150179369051],[114.18866084860196,22.387161953930068],[114.18865378358126,22.387168525052111],[114.1886445510268,22.387169158675519],[114.18863387290513,22.387183161184275],[114.18863194574449,22.387181070669342],[114.18862134616967,22.387166138124172],[114.18856516055878,22.387120954755002]]]},"properties":{"OBJECTID":281312,"Shape__Length":41.22669487698515,"Shape__Area":82.457704751050045,"GeoRefNo":"3747727543","DateCreate":1629129600000,"BuildingBlockType":"Podium","BuildingCSUID":"3747727543P20210817","BuildingID":1910214439,"Status":"Active","BuildingNameEN":null,"BuildingNameTC":null,"BaseHeight":26.100000000000001,"TopHeight":29.899999999999999,"Storeys":null,"StoreysInBasement":null,"DateStamp":1629129600000}},{"type":"Feature","id":281973,"geometry":{"type":"Polygon","coordinates":[[[114.18691516077966,22.382868141335496],[114.18693096613329,22.38290831715064],[114.18694374818013,22.382941886150821],[114.18680877989129,22.38298734930849],[114.18678367212998,22.382921289141251],[114.18688858955075,22.382883298826908],[114.18688701970468,22.382878294659633],[114.18691516077966,22.382868141335496]]]},"properties":{"OBJECTID":281973,"Shape__Length":46.503054359331642,"Shape__Area":118.97881065224146,"GeoRefNo":"3729727079","DateCreate":1738771200000,"BuildingBlockType":"Tower","BuildingCSUID":"3729727079T20250206","BuildingID":1910259827,"Status":"Active","BuildingNameEN":null,"BuildingNameTC":null,"BaseHeight":5.2000000000000002,"TopHeight":10.9,"Storeys":null,"StoreysInBasement":null,"DateStamp":1738857600000}},{"type":"Feature","id":281974,"geometry":{"type":"Polygon","coordinates":[[[114.18697311835234,22.382931041904797],[114.18694374818013,22.382941886150821],[114.18693106898557,22.382908587337472],[114.18693096613329,22.38290831715064],[114.18694206389112,22.382903898906008],[114.18695606001243,22.382898326739596],[114.18697311835234,22.382931041904797]]]},"properties":{"OBJECTID":281974,"Shape__Length":14.035015881795948,"Shape__Area":12.064754364080333,"GeoRefNo":"3730627078","DateCreate":1738771200000,"BuildingBlockType":"Temporary Structure","BuildingCSUID":"3730627078T20250206","BuildingID":1910259828,"Status":"Active","BuildingNameEN":null,"BuildingNameTC":null,"BaseHeight":5.2000000000000002,"TopHeight":8.4000000000000004,"Storeys":null,"StoreysInBasement":null,"DateStamp":1738771200000}},{"type":"Feature","id":281975,"geometry":{"type":"Polygon","coordinates":[[[114.18692470110746,22.382863974057024],[114.18693765647728,22.382866591287705],[114.18695606001243,22.382898326739596],[114.18694206389112,22.382903898906008],[114.18692470110746,22.382863974057024]]]},"properties":{"OBJECTID":281975,"Shape__Length":11.694895732587508,"Shape__Area":5.8075214290429482,"GeoRefNo":"3730527074","DateCreate":1738771200000,"BuildingBlockType":"Open-sided Structure","BuildingCSUID":"3730527074T20250206","BuildingID":1910259829,"Status":"Active","BuildingNameEN":null,"BuildingNameTC":null,"BaseHeight":5.2000000000000002,"TopHeight":8.4000000000000004,"Storeys":null,"StoreysInBasement":null,"DateStamp":1738771200000}},{"type":"Feature","id":283577,"geometry":{"type":"Polygon","coordinates":[[[114.18438500396047,22.386690001721515],[114.18437832387488,22.386690957823369],[114.18437832409391,22.386695019660788],[114.18436393628457,22.386697648573563],[114.18436419353651,22.386703382941576],[114.18434158403815,22.386706251182378],[114.18432663941518,22.386618140281623],[114.184364776556,22.386620268991088],[114.18437807867195,22.386620547414374],[114.18438500396047,22.386690001721515]]]},"properties":{"OBJECTID":283577,"Shape__Length":28.547555497364215,"Shape__Area":44.214395531557635,"GeoRefNo":"3703827492","DateCreate":1195660800000,"BuildingBlockType":"Temporary Structure","BuildingCSUID":"3703827492T20071122","BuildingID":1102445204,"Status":"Active","BuildingNameEN":null,"BuildingNameTC":null,"BaseHeight":null,"TopHeight":null,"Storeys":null,"StoreysInBasement":null,"DateStamp":1741276800000}},{"type":"Feature","id":283579,"geometry":{"type":"Polygon","coordinates":[[[114.18590160221791,22.386003818595768],[114.18591550535969,22.386030968165823],[114.18588618913012,22.386043386684079],[114.18587275192614,22.386016539066109],[114.18590160221791,22.386003818595768]]]},"properties":{"OBJECTID":283579,"Shape__Length":13.214657370950631,"Shape__Area":10.91363329255822,"GeoRefNo":"3719727422","DateCreate":1743004800000,"BuildingBlockType":"Tower","BuildingCSUID":"3719727422T20250327","BuildingID":1102445395,"Status":"Active","BuildingNameEN":null,"BuildingNameTC":null,"BaseHeight":46.600000000000001,"TopHeight":48.600000000000001,"Storeys":null,"StoreysInBasement":null,"DateStamp":1743004800000}},{"type":"Feature","id":283713,"geometry":{"type":"Polygon","coordinates":[[[114.18666324764177,22.384664593880618],[114.18662327390486,22.384687922684179],[114.18661166031343,22.384670712205132],[114.18665163404738,22.384647383404381],[114.18666324764177,22.384664593880618]]]},"properties":{"OBJECTID":283713,"Shape__Length":14.219995439448674,"Shape__Area":10.934993610275512,"GeoRefNo":"3727327271","DateCreate":1743004800000,"BuildingBlockType":"Temporary Structure","BuildingCSUID":"3727327271T20250327","BuildingID":1810079293,"Status":"Active","BuildingNameEN":null,"BuildingNameTC":null,"BaseHeight":12.1,"TopHeight":14.699999999999999,"Storeys":null,"StoreysInBasement":null,"DateStamp":1743004800000}},{"type":"Feature","id":283715,"geometry":{"type":"Polygon","coordinates":[[[114.18421407693054,22.386579144717761],[114.18425034621785,22.386568397372709],[114.1842826810113,22.386662768160022],[114.18424641170202,22.386673515512189],[114.18421407693054,22.386579144717761]]]},"properties":{"OBJECTID":283715,"Shape__Length":29.775851191886517,"Shape__Area":42.994521223047684,"GeoRefNo":"3702727488","DateCreate":1741276800000,"BuildingBlockType":"Temporary Structure","BuildingCSUID":"3702727488T20250307","BuildingID":1910261143,"Status":"Active","BuildingNameEN":null,"BuildingNameTC":null,"BaseHeight":46.700000000000003,"TopHeight":48.799999999999997,"Storeys":null,"StoreysInBasement":null,"DateStamp":1741276800000}},{"type":"Feature","id":283722,"geometry":{"type":"Polygon","coordinates":[[[114.18381479293852,22.386540828966542],[114.18383690898133,22.386513820615576],[114.18388155860092,22.38653505024164],[114.18385224817543,22.386568216912682],[114.18381479293852,22.386540828966542]]]},"properties":{"OBJECTID":283722,"Shape__Length":18.583970763351552,"Shape__Area":21.213154864675289,"GeoRefNo":"3698627479","DateCreate":1742918400000,"BuildingBlockType":"Open-sided Structure","BuildingCSUID":"3698627479T20250326","BuildingID":1910261700,"Status":"Active","BuildingNameEN":null,"BuildingNameTC":null,"BaseHeight":42.200000000000003,"TopHeight":45.100000000000001,"Storeys":null,"StoreysInBasement":null,"DateStamp":1742918400000}},{"type":"Feature","id":283723,"geometry":{"type":"Polygon","coordinates":[[[114.1854829799444,22.385491634536656],[114.18544556702457,22.385459675531841],[114.1854856447825,22.385417382289464],[114.18551303983546,22.385438684543786],[114.18548683702363,22.385465745993962],[114.18550231917506,22.385479021475959],[114.18549016808593,22.385490158655372],[114.1854829799444,22.385491634536656]]]},"properties":{"OBJECTID":283723,"Shape__Length":23.867566718517097,"Shape__Area":27.906039450582618,"GeoRefNo":"3715427359","DateCreate":1742918400000,"BuildingBlockType":"Open-sided Structure","BuildingCSUID":"3715427359T20250326","BuildingID":1910261703,"Status":"Active","BuildingNameEN":null,"BuildingNameTC":null,"BaseHeight":23.699999999999999,"TopHeight":26.899999999999999,"Storeys":null,"StoreysInBasement":null,"DateStamp":1742918400000}},{"type":"Feature","id":284019,"geometry":{"type":"Polygon","coordinates":[[[114.19063921211659,22.387467483691335],[114.19067264826644,22.387496247190498],[114.19067389668145,22.387497321083298],[114.1906569384993,22.387517741800234],[114.19063306791971,22.387501408532998],[114.19063921211659,22.387467483691335]]]},"properties":{"OBJECTID":284019,"Shape__Length":14.584251079285961,"Shape__Area":12.112946828742457,"GeoRefNo":"3768627584","DateCreate":1193241600000,"BuildingBlockType":"Temporary Structure","BuildingCSUID":"3768627584T20071025","BuildingID":1102444942,"Status":"Active","BuildingNameEN":null,"BuildingNameTC":null,"BaseHeight":null,"TopHeight":null,"Storeys":null,"StoreysInBasement":null,"DateStamp":1658160000000}},{"type":"Feature","id":285794,"geometry":{"type":"Polygon","coordinates":[[[114.1849045664791,22.385852941607791],[114.18490243589811,22.38586500215494],[114.1848963443061,22.385899485320824],[114.18479548640973,22.385884641611295],[114.18480344839841,22.385836854594018],[114.18482706645733,22.385840372622749],[114.18486512176754,22.385846577053702],[114.18486854823047,22.385822736309102],[114.1849077307662,22.385829380821619],[114.1849045664791,22.385852941607791]]]},"properties":{"OBJECTID":285794,"Shape__Length":36.929949631662652,"Shape__Area":66.737576860460734,"GeoRefNo":"3709027404","DateCreate":1323187200000,"BuildingBlockType":"Temporary Structure","BuildingCSUID":"3709027404T20111207","BuildingID":1810076485,"Status":"Active","BuildingNameEN":null,"BuildingNameTC":null,"BaseHeight":null,"TopHeight":null,"Storeys":null,"StoreysInBasement":null,"DateStamp":1766937600000}},{"type":"Feature","id":286820,"geometry":{"type":"Polygon","coordinates":[[[114.18495693581806,22.385569054181524],[114.18496976130477,22.385553724227762],[114.18497429631778,22.385553570571091],[114.18503066630065,22.385554165996957],[114.1850323194912,22.385551981249566],[114.18503533869676,22.385553651471998],[114.18504643202108,22.385560095630826],[114.18504956018855,22.385561922075471],[114.18505011648864,22.385564932010155],[114.18503273055644,22.38558873824833],[114.18497363631685,22.385660831880333],[114.18492953384177,22.38571070062903],[114.18495251975413,22.3857281103212],[114.18493774126064,22.385745115532679],[114.18491824243431,22.385744917836757],[114.1849177673064,22.385756856208896],[114.1849214479695,22.385763059992662],[114.18484601664538,22.385769276744146],[114.18484670639302,22.385774469259381],[114.18462243312845,22.385810331378817],[114.18461324070078,22.385811827094678],[114.18460314026987,22.385728216065896],[114.18465765827786,22.385729744473107],[114.18473118769404,22.385730693620502],[114.18474048463186,22.385729747309679],[114.18474992421096,22.385725249016613],[114.18476918092557,22.385713031313845],[114.18477943734621,22.385704955628484],[114.18479577167301,22.38572535477185],[114.18481376463953,22.385712936919322],[114.18480658801123,22.385703771294565],[114.18483593217306,22.385683532448731],[114.18481480253264,22.385657251425911],[114.18481637603415,22.385653891543019],[114.18484135874363,22.385609187062876],[114.18484968043848,22.385594628006221],[114.18485544839858,22.385587638368079],[114.18485982558668,22.385583582814981],[114.18486965601006,22.385575845428207],[114.18487438934964,22.385572942603009],[114.18487118828503,22.385576658821421],[114.18483929149147,22.385616466035923],[114.18482911849306,22.385634713338519],[114.1848236658719,22.385644110858177],[114.18490373236915,22.38570190619085],[114.18494984555007,22.385647551437049],[114.18495479973154,22.385641700043077],[114.18499555534011,22.385593563419533],[114.18495693581806,22.385569054181524]]]},"properties":{"OBJECTID":286820,"Shape__Length":167.35125067094501,"Shape__Area":361.88243960571577,"GeoRefNo":"3709227388","DateCreate":1195747200000,"BuildingBlockType":"Open-sided Structure","BuildingCSUID":"3709227388T20071123","BuildingID":1102445470,"Status":"Active","BuildingNameEN":null,"BuildingNameTC":null,"BaseHeight":null,"TopHeight":null,"Storeys":null,"StoreysInBasement":null,"DateStamp":1782921600000}},{"type":"Feature","id":286821,"geometry":{"type":"Polygon","coordinates":[[[114.18492289813491,22.385556282034482],[114.18493489846203,22.385555068544765],[114.18499555534011,22.385593563419533],[114.18495479973154,22.385641700043077],[114.18486955207692,22.385578700793776],[114.18487118828503,22.385576658821421],[114.18487438934964,22.385572942603009],[114.18488015323366,22.385569407770557],[114.1848930492589,22.385564739974836],[114.18490902256529,22.385560209288442],[114.18492289813491,22.385556282034482]]]},"properties":{"OBJECTID":286821,"Shape__Length":32.96190722890254,"Shape__Area":63.457686390758475,"GeoRefNo":"3709827374","DateCreate":1782921600000,"BuildingBlockType":"Tower","BuildingCSUID":"3709827374T20260702","BuildingID":1910277078,"Status":"Active","BuildingNameEN":null,"BuildingNameTC":null,"BaseHeight":20,"TopHeight":26.300000000000001,"Storeys":null,"StoreysInBasement":null,"DateStamp":1782921600000}},{"type":"Feature","id":286823,"geometry":{"type":"Polygon","coordinates":[[[114.18495479973154,22.385641700043077],[114.18494984555007,22.385647551437049],[114.18490373236915,22.38570190619085],[114.1848236658719,22.385644110858177],[114.18482911849306,22.385634713338519],[114.18483929149147,22.385616466035923],[114.18486955207692,22.385578700793776],[114.18495479973154,22.385641700043077]]]},"properties":{"OBJECTID":286823,"Shape__Length":38.816242231488047,"Shape__Area":93.976684250017556,"GeoRefNo":"3709327375","DateCreate":1114790400000,"BuildingBlockType":"Tower","BuildingCSUID":"3709327375T20050430","BuildingID":1102445508,"Status":"Active","BuildingNameEN":null,"BuildingNameTC":"慧泉寺","BaseHeight":20,"TopHeight":26.300000000000001,"Storeys":null,"StoreysInBasement":null,"DateStamp":1782921600000}},{"type":"Feature","id":287677,"geometry":{"type":"Polygon","coordinates":[[[114.18700653459516,22.383180088646579],[114.18697527442121,22.383226842171165],[114.18693905312318,22.383206835777507],[114.18695195473892,22.383186754518448],[114.18697105586547,22.383197716378355],[114.18698929502733,22.383170201938444],[114.18700653459516,22.383180088646579]]]},"properties":{"OBJECTID":287677,"Shape__Length":21.001933933856623,"Shape__Area":18.576534210809633,"GeoRefNo":"3730827109","DateCreate":1271779200000,"BuildingBlockType":"Temporary Structure","BuildingCSUID":"3730827109T20100421","BuildingID":1109560068,"Status":"Active","BuildingNameEN":null,"BuildingNameTC":null,"BaseHeight":null,"TopHeight":null,"Storeys":null,"StoreysInBasement":null,"DateStamp":1760371200000}},{"type":"Feature","id":287678,"geometry":{"type":"Polygon","coordinates":[[[114.18700653459516,22.383180088646579],[114.18698929502733,22.383170201938444],[114.18697105586547,22.383197716378355],[114.18695195473892,22.383186754518448],[114.18695946968363,22.383174382231029],[114.18700215187383,22.383110118348299],[114.18704123770316,22.383131238281866],[114.18700653459516,22.383180088646579]]]},"properties":{"OBJECTID":287678,"Shape__Length":29.053088245017815,"Shape__Area":37.67005802778376,"GeoRefNo":"3731127102","DateCreate":1114790400000,"BuildingBlockType":"Tower","BuildingCSUID":"3731127102T20050430","BuildingID":1109560113,"Status":"Active","BuildingNameEN":null,"BuildingNameTC":null,"BaseHeight":4.7000000000000002,"TopHeight":14.800000000000001,"Storeys":null,"StoreysInBasement":null,"DateStamp":1760371200000}},{"type":"Feature","id":287679,"geometry":{"type":"Polygon","coordinates":[[[114.18698020475301,22.383223862963263],[114.18701588720728,22.383170137866188],[114.18705699515361,22.383112936659941],[114.18710990117854,22.383149647172971],[114.18709823052129,22.383166354382396],[114.18709271624219,22.383175051487537],[114.18706007310179,22.383226536207488],[114.18704042809395,22.383258291568001],[114.18698020475301,22.383223862963263]]]},"properties":{"OBJECTID":287679,"Shape__Length":42.688782539323299,"Shape__Area":100.65723663060439,"GeoRefNo":"3731727106","DateCreate":1543248000000,"BuildingBlockType":"Temporary Structure","BuildingCSUID":"3731727106T20181127","BuildingID":1810182565,"Status":"Active","BuildingNameEN":null,"BuildingNameTC":null,"BaseHeight":4.7000000000000002,"TopHeight":11.4,"Storeys":null,"StoreysInBasement":null,"DateStamp":1760371200000}},{"type":"Feature","id":290766,"geometry":{"type":"Polygon","coordinates":[[[114.19112257507395,22.387495394966976],[114.19118123202682,22.387441776308197],[114.191232871572,22.387490631612319],[114.19117421471555,22.387544250289491],[114.19112257507395,22.387495394966976]]]},"properties":{"OBJECTID":290766,"Shape__Length":32.112006361370057,"Shape__Area":64.253447915155178,"GeoRefNo":"3774127584","DateCreate":1606060800000,"BuildingBlockType":"Tower","BuildingCSUID":"3774127584T20201123","BuildingID":1810206535,"Status":"Active","BuildingNameEN":null,"BuildingNameTC":null,"BaseHeight":5.2999999999999998,"TopHeight":13.5,"Storeys":null,"StoreysInBasement":null,"DateStamp":1718899200000}},{"type":"Feature","id":293509,"geometry":{"type":"Polygon","coordinates":[[[114.18870424287113,22.388663864556122],[114.18867880303895,22.388620858491265],[114.18868830892225,22.388614167716685],[114.18867623151969,22.388594337133362],[114.18870477739209,22.388572790032406],[114.1887460080814,22.38855865424156],[114.18875073843405,22.388572885988772],[114.18881433176942,22.388544380978143],[114.18883803487215,22.388534346315947],[114.18885525142105,22.388527057409757],[114.18890512486281,22.388515323053447],[114.18891933129984,22.388510680306648],[114.18892126174386,22.38851004947108],[114.18892714367755,22.388567698410643],[114.18895059498857,22.388565655758807],[114.18895136279652,22.388573250366523],[114.18892242534487,22.388580395670939],[114.18892273636393,22.38858357438987],[114.1888380405429,22.388600431642775],[114.18880701544956,22.388609726344573],[114.18881007575186,22.388626215842937],[114.18877594329534,22.388636558308818],[114.18877155584575,22.388628258593766],[114.18873789884425,22.388639968778673],[114.18870424287113,22.388663864556122]],[[114.18883803929529,22.388585892509685],[114.18892458028796,22.388570606428917],[114.18891722573245,22.388529978680022],[114.18883803580977,22.388545273242109],[114.18883050041224,22.388547043782555],[114.18883803929529,22.388585892509685]]]},"properties":{"OBJECTID":293509,"Shape__Length":105.27081912986363,"Shape__Area":160.39406993383409,"GeoRefNo":"3749927704","DateCreate":1323014400000,"BuildingBlockType":"Open-sided Structure","BuildingCSUID":"3749927704T20111205","BuildingID":1810076375,"Status":"Active","BuildingNameEN":null,"BuildingNameTC":null,"BaseHeight":null,"TopHeight":null,"Storeys":null,"StoreysInBasement":null,"DateStamp":1765728000000}},{"type":"Feature","id":296533,"geometry":{"type":"Polygon","coordinates":[[[114.1837291223157,22.386987427595891],[114.18372900219941,22.386987518267425],[114.18372682912268,22.386984996587508],[114.18370561761793,22.386960382551674],[114.18376176242889,22.386916663412684],[114.18378687544114,22.386942426407249],[114.1837638718448,22.386961192813551],[114.1837291223157,22.386987427595891]]]},"properties":{"OBJECTID":296533,"Shape__Length":23.01880342892218,"Shape__Area":29.752139381412107,"GeoRefNo":"3697727521","DateCreate":1114790400000,"BuildingBlockType":"Temporary Structure","BuildingCSUID":"3697727521T20050430","BuildingID":1102445113,"Status":"Active","BuildingNameEN":null,"BuildingNameTC":null,"BaseHeight":51.100000000000001,"TopHeight":54.799999999999997,"Storeys":null,"StoreysInBasement":null,"DateStamp":1770134400000}},{"type":"Feature","id":296777,"geometry":{"type":"Polygon","coordinates":[[[114.18688141838994,22.384221314950892],[114.18685614784107,22.38421249243364],[114.18687452729523,22.384173016261659],[114.18687675025855,22.384168241596168],[114.1868886856256,22.384173015382366],[114.18690031937803,22.384177668448388],[114.18688141838994,22.384221314950892]]]},"properties":{"OBJECTID":296777,"Shape__Length":15.972081202941528,"Shape__Area":14.293976162165647,"GeoRefNo":"3729827218","DateCreate":1195660800000,"BuildingBlockType":"Temporary Structure","BuildingCSUID":"3729827218T20071122","BuildingID":1102445931,"Status":"Active","BuildingNameEN":null,"BuildingNameTC":null,"BaseHeight":26.699999999999999,"TopHeight":28.300000000000001,"Storeys":null,"StoreysInBasement":null,"DateStamp":1660752000000}},{"type":"Feature","id":296958,"geometry":{"type":"Polygon","coordinates":[[[114.18978379856867,22.386360526543587],[114.18978967188315,22.386354748166042],[114.18974492749014,22.386310008045211],[114.18975040305246,22.386304172176402],[114.18975546700801,22.386310185285602],[114.18979861801752,22.386276620537604],[114.18980638010832,22.386285194935976],[114.18977734724699,22.386312435567518],[114.18980713279294,22.386339820581497],[114.18978569679172,22.38636150448724],[114.18978379856867,22.386360526543587]]]},"properties":{"OBJECTID":296958,"Shape__Length":28.429757619522057,"Shape__Area":21.177528586743303,"GeoRefNo":"3759527454","DateCreate":1787068800000,"BuildingBlockType":"Open-sided Structure","BuildingCSUID":"3759527454T20260819","BuildingID":1910278635,"Status":"Active","BuildingNameEN":null,"BuildingNameTC":null,"BaseHeight":5.4000000000000004,"TopHeight":8.5,"Storeys":null,"StoreysInBasement":null,"DateStamp":1787068800000}},{"type":"Feature","id":296959,"geometry":{"type":"Polygon","coordinates":[[[114.18880994820348,22.387380166174108],[114.18879618161425,22.387315965892647],[114.18884511588612,22.387307481706436],[114.18884800508307,22.387320821013208],[114.18885902087405,22.387371680347997],[114.18880994820348,22.387380166174108]]]},"properties":{"OBJECTID":296959,"Shape__Length":24.7672386146767,"Shape__Area":37.214073824578037,"GeoRefNo":"3749927568","DateCreate":1787500800000,"BuildingBlockType":"Temporary Structure","BuildingCSUID":"3749927568T20260824","BuildingID":1910278822,"Status":"Active","BuildingNameEN":null,"BuildingNameTC":null,"BaseHeight":33,"TopHeight":35.5,"Storeys":null,"StoreysInBasement":null,"DateStamp":1787500800000}},{"type":"Feature","id":297196,"geometry":{"type":"Polygon","coordinates":[[[114.1884856394995,22.38685193121826],[114.18850079594588,22.386823736121723],[114.18854999797229,22.386827913876964],[114.18856078938188,22.386833408527387],[114.18856361523621,22.386829465958922],[114.18857813234436,22.386837469106602],[114.18858185756088,22.386834243224882],[114.18862116823146,22.386842961499223],[114.18862810563161,22.386846664409617],[114.18862001357206,22.386860642617975],[114.18862542271228,22.386864348168327],[114.18863105523992,22.386868555979742],[114.18861385037154,22.386896954875702],[114.18862101963234,22.386909498286748],[114.18860660720576,22.386923548657037],[114.18858641187042,22.386914231713146],[114.18858502459992,22.386916453863506],[114.18852713602519,22.386883772093242],[114.1884856394995,22.38685193121826]]]},"properties":{"OBJECTID":297196,"Shape__Length":43.264425164124908,"Shape__Area":97.447966121818908,"GeoRefNo":"3746927514","DateCreate":1242316800000,"BuildingBlockType":"Temporary Structure","BuildingCSUID":"3746927514T20090515","BuildingID":1102445128,"Status":"Active","BuildingNameEN":null,"BuildingNameTC":null,"BaseHeight":null,"TopHeight":22.5,"Storeys":null,"StoreysInBasement":null,"DateStamp":1787068800000}},{"type":"Feature","id":297201,"geometry":{"type":"Polygon","coordinates":[[[114.1887699010241,22.38671146821623],[114.18872109072797,22.386697782535869],[114.18873987572763,22.386639325607444],[114.18872683200063,22.386635614752386],[114.18872717011905,22.386634406534313],[114.18874496762312,22.386578097676878],[114.18879661123147,22.38659161743076],[114.18877698670612,22.386646955828404],[114.18879003897403,22.386650586578067],[114.1887699010241,22.38671146821623]]]},"properties":{"OBJECTID":297201,"Shape__Length":40.482238527708709,"Shape__Area":72.301920691005932,"GeoRefNo":"3749127492","DateCreate":1114790400000,"BuildingBlockType":"Tower","BuildingCSUID":"3749127492T20050430","BuildingID":1102445187,"Status":"Active","BuildingNameEN":"SAI LAM MONASTERY","BuildingNameTC":"西林寺","BaseHeight":7.2999999999999998,"TopHeight":13.300000000000001,"Storeys":null,"StoreysInBasement":null,"DateStamp":1787068800000}},{"type":"Feature","id":297202,"geometry":{"type":"Polygon","coordinates":[[[114.18971858069239,22.38622053349534],[114.18975312327171,22.386195725707772],[114.18981210487635,22.386266129875011],[114.18975546700801,22.386310185285602],[114.18971675047952,22.386264212370371],[114.18972623338159,22.386256993610541],[114.18974046144938,22.386246452143304],[114.18971858069239,22.38622053349534]]]},"properties":{"OBJECTID":297202,"Shape__Length":35.231984913936479,"Shape__Area":64.844675122292799,"GeoRefNo":"3759527444","DateCreate":1114790400000,"BuildingBlockType":"Tower","BuildingCSUID":"3759527444T20050430","BuildingID":1102445315,"Status":"Active","BuildingNameEN":null,"BuildingNameTC":null,"BaseHeight":6.5999999999999996,"TopHeight":11.199999999999999,"Storeys":null,"StoreysInBasement":null,"DateStamp":1787587200000}},{"type":"Feature","id":297203,"geometry":{"type":"Polygon","coordinates":[[[114.18981872091905,22.386273624675773],[114.18984890796733,22.386300676694667],[114.18980713279294,22.386339820581497],[114.18977734724699,22.386312435567518],[114.18980638010832,22.386285194935976],[114.18981872091905,22.386273624675773]]]},"properties":{"OBJECTID":297203,"Shape__Length":20.789257160068768,"Shape__Area":26.234021042103127,"GeoRefNo":"3760127450","DateCreate":1114790400000,"BuildingBlockType":"Tower","BuildingCSUID":"3760127450T20050430","BuildingID":1102445300,"Status":"Active","BuildingNameEN":null,"BuildingNameTC":null,"BaseHeight":6.5999999999999996,"TopHeight":8.9000000000000004,"Storeys":null,"StoreysInBasement":null,"DateStamp":1787587200000}},{"type":"Feature","id":297204,"geometry":{"type":"Polygon","coordinates":[[[114.18981872091905,22.386273624675773],[114.18983287972353,22.386259717260234],[114.18984632277555,22.386266891740437],[114.18986426708165,22.386248004498533],[114.18988116145931,22.386261250097071],[114.1898589651701,22.386284285039867],[114.18986256242066,22.386286960854502],[114.18984890796733,22.386300676694667],[114.18981872091905,22.386273624675773]]]},"properties":{"OBJECTID":297204,"Shape__Length":19.069791673399536,"Shape__Area":16.766463999940843,"GeoRefNo":"3760427449","DateCreate":1271174400000,"BuildingBlockType":"Open-sided Structure","BuildingCSUID":"3760427449T20100414","BuildingID":1109560000,"Status":"Active","BuildingNameEN":null,"BuildingNameTC":null,"BaseHeight":4.5999999999999996,"TopHeight":7.5,"Storeys":null,"StoreysInBasement":null,"DateStamp":1787068800000}},{"type":"Feature","id":297269,"geometry":{"type":"Polygon","coordinates":[[[114.18888591892126,22.387479366379875],[114.18880537548597,22.387488452185764],[114.18879242066787,22.387476120616054],[114.18877715296551,22.387449051409401],[114.18878308382691,22.387448634664519],[114.18877275248103,22.387415017605324],[114.188807742146,22.387405296374897],[114.18880195972235,22.387388213138202],[114.18886586508332,22.387370857068522],[114.18886623519495,22.38737242446814],[114.18887417584627,22.387370581651492],[114.18887864743922,22.387383220884324],[114.18888596986271,22.387381965909583],[114.18889187975002,22.387388356999491],[114.18889445129268,22.38739353228846],[114.18889944907207,22.387405731424256],[114.18889935017815,22.387416536718295],[114.18886786094487,22.387425345986994],[114.18887051427855,22.387436481412607],[114.18889919904662,22.387433039822081],[114.18888591892126,22.387479366379875]]]},"properties":{"OBJECTID":297269,"Shape__Length":51.137259970044326,"Shape__Area":121.5704247663927,"GeoRefNo":"3750027578","DateCreate":1787500800000,"BuildingBlockType":"Temporary Structure","BuildingCSUID":"3750027578T20260824","BuildingID":1109560009,"Status":"Active","BuildingNameEN":null,"BuildingNameTC":null,"BaseHeight":null,"TopHeight":null,"Storeys":null,"StoreysInBasement":null,"DateStamp":1787587200000}},{"type":"Feature","id":297272,"geometry":{"type":"Polygon","coordinates":[[[114.18950616898012,22.386159944827316],[114.18947287123363,22.386180115021997],[114.18943284323363,22.386119148767754],[114.18941550915939,22.386097670031027],[114.18940539856192,22.386089785457024],[114.18940279668847,22.386087421107781],[114.18939288310141,22.386080408324137],[114.18938834996852,22.386074596000988],[114.18939861357406,22.386068103434056],[114.18940143933614,22.386062488217643],[114.18940516485607,22.386064160470838],[114.18940818359305,22.386062074366649],[114.18941280836323,22.386063220883205],[114.18941445293196,22.386066279121625],[114.18941722755179,22.386064271872712],[114.18941918046011,22.386066565472927],[114.18942411324065,22.386064366879872],[114.18942699103702,22.386067233846067],[114.18943137785087,22.386064619891361],[114.18943870752375,22.386074592085205],[114.18944066012254,22.386073445056972],[114.18944459120688,22.386079321632568],[114.1894462101715,22.386078414390614],[114.18945021869941,22.38608376619651],[114.18945289064138,22.386082428026214],[114.18945669363961,22.386088257652816],[114.18945885167997,22.386086728346406],[114.18947776408042,22.386115303228294],[114.18948097282673,22.386116141641885],[114.18948443673429,22.386121983575823],[114.18949403235348,22.386139167905153],[114.18950113186106,22.386150925086724],[114.18950616898012,22.386159944827316]]]},"properties":{"OBJECTID":297272,"Shape__Length":38.823320054634465,"Shape__Area":58.601004301875939,"GeoRefNo":"3756327432","DateCreate":1787068800000,"BuildingBlockType":"Temporary Structure","BuildingCSUID":"3756327432T20260819","BuildingID":1109560148,"Status":"Active","BuildingNameEN":null,"BuildingNameTC":null,"BaseHeight":11.699999999999999,"TopHeight":14.300000000000001,"Storeys":null,"StoreysInBasement":null,"DateStamp":1787068800000}},{"type":"Feature","id":297275,"geometry":{"type":"Polygon","coordinates":[[[114.18865656416436,22.387328623127388],[114.18862193487961,22.387363798351583],[114.18850398024027,22.387263553243365],[114.18853866266639,22.387228606783189],[114.18865656416436,22.387328623127388]]]},"properties":{"OBJECTID":297275,"Shape__Length":43.436356274632892,"Shape__Area":86.720994754124575,"GeoRefNo":"3747127563","DateCreate":1297353600000,"BuildingBlockType":"Open-sided Structure","BuildingCSUID":"3747127563T20110211","BuildingID":1810052690,"Status":"Active","BuildingNameEN":null,"BuildingNameTC":null,"BaseHeight":null,"TopHeight":null,"Storeys":null,"StoreysInBasement":null,"DateStamp":1787587200000}},{"type":"Feature","id":297276,"geometry":{"type":"Polygon","coordinates":[[[114.18971858069239,22.38622053349534],[114.18974046144938,22.386246452143304],[114.18972623338159,22.386256993610541],[114.18969988636157,22.38622822013641],[114.18971413645822,22.386215425645208],[114.18971858069239,22.38622053349534]]]},"properties":{"OBJECTID":297276,"Shape__Length":12.474656686345989,"Shape__Area":8.3787665775972453,"GeoRefNo":"3759127445","DateCreate":1368547200000,"BuildingBlockType":"Temporary Structure","BuildingCSUID":"3759127445T20130515","BuildingID":1810099653,"Status":"Active","BuildingNameEN":null,"BuildingNameTC":null,"BaseHeight":null,"TopHeight":null,"Storeys":null,"StoreysInBasement":null,"DateStamp":1787587200000}},{"type":"Feature","id":297277,"geometry":{"type":"Polygon","coordinates":[[[114.18872683200063,22.386635614752386],[114.18873984960543,22.386639318204345],[114.18872109072797,22.386697782535869],[114.1887699010241,22.38671146821623],[114.18878533198442,22.386715885348998],[114.18877836554557,22.386735994211733],[114.18872198304241,22.386722977349024],[114.1887128835897,22.386716033547927],[114.18870835768844,22.386707238154088],[114.18870871606281,22.386696410534793],[114.18871203593706,22.386682729053842],[114.18871433678666,22.386676019208814],[114.18871898712727,22.386663647055315],[114.18872683200063,22.386635614752386]]]},"properties":{"OBJECTID":297277,"Shape__Length":33.876017578088586,"Shape__Area":28.251847811666416,"GeoRefNo":"3749127499","DateCreate":1474560000000,"BuildingBlockType":"Podium","BuildingCSUID":"3749127499P20160923","BuildingID":1810154571,"Status":"Active","BuildingNameEN":"SAI LAM MONASTERY","BuildingNameTC":"西林寺","BaseHeight":7.2999999999999998,"TopHeight":9.3000000000000007,"Storeys":null,"StoreysInBasement":null,"DateStamp":1787587200000}},{"type":"Feature","id":298786,"geometry":{"type":"Polygon","coordinates":[[[114.18481480253264,22.385657251425911],[114.18483593217306,22.385683532448731],[114.18480658801123,22.385703771294565],[114.18481376463953,22.385712936919322],[114.18479577167301,22.38572535477185],[114.18477943734621,22.385704955628484],[114.18478589274888,22.385700093278938],[114.18479223304632,22.385694623361356],[114.18479515369866,22.385691327438778],[114.18479864556099,22.385685233561773],[114.18481480253264,22.385657251425911]]]},"properties":{"OBJECTID":298786,"Shape__Length":20.276154652178995,"Shape__Area":17.081939036709741,"GeoRefNo":"3708427386","DateCreate":1114790400000,"BuildingBlockType":"Tower","BuildingCSUID":"3708427386T20050430","BuildingID":1102445500,"Status":"Active","BuildingNameEN":null,"BuildingNameTC":null,"BaseHeight":20,"TopHeight":27.199999999999999,"Storeys":null,"StoreysInBasement":null,"DateStamp":1782662400000}},{"type":"Feature","id":298787,"geometry":{"type":"Polygon","coordinates":[[[114.18546101653247,22.38562080141751],[114.18544595235488,22.385570366760966],[114.18546871358522,22.385565407791759],[114.18548245710247,22.385615318746627],[114.18546101653247,22.38562080141751]]]},"properties":{"OBJECTID":298787,"Shape__Length":16.198969066120725,"Shape__Area":13.502630002303869,"GeoRefNo":"3715327374","DateCreate":1779811200000,"BuildingBlockType":"Temporary Structure","BuildingCSUID":"3715327374T20260527","BuildingID":1910275554,"Status":"Active","BuildingNameEN":null,"BuildingNameTC":null,"BaseHeight":20.600000000000001,"TopHeight":24.600000000000001,"Storeys":null,"StoreysInBasement":null,"DateStamp":1782662400000}},{"type":"Feature","id":298788,"geometry":{"type":"Polygon","coordinates":[[[114.18455496767054,22.385799549371498],[114.1845563223326,22.385812547657672],[114.18454892292185,22.385813336465464],[114.18454737784603,22.38580051627018],[114.18455496767054,22.385799549371498]]]},"properties":{"OBJECTID":298788,"Shape__Length":4.4305477281011676,"Shape__Area":1.1178118485805915,"GeoRefNo":"3705927398","DateCreate":1782662400000,"BuildingBlockType":"Tower","BuildingCSUID":"3705927398T20260629","BuildingID":1910276877,"Status":"Active","BuildingNameEN":null,"BuildingNameTC":null,"BaseHeight":25.699999999999999,"TopHeight":27.199999999999999,"Storeys":null,"StoreysInBasement":null,"DateStamp":1782662400000}},{"type":"Feature","id":299178,"geometry":{"type":"Polygon","coordinates":[[[114.18389496670282,22.38239152965895],[114.18392086276918,22.38232764731886],[114.18399822769301,22.382354621790974],[114.18397244429556,22.38241847849158],[114.18389496670282,22.38239152965895]]]},"properties":{"OBJECTID":299178,"Shape__Length":32.140839831462017,"Shape__Area":64.335502080100696,"GeoRefNo":"3699627017","DateCreate":1788105600000,"BuildingBlockType":"Tower","BuildingCSUID":"3699627017T20260831","BuildingID":1910279151,"Status":"Active","BuildingNameEN":null,"BuildingNameTC":null,"BaseHeight":82.200000000000003,"TopHeight":90.400000000000006,"Storeys":null,"StoreysInBasement":null,"DateStamp":1788105600000}},{"type":"Feature","id":299179,"geometry":{"type":"Polygon","coordinates":[[[114.18392086276918,22.38232764731886],[114.18389496670282,22.38239152965895],[114.18381757721414,22.38236461130851],[114.18384371432211,22.382300748566383],[114.18392086276918,22.38232764731886]]]},"properties":{"OBJECTID":299179,"Shape__Length":32.120851342768596,"Shape__Area":64.265876391047584,"GeoRefNo":"3698827014","DateCreate":1788105600000,"BuildingBlockType":"Tower","BuildingCSUID":"3698827014T20260831","BuildingID":1910279152,"Status":"Active","BuildingNameEN":null,"BuildingNameTC":null,"BaseHeight":82.200000000000003,"TopHeight":90.400000000000006,"Storeys":null,"StoreysInBasement":null,"DateStamp":1788105600000}},{"type":"Feature","id":305064,"geometry":{"type":"Polygon","coordinates":[[[114.19114354975044,22.387301547247919],[114.19112421394321,22.387283366910424],[114.19114232252801,22.387265589636304],[114.19116227392983,22.387283165594823],[114.19114354975044,22.387301547247919]]]},"properties":{"OBJECTID":305064,"Shape__Length":11.177062929019673,"Shape__Area":7.8045144186340254,"GeoRefNo":"3773727561","DateCreate":1670169600000,"BuildingBlockType":"Tower","BuildingCSUID":"3773727561T20221205","BuildingID":1910227621,"Status":"Active","BuildingNameEN":null,"BuildingNameTC":null,"BaseHeight":5.2999999999999998,"TopHeight":18.100000000000001,"Storeys":null,"StoreysInBasement":null,"DateStamp":1670169600000}},{"type":"Feature","id":305084,"geometry":{"type":"Polygon","coordinates":[[[114.18387276137277,22.386782331720696],[114.18384041395602,22.38682261619558],[114.18380800399176,22.386796819117407],[114.18380679278282,22.3867948498842],[114.18384700954502,22.386755315330511],[114.18381310268168,22.386723290691062],[114.18384142861653,22.386700386172333],[114.18386010023744,22.386685288229987],[114.18386324586194,22.386672952403437],[114.18386918805162,22.386658720046089],[114.18387134135386,22.386654269712302],[114.18388920929914,22.386669690081693],[114.1838850343194,22.386671780919322],[114.18388182419733,22.386701050328089],[114.18388226294302,22.386703361760805],[114.18388562419965,22.386721069921546],[114.18388760656926,22.386731513992306],[114.18388737016804,22.38673448585633],[114.18388479935291,22.386766807823619],[114.18388247073854,22.386784079516246],[114.1838744961665,22.386780171273998],[114.18387276137277,22.386782331720696]]]},"properties":{"OBJECTID":305084,"Shape__Length":48.01900697558132,"Shape__Area":79.705996374502476,"GeoRefNo":"3698527499","DateCreate":1384185600000,"BuildingBlockType":"Temporary Structure","BuildingCSUID":"3698527499T20131112","BuildingID":1102445149,"Status":"Active","BuildingNameEN":null,"BuildingNameTC":null,"BaseHeight":null,"TopHeight":51.600000000000001,"Storeys":null,"StoreysInBasement":null,"DateStamp":1671552000000}},{"type":"Feature","id":305085,"geometry":{"type":"Polygon","coordinates":[[[114.18431902146838,22.386598905807755],[114.1842902449244,22.386586482676549],[114.18433134868627,22.38650046489477],[114.18435995391873,22.386512848202173],[114.18431902146838,22.386598905807755]]]},"properties":{"OBJECTID":305085,"Shape__Length":27.360124113923174,"Shape__Area":33.951283092560431,"GeoRefNo":"3703427483","DateCreate":1212422400000,"BuildingBlockType":"Open-sided Structure","BuildingCSUID":"3703427483T20080603","BuildingID":1102445222,"Status":"Active","BuildingNameEN":null,"BuildingNameTC":null,"BaseHeight":null,"TopHeight":null,"Storeys":null,"StoreysInBasement":null,"DateStamp":1671552000000}},{"type":"Feature","id":305089,"geometry":{"type":"Polygon","coordinates":[[[114.18378134721016,22.386689030266226],[114.18376713020108,22.386675999836214],[114.18378383089612,22.386659665438017],[114.18379990333609,22.386671167100335],[114.18383184935851,22.386632208059531],[114.18384065674324,22.386629137301611],[114.18384460883519,22.386626482157599],[114.18387134135386,22.386654269712302],[114.18386918805162,22.386658720046089],[114.18386324586194,22.386672952403437],[114.18386010023744,22.386685288229987],[114.18382883030576,22.386651253556241],[114.18378134721016,22.386689030266226]]]},"properties":{"OBJECTID":305089,"Shape__Length":32.692041276736106,"Shape__Area":24.008754756904164,"GeoRefNo":"3698327491","DateCreate":1384185600000,"BuildingBlockType":"Open-sided Structure","BuildingCSUID":"3698327491T20131112","BuildingID":1810107443,"Status":"Active","BuildingNameEN":null,"BuildingNameTC":null,"BaseHeight":null,"TopHeight":null,"Storeys":null,"StoreysInBasement":null,"DateStamp":1670515200000}},{"type":"Feature","id":305090,"geometry":{"type":"Polygon","coordinates":[[[114.1839550271354,22.386657597138193],[114.18396562463604,22.386642364713122],[114.18401379967175,22.386665658523722],[114.18404013547757,22.386678798655375],[114.18402985925107,22.386696719095426],[114.18400834107035,22.386687162781225],[114.18400545085426,22.386690149573155],[114.1839550271354,22.386657597138193]]]},"properties":{"OBJECTID":305090,"Shape__Length":22.149103462658566,"Shape__Area":20.840594291506143,"GeoRefNo":"3700227493","DateCreate":1670515200000,"BuildingBlockType":"Temporary Structure","BuildingCSUID":"3700227493T20221209","BuildingID":1910227699,"Status":"Active","BuildingNameEN":null,"BuildingNameTC":null,"BaseHeight":null,"TopHeight":null,"Storeys":null,"StoreysInBasement":null,"DateStamp":1672156800000}},{"type":"Feature","id":305091,"geometry":{"type":"Polygon","coordinates":[[[114.1840989568603,22.386753953879008],[114.1841143730159,22.386763988350904],[114.184131588254,22.386785013695256],[114.18411052141749,22.386807474359077],[114.18407275241162,22.386796962993493],[114.1840989568603,22.386753953879008]]]},"properties":{"OBJECTID":305091,"Shape__Length":17.698467922460409,"Shape__Area":19.605500158557035,"GeoRefNo":"3701227506","DateCreate":1670774400000,"BuildingBlockType":"Temporary Structure","BuildingCSUID":"3701227506T20221212","BuildingID":1102445155,"Status":"Active","BuildingNameEN":null,"BuildingNameTC":null,"BaseHeight":null,"TopHeight":49.200000000000003,"Storeys":null,"StoreysInBasement":null,"DateStamp":1672156800000}},{"type":"Feature","id":305092,"geometry":{"type":"Polygon","coordinates":[[[114.18435995391873,22.386512848202173],[114.18441680021932,22.386533453555252],[114.18438372550445,22.386620665631362],[114.184364776556,22.386620268991088],[114.18432663941518,22.386618140281623],[114.18430953750612,22.386617383773412],[114.18431902146838,22.386598905807755],[114.18435995391873,22.386512848202173]]]},"properties":{"OBJECTID":305092,"Shape__Length":36.860520223743116,"Shape__Area":77.118425330252194,"GeoRefNo":"3703927485","DateCreate":1114790400000,"BuildingBlockType":"Tower","BuildingCSUID":"3703927485T20050430","BuildingID":1102445216,"Status":"Active","BuildingNameEN":null,"BuildingNameTC":null,"BaseHeight":53.600000000000001,"TopHeight":56.600000000000001,"Storeys":null,"StoreysInBasement":null,"DateStamp":1671552000000}},{"type":"Feature","id":305093,"geometry":{"type":"Polygon","coordinates":[[[114.18393511627657,22.386678803299148],[114.18400098023275,22.386708299851541],[114.1840061183302,22.386698981211183],[114.18403592280534,22.386714510484563],[114.18403258322793,22.386724067993356],[114.18408510129383,22.386747489912871],[114.1840989568603,22.386753953879008],[114.18407275241162,22.386796962993493],[114.18391071087845,22.386731369668968],[114.18393511627657,22.386678803299148]]]},"properties":{"OBJECTID":305093,"Shape__Length":50.926902534509978,"Shape__Area":113.33265325861092,"GeoRefNo":"3699727498","DateCreate":1114790400000,"BuildingBlockType":"Temporary Structure","BuildingCSUID":"3699727498T20050430","BuildingID":1102445165,"Status":"Active","BuildingNameEN":null,"BuildingNameTC":null,"BaseHeight":null,"TopHeight":47.600000000000001,"Storeys":null,"StoreysInBasement":null,"DateStamp":1672156800000}},{"type":"Feature","id":305094,"geometry":{"type":"Polygon","coordinates":[[[114.18393786205549,22.38638430158063],[114.18398937208664,22.38641099289563],[114.18397826736005,22.386425035212838],[114.18400036665751,22.386439867496609],[114.18398721632936,22.386458445122418],[114.18391738139984,22.386416730443866],[114.18393786205549,22.38638430158063]]]},"properties":{"OBJECTID":305094,"Shape__Length":25.984041418862709,"Shape__Area":32.669771275241786,"GeoRefNo":"3699627465","DateCreate":1114790400000,"BuildingBlockType":"Tower","BuildingCSUID":"3699627465T20050430","BuildingID":1102445272,"Status":"Active","BuildingNameEN":null,"BuildingNameTC":null,"BaseHeight":34.799999999999997,"TopHeight":38.799999999999997,"Storeys":null,"StoreysInBasement":null,"DateStamp":1672156800000}},{"type":"Feature","id":305095,"geometry":{"type":"Polygon","coordinates":[[[114.1836813641544,22.387003050707005],[114.18363539839733,22.387013143167682],[114.18362876409427,22.386979465117907],[114.1836727816078,22.386969675805666],[114.1836813641544,22.387003050707005]]]},"properties":{"OBJECTID":305095,"Shape__Length":17.115835473080544,"Shape__Area":18.063692601346769,"GeoRefNo":"3696527529","DateCreate":1290096000000,"BuildingBlockType":"Open-sided Structure","BuildingCSUID":"3696527529T20101119","BuildingID":1810025342,"Status":"Active","BuildingNameEN":null,"BuildingNameTC":null,"BaseHeight":null,"TopHeight":null,"Storeys":null,"StoreysInBasement":null,"DateStamp":1671120000000}},{"type":"Feature","id":305097,"geometry":{"type":"Polygon","coordinates":[[[114.18358376540036,22.387107803323538],[114.18357348685606,22.387077459310987],[114.18361639325703,22.387064555073174],[114.18362718584858,22.387098005289168],[114.18358376540036,22.387107803323538]]]},"properties":{"OBJECTID":305097,"Shape__Length":16.635193432802364,"Shape__Area":17.063979046552038,"GeoRefNo":"3696127539","DateCreate":1670774400000,"BuildingBlockType":"Temporary Structure","BuildingCSUID":"3696127539T20221212","BuildingID":1910227719,"Status":"Active","BuildingNameEN":null,"BuildingNameTC":null,"BaseHeight":null,"TopHeight":null,"Storeys":null,"StoreysInBasement":null,"DateStamp":1670774400000}},{"type":"Feature","id":305349,"geometry":{"type":"Polygon","coordinates":[[[114.18457136358305,22.381499032354043],[114.18460188547829,22.381500607892246],[114.18461077753074,22.381564703786562],[114.18460931222201,22.381581672214161],[114.18456602358508,22.381577592491151],[114.18457136358305,22.381499032354043]]]},"properties":{"OBJECTID":305349,"Shape__Length":25.387296051849063,"Shape__Area":34.952479133338905,"GeoRefNo":"3706226926","DateCreate":1196956800000,"BuildingBlockType":"Open-sided Structure","BuildingCSUID":"3706226926T20071207","BuildingID":1102446800,"Status":"Active","BuildingNameEN":null,"BuildingNameTC":null,"BaseHeight":null,"TopHeight":null,"Storeys":null,"StoreysInBasement":null,"DateStamp":1677513600000}},{"type":"Feature","id":305350,"geometry":{"type":"Polygon","coordinates":[[[114.18456602358508,22.381577592491151],[114.18452774295567,22.381574011635625],[114.18453405898327,22.3814977439425],[114.18457136358305,22.381499032354043],[114.18456602358508,22.381577592491151]]]},"properties":{"OBJECTID":305350,"Shape__Length":24.993904759200291,"Shape__Area":33.526072179838486,"GeoRefNo":"3705926926","DateCreate":1114790400000,"BuildingBlockType":"Tower","BuildingCSUID":"3705926926T20050430","BuildingID":1102446799,"Status":"Active","BuildingNameEN":null,"BuildingNameTC":null,"BaseHeight":29,"TopHeight":31.5,"Storeys":null,"StoreysInBasement":null,"DateStamp":1677513600000}},{"type":"Feature","id":306029,"geometry":{"type":"Polygon","coordinates":[[[114.1874683819799,22.383839492223721],[114.18749300826242,22.383845143349191],[114.18747549927812,22.383917855561929],[114.18745134805239,22.383912656019106],[114.18742516731393,22.383907019528248],[114.18744230396446,22.383833507963409],[114.1874683819799,22.383839492223721]]]},"properties":{"OBJECTID":306029,"Shape__Length":27.279304165900299,"Shape__Area":44.339111180231974,"GeoRefNo":"3735827184","DateCreate":1386777600000,"BuildingBlockType":"Open-sided Structure","BuildingCSUID":"3735827184T20131212","BuildingID":1810108661,"Status":"Active","BuildingNameEN":null,"BuildingNameTC":null,"BaseHeight":null,"TopHeight":null,"Storeys":null,"StoreysInBasement":null,"DateStamp":1683475200000}},{"type":"Feature","id":306141,"geometry":{"type":"Polygon","coordinates":[[[114.18559699410038,22.381289592602226],[114.18559126610053,22.381306389690078],[114.18551319429426,22.381284801909931],[114.18550430924809,22.381282183533859],[114.18552317283768,22.381226834429821],[114.18554561364058,22.381233443567965],[114.1855329149471,22.38127070420029],[114.18559699410038,22.381289592602226]]]},"properties":{"OBJECTID":306141,"Shape__Length":31.403982639126706,"Shape__Area":29.505704492350567,"GeoRefNo":"3716226897","DateCreate":1683129600000,"BuildingBlockType":"Temporary Structure","BuildingCSUID":"3716226897T20230504","BuildingID":1910231592,"Status":"Active","BuildingNameEN":null,"BuildingNameTC":null,"BaseHeight":null,"TopHeight":null,"Storeys":null,"StoreysInBasement":null,"DateStamp":1683129600000}},{"type":"Feature","id":306142,"geometry":{"type":"Polygon","coordinates":[[[114.18555341925629,22.38121054173422],[114.18561749838479,22.381229430128158],[114.18559699410038,22.381289592602226],[114.1855329149471,22.38127070420029],[114.18555341925629,22.38121054173422]]]},"properties":{"OBJECTID":306142,"Shape__Length":27.822849387841835,"Shape__Area":48.380842003465816,"GeoRefNo":"3716426891","DateCreate":1114790400000,"BuildingBlockType":"Tower","BuildingCSUID":"3716426891T20050430","BuildingID":1102446933,"Status":"Active","BuildingNameEN":null,"BuildingNameTC":null,"BaseHeight":16.5,"TopHeight":23.699999999999999,"Storeys":null,"StoreysInBasement":null,"DateStamp":1683129600000}},{"type":"Feature","id":306718,"geometry":{"type":"Polygon","coordinates":[[[114.18612790249524,22.382461481300069],[114.18601860925197,22.382409724575442],[114.18599481850708,22.382403196855076],[114.1860020829284,22.382382813014736],[114.18603034451192,22.382389501494263],[114.18612417429043,22.3824304970626],[114.1861268460485,22.382426960736421],[114.18614380620296,22.382434054683198],[114.18612790249524,22.382461481300069]]]},"properties":{"OBJECTID":306718,"Shape__Length":37.086619656250043,"Shape__Area":42.356141511953169,"GeoRefNo":"3721327021","DateCreate":1114790400000,"BuildingBlockType":"Tower","BuildingCSUID":"3721327021T20050430","BuildingID":1102446416,"Status":"Active","BuildingNameEN":null,"BuildingNameTC":null,"BaseHeight":18.699999999999999,"TopHeight":23.100000000000001,"Storeys":null,"StoreysInBasement":null,"DateStamp":1617811200000}},{"type":"Feature","id":308872,"geometry":{"type":"Polygon","coordinates":[[[114.19092706519919,22.388085713261489],[114.19091414875918,22.388074065018024],[114.19093618984196,22.388051577108101],[114.19094462652281,22.388059306766763],[114.19094949476543,22.388063767147028],[114.19093968791564,22.388073520961957],[114.19093425044576,22.388078849441644],[114.19092706519919,22.388085713261489]]]},"properties":{"OBJECTID":308872,"Shape__Length":10.498525157578142,"Shape__Area":6.3695554529385916,"GeoRefNo":"3771527647","DateCreate":1122393600000,"BuildingBlockType":"Tower","BuildingCSUID":"3771527647T20050727","BuildingID":1102444784,"Status":"Active","BuildingNameEN":null,"BuildingNameTC":null,"BaseHeight":13,"TopHeight":15.800000000000001,"Storeys":null,"StoreysInBasement":null,"DateStamp":1619539200000}},{"type":"Feature","id":308874,"geometry":{"type":"Polygon","coordinates":[[[114.18829929975757,22.387329452378335],[114.18837736698521,22.387367149242912],[114.18836845382056,22.387382158601042],[114.18830544784623,22.38735275880871],[114.18829012449258,22.387345608626706],[114.18829929975757,22.387329452378335]]]},"properties":{"OBJECTID":308874,"Shape__Length":22.005191753800414,"Shape__Area":17.724453381733852,"GeoRefNo":"3744827568","DateCreate":1195660800000,"BuildingBlockType":"Temporary Structure","BuildingCSUID":"3744827568T20071122","BuildingID":1102444977,"Status":"Active","BuildingNameEN":"TUNG KOK TERRACE","BuildingNameTC":"東角台","BaseHeight":null,"TopHeight":null,"Storeys":null,"StoreysInBasement":null,"DateStamp":1619539200000}},{"type":"Feature","id":308879,"geometry":{"type":"Polygon","coordinates":[[[114.18950900686946,22.385720131168299],[114.18947896448356,22.385744409726193],[114.189463040726,22.385727368752068],[114.18952130078804,22.385677893465942],[114.18954741990846,22.385704017885836],[114.1895690721738,22.385729016366554],[114.18953826592225,22.385753912231625],[114.18950900686946,22.385720131168299]]]},"properties":{"OBJECTID":308879,"Shape__Length":31.234491560859464,"Shape__Area":41.359339620066265,"GeoRefNo":"3756827385","DateCreate":1114790400000,"BuildingBlockType":"Temporary Structure","BuildingCSUID":"3756827385T20050430","BuildingID":1102445487,"Status":"Active","BuildingNameEN":null,"BuildingNameTC":null,"BaseHeight":null,"TopHeight":7.2999999999999998,"Storeys":null,"StoreysInBasement":null,"DateStamp":1619539200000}},{"type":"Feature","id":308880,"geometry":{"type":"Polygon","coordinates":[[[114.18420984452257,22.385747782301156],[114.18420136227299,22.385748283610614],[114.18418110587044,22.385748876121198],[114.18417818401642,22.385694427541694],[114.1842071742297,22.385692795581928],[114.18420984452257,22.385747782301156]]]},"properties":{"OBJECTID":308880,"Shape__Length":18.085305110691429,"Shape__Area":18.083509592847008,"GeoRefNo":"3702027387","DateCreate":1195747200000,"BuildingBlockType":"Open-sided Structure","BuildingCSUID":"3702027387T20071123","BuildingID":1102445489,"Status":"Active","BuildingNameEN":"HIN YUEN","BuildingNameTC":"軒園","BaseHeight":null,"TopHeight":null,"Storeys":null,"StoreysInBasement":null,"DateStamp":1619539200000}},{"type":"Feature","id":308882,"geometry":{"type":"Polygon","coordinates":[[[114.18735351282918,22.384174371289173],[114.18738977221426,22.384182841092688],[114.1873885168759,22.384185806798158],[114.18739062764494,22.384187186885487],[114.18738809533623,22.384197277395238],[114.18736228936866,22.384191613326866],[114.18735013963828,22.384188947403814],[114.18735004437714,22.384188926549484],[114.18735025347475,22.38418805328438],[114.18735027435257,22.384188057888583],[114.18735212312176,22.384180244379777],[114.18735351282918,22.384174371289173]]]},"properties":{"OBJECTID":308882,"Shape__Length":11.295428557833976,"Shape__Area":6.4531944796657843,"GeoRefNo":"3734727217","DateCreate":1241366400000,"BuildingBlockType":"Temporary Structure","BuildingCSUID":"3734727217T20090504","BuildingID":1102445937,"Status":"Active","BuildingNameEN":null,"BuildingNameTC":null,"BaseHeight":null,"TopHeight":null,"Storeys":null,"StoreysInBasement":null,"DateStamp":1619539200000}},{"type":"Feature","id":308883,"geometry":{"type":"Polygon","coordinates":[[[114.18718699086702,22.384206251286418],[114.18716738663409,22.384201225338224],[114.18719040767628,22.38414183553844],[114.18720206622517,22.384144236910675],[114.18718699086702,22.384206251286418]]]},"properties":{"OBJECTID":308883,"Shape__Length":17.355223099055287,"Shape__Area":11.627219157201917,"GeoRefNo":"3732927216","DateCreate":1241366400000,"BuildingBlockType":"Temporary Structure","BuildingCSUID":"3732927216T20090504","BuildingID":1102445935,"Status":"Active","BuildingNameEN":null,"BuildingNameTC":null,"BaseHeight":null,"TopHeight":null,"Storeys":null,"StoreysInBasement":null,"DateStamp":1619539200000}},{"type":"Feature","id":308884,"geometry":{"type":"Polygon","coordinates":[[[114.18720823478145,22.384145416443328],[114.18721485461575,22.384127409518094],[114.18724272207903,22.384132862163181],[114.18725344942533,22.384135662831028],[114.18724906055434,22.384153424706447],[114.18724016864662,22.384151522999066],[114.18720823478145,22.384145416443328]]]},"properties":{"OBJECTID":308884,"Shape__Length":12.502574034626488,"Shape__Area":8.6840913069284191,"GeoRefNo":"3733627212","DateCreate":1241366400000,"BuildingBlockType":"Temporary Structure","BuildingCSUID":"3733627212T20090504","BuildingID":1102445948,"Status":"Active","BuildingNameEN":null,"BuildingNameTC":null,"BaseHeight":null,"TopHeight":null,"Storeys":null,"StoreysInBasement":null,"DateStamp":1619539200000}},{"type":"Feature","id":308942,"geometry":{"type":"Polygon","coordinates":[[[114.18349463988267,22.387062637805084],[114.18342329782911,22.387122528240422],[114.18335485383275,22.387052607703136],[114.18343203108165,22.386988045391295],[114.18350048478443,22.387057731102594],[114.18349463988267,22.387062637805084]]]},"properties":{"OBJECTID":308942,"Shape__Length":42.320583043124088,"Shape__Area":111.92326345914724,"GeoRefNo":"3694227534","DateCreate":1114790400000,"BuildingBlockType":"Tower","BuildingCSUID":"3694227534T20050430","BuildingID":1102445056,"Status":"Active","BuildingNameEN":null,"BuildingNameTC":"淨蓮精舍","BaseHeight":50,"TopHeight":53,"Storeys":null,"StoreysInBasement":null,"DateStamp":1622563200000}},{"type":"Feature","id":309005,"geometry":{"type":"Polygon","coordinates":[[[114.19028987864236,22.388714878533261],[114.1902433322379,22.388686941977781],[114.19024116698043,22.388689488763166],[114.19022054986765,22.388677479882563],[114.19023359614357,22.388656737871269],[114.19025037052502,22.388665873197173],[114.19026421624966,22.388646808626007],[114.1902774725008,22.388627470387604],[114.19028085737072,22.388629371481709],[114.19026304219011,22.388656633926395],[114.19029131191591,22.388674123689214],[114.19031209033867,22.388646913010387],[114.19031846539315,22.388638192521146],[114.19033850385352,22.388649294864013],[114.19031835663117,22.388676460341046],[114.19028987864236,22.388714878533261]]]},"properties":{"OBJECTID":309005,"Shape__Length":41.842527546606782,"Shape__Area":43.795409489101708,"GeoRefNo":"3764827710","DateCreate":1494172800000,"BuildingBlockType":"Open-sided Structure","BuildingCSUID":"3764827710T20170508","BuildingID":1810111872,"Status":"Active","BuildingNameEN":null,"BuildingNameTC":null,"BaseHeight":null,"TopHeight":null,"Storeys":null,"StoreysInBasement":null,"DateStamp":1619539200000}},{"type":"Feature","id":309180,"geometry":{"type":"Polygon","coordinates":[[[114.18691346427495,22.384389943241747],[114.1869216187466,22.384381951263183],[114.18696341151183,22.3844177265875],[114.18694815078445,22.384431959735501],[114.18693100360665,22.384416682066117],[114.18693689988172,22.384411008904586],[114.18691346427495,22.384389943241747]]]},"properties":{"OBJECTID":309180,"Shape__Length":15.97105364026187,"Shape__Area":9.659004150951457,"GeoRefNo":"3730427243","DateCreate":1488384000000,"BuildingBlockType":"Tower","BuildingCSUID":"3730427243T20170302","BuildingID":1810159618,"Status":"Active","BuildingNameEN":null,"BuildingNameTC":null,"BaseHeight":13.5,"TopHeight":16.5,"Storeys":null,"StoreysInBasement":null,"DateStamp":1619539200000}},{"type":"Feature","id":309419,"geometry":{"type":"Polygon","coordinates":[[[114.18691255856193,22.384662014505427],[114.18692671869056,22.384671448982854],[114.18689910353584,22.384692032165677],[114.18687473989748,22.384698606274007],[114.18687217953122,22.384695889871303],[114.18691255856193,22.384662014505427]]]},"properties":{"OBJECTID":309419,"Shape__Length":14.051132413564519,"Shape__Area":7.9329790892768042,"GeoRefNo":"3730027272","DateCreate":1195747200000,"BuildingBlockType":"Temporary Structure","BuildingCSUID":"3730027272T20071123","BuildingID":1109560166,"Status":"Active","BuildingNameEN":null,"BuildingNameTC":null,"BaseHeight":null,"TopHeight":null,"Storeys":null,"StoreysInBasement":null,"DateStamp":1619539200000}},{"type":"Feature","id":309619,"geometry":{"type":"Polygon","coordinates":[[[114.18516454306541,22.38186166310507],[114.18515232598732,22.381835989950904],[114.18512194321808,22.381848489756781],[114.18511661176598,22.381840037458328],[114.18509987098949,22.381836155188648],[114.18510865726701,22.381810137796759],[114.18510221917103,22.381807221266296],[114.18511801539415,22.381766312179487],[114.18509528331273,22.381761319461344],[114.18510511830539,22.381735437473743],[114.18520514567281,22.381763887514236],[114.18518609761323,22.381822984254995],[114.18516454306541,22.38186166310507]],[[114.1851926522269,22.381775367221863],[114.18514481431889,22.381754588822297],[114.18511594027414,22.381815004877165],[114.1851629393224,22.381835718489143],[114.1851926522269,22.381775367221863]]]},"properties":{"OBJECTID":309619,"Shape__Length":71.301130749649161,"Shape__Area":55.328133550081994,"GeoRefNo":"3712026949","DateCreate":1409846400000,"BuildingBlockType":"Open-sided Structure","BuildingCSUID":"3712026949T20140905","BuildingID":1810132750,"Status":"Active","BuildingNameEN":null,"BuildingNameTC":null,"BaseHeight":null,"TopHeight":null,"Storeys":null,"StoreysInBasement":null,"DateStamp":1619539200000}},{"type":"Feature","id":309657,"geometry":{"type":"Polygon","coordinates":[[[114.18383958394948,22.386899426579383],[114.18386018002398,22.386920497139045],[114.18384179936139,22.386952276334092],[114.18383539988552,22.386949115929397],[114.18381129902134,22.3869684874347],[114.18381742686481,22.386976966827994],[114.18376010686886,22.387016866126615],[114.18374975472392,22.387004964345017],[114.18373573270991,22.387008378480136],[114.18372286393637,22.386992152449629],[114.18372900219941,22.386987518267425],[114.1837291223157,22.386987427595891],[114.1837638718448,22.386961192813551],[114.18378687544114,22.386942426407249],[114.18383820509413,22.386900551390287],[114.18383958394948,22.386899426579383]]]},"properties":{"OBJECTID":309657,"Shape__Length":40.911725505529191,"Shape__Area":66.255446020869655,"GeoRefNo":"3698227521","DateCreate":1323187200000,"BuildingBlockType":"Open-sided Structure","BuildingCSUID":"3698227521T20111207","BuildingID":1810076494,"Status":"Active","BuildingNameEN":null,"BuildingNameTC":null,"BaseHeight":null,"TopHeight":null,"Storeys":null,"StoreysInBasement":null,"DateStamp":1619539200000}},{"type":"Feature","id":311182,"geometry":{"type":"Polygon","coordinates":[[[114.19018271161393,22.388336043565282],[114.19022115733067,22.388327962680329],[114.19024341995481,22.388423846421901],[114.19022512900477,22.388429194455071],[114.19020920759789,22.388434793970806],[114.19020010965559,22.388406975400411],[114.19018271161393,22.388336043565282]]]},"properties":{"OBJECTID":311182,"Shape__Length":29.925022705828425,"Shape__Area":43.782494019836491,"GeoRefNo":"3763827677","DateCreate":1196870400000,"BuildingBlockType":"Temporary Structure","BuildingCSUID":"3763827677T20071206","BuildingID":1102444683,"Status":"Active","BuildingNameEN":"KONG HA YUEN","BuildingNameTC":"江夏園","BaseHeight":null,"TopHeight":null,"Storeys":null,"StoreysInBasement":null,"DateStamp":1729440000000}},{"type":"Feature","id":311183,"geometry":{"type":"Polygon","coordinates":[[[114.19013658583175,22.388167177042451],[114.19014737878092,22.388162619987323],[114.19016334597053,22.388191426024612],[114.19018955470146,22.388178622471582],[114.19021161901473,22.388214885402228],[114.19015390201709,22.388239649768039],[114.19014408505622,22.388245908724961],[114.19012548968762,22.38825323400393],[114.19010456897939,22.388213429198782],[114.19011067677633,22.388210728572748],[114.19010454822755,22.388199404806194],[114.19010675241969,22.388197878467807],[114.19010286753284,22.388191629668125],[114.19010718823665,22.388185587897173],[114.19013997501906,22.388220731979295],[114.19016691052802,22.388198957182791],[114.19013658583175,22.388167177042451]]]},"properties":{"OBJECTID":311183,"Shape__Length":44.74764953409575,"Shape__Area":44.810643508615662,"GeoRefNo":"3763727664","DateCreate":1271692800000,"BuildingBlockType":"Temporary Structure","BuildingCSUID":"3763727664T20100420","BuildingID":1109560047,"Status":"Active","BuildingNameEN":null,"BuildingNameTC":null,"BaseHeight":null,"TopHeight":null,"Storeys":null,"StoreysInBasement":null,"DateStamp":1729526400000}},{"type":"Feature","id":311187,"geometry":{"type":"Polygon","coordinates":[[[114.19020184998655,22.388506253787241],[114.19017771319507,22.388447954758472],[114.19019006700084,22.388443680859229],[114.19020851980953,22.388490910386576],[114.19024433178205,22.388477406797858],[114.19022512900477,22.388429194455071],[114.19024341995481,22.388423846421901],[114.190266103516,22.388479716803992],[114.19025032432145,22.38848787267084],[114.19025046038377,22.388489037596337],[114.19020184998655,22.388506253787241]]]},"properties":{"OBJECTID":311187,"Shape__Length":39.445372247502277,"Shape__Area":28.051974922520998,"GeoRefNo":"3764327679","DateCreate":1391011200000,"BuildingBlockType":"Open-sided Structure","BuildingCSUID":"3764327679T20140130","BuildingID":1810111288,"Status":"Active","BuildingNameEN":"KONG HA YUEN","BuildingNameTC":"江夏園","BaseHeight":null,"TopHeight":null,"Storeys":null,"StoreysInBasement":null,"DateStamp":1729440000000}},{"type":"Feature","id":311188,"geometry":{"type":"Polygon","coordinates":[[[114.19022374023051,22.388326309881808],[114.19020724646613,22.388274837294777],[114.19025954704351,22.388259499143281],[114.19027344828852,22.388313383088718],[114.19022374023051,22.388326309881808]]]},"properties":{"OBJECTID":311188,"Shape__Length":23.046301115560251,"Shape__Area":33.088119001918884,"GeoRefNo":"3764427671","DateCreate":1392048000000,"BuildingBlockType":"Open-sided Structure","BuildingCSUID":"3764427671T20140211","BuildingID":1810111300,"Status":"Active","BuildingNameEN":"KONG HA YUEN","BuildingNameTC":"江夏園","BaseHeight":null,"TopHeight":null,"Storeys":null,"StoreysInBasement":null,"DateStamp":1729440000000}},{"type":"Feature","id":311189,"geometry":{"type":"Polygon","coordinates":[[[114.19057915144512,22.38810803051652],[114.19058216224502,22.388112852557274],[114.19053273629504,22.388129834124193],[114.19054821844234,22.388162911599647],[114.19048954877118,22.388189312766894],[114.19047225842372,22.388159473872431],[114.19047218315288,22.388159343929608],[114.19048958430933,22.388155457352159],[114.19052565716805,22.388129789570947],[114.19050401502007,22.388061836753227],[114.19050176887114,22.388055279071118],[114.1906166117291,22.388005332368127],[114.19060041047797,22.387974947950593],[114.19059223558217,22.387949038102779],[114.19066097461749,22.387917289970389],[114.19066782302248,22.387941057708773],[114.1906080465961,22.387968994202396],[114.19064055481041,22.388034209832941],[114.19070106918174,22.388005352151396],[114.19070556697794,22.38801302535823],[114.19068931087131,22.38801922403475],[114.19063289365943,22.388040396391517],[114.19062058752408,22.388013531649467],[114.19052797082112,22.388056118409118],[114.19054692054316,22.388097910041296],[114.19062273888714,22.388067235957084],[114.19063028342384,22.388081824838142],[114.1906146713971,22.3880887924911],[114.19060746652617,22.388093759889646],[114.19057915144512,22.38810803051652]]]},"properties":{"OBJECTID":311189,"Shape__Length":132.20118667654569,"Shape__Area":117.39573730405839,"GeoRefNo":"3768627634","DateCreate":1729526400000,"BuildingBlockType":"Open-sided Structure","BuildingCSUID":"3768627634T20241022","BuildingID":1810111437,"Status":"Active","BuildingNameEN":null,"BuildingNameTC":null,"BaseHeight":null,"TopHeight":null,"Storeys":null,"StoreysInBasement":null,"DateStamp":1729526400000}}]}