{"type":"FeatureCollection","features":[{"type":"Feature","id":92815,"geometry":{"type":"Polygon","coordinates":[[[114.18713578842733,22.382800698773284],[114.18715534472994,22.382827358071836],[114.18709045629414,22.382868351385184],[114.18707069683876,22.382841437972807],[114.18711541362872,22.382813450898254],[114.18713578842733,22.382800698773284]]]},"properties":{"OBJECTID":92815,"Shape__Length":23.340760446413473,"Shape__Area":29.013545474709527,"GeoRefNo":"3732527067","DateCreate":1114790400000,"BuildingBlockType":"Tower","BuildingCSUID":"3732527067T20050430","BuildingID":1102446311,"Status":"Active","BuildingNameEN":null,"BuildingNameTC":null,"BaseHeight":4.7000000000000002,"TopHeight":9.6999999999999993,"Storeys":null,"StoreysInBasement":null,"DateStamp":1286294400000}},{"type":"Feature","id":92894,"geometry":{"type":"Polygon","coordinates":[[[114.18695407963759,22.383029316236559],[114.18699965849736,22.383010637262739],[114.18700800052767,22.383025892182715],[114.18699076335865,22.383036753012341],[114.18699549084236,22.383049939537727],[114.18696973098828,22.383062434612174],[114.18695407963759,22.383029316236559]]]},"properties":{"OBJECTID":92894,"Shape__Length":17.705878166024668,"Shape__Area":16.392956703664218,"GeoRefNo":"3730827091","DateCreate":1114790400000,"BuildingBlockType":"Tower","BuildingCSUID":"3730827091T20050430","BuildingID":1102446247,"Status":"Active","BuildingNameEN":null,"BuildingNameTC":null,"BaseHeight":4.7000000000000002,"TopHeight":7.2999999999999998,"Storeys":null,"StoreysInBasement":null,"DateStamp":1286294400000}},{"type":"Feature","id":92910,"geometry":{"type":"Polygon","coordinates":[[[114.18581566717609,22.382773024927531],[114.1859229729678,22.382870413136004],[114.18587466683881,22.382915920652326],[114.18583238538842,22.382876974359906],[114.18581316002835,22.382895126781047],[114.18578225982264,22.382866718464815],[114.18580123275679,22.382849243350567],[114.18576761348639,22.382818080872223],[114.18581566717609,22.382773024927531]]]},"properties":{"OBJECTID":92910,"Shape__Length":50.612059068348401,"Shape__Area":121.42933699089923,"GeoRefNo":"3719127069","DateCreate":1114790400000,"BuildingBlockType":"Tower","BuildingCSUID":"3719127069T20050430","BuildingID":1102446302,"Status":"Active","BuildingNameEN":null,"BuildingNameTC":null,"BaseHeight":26.800000000000001,"TopHeight":35.5,"Storeys":null,"StoreysInBasement":null,"DateStamp":1286294400000}},{"type":"Feature","id":92911,"geometry":{"type":"Polygon","coordinates":[[[114.18622444370735,22.382911051338009],[114.18630126459867,22.382943069098616],[114.18626018565178,22.383026667055759],[114.18618360748331,22.38299464926196],[114.18622444370735,22.382911051338009]]]},"properties":{"OBJECTID":92911,"Shape__Length":37.661742569108348,"Shape__Area":88.075215494103659,"GeoRefNo":"3723227078","DateCreate":1114790400000,"BuildingBlockType":"Tower","BuildingCSUID":"3723227078T20050430","BuildingID":1102446257,"Status":"Active","BuildingNameEN":null,"BuildingNameTC":null,"BaseHeight":21.300000000000001,"TopHeight":29.5,"Storeys":null,"StoreysInBasement":null,"DateStamp":1286294400000}},{"type":"Feature","id":92934,"geometry":{"type":"Polygon","coordinates":[[[114.18440057286247,22.386026424202846],[114.18442999499388,22.386118209123406],[114.18437368518337,22.386133780284201],[114.18434428629783,22.386042067686962],[114.18440057286247,22.386026424202846]]]},"properties":{"OBJECTID":92934,"Shape__Length":33.302827548476778,"Shape__Area":64.13731600846279,"GeoRefNo":"3704127427","DateCreate":1259769600000,"BuildingBlockType":"Tower","BuildingCSUID":"3704127427T20091203","BuildingID":1108769372,"Status":"Active","BuildingNameEN":null,"BuildingNameTC":null,"BaseHeight":28.899999999999999,"TopHeight":37.100000000000001,"Storeys":null,"StoreysInBasement":null,"DateStamp":1473004800000}},{"type":"Feature","id":93031,"geometry":{"type":"Polygon","coordinates":[[[114.1869758593715,22.383075402421333],[114.18702273785604,22.38304838647047],[114.18702476615611,22.383051002575748],[114.18703135769488,22.383059504217879],[114.18699049914377,22.383106380443447],[114.1869904060069,22.383106183403282],[114.1869758593715,22.383075402421333]]]},"properties":{"OBJECTID":93031,"Shape__Length":17.626359574798133,"Shape__Area":15.429563261582336,"GeoRefNo":"3731027095","DateCreate":1114790400000,"BuildingBlockType":"Tower","BuildingCSUID":"3731027095T20050430","BuildingID":1102446234,"Status":"Active","BuildingNameEN":null,"BuildingNameTC":null,"BaseHeight":4.7000000000000002,"TopHeight":7.2999999999999998,"Storeys":null,"StoreysInBasement":null,"DateStamp":1286294400000}},{"type":"Feature","id":93033,"geometry":{"type":"Polygon","coordinates":[[[114.18978262650646,22.382626271942836],[114.18974329285531,22.382658477934982],[114.1897843036643,22.382701667654093],[114.18975116472596,22.382728743814233],[114.18971015387774,22.382685102560686],[114.18968369518934,22.382707130112383],[114.189724706015,22.382750545609422],[114.18968835317857,22.382780385352945],[114.18964709955354,22.382736500278803],[114.18959665804094,22.382778035645444],[114.18956329971816,22.382742430917446],[114.1896142462289,22.382701581840966],[114.18957867372946,22.38266344874393],[114.18961501684939,22.382633618055927],[114.18965034655017,22.382671290607625],[114.1896768052793,22.38264972361802],[114.18964148530787,22.38261227683434],[114.18967437172776,22.382584731129029],[114.1897101869928,22.382622873216611],[114.18974945288002,22.382590848028869],[114.18978262650646,22.382626271942836]]]},"properties":{"OBJECTID":93033,"Shape__Length":109.34031695833616,"Shape__Area":246.67230766949066,"GeoRefNo":"3758527056","DateCreate":1114790400000,"BuildingBlockType":"Tower","BuildingCSUID":"3758527056T20050430","BuildingID":1102446329,"Status":"Active","BuildingNameEN":"Ka Ning Building","BuildingNameTC":"嘉寧大廈","BaseHeight":16.300000000000001,"TopHeight":93.700000000000003,"Storeys":28,"StoreysInBasement":null,"DateStamp":1599580800000}},{"type":"Feature","id":93050,"geometry":{"type":"Polygon","coordinates":[[[114.18454286613746,22.386012298266458],[114.184572569864,22.386103988688589],[114.18451623589868,22.386119613722062],[114.18448657474529,22.386028054681841],[114.18454286613746,22.386012298266458]]]},"properties":{"OBJECTID":93050,"Shape__Length":33.300749966324531,"Shape__Area":64.149466195524838,"GeoRefNo":"3705627426","DateCreate":1259769600000,"BuildingBlockType":"Tower","BuildingCSUID":"3705627426T20091203","BuildingID":1108769878,"Status":"Active","BuildingNameEN":null,"BuildingNameTC":null,"BaseHeight":30,"TopHeight":38.200000000000003,"Storeys":null,"StoreysInBasement":null,"DateStamp":1739808000000}},{"type":"Feature","id":94115,"geometry":{"type":"Polygon","coordinates":[[[114.18959178032075,22.386211342709004],[114.18958695995136,22.386215287891208],[114.18953621720999,22.386161668654701],[114.18958182768161,22.386124430245477],[114.18963220889977,22.386178030893653],[114.18959178032075,22.386211342709004]]]},"properties":{"OBJECTID":94115,"Shape__Length":28.266913061804313,"Shape__Area":49.255965192665997,"GeoRefNo":"3757627438","DateCreate":1114790400000,"BuildingBlockType":"Tower","BuildingCSUID":"3757627438T20050430","BuildingID":1102445345,"Status":"Active","BuildingNameEN":null,"BuildingNameTC":null,"BaseHeight":9.5999999999999996,"TopHeight":16.600000000000001,"Storeys":null,"StoreysInBasement":null,"DateStamp":1401033600000}},{"type":"Feature","id":99226,"geometry":{"type":"Polygon","coordinates":[[[114.18606533100832,22.385287189647002],[114.18604040425278,22.38528998149847],[114.18603939369306,22.385279885433235],[114.18601628219955,22.385282283717881],[114.18600804830616,22.385283138201412],[114.18600138770483,22.385227546238589],[114.18600104483272,22.385224684034281],[114.18604438520426,22.385219496337665],[114.18607020541046,22.385215196879326],[114.18607888258673,22.385258456192837],[114.18608114214568,22.385273381709229],[114.18606382514886,22.385276172497012],[114.18606533100832,22.385287189647002]]]},"properties":{"OBJECTID":99226,"Shape__Length":30.252482219067723,"Shape__Area":51.5980583644928,"GeoRefNo":"3721427334","DateCreate":1114790400000,"BuildingBlockType":"Tower","BuildingCSUID":"3721427334T20050430","BuildingID":1102445643,"Status":"Active","BuildingNameEN":null,"BuildingNameTC":null,"BaseHeight":10.4,"TopHeight":18.600000000000001,"Storeys":null,"StoreysInBasement":null,"DateStamp":1396886400000}},{"type":"Feature","id":99227,"geometry":{"type":"Polygon","coordinates":[[[114.18626633875232,22.385079682318974],[114.18632108527845,22.385129504387631],[114.18627198714015,22.385175734227325],[114.18621721459851,22.385126051123553],[114.18626633875232,22.385079682318974]]]},"properties":{"OBJECTID":99227,"Shape__Length":30.170939405666708,"Shape__Area":56.77585300152974,"GeoRefNo":"3723627322","DateCreate":1114790400000,"BuildingBlockType":"Tower","BuildingCSUID":"3723627322T20050430","BuildingID":1102445684,"Status":"Active","BuildingNameEN":null,"BuildingNameTC":null,"BaseHeight":8.5999999999999996,"TopHeight":15.5,"Storeys":null,"StoreysInBasement":null,"DateStamp":1396886400000}},{"type":"Feature","id":99229,"geometry":{"type":"Polygon","coordinates":[[[114.18626976387479,22.385036903726274],[114.18627369276594,22.385051539534167],[114.18614938501558,22.385169331198234],[114.18616060456502,22.385179657675415],[114.18610908489693,22.385228189394539],[114.18605968519898,22.38518250654089],[114.18611138764489,22.385134358352992],[114.18609939382986,22.385123232805828],[114.1862543130397,22.384977108215647],[114.18626976387479,22.385036903726274]]]},"properties":{"OBJECTID":99229,"Shape__Length":75.111150501265385,"Shape__Area":202.06687895012072,"GeoRefNo":"3722327320","DateCreate":1114790400000,"BuildingBlockType":"Tower","BuildingCSUID":"3722327320T20050430","BuildingID":1102445666,"Status":"Active","BuildingNameEN":null,"BuildingNameTC":null,"BaseHeight":8.5999999999999996,"TopHeight":15.9,"Storeys":null,"StoreysInBasement":null,"DateStamp":1396886400000}},{"type":"Feature","id":99230,"geometry":{"type":"Polygon","coordinates":[[[114.18634797898949,22.385034276501528],[114.1862786198914,22.385041604679614],[114.18626829815734,22.384963277247223],[114.18628415714571,22.38496148647225],[114.18628094828382,22.384923743865556],[114.186326059934,22.384916998766712],[114.18633532657742,22.38491561321166],[114.18634797898949,22.385034276501528]]]},"properties":{"OBJECTID":99230,"Shape__Length":40.641365046834949,"Shape__Area":88.423197117367764,"GeoRefNo":"3723827306","DateCreate":1271779200000,"BuildingBlockType":"Tower","BuildingCSUID":"3723827306T20100421","BuildingID":1109560101,"Status":"Active","BuildingNameEN":null,"BuildingNameTC":null,"BaseHeight":8.5999999999999996,"TopHeight":16.199999999999999,"Storeys":null,"StoreysInBasement":null,"DateStamp":1396886400000}},{"type":"Feature","id":99231,"geometry":{"type":"Polygon","coordinates":[[[114.18634622871572,22.38505353139205],[114.18633858521648,22.385056938244279],[114.18627999614145,22.385061423704144],[114.1862786198914,22.385041604679614],[114.18634797898949,22.385034276501528],[114.18634622871572,22.38505353139205]]]},"properties":{"OBJECTID":99231,"Shape__Length":18.4545299196323,"Shape__Area":16.030840874014739,"GeoRefNo":"3724027314","DateCreate":1396886400000,"BuildingBlockType":"Open-sided Structure","BuildingCSUID":"3724027314T20140408","BuildingID":1810118315,"Status":"Active","BuildingNameEN":null,"BuildingNameTC":null,"BaseHeight":null,"TopHeight":null,"Storeys":null,"StoreysInBasement":null,"DateStamp":1396886400000}},{"type":"Feature","id":99232,"geometry":{"type":"Polygon","coordinates":[[[114.18619735096121,22.385181380201811],[114.18620447433233,22.385191835959112],[114.1861961146752,22.385196761508812],[114.18620310946694,22.38520702853571],[114.18617122804744,22.385225813321334],[114.18616449070838,22.385215924115244],[114.1861560789049,22.385220880459954],[114.18614869808468,22.385210046788067],[114.18619735096121,22.385181380201811]]]},"properties":{"OBJECTID":99232,"Shape__Length":17.295721115817589,"Shape__Area":13.411655903058367,"GeoRefNo":"3722627331","DateCreate":1114790400000,"BuildingBlockType":"Tower","BuildingCSUID":"3722627331T20050430","BuildingID":1102445667,"Status":"Active","BuildingNameEN":null,"BuildingNameTC":null,"BaseHeight":8.5999999999999996,"TopHeight":13.1,"Storeys":null,"StoreysInBasement":null,"DateStamp":1396886400000}},{"type":"Feature","id":100260,"geometry":{"type":"Polygon","coordinates":[[[114.18695968101007,22.385001003531428],[114.18686047876308,22.385018210415183],[114.1868496121147,22.384963952192965],[114.18687538718034,22.38495948771147],[114.18694880422748,22.384946771143696],[114.18695968101007,22.385001003531428]]]},"properties":{"OBJECTID":100260,"Shape__Length":33.003385842737096,"Shape__Area":63.494651661290447,"GeoRefNo":"3730127306","DateCreate":1454515200000,"BuildingBlockType":"Tower","BuildingCSUID":"3730127306T20160204","BuildingID":1810149091,"Status":"Active","BuildingNameEN":null,"BuildingNameTC":null,"BaseHeight":7.2000000000000002,"TopHeight":15.5,"Storeys":null,"StoreysInBasement":null,"DateStamp":1454515200000}},{"type":"Feature","id":100263,"geometry":{"type":"Polygon","coordinates":[[[114.18694607171057,22.384933619172575],[114.18687279537731,22.384946363002559],[114.18684702390813,22.384950845002638],[114.18683600854015,22.384895716426612],[114.1868617857307,22.384891261880679],[114.18693500941168,22.384878608093182],[114.18694607171057,22.384933619172575]]]},"properties":{"OBJECTID":100263,"Shape__Length":33.153136678293741,"Shape__Area":64.348245720417836,"GeoRefNo":"3730027299","DateCreate":1454515200000,"BuildingBlockType":"Tower","BuildingCSUID":"3730027299T20160204","BuildingID":1810149092,"Status":"Active","BuildingNameEN":null,"BuildingNameTC":null,"BaseHeight":7.2000000000000002,"TopHeight":15.5,"Storeys":null,"StoreysInBasement":null,"DateStamp":1454515200000}},{"type":"Feature","id":100372,"geometry":{"type":"Polygon","coordinates":[[[114.1890586101209,22.386182017799609],[114.18904825212435,22.386184291563914],[114.18903474115234,22.386143772639329],[114.18902589509827,22.386147168781854],[114.1889980841962,22.386038199587244],[114.18900958147745,22.386037602708004],[114.18900785241178,22.386030920253074],[114.18904704377826,22.386024568843307],[114.18904919070361,22.386034718986071],[114.18905427890905,22.38603310213864],[114.18908866908758,22.38613227442675],[114.1891025721505,22.386172367166886],[114.1890586101209,22.386182017799609]]]},"properties":{"OBJECTID":100372,"Shape__Length":47.779454757961638,"Shape__Area":103.84244299091175,"GeoRefNo":"3752227429","DateCreate":1114790400000,"BuildingBlockType":"Temporary Structure","BuildingCSUID":"3752227429T20050430","BuildingID":1102445350,"Status":"Active","BuildingNameEN":null,"BuildingNameTC":null,"BaseHeight":null,"TopHeight":19.100000000000001,"Storeys":null,"StoreysInBasement":null,"DateStamp":1396368000000}},{"type":"Feature","id":100375,"geometry":{"type":"Polygon","coordinates":[[[114.18976352881425,22.386121726717043],[114.1897962583044,22.386159884186505],[114.18975465010341,22.386191894568267],[114.18972037830993,22.386158240553211],[114.18976352881425,22.386121726717043]]]},"properties":{"OBJECTID":100375,"Shape__Length":22.106582269785111,"Shape__Area":30.441471148308612,"GeoRefNo":"3759327435","DateCreate":1114790400000,"BuildingBlockType":"Temporary Structure","BuildingCSUID":"3759327435T20050430","BuildingID":1102445351,"Status":"Active","BuildingNameEN":null,"BuildingNameTC":null,"BaseHeight":null,"TopHeight":8.1999999999999993,"Storeys":null,"StoreysInBasement":null,"DateStamp":1396368000000}},{"type":"Feature","id":100389,"geometry":{"type":"Polygon","coordinates":[[[114.18683332708933,22.384882245853507],[114.18682237359539,22.384827220039579],[114.18692168934132,22.384810246610719],[114.18693254187602,22.38486516514174],[114.18685910748312,22.384877807562756],[114.18683332708933,22.384882245853507]]]},"properties":{"OBJECTID":100389,"Shape__Length":33.169919749216284,"Shape__Area":64.345043340102734,"GeoRefNo":"3729827291","DateCreate":1454515200000,"BuildingBlockType":"Tower","BuildingCSUID":"3729827291T20160204","BuildingID":1810149093,"Status":"Active","BuildingNameEN":null,"BuildingNameTC":null,"BaseHeight":7.2000000000000002,"TopHeight":15.5,"Storeys":null,"StoreysInBasement":null,"DateStamp":1454515200000}},{"type":"Feature","id":100425,"geometry":{"type":"Polygon","coordinates":[[[114.19077980110146,22.384666947367961],[114.19073498114079,22.384703809209757],[114.19072085905732,22.384688965599334],[114.19066343650738,22.384628609155666],[114.19077978773231,22.384532817208012],[114.19120160449418,22.384185533872731],[114.19127314923757,22.384261194249515],[114.19082922420782,22.384626299610982],[114.19085593979732,22.384654392786342],[114.19086757836851,22.384666649988098],[114.19084565512875,22.384684472358867],[114.19080740226237,22.384644246950309],[114.19077980110146,22.384666947367961]]]},"properties":{"OBJECTID":100425,"Shape__Length":182.18911488231981,"Shape__Area":842.09502347785701,"GeoRefNo":"3772627240","DateCreate":1114790400000,"BuildingBlockType":"Tower","BuildingCSUID":"3772627240T20050430","BuildingID":1102445790,"Status":"Active","BuildingNameEN":"Fu Yu House","BuildingNameTC":"富裕樓","BaseHeight":5.4000000000000004,"TopHeight":28.399999999999999,"Storeys":8,"StoreysInBasement":null,"DateStamp":1786636800000}},{"type":"Feature","id":100468,"geometry":{"type":"Polygon","coordinates":[[[114.18996539298176,22.386337010699389],[114.18990613771319,22.386395378123332],[114.18989899441011,22.386388270868469],[114.18999078276458,22.38629616901277],[114.19003086172428,22.386331149982741],[114.19006066509435,22.386355454818762],[114.19009043118317,22.386379729309699],[114.1900652442221,22.386404673667695],[114.19005266206801,22.386394200647764],[114.19003802586666,22.386409832318421],[114.19002296370759,22.386399213655714],[114.19002280376321,22.386399100967871],[114.19002980621072,22.386392203427551],[114.18996612373442,22.386336290907618],[114.18996539298176,22.386337010699389]]]},"properties":{"OBJECTID":100468,"Shape__Length":57.66058038402177,"Shape__Area":79.348061502453362,"GeoRefNo":"3762127457","DateCreate":1329926400000,"BuildingBlockType":"Open-sided Structure","BuildingCSUID":"3762127457T20120223","BuildingID":1810079718,"Status":"Active","BuildingNameEN":null,"BuildingNameTC":null,"BaseHeight":null,"TopHeight":null,"Storeys":null,"StoreysInBasement":null,"DateStamp":1396368000000}},{"type":"Feature","id":101076,"geometry":{"type":"Polygon","coordinates":[[[114.19063926213084,22.387467526672339],[114.19063921211659,22.387467483691335],[114.19066946920738,22.387435627486745],[114.19066412117628,22.387418251419863],[114.1906746804853,22.387412477125501],[114.19067725089884,22.387413421407512],[114.19069992220017,22.387448377958485],[114.19070832419661,22.387461327904983],[114.1906901545718,22.38748032389416],[114.19067610844999,22.387495008810347],[114.19067389668145,22.387497321083298],[114.19067264826644,22.387496247190498],[114.19063926213084,22.387467526672339]]]},"properties":{"OBJECTID":101076,"Shape__Length":24.649457077824614,"Shape__Area":32.11514442066624,"GeoRefNo":"3769027581","DateCreate":1114790400000,"BuildingBlockType":"Tower","BuildingCSUID":"3769027581T20050430","BuildingID":1102444947,"Status":"Active","BuildingNameEN":null,"BuildingNameTC":null,"BaseHeight":10.199999999999999,"TopHeight":15.1,"Storeys":null,"StoreysInBasement":null,"DateStamp":1396886400000}},{"type":"Feature","id":103792,"geometry":{"type":"Polygon","coordinates":[[[114.19111241589989,22.387572942372316],[114.19112086729757,22.387565220532714],[114.19118699275703,22.387627890902838],[114.19118002162493,22.387634345723114],[114.19114131194932,22.387670188389542],[114.19110224730018,22.387634352601758],[114.19107371441623,22.38760817808096],[114.19111241589989,22.387572942372316]]]},"properties":{"OBJECTID":103792,"Shape__Length":32.936656843924489,"Shape__Area":65.493013413152113,"GeoRefNo":"3773527597","DateCreate":1170777600000,"BuildingBlockType":"Tower","BuildingCSUID":"3773527597T20070207","BuildingID":1108769950,"Status":"Active","BuildingNameEN":null,"BuildingNameTC":null,"BaseHeight":7,"TopHeight":15.199999999999999,"Storeys":null,"StoreysInBasement":null,"DateStamp":1286294400000}},{"type":"Feature","id":103800,"geometry":{"type":"Polygon","coordinates":[[[114.18974945288002,22.382590848028869],[114.18978981554696,22.38255792836053],[114.18975424305708,22.382520021064561],[114.18979182896217,22.382489503917224],[114.1898271586951,22.382527402194082],[114.18985213179441,22.382506982171307],[114.18981630681088,22.382468849145926],[114.18985117402913,22.382440851719064],[114.18988650378773,22.382478984776807],[114.18993991631856,22.382435841644373],[114.18997326493248,22.382471220533724],[114.18991985244151,22.382514824233709],[114.18996036801329,22.382557779155373],[114.18992649124301,22.382585776525236],[114.18988597563057,22.382542361038517],[114.18986075003993,22.382562555323641],[114.18990176087813,22.382605970776556],[114.18986393222886,22.382636722762168],[114.18982316413026,22.382593072486692],[114.18978262650646,22.382626271942836],[114.18974945288002,22.382590848028869]]]},"properties":{"OBJECTID":103800,"Shape__Length":110.48563670625812,"Shape__Area":253.52978491162534,"GeoRefNo":"3760427040","DateCreate":1114790400000,"BuildingBlockType":"Tower","BuildingCSUID":"3760427040T20050430","BuildingID":1102446359,"Status":"Active","BuildingNameEN":"On Ning Building","BuildingNameTC":"安寧大廈","BaseHeight":16.300000000000001,"TopHeight":93.5,"Storeys":28,"StoreysInBasement":null,"DateStamp":1599580800000}},{"type":"Feature","id":103803,"geometry":{"type":"Polygon","coordinates":[[[114.18565823619286,22.382513676936373],[114.18567770425004,22.382495063962807],[114.18569129950858,22.382507435037429],[114.18567207421059,22.382526057029892],[114.18565823619286,22.382513676936373]]]},"properties":{"OBJECTID":103803,"Shape__Length":9.6703224497002083,"Shape__Area":5.6425900005761909,"GeoRefNo":"3717427033","DateCreate":1114790400000,"BuildingBlockType":"Tower","BuildingCSUID":"3717427033T20050430","BuildingID":1102446394,"Status":"Active","BuildingNameEN":null,"BuildingNameTC":null,"BaseHeight":26.199999999999999,"TopHeight":29.199999999999999,"Storeys":null,"StoreysInBasement":null,"DateStamp":1286294400000}},{"type":"Feature","id":103804,"geometry":{"type":"Polygon","coordinates":[[[114.18563927400989,22.382547253458778],[114.18565875175273,22.382528134777665],[114.18566538428153,22.38253392298185],[114.18568817571256,22.382553797920117],[114.18566057097424,22.382581839206232],[114.18563040901321,22.382555950335853],[114.18563927400989,22.382547253458778]]]},"properties":{"OBJECTID":103804,"Shape__Length":16.834597553558744,"Shape__Area":17.710511000612691,"GeoRefNo":"3717227037","DateCreate":1114790400000,"BuildingBlockType":"Tower","BuildingCSUID":"3717227037T20050430","BuildingID":1102446373,"Status":"Active","BuildingNameEN":null,"BuildingNameTC":null,"BaseHeight":28.199999999999999,"TopHeight":31.199999999999999,"Storeys":null,"StoreysInBasement":null,"DateStamp":1286294400000}},{"type":"Feature","id":103918,"geometry":{"type":"Polygon","coordinates":[[[114.18582468589379,22.382587564552697],[114.18583728911119,22.38257494820952],[114.18586219752497,22.382596313041851],[114.18584935153407,22.382608694606834],[114.18582468589379,22.382587564552697]]]},"properties":{"OBJECTID":103918,"Shape__Length":10.755345771556209,"Shape__Area":6.6162664987052828,"GeoRefNo":"3719127042","DateCreate":1114790400000,"BuildingBlockType":"Tower","BuildingCSUID":"3719127042T20050430","BuildingID":1102446365,"Status":"Active","BuildingNameEN":null,"BuildingNameTC":null,"BaseHeight":25.899999999999999,"TopHeight":28.899999999999999,"Storeys":null,"StoreysInBasement":null,"DateStamp":1286294400000}},{"type":"Feature","id":103920,"geometry":{"type":"Polygon","coordinates":[[[114.18632434556454,22.382506351873442],[114.18631977202396,22.382505358513043],[114.186243456893,22.382482064216553],[114.18617626912014,22.382453016913193],[114.1861932607337,22.382430954360096],[114.18620018455563,22.382436227785693],[114.18627701547057,22.382476833587816],[114.18632809261595,22.382488118754093],[114.18632434556454,22.382506351873442]]]},"properties":{"OBJECTID":103920,"Shape__Length":36.875187318481075,"Shape__Area":34.622638806611626,"GeoRefNo":"3723327028","DateCreate":1114790400000,"BuildingBlockType":"Tower","BuildingCSUID":"3723327028T20050430","BuildingID":1102446401,"Status":"Active","BuildingNameEN":"BUDDHIST POH YEA HOME FOR THE AGED","BuildingNameTC":"佛教般若安老院","BaseHeight":20,"TopHeight":24.399999999999999,"Storeys":null,"StoreysInBasement":null,"DateStamp":1286294400000}},{"type":"Feature","id":103933,"geometry":{"type":"Polygon","coordinates":[[[114.18545362712138,22.381212317064296],[114.18546917538467,22.381247192125656],[114.18543385032115,22.381260812039827],[114.18541860309571,22.381226144661273],[114.18545362712138,22.381212317064296]]]},"properties":{"OBJECTID":103933,"Shape__Length":16.184958311346151,"Shape__Area":16.357603499099348,"GeoRefNo":"3715026891","DateCreate":1171209600000,"BuildingBlockType":"Tower","BuildingCSUID":"3715026891T20070212","BuildingID":1102446950,"Status":"Active","BuildingNameEN":null,"BuildingNameTC":null,"BaseHeight":16.699999999999999,"TopHeight":20.199999999999999,"Storeys":null,"StoreysInBasement":null,"DateStamp":1286294400000}},{"type":"Feature","id":103941,"geometry":{"type":"Polygon","coordinates":[[[114.19093779681427,22.381065980600916],[114.19097613663844,22.381103535211121],[114.19093964842129,22.381132065827199],[114.19090278453051,22.381094258225431],[114.19093779681427,22.381065980600916]]]},"properties":{"OBJECTID":103941,"Shape__Length":21.071023515713019,"Shape__Area":27.54242600196784,"GeoRefNo":"3771626876","DateCreate":1193328000000,"BuildingBlockType":"Open-sided Structure","BuildingCSUID":"3771626876T20071026","BuildingID":1102447005,"Status":"Active","BuildingNameEN":null,"BuildingNameTC":null,"BaseHeight":null,"TopHeight":null,"Storeys":null,"StoreysInBasement":null,"DateStamp":1286294400000}},{"type":"Feature","id":104246,"geometry":{"type":"Polygon","coordinates":[[[114.18784982701298,22.385552672196539],[114.18786672944638,22.385623533180667],[114.18789153784542,22.385727538523035],[114.18770941736682,22.385637369108196],[114.18770243904279,22.385608283624173],[114.18782918084611,22.385582581421925],[114.18784982701298,22.385552672196539]]]},"properties":{"OBJECTID":104246,"Shape__Length":61.676269904754868,"Shape__Area":168.20651738820982,"GeoRefNo":"3739227378","DateCreate":1259164800000,"BuildingBlockType":"Tower","BuildingCSUID":"3739227378T20091126","BuildingID":1108770060,"Status":"Active","BuildingNameEN":null,"BuildingNameTC":null,"BaseHeight":19.600000000000001,"TopHeight":26.800000000000001,"Storeys":null,"StoreysInBasement":null,"DateStamp":1286294400000}},{"type":"Feature","id":104264,"geometry":{"type":"Polygon","coordinates":[[[114.1838157775473,22.382170908168565],[114.18382231695179,22.382155181046834],[114.18383703232995,22.382119791319276],[114.18391545390485,22.382146934385847],[114.18388909362173,22.382212795334677],[114.1838095942731,22.38218577854877],[114.1838157775473,22.382170908168565]]]},"properties":{"OBJECTID":104264,"Shape__Length":32.950327165111432,"Shape__Area":67.66877111163933,"GeoRefNo":"3698826994","DateCreate":1114790400000,"BuildingBlockType":"Tower","BuildingCSUID":"3698826994T20050430","BuildingID":1102446524,"Status":"Active","BuildingNameEN":null,"BuildingNameTC":null,"BaseHeight":79.200000000000003,"TopHeight":87.200000000000003,"Storeys":null,"StoreysInBasement":null,"DateStamp":1286294400000}},{"type":"Feature","id":104293,"geometry":{"type":"Polygon","coordinates":[[[114.18448955801308,22.386244236166085],[114.18455103622102,22.386251493783426],[114.18454365896041,22.386302227597312],[114.18448905588367,22.386295809490388],[114.18448955801308,22.386244236166085]]]},"properties":{"OBJECTID":104293,"Shape__Length":23.430030254036787,"Shape__Area":34.164261499216799,"GeoRefNo":"3705727448","DateCreate":1114790400000,"BuildingBlockType":"Tower","BuildingCSUID":"3705727448T20050430","BuildingID":1108769970,"Status":"Active","BuildingNameEN":null,"BuildingNameTC":null,"BaseHeight":36.200000000000003,"TopHeight":41.799999999999997,"Storeys":null,"StoreysInBasement":null,"DateStamp":1286294400000}},{"type":"Feature","id":104420,"geometry":{"type":"Polygon","coordinates":[[[114.1864605560767,22.382839091277805],[114.18647984220127,22.382858568969262],[114.18646579214193,22.382870751983045],[114.18644601075744,22.382850813762662],[114.1864605560767,22.382839091277805]]]},"properties":{"OBJECTID":104420,"Shape__Length":9.896547086551907,"Shape__Area":5.8759514990280977,"GeoRefNo":"3725627071","DateCreate":1114790400000,"BuildingBlockType":"Tower","BuildingCSUID":"3725627071T20050430","BuildingID":1102446310,"Status":"Active","BuildingNameEN":null,"BuildingNameTC":null,"BaseHeight":10.800000000000001,"TopHeight":15,"Storeys":null,"StoreysInBasement":null,"DateStamp":1286294400000}},{"type":"Feature","id":104421,"geometry":{"type":"Polygon","coordinates":[[[114.18882945353739,22.38290607493116],[114.18883755140797,22.382899355620832],[114.18887879810634,22.382865162992108],[114.18891214651468,22.382900081541706],[114.18897051139484,22.382852350855476],[114.18892481019198,22.382803417868189],[114.18897698025745,22.382760735704835],[114.18911804610703,22.382910974912367],[114.18906512831029,22.382953431413874],[114.18901670781833,22.382900823235541],[114.18895810015489,22.382948328193233],[114.18899688699123,22.382989910843843],[114.18894643546352,22.383031211213694],[114.18883755272802,22.382914743633322],[114.18882945353739,22.38290607493116]]]},"properties":{"OBJECTID":104421,"Shape__Length":110.65433134456798,"Shape__Area":341.74623449581281,"GeoRefNo":"3750027076","DateCreate":1114790400000,"BuildingBlockType":"Tower","BuildingCSUID":"3750027076T20050430","BuildingID":1102446256,"Status":"Active","BuildingNameEN":"Richmond Tower","BuildingNameTC":"金星閣","BaseHeight":21.5,"TopHeight":97.400000000000006,"Storeys":28,"StoreysInBasement":null,"DateStamp":1599580800000}},{"type":"Feature","id":104425,"geometry":{"type":"Polygon","coordinates":[[[114.19077928847332,22.382836121697686],[114.19074216190089,22.382797347823992],[114.19077961172837,22.38276691579842],[114.19079847742476,22.382751585308306],[114.19083437076233,22.382790133512938],[114.19077928847332,22.382836121697686]]]},"properties":{"OBJECTID":104425,"Shape__Length":26.720574017455906,"Shape__Area":43.657190502733691,"GeoRefNo":"3770027063","DateCreate":1193328000000,"BuildingBlockType":"Open-sided Structure","BuildingCSUID":"3770027063T20071026","BuildingID":1102446318,"Status":"Active","BuildingNameEN":null,"BuildingNameTC":null,"BaseHeight":null,"TopHeight":null,"Storeys":null,"StoreysInBasement":null,"DateStamp":1286294400000}},{"type":"Feature","id":104430,"geometry":{"type":"Polygon","coordinates":[[[114.18554849700362,22.382627422337233],[114.18558121293214,22.382655631929293],[114.18556100692514,22.382675400837805],[114.18555607438148,22.382680458197292],[114.18554000284978,22.382666019254799],[114.18555035344035,22.382655678747369],[114.18553453438116,22.382641239790665],[114.18554849700362,22.382627422337233]]]},"properties":{"OBJECTID":104430,"Shape__Length":16.61892495874622,"Shape__Area":13.503093499262777,"GeoRefNo":"3716227048","DateCreate":1114790400000,"BuildingBlockType":"Tower","BuildingCSUID":"3716227048T20050430","BuildingID":1102446345,"Status":"Active","BuildingNameEN":null,"BuildingNameTC":null,"BaseHeight":28.800000000000001,"TopHeight":32.700000000000003,"Storeys":null,"StoreysInBasement":null,"DateStamp":1286294400000}},{"type":"Feature","id":104431,"geometry":{"type":"Polygon","coordinates":[[[114.18554849700362,22.382627422337233],[114.1855949095946,22.382581481554066],[114.18559512663273,22.382581671815451],[114.18562705260958,22.382609664076458],[114.18562671937144,22.382609998223966],[114.18558121293214,22.382655631929293],[114.18554849700362,22.382627422337233]]]},"properties":{"OBJECTID":104431,"Shape__Length":23.066607281125243,"Shape__Area":31.826482422117969,"GeoRefNo":"3716527044","DateCreate":1195747200000,"BuildingBlockType":"Open-sided Structure","BuildingCSUID":"3716527044T20071123","BuildingID":1102446353,"Status":"Active","BuildingNameEN":null,"BuildingNameTC":null,"BaseHeight":null,"TopHeight":null,"Storeys":null,"StoreysInBasement":null,"DateStamp":1286294400000}},{"type":"Feature","id":104440,"geometry":{"type":"Polygon","coordinates":[[[114.1861869735454,22.382507389081802],[114.18621391113511,22.382523877259736],[114.18620035674407,22.382542489955522],[114.18617367163634,22.382526227523904],[114.1861869735454,22.382507389081802]]]},"properties":{"OBJECTID":104440,"Shape__Length":11.591577193691641,"Shape__Area":8.2330040006276253,"GeoRefNo":"3722727034","DateCreate":1114790400000,"BuildingBlockType":"Tower","BuildingCSUID":"3722727034T20050430","BuildingID":1102446388,"Status":"Active","BuildingNameEN":null,"BuildingNameTC":null,"BaseHeight":15.5,"TopHeight":18.5,"Storeys":null,"StoreysInBasement":null,"DateStamp":1286294400000}},{"type":"Feature","id":104615,"geometry":{"type":"Polygon","coordinates":[[[114.18507941647027,22.380603805534918],[114.18513475881726,22.380669039227982],[114.18511241725315,22.380696691844289],[114.18509297826174,22.380711241015604],[114.18503143070369,22.380639370186174],[114.18507941647027,22.380603805534918]]]},"properties":{"OBJECTID":104615,"Shape__Length":32.09463384112108,"Shape__Area":62.21596699750441,"GeoRefNo":"3711426824","DateCreate":1114790400000,"BuildingBlockType":"Temporary Structure","BuildingCSUID":"3711426824T20050430","BuildingID":1102447129,"Status":"Active","BuildingNameEN":null,"BuildingNameTC":null,"BaseHeight":null,"TopHeight":20.300000000000001,"Storeys":null,"StoreysInBasement":null,"DateStamp":1286294400000}},{"type":"Feature","id":104624,"geometry":{"type":"Polygon","coordinates":[[[114.1908479783925,22.380982013545314],[114.19086725625338,22.381012381533033],[114.19085278900148,22.381022370548806],[114.19083177278173,22.38098971798674],[114.1908479783925,22.380982013545314]]]},"properties":{"OBJECTID":104624,"Shape__Length":11.849158066025804,"Shape__Area":7.5436380010571229,"GeoRefNo":"3770726865","DateCreate":1193328000000,"BuildingBlockType":"Open-sided Structure","BuildingCSUID":"3770726865T20071026","BuildingID":1102447046,"Status":"Active","BuildingNameEN":null,"BuildingNameTC":null,"BaseHeight":null,"TopHeight":null,"Storeys":null,"StoreysInBasement":null,"DateStamp":1286294400000}},{"type":"Feature","id":104625,"geometry":{"type":"Polygon","coordinates":[[[114.19086121150043,22.380865771468162],[114.19086124723263,22.380865757106523],[114.19086460324336,22.380864411899317],[114.1908983339485,22.380850890995724],[114.19089863349687,22.380850770863699],[114.19089978867585,22.380850307858502],[114.19090004470262,22.380850956589228],[114.19090611164344,22.380866326829779],[114.19086947790397,22.380882136502727],[114.19086925321903,22.380882233419761],[114.19086121150043,22.380865771468162]]]},"properties":{"OBJECTID":104625,"Shape__Length":12.402611901092042,"Shape__Area":8.2703090264295227,"GeoRefNo":"3771026850","DateCreate":1193328000000,"BuildingBlockType":"Open-sided Structure","BuildingCSUID":"3771026850T20071026","BuildingID":1102447087,"Status":"Active","BuildingNameEN":null,"BuildingNameTC":null,"BaseHeight":null,"TopHeight":null,"Storeys":null,"StoreysInBasement":null,"DateStamp":1286294400000}},{"type":"Feature","id":104720,"geometry":{"type":"Polygon","coordinates":[[[114.18399541336038,22.382174609605372],[114.18400777159005,22.382178511237935],[114.18399179161321,22.382216510497116],[114.18399119760805,22.382217923078077],[114.18398766178871,22.382227412961267],[114.18397578246008,22.38222335002089],[114.1839784986751,22.382216606085752],[114.18397853692892,22.382216511082955],[114.18399541336038,22.382174609605372]]]},"properties":{"OBJECTID":104720,"Shape__Length":14.209355024040068,"Shape__Area":7.5472716116267025,"GeoRefNo":"3700126997","DateCreate":1199289600000,"BuildingBlockType":"Open-sided Structure","BuildingCSUID":"3700126997T20080103","BuildingID":1102446511,"Status":"Active","BuildingNameEN":null,"BuildingNameTC":null,"BaseHeight":null,"TopHeight":null,"Storeys":null,"StoreysInBasement":null,"DateStamp":1286294400000}},{"type":"Feature","id":104721,"geometry":{"type":"Polygon","coordinates":[[[114.18448746435988,22.382231216595397],[114.1845116053171,22.382251236124766],[114.18449700180724,22.38226612815216],[114.18447286083673,22.382245873827024],[114.18448746435988,22.382231216595397]]]},"properties":{"OBJECTID":104721,"Shape__Length":11.123865753806804,"Shape__Area":7.4210160016406475,"GeoRefNo":"3705227003","DateCreate":1195747200000,"BuildingBlockType":"Temporary Structure","BuildingCSUID":"3705227003T20071123","BuildingID":1102446491,"Status":"Active","BuildingNameEN":null,"BuildingNameTC":null,"BaseHeight":null,"TopHeight":null,"Storeys":null,"StoreysInBasement":null,"DateStamp":1286294400000}},{"type":"Feature","id":105058,"geometry":{"type":"Polygon","coordinates":[[[114.1849125760121,22.388178065137794],[114.18496537603349,22.388225553986562],[114.18492456406838,22.388264703328129],[114.18490314106114,22.388245379089742],[114.18488067167758,22.388267387581159],[114.18484878967678,22.38823875339147],[114.1849125760121,22.388178065137794]]]},"properties":{"OBJECTID":105058,"Shape__Length":33.99799382803922,"Shape__Area":60.984213500616214,"GeoRefNo":"3709527665","DateCreate":1114790400000,"BuildingBlockType":"Tower","BuildingCSUID":"3709527665T20050430","BuildingID":1108769512,"Status":"Active","BuildingNameEN":null,"BuildingNameTC":"地藏殿","BaseHeight":101.2,"TopHeight":105.8,"Storeys":null,"StoreysInBasement":null,"DateStamp":1286294400000}},{"type":"Feature","id":105166,"geometry":{"type":"Polygon","coordinates":[[[114.18440057286247,22.386026424202846],[114.18445685941454,22.386010780699138],[114.184486501137,22.386102583569969],[114.18442999499388,22.386118209123406],[114.18440057286247,22.386026424202846]]]},"properties":{"OBJECTID":105166,"Shape__Length":33.340669873383234,"Shape__Area":64.299825109296776,"GeoRefNo":"3704727426","DateCreate":1259769600000,"BuildingBlockType":"Tower","BuildingCSUID":"3704727426T20091203","BuildingID":1108770061,"Status":"Active","BuildingNameEN":null,"BuildingNameTC":null,"BaseHeight":28.899999999999999,"TopHeight":37.100000000000001,"Storeys":null,"StoreysInBasement":null,"DateStamp":1473004800000}},{"type":"Feature","id":105272,"geometry":{"type":"Polygon","coordinates":[[[114.18594951481805,22.38260244592232],[114.1859878818138,22.382632974513562],[114.18594558584661,22.38267894804849],[114.18590721875036,22.382648419447381],[114.18591240778984,22.382642779323067],[114.18594951481805,22.38260244592232]]]},"properties":{"OBJECTID":105272,"Shape__Length":23.800009495640325,"Shape__Area":34.84001265580256,"GeoRefNo":"3720227047","DateCreate":1114790400000,"BuildingBlockType":"Tower","BuildingCSUID":"3720227047T20050430","BuildingID":1102446348,"Status":"Active","BuildingNameEN":null,"BuildingNameTC":null,"BaseHeight":19.800000000000001,"TopHeight":27.800000000000001,"Storeys":null,"StoreysInBasement":null,"DateStamp":1286294400000}},{"type":"Feature","id":105273,"geometry":{"type":"Polygon","coordinates":[[[114.18616456428599,22.382540478216693],[114.18619124944068,22.3825574179391],[114.18615800433109,22.38260406251603],[114.18613157168554,22.382587800063064],[114.18616456428599,22.382540478216693]]]},"properties":{"OBJECTID":105273,"Shape__Length":19.033341645630117,"Shape__Area":20.499961000055666,"GeoRefNo":"3722527039","DateCreate":1114790400000,"BuildingBlockType":"Tower","BuildingCSUID":"3722527039T20050430","BuildingID":1102446366,"Status":"Active","BuildingNameEN":null,"BuildingNameTC":null,"BaseHeight":16,"TopHeight":19,"Storeys":null,"StoreysInBasement":null,"DateStamp":1286294400000}},{"type":"Feature","id":105360,"geometry":{"type":"Polygon","coordinates":[[[114.18620018455563,22.382436227785693],[114.18623566374309,22.382400826072256],[114.18622701129806,22.382392807469099],[114.18625338290522,22.382368206787341],[114.18628453554979,22.382396389237496],[114.18629538135461,22.382386969766628],[114.18639328701211,22.382476104317963],[114.18638274451435,22.382519036053118],[114.18632434556454,22.382506351873442],[114.18632809261595,22.382488118754093],[114.18627701547057,22.382476833587816],[114.18620018455563,22.382436227785693]]]},"properties":{"OBJECTID":105360,"Shape__Length":58.192370315744519,"Shape__Area":150.35671504606165,"GeoRefNo":"3723627023","DateCreate":1114790400000,"BuildingBlockType":"Tower","BuildingCSUID":"3723627023T20050430","BuildingID":1102446397,"Status":"Active","BuildingNameEN":"BUDDHIST POH YEA HOME FOR THE AGED","BuildingNameTC":"佛教般若安老院","BaseHeight":20,"TopHeight":27,"Storeys":null,"StoreysInBasement":null,"DateStamp":1286294400000}},{"type":"Feature","id":105374,"geometry":{"type":"Polygon","coordinates":[[[114.18573948899342,22.381088086700224],[114.18578104015047,22.381104221957685],[114.18575637013431,22.381162434089571],[114.18577294604989,22.381170632892072],[114.18576170318354,22.38119572031346],[114.18569887618277,22.381169092747328],[114.18573948899342,22.381088086700224]]]},"properties":{"OBJECTID":105374,"Shape__Length":33.516843792452391,"Shape__Area":55.087314501304043,"GeoRefNo":"3718126881","DateCreate":1114790400000,"BuildingBlockType":"Temporary Structure","BuildingCSUID":"3718126881T20050430","BuildingID":1102446979,"Status":"Active","BuildingNameEN":null,"BuildingNameTC":null,"BaseHeight":null,"TopHeight":13.5,"Storeys":null,"StoreysInBasement":null,"DateStamp":1286294400000}},{"type":"Feature","id":106625,"geometry":{"type":"Polygon","coordinates":[[[114.19076130607691,22.38704285623831],[114.19068517133044,22.387108514649313],[114.19065934822248,22.387083583595022],[114.19071140376818,22.38703865104068],[114.19073597816237,22.387017437505378],[114.19076130607691,22.38704285623831]]]},"properties":{"OBJECTID":106625,"Shape__Length":29.130176770731993,"Shape__Area":41.147932495627821,"GeoRefNo":"3769427536","DateCreate":1114790400000,"BuildingBlockType":"Tower","BuildingCSUID":"3769427536T20050430","BuildingID":1102445062,"Status":"Active","BuildingNameEN":null,"BuildingNameTC":null,"BaseHeight":5.4000000000000004,"TopHeight":13.6,"Storeys":null,"StoreysInBasement":null,"DateStamp":1558627200000}},{"type":"Feature","id":106778,"geometry":{"type":"Polygon","coordinates":[[[114.19028904460083,22.38221234389971],[114.19028411687833,22.382216109767263],[114.19024997789334,22.382242192756586],[114.19029346515694,22.382288371247039],[114.19025810290439,22.38231705513066],[114.19021437292946,22.382271337207687],[114.19019087582988,22.382291079875724],[114.19023485827185,22.382336797784049],[114.19019676765518,22.382368236189993],[114.19015329013047,22.382322283436281],[114.19010037291423,22.382365200836009],[114.19006652902318,22.382329361456154],[114.1901189510757,22.382287139458352],[114.19008411668004,22.382250604812754],[114.19012245004801,22.382219166412924],[114.19015728442351,22.382255466256794],[114.19018201471199,22.382235506759194],[114.19016352441304,22.382216119747401],[114.19014811259873,22.382199974438457],[114.19018140662945,22.382172157679481],[114.19021750334053,22.382208358070656],[114.19025467191369,22.382177924742805],[114.19028904460083,22.38221234389971]]]},"properties":{"OBJECTID":106778,"Shape__Length":110.41219323830649,"Shape__Area":255.35598645866628,"GeoRefNo":"3763827011","DateCreate":1114790400000,"BuildingBlockType":"Tower","BuildingCSUID":"3763827011T20050430","BuildingID":1102446440,"Status":"Active","BuildingNameEN":"Tong Ning Building","BuildingNameTC":"唐寧大廈","BaseHeight":16.300000000000001,"TopHeight":93,"Storeys":28,"StoreysInBasement":null,"DateStamp":1599580800000}},{"type":"Feature","id":108820,"geometry":{"type":"Polygon","coordinates":[[[114.18668873482683,22.384784034527211],[114.18670997377092,22.384819061361668],[114.18668702876722,22.384826466885478],[114.18666789936152,22.384831861980004],[114.18666238993355,22.384797578751783],[114.18668873482683,22.384784034527211]]]},"properties":{"OBJECTID":108820,"Shape__Length":15.951174788943025,"Shape__Area":15.630397141758719,"GeoRefNo":"3727827286","DateCreate":1212681600000,"BuildingBlockType":"Tower","BuildingCSUID":"3727827286T20080606","BuildingID":1102445763,"Status":"Active","BuildingNameEN":null,"BuildingNameTC":null,"BaseHeight":6,"TopHeight":10.5,"Storeys":null,"StoreysInBasement":null,"DateStamp":1367251200000}},{"type":"Feature","id":108821,"geometry":{"type":"Polygon","coordinates":[[[114.18676102588803,22.384746982753153],[114.18680504064083,22.384725013843905],[114.18682525595827,22.384756434297387],[114.18681710696866,22.384761345417594],[114.18678230660461,22.384782078207682],[114.18676102588803,22.384746982753153]]]},"properties":{"OBJECTID":108821,"Shape__Length":18.916636098298909,"Shape__Area":22.135019571155571,"GeoRefNo":"3728827281","DateCreate":1195747200000,"BuildingBlockType":"Open-sided Structure","BuildingCSUID":"3728827281T20071123","BuildingID":1102445772,"Status":"Active","BuildingNameEN":null,"BuildingNameTC":null,"BaseHeight":null,"TopHeight":null,"Storeys":null,"StoreysInBasement":null,"DateStamp":1367251200000}},{"type":"Feature","id":113113,"geometry":{"type":"Polygon","coordinates":[[[114.18609529084657,22.381675581972541],[114.18612349334603,22.381720238018744],[114.18609320811248,22.38173758739358],[114.18607854405003,22.381714442996056],[114.18606548418916,22.38172161397873],[114.18604288642543,22.381692311212188],[114.1860588980888,22.38168328880538],[114.1860621999204,22.381688372802813],[114.18609529084657,22.381675581972541]]]},"properties":{"OBJECTID":113113,"Shape__Length":24.203862589279382,"Shape__Area":29.049945332389164,"GeoRefNo":"3721726942","DateCreate":1114790400000,"BuildingBlockType":"Temporary Structure","BuildingCSUID":"3721726942T20050430","BuildingID":1102446728,"Status":"Active","BuildingNameEN":null,"BuildingNameTC":null,"BaseHeight":null,"TopHeight":14.6,"Storeys":null,"StoreysInBasement":null,"DateStamp":1410969600000}},{"type":"Feature","id":113117,"geometry":{"type":"Polygon","coordinates":[[[114.1850027755174,22.382073852747446],[114.18496139665366,22.382075064741013],[114.18494737251707,22.382032838710735],[114.18500134845821,22.382031712778421],[114.1850027755174,22.382073852747446]]]},"properties":{"OBJECTID":113117,"Shape__Length":19.38605794157391,"Shape__Area":23.0382658934574,"GeoRefNo":"3710326983","DateCreate":1114790400000,"BuildingBlockType":"Tower","BuildingCSUID":"3710326983T20050430","BuildingID":1102446579,"Status":"Active","BuildingNameEN":null,"BuildingNameTC":null,"BaseHeight":24.600000000000001,"TopHeight":29.199999999999999,"Storeys":null,"StoreysInBasement":null,"DateStamp":1410451200000}},{"type":"Feature","id":113118,"geometry":{"type":"Polygon","coordinates":[[[114.18542752494336,22.381986243504102],[114.18544165965488,22.381978417983515],[114.18551026360628,22.381940436266035],[114.18553140513927,22.381975952185488],[114.18545562201086,22.38201478515057],[114.18544692816232,22.382019240010298],[114.18542752494336,22.381986243504102]]]},"properties":{"OBJECTID":113118,"Shape__Length":28.509088130208838,"Shape__Area":42.960558978677945,"GeoRefNo":"3715526973","DateCreate":1114790400000,"BuildingBlockType":"Tower","BuildingCSUID":"3715526973T20050430","BuildingID":1102446612,"Status":"Active","BuildingNameEN":null,"BuildingNameTC":null,"BaseHeight":27.199999999999999,"TopHeight":34.700000000000003,"Storeys":null,"StoreysInBasement":null,"DateStamp":1410969600000}},{"type":"Feature","id":113119,"geometry":{"type":"Polygon","coordinates":[[[114.18557588857416,22.381984501695243],[114.18561494770265,22.38205278840918],[114.18555485245417,22.382082529177669],[114.18553787698485,22.382052855787233],[114.18551395151809,22.382064696090588],[114.18549715105817,22.382035326473272],[114.18549185817378,22.382026073719604],[114.18557174706315,22.381986550583832],[114.18557588857416,22.381984501695243]]]},"properties":{"OBJECTID":113119,"Shape__Length":36.73508041773907,"Shape__Area":73.571715292344521,"GeoRefNo":"3716226980","DateCreate":1114790400000,"BuildingBlockType":"Tower","BuildingCSUID":"3716226980T20050430","BuildingID":1102446584,"Status":"Active","BuildingNameEN":null,"BuildingNameTC":null,"BaseHeight":27.199999999999999,"TopHeight":35.399999999999999,"Storeys":null,"StoreysInBasement":null,"DateStamp":1411056000000}},{"type":"Feature","id":113120,"geometry":{"type":"Polygon","coordinates":[[[114.18541171350701,22.382094719007501],[114.18542313364851,22.382107993273067],[114.18539695583623,22.38212745544147],[114.18539457411511,22.382124684641287],[114.18538554540595,22.382114181173566],[114.18541171350701,22.382094719007501]]]},"properties":{"OBJECTID":113120,"Shape__Length":10.666512300327971,"Shape__Area":6.4955851014121038,"GeoRefNo":"3714626988","DateCreate":1114790400000,"BuildingBlockType":"Tower","BuildingCSUID":"3714626988T20050430","BuildingID":1102446563,"Status":"Active","BuildingNameEN":null,"BuildingNameTC":null,"BaseHeight":35.899999999999999,"TopHeight":40.100000000000001,"Storeys":null,"StoreysInBasement":null,"DateStamp":1410969600000}},{"type":"Feature","id":113121,"geometry":{"type":"Polygon","coordinates":[[[114.18500134845821,22.382031712778421],[114.18494737251707,22.382032838710735],[114.18494257544724,22.382029768572767],[114.18494122236136,22.381971892006554],[114.18499971698124,22.381970980865106],[114.1850001149469,22.381963302641189],[114.1850313445852,22.381965683765983],[114.18504729392616,22.381966899820362],[114.18504419878668,22.382006954148231],[114.18500242902402,22.382005144829417],[114.18500134845821,22.382031712778421]]]},"properties":{"OBJECTID":113121,"Shape__Length":36.018487189702881,"Shape__Area":62.218856838861413,"GeoRefNo":"3710226975","DateCreate":1114790400000,"BuildingBlockType":"Tower","BuildingCSUID":"3710226975T20050430","BuildingID":1102446604,"Status":"Active","BuildingNameEN":null,"BuildingNameTC":null,"BaseHeight":24.199999999999999,"TopHeight":28.800000000000001,"Storeys":null,"StoreysInBasement":null,"DateStamp":1410451200000}},{"type":"Feature","id":113122,"geometry":{"type":"Polygon","coordinates":[[[114.18553334718459,22.382131900214262],[114.18546689277184,22.382180189989324],[114.18542471651713,22.382129982968323],[114.18541507473354,22.38211850523151],[114.18547172216151,22.382077341085285],[114.18549276595465,22.382102390636206],[114.18550256321898,22.382095274058102],[114.18553334718459,22.382131900214262]]]},"properties":{"OBJECTID":113122,"Shape__Length":34.704741310316358,"Shape__Area":70.768376920317522,"GeoRefNo":"3715326992","DateCreate":1114790400000,"BuildingBlockType":"Tower","BuildingCSUID":"3715326992T20050430","BuildingID":1102446538,"Status":"Active","BuildingNameEN":null,"BuildingNameTC":null,"BaseHeight":34.899999999999999,"TopHeight":43.100000000000001,"Storeys":null,"StoreysInBasement":null,"DateStamp":1410969600000}},{"type":"Feature","id":113123,"geometry":{"type":"Polygon","coordinates":[[[114.18504770470976,22.382123048591229],[114.18508387729928,22.382151384537494],[114.1850673708342,22.382169599946657],[114.18503120795364,22.382141263996278],[114.18503600686917,22.382135965092683],[114.18504770470976,22.382123048591229]]]},"properties":{"OBJECTID":113123,"Shape__Length":15.015489216190989,"Shape__Area":12.845350588781347,"GeoRefNo":"3711126991","DateCreate":1114790400000,"BuildingBlockType":"Tower","BuildingCSUID":"3711126991T20050430","BuildingID":1102446545,"Status":"Active","BuildingNameEN":null,"BuildingNameTC":null,"BaseHeight":30.399999999999999,"TopHeight":34.299999999999997,"Storeys":null,"StoreysInBasement":null,"DateStamp":1410451200000}},{"type":"Feature","id":113171,"geometry":{"type":"Polygon","coordinates":[[[114.18521845517787,22.381546729783874],[114.18523418412693,22.381557323490121],[114.1852720969792,22.381584023065059],[114.18529474877906,22.381601000895266],[114.1852769269569,22.381625687579913],[114.18524939581786,22.381606767625431],[114.18518053731712,22.381559446724093],[114.18518753789901,22.381550632570036],[114.18520621152379,22.381563463981426],[114.18521845517787,22.381546729783874]]]},"properties":{"OBJECTID":113171,"Shape__Length":31.374801112004469,"Shape__Area":36.766426079416497,"GeoRefNo":"3712826929","DateCreate":1114790400000,"BuildingBlockType":"Tower","BuildingCSUID":"3712826929T20050430","BuildingID":1102446786,"Status":"Active","BuildingNameEN":null,"BuildingNameTC":null,"BaseHeight":24.800000000000001,"TopHeight":32,"Storeys":null,"StoreysInBasement":null,"DateStamp":1410710400000}},{"type":"Feature","id":113172,"geometry":{"type":"Polygon","coordinates":[[[114.18538938678776,22.381770824247273],[114.18541226223719,22.381752580201308],[114.18541883949715,22.381755685630669],[114.18547149561293,22.381710683721238],[114.18549687018972,22.381736554819316],[114.18549124820845,22.381740998138611],[114.18549602595934,22.381745675694937],[114.18542356203812,22.381810112354984],[114.18541445316785,22.381800061863835],[114.18540415942941,22.381786516621727],[114.18538938678776,22.381770824247273]]]},"properties":{"OBJECTID":113172,"Shape__Length":32.50643751352667,"Shape__Area":52.696766032433139,"GeoRefNo":"3714926950","DateCreate":1114790400000,"BuildingBlockType":"Temporary Structure","BuildingCSUID":"3714926950T20050430","BuildingID":1102446699,"Status":"Active","BuildingNameEN":null,"BuildingNameTC":null,"BaseHeight":null,"TopHeight":30.699999999999999,"Storeys":null,"StoreysInBasement":null,"DateStamp":1410969600000}},{"type":"Feature","id":113173,"geometry":{"type":"Polygon","coordinates":[[[114.18540415942941,22.381786516621727],[114.18537481638961,22.381810403912265],[114.1853449612357,22.381778688926669],[114.18534208088057,22.381775629084721],[114.18537141420786,22.381751732770024],[114.18538938678776,22.381770824247273],[114.18540415942941,22.381786516621727]]]},"properties":{"OBJECTID":113173,"Shape__Length":18.269364453131072,"Shape__Area":20.556625322713465,"GeoRefNo":"3714326951","DateCreate":1114790400000,"BuildingBlockType":"Tower","BuildingCSUID":"3714326951T20050430","BuildingID":1102446693,"Status":"Active","BuildingNameEN":null,"BuildingNameTC":null,"BaseHeight":27.600000000000001,"TopHeight":33.700000000000003,"Storeys":null,"StoreysInBasement":null,"DateStamp":1410969600000}},{"type":"Feature","id":113174,"geometry":{"type":"Polygon","coordinates":[[[114.18530161855674,22.381850519094328],[114.18531450488038,22.381863097940808],[114.1853019889808,22.381874197111596],[114.18528909294696,22.381861618264654],[114.18530161855674,22.381850519094328]]]},"properties":{"OBJECTID":113174,"Shape__Length":7.4112074604561773,"Shape__Area":3.4277709988669454,"GeoRefNo":"3713626961","DateCreate":1114790400000,"BuildingBlockType":"Tower","BuildingCSUID":"3713626961T20050430","BuildingID":1102446670,"Status":"Active","BuildingNameEN":null,"BuildingNameTC":null,"BaseHeight":28.199999999999999,"TopHeight":33.700000000000003,"Storeys":null,"StoreysInBasement":null,"DateStamp":1410969600000}},{"type":"Feature","id":113175,"geometry":{"type":"Polygon","coordinates":[[[114.18476669413704,22.381884701908398],[114.18478959264772,22.381886039649725],[114.18480422456089,22.381886894481582],[114.18479923706364,22.381950063249448],[114.18475997813755,22.381946958676789],[114.18476669413704,22.381884701908398]]]},"properties":{"OBJECTID":113175,"Shape__Length":21.872742343915448,"Shape__Area":27.635537489303982,"GeoRefNo":"3708226966","DateCreate":1114790400000,"BuildingBlockType":"Tower","BuildingCSUID":"3708226966T20050430","BuildingID":1102446639,"Status":"Active","BuildingNameEN":null,"BuildingNameTC":null,"BaseHeight":30.100000000000001,"TopHeight":36.299999999999997,"Storeys":null,"StoreysInBasement":null,"DateStamp":1409846400000}},{"type":"Feature","id":113176,"geometry":{"type":"Polygon","coordinates":[[[114.18532354537737,22.381799362278358],[114.18535517357128,22.381828511150736],[114.185327831045,22.381855857018326],[114.18531175440606,22.381841716239862],[114.18529516387434,22.381827123599191],[114.18532354537737,22.381799362278358]]]},"properties":{"OBJECTID":113176,"Shape__Length":17.593056588215298,"Shape__Area":19.297068784048768,"GeoRefNo":"3713826956","DateCreate":1114790400000,"BuildingBlockType":"Tower","BuildingCSUID":"3713826956T20050430","BuildingID":1102446679,"Status":"Active","BuildingNameEN":null,"BuildingNameTC":null,"BaseHeight":27.800000000000001,"TopHeight":32.299999999999997,"Storeys":null,"StoreysInBasement":null,"DateStamp":1410969600000}},{"type":"Feature","id":113177,"geometry":{"type":"Polygon","coordinates":[[[114.18541445316785,22.381800061863835],[114.18542356203812,22.381810112354984],[114.18544417839394,22.381832958487621],[114.18536851968295,22.381901637110506],[114.18534643026506,22.381921688568173],[114.18532978400967,22.381905933886173],[114.18531744112336,22.38189425201454],[114.18531315115901,22.381890191844448],[114.18541445316785,22.381800061863835]]]},"properties":{"OBJECTID":113177,"Shape__Length":38.152643234720358,"Shape__Area":68.675216723114346,"GeoRefNo":"3714126961","DateCreate":1114790400000,"BuildingBlockType":"Tower","BuildingCSUID":"3714126961T20050430","BuildingID":1102446652,"Status":"Active","BuildingNameEN":null,"BuildingNameTC":null,"BaseHeight":27.5,"TopHeight":35.5,"Storeys":null,"StoreysInBasement":null,"DateStamp":1411056000000}},{"type":"Feature","id":113178,"geometry":{"type":"Polygon","coordinates":[[[114.18528365760294,22.381485214967999],[114.18534432985253,22.38152608394628],[114.18533051321182,22.381543820624305],[114.18526985066886,22.381502951640442],[114.18528365760294,22.381485214967999]]]},"properties":{"OBJECTID":113178,"Shape__Length":20.279387121905433,"Shape__Area":18.708324999520741,"GeoRefNo":"3713726923","DateCreate":1114790400000,"BuildingBlockType":"Tower","BuildingCSUID":"3713726923T20050430","BuildingID":1102446816,"Status":"Active","BuildingNameEN":null,"BuildingNameTC":null,"BaseHeight":25.199999999999999,"TopHeight":31.199999999999999,"Storeys":null,"StoreysInBasement":null,"DateStamp":1410710400000}},{"type":"Feature","id":113179,"geometry":{"type":"Polygon","coordinates":[[[114.18527102943568,22.381510008663703],[114.18532301478653,22.38154611657745],[114.18528726493113,22.381592303265037],[114.1852720969792,22.381584023065059],[114.18523418412693,22.381557323490121],[114.18527102943568,22.381510008663703]]]},"properties":{"OBJECTID":113179,"Shape__Length":26.161731722010664,"Shape__Area":43.239721076937712,"GeoRefNo":"3713226926","DateCreate":1114790400000,"BuildingBlockType":"Tower","BuildingCSUID":"3713226926T20050430","BuildingID":1102446798,"Status":"Active","BuildingNameEN":null,"BuildingNameTC":null,"BaseHeight":25.5,"TopHeight":31.899999999999999,"Storeys":null,"StoreysInBasement":null,"DateStamp":1410710400000}},{"type":"Feature","id":113180,"geometry":{"type":"Polygon","coordinates":[[[114.18462388193957,22.381484539182011],[114.18462946686981,22.381511919466192],[114.18469953549271,22.381499544255274],[114.18470612087073,22.381531800971853],[114.18461380621379,22.381548105535305],[114.18460163593022,22.38148846853009],[114.18462388193957,22.381484539182011]]]},"properties":{"OBJECTID":113180,"Shape__Length":32.797297835380689,"Shape__Area":42.378477997699406,"GeoRefNo":"3706926924","DateCreate":1114790400000,"BuildingBlockType":"Tower","BuildingCSUID":"3706926924T20050430","BuildingID":1102446812,"Status":"Active","BuildingNameEN":null,"BuildingNameTC":null,"BaseHeight":29.300000000000001,"TopHeight":33.899999999999999,"Storeys":null,"StoreysInBasement":null,"DateStamp":1409846400000}},{"type":"Feature","id":113181,"geometry":{"type":"Polygon","coordinates":[[[114.18518823498042,22.381577961883888],[114.18524566360973,22.381612184599504],[114.18521354480042,22.381658801837688],[114.18515611615982,22.38162457911087],[114.18518823498042,22.381577961883888]]]},"properties":{"OBJECTID":113181,"Shape__Length":26.310407068918401,"Shape__Area":43.065388006743312,"GeoRefNo":"3712526933","DateCreate":1114790400000,"BuildingBlockType":"Tower","BuildingCSUID":"3712526933T20050430","BuildingID":1102446761,"Status":"Active","BuildingNameEN":null,"BuildingNameTC":null,"BaseHeight":25.100000000000001,"TopHeight":32.299999999999997,"Storeys":null,"StoreysInBasement":null,"DateStamp":1410710400000}},{"type":"Feature","id":113182,"geometry":{"type":"Polygon","coordinates":[[[114.18507758839777,22.381714316480306],[114.18504573809987,22.3817047457432],[114.18505839845461,22.381673156322872],[114.18508860770037,22.381682591683369],[114.18507758839777,22.381714316480306]]]},"properties":{"OBJECTID":113182,"Shape__Length":14.153800635718266,"Shape__Area":12.485349000006378,"GeoRefNo":"3711226942","DateCreate":1410710400000,"BuildingBlockType":"Temporary Structure","BuildingCSUID":"3711226942T20140915","BuildingID":1102446751,"Status":"Active","BuildingNameEN":null,"BuildingNameTC":null,"BaseHeight":null,"TopHeight":null,"Storeys":null,"StoreysInBasement":null,"DateStamp":1410710400000}},{"type":"Feature","id":113234,"geometry":{"type":"Polygon","coordinates":[[[114.18467195843988,22.380461396321333],[114.18469800739129,22.380398912843589],[114.18473404268185,22.380412375603441],[114.18470664502499,22.380473624318313],[114.18467195843988,22.380461396321333]]]},"properties":{"OBJECTID":113234,"Shape__Length":22.586411385071429,"Shape__Area":28.862656757744716,"GeoRefNo":"3707326805","DateCreate":1196956800000,"BuildingBlockType":"Open-sided Structure","BuildingCSUID":"3707326805T20071207","BuildingID":1102447195,"Status":"Active","BuildingNameEN":null,"BuildingNameTC":null,"BaseHeight":null,"TopHeight":null,"Storeys":null,"StoreysInBasement":null,"DateStamp":1409673600000}},{"type":"Feature","id":113237,"geometry":{"type":"Polygon","coordinates":[[[114.18545445412136,22.381394808862819],[114.1853530401651,22.381396951488714],[114.18535161003061,22.381352169187654],[114.18541825143227,22.381350296346923],[114.18541919262222,22.381338800437881],[114.18545202295907,22.38133798594524],[114.18545210016964,22.381339790601359],[114.1854652957024,22.381339302339917],[114.18546668549662,22.381371786511252],[114.18545349005788,22.381372274772811],[114.18545445412136,22.381394808862819]]]},"properties":{"OBJECTID":113237,"Shape__Length":35.950167033311871,"Shape__Area":61.370552424351153,"GeoRefNo":"3714426906","DateCreate":1114790400000,"BuildingBlockType":"Temporary Structure","BuildingCSUID":"3714426906T20050430","BuildingID":1102446880,"Status":"Active","BuildingNameEN":null,"BuildingNameTC":null,"BaseHeight":null,"TopHeight":27.899999999999999,"Storeys":null,"StoreysInBasement":null,"DateStamp":1411056000000}},{"type":"Feature","id":113238,"geometry":{"type":"Polygon","coordinates":[[[114.18517872885988,22.381682939250986],[114.18513714810838,22.381660717267501],[114.18514251726629,22.381650142246798],[114.18513225729873,22.381643801990002],[114.18513736025405,22.381635765915281],[114.18519799323224,22.381669058338957],[114.18518854834564,22.381683925509737],[114.18517872885988,22.381682939250986]]]},"properties":{"OBJECTID":113238,"Shape__Length":18.716537904689599,"Shape__Area":15.187726170227707,"GeoRefNo":"3712126938","DateCreate":1114790400000,"BuildingBlockType":"Tower","BuildingCSUID":"3712126938T20050430","BuildingID":1102446747,"Status":"Active","BuildingNameEN":null,"BuildingNameTC":null,"BaseHeight":25.699999999999999,"TopHeight":31.5,"Storeys":null,"StoreysInBasement":null,"DateStamp":1409846400000}},{"type":"Feature","id":113239,"geometry":{"type":"Polygon","coordinates":[[[114.18497473330703,22.381594819934328],[114.18498486512989,22.381628549249069],[114.18497235899028,22.381632243724667],[114.18497918404823,22.381662162866071],[114.18493645558829,22.381671957351813],[114.18491619207094,22.381597935420345],[114.1849383966055,22.381591976601165],[114.18494200416153,22.381603603131499],[114.18497473330703,22.381594819934328]]]},"properties":{"OBJECTID":113239,"Shape__Length":28.834678925660956,"Shape__Area":41.725699539649106,"GeoRefNo":"3709826935","DateCreate":1196956800000,"BuildingBlockType":"Temporary Structure","BuildingCSUID":"3709826935T20071207","BuildingID":1102446757,"Status":"Active","BuildingNameEN":null,"BuildingNameTC":null,"BaseHeight":null,"TopHeight":null,"Storeys":null,"StoreysInBasement":null,"DateStamp":1411056000000}},{"type":"Feature","id":113240,"geometry":{"type":"Polygon","coordinates":[[[114.18567472323065,22.381266343800657],[114.18570604035182,22.381290805780555],[114.18565700716191,22.381347953628033],[114.18562478686107,22.381321559155406],[114.18564489462908,22.381299325720278],[114.18567215941704,22.381269178713058],[114.18567472323065,22.381266343800657]]]},"properties":{"OBJECTID":113240,"Shape__Length":24.719200948579086,"Shape__Area":34.703733495978987,"GeoRefNo":"3717526897","DateCreate":1114790400000,"BuildingBlockType":"Tower","BuildingCSUID":"3717526897T20050430","BuildingID":1102446907,"Status":"Active","BuildingNameEN":null,"BuildingNameTC":null,"BaseHeight":16.300000000000001,"TopHeight":20.100000000000001,"Storeys":null,"StoreysInBasement":null,"DateStamp":1410883200000}},{"type":"Feature","id":113241,"geometry":{"type":"Polygon","coordinates":[[[114.18543902846621,22.38141330203295],[114.18548674597929,22.381371074466422],[114.18551191300712,22.381395672541135],[114.18546419549327,22.38143790011496],[114.18543902846621,22.38141330203295]]]},"properties":{"OBJECTID":113241,"Shape__Length":21.08662537046045,"Shape__Area":25.504989257834687,"GeoRefNo":"3715426910","DateCreate":1114790400000,"BuildingBlockType":"Tower","BuildingCSUID":"3715426910T20050430","BuildingID":1102446865,"Status":"Active","BuildingNameEN":null,"BuildingNameTC":null,"BaseHeight":21.899999999999999,"TopHeight":29.199999999999999,"Storeys":null,"StoreysInBasement":null,"DateStamp":1410710400000}},{"type":"Feature","id":113242,"geometry":{"type":"Polygon","coordinates":[[[114.18567978269589,22.38142664438422],[114.18564908101472,22.381461223941947],[114.18560179357588,22.381486213975304],[114.1855799634597,22.381463331805278],[114.18559078980272,22.381453650496354],[114.18555308236799,22.38141406270891],[114.18560424306199,22.381371137855883],[114.18560976573264,22.381376683292494],[114.18564912673025,22.381416206769806],[114.18566044836008,22.381407663275439],[114.18566055984081,22.381407772719339],[114.18566279567052,22.381409967647173],[114.18567978269589,22.38142664438422]]]},"properties":{"OBJECTID":113242,"Shape__Length":39.652730216741439,"Shape__Area":83.321226135398092,"GeoRefNo":"3716926911","DateCreate":1114790400000,"BuildingBlockType":"Tower","BuildingCSUID":"3716926911T20050430","BuildingID":1102446840,"Status":"Active","BuildingNameEN":null,"BuildingNameTC":null,"BaseHeight":20.800000000000001,"TopHeight":26,"Storeys":null,"StoreysInBasement":null,"DateStamp":1410796800000}},{"type":"Feature","id":113243,"geometry":{"type":"Polygon","coordinates":[[[114.18547851017053,22.381299523523573],[114.18551160285895,22.381301680047763],[114.18551028334798,22.381319163216208],[114.18549297396646,22.381318035237449],[114.18547719065545,22.381317006691734],[114.18547851017053,22.381299523523573]]]},"properties":{"OBJECTID":113243,"Shape__Length":10.714282262124588,"Shape__Area":6.6303932711663993,"GeoRefNo":"3715526899","DateCreate":1114790400000,"BuildingBlockType":"Tower","BuildingCSUID":"3715526899T20050430","BuildingID":1102446920,"Status":"Active","BuildingNameEN":null,"BuildingNameTC":null,"BaseHeight":21.399999999999999,"TopHeight":23.699999999999999,"Storeys":null,"StoreysInBasement":null,"DateStamp":1410883200000}},{"type":"Feature","id":113244,"geometry":{"type":"Polygon","coordinates":[[[114.18553588947631,22.381322024517711],[114.18558623063177,22.381372818508989],[114.18554791598427,22.381405664598478],[114.18549757483089,22.38135487059548],[114.18553185857449,22.381325480084481],[114.18553588947631,22.381322024517711]]]},"properties":{"OBJECTID":113244,"Shape__Length":26.031832982205142,"Shape__Area":41.050461100588052,"GeoRefNo":"3716026903","DateCreate":1114790400000,"BuildingBlockType":"Tower","BuildingCSUID":"3716026903T20050430","BuildingID":1102446875,"Status":"Active","BuildingNameEN":null,"BuildingNameTC":null,"BaseHeight":21.399999999999999,"TopHeight":27.5,"Storeys":null,"StoreysInBasement":null,"DateStamp":1410883200000}},{"type":"Feature","id":113245,"geometry":{"type":"Polygon","coordinates":[[[114.18551673598704,22.381400193776226],[114.18555367605362,22.381435880426569],[114.18554140995202,22.381446863199525],[114.18550270969364,22.38148151441051],[114.18546576962856,22.381445836779243],[114.18551673598704,22.381400193776226]]]},"properties":{"OBJECTID":113245,"Shape__Length":25.542474984552001,"Shape__Area":39.964941276888986,"GeoRefNo":"3715726913","DateCreate":1114790400000,"BuildingBlockType":"Tower","BuildingCSUID":"3715726913T20050430","BuildingID":1102446841,"Status":"Active","BuildingNameEN":null,"BuildingNameTC":null,"BaseHeight":22.899999999999999,"TopHeight":29.399999999999999,"Storeys":null,"StoreysInBasement":null,"DateStamp":1410710400000}},{"type":"Feature","id":113246,"geometry":{"type":"Polygon","coordinates":[[[114.18598794914192,22.381242643197062],[114.18598523581169,22.381294700177108],[114.18594333978905,22.381292384585954],[114.18594498000607,22.381251510528223],[114.18597012626363,22.381253042764452],[114.1859707088288,22.381241865920806],[114.18598794914192,22.381242643197062]]]},"properties":{"OBJECTID":113246,"Shape__Length":20.234814911542273,"Shape__Area":21.857821545750284,"GeoRefNo":"3720426895","DateCreate":1114790400000,"BuildingBlockType":"Temporary Structure","BuildingCSUID":"3720426895T20050430","BuildingID":1102446932,"Status":"Active","BuildingNameEN":null,"BuildingNameTC":null,"BaseHeight":null,"TopHeight":12.699999999999999,"Storeys":null,"StoreysInBasement":null,"DateStamp":1409760000000}},{"type":"Feature","id":113298,"geometry":{"type":"Polygon","coordinates":[[[114.18560976573264,22.381376683292494],[114.18562174063523,22.381366070781631],[114.18563111433907,22.381373797422064],[114.18564636932989,22.381356443714591],[114.18566424269883,22.381370032868382],[114.18567834377646,22.381398162185345],[114.18566279567052,22.381409967647173],[114.18566055984081,22.381407772719339],[114.18566044836008,22.381407663275439],[114.18564912673025,22.381416206769806],[114.18560976573264,22.381376683292494]]]},"properties":{"OBJECTID":113298,"Shape__Length":21.175344402519116,"Shape__Area":24.142887821000592,"GeoRefNo":"3717126908","DateCreate":1274889600000,"BuildingBlockType":"Open-sided Structure","BuildingCSUID":"3717126908T20100527","BuildingID":1109729368,"Status":"Active","BuildingNameEN":null,"BuildingNameTC":null,"BaseHeight":null,"TopHeight":null,"Storeys":null,"StoreysInBasement":null,"DateStamp":1410796800000}},{"type":"Feature","id":113299,"geometry":{"type":"Polygon","coordinates":[[[114.18619393993595,22.381697305455269],[114.18620530821488,22.381727212271176],[114.18615792745823,22.381741828023767],[114.18614506128907,22.381741250811086],[114.18614079785434,22.381731949615457],[114.1861517605268,22.3817283277439],[114.18615048823759,22.381724697546023],[114.18613724370871,22.381729231631759],[114.18613185366331,22.381716643389503],[114.18615109322421,22.381710650890493],[114.18619393993595,22.381697305455269]]]},"properties":{"OBJECTID":113299,"Shape__Length":22.417349201465633,"Shape__Area":22.098631710711942,"GeoRefNo":"3722526944","DateCreate":1274889600000,"BuildingBlockType":"Temporary Structure","BuildingCSUID":"3722526944T20100527","BuildingID":1109729348,"Status":"Active","BuildingNameEN":null,"BuildingNameTC":null,"BaseHeight":null,"TopHeight":null,"Storeys":null,"StoreysInBasement":null,"DateStamp":1410969600000}},{"type":"Feature","id":113300,"geometry":{"type":"Polygon","coordinates":[[[114.18564636932989,22.381356443714591],[114.18563111433907,22.381373797422064],[114.18562174063523,22.381366070781631],[114.18560190154682,22.381349717576072],[114.18561653390734,22.381333759843724],[114.18564636932989,22.381356443714591]]]},"properties":{"OBJECTID":113300,"Shape__Length":12.793215320833648,"Shape__Area":9.5925236431863485,"GeoRefNo":"3716926904","DateCreate":1287331200000,"BuildingBlockType":"Temporary Structure","BuildingCSUID":"3716926904T20101018","BuildingID":1810014380,"Status":"Active","BuildingNameEN":null,"BuildingNameTC":null,"BaseHeight":null,"TopHeight":null,"Storeys":null,"StoreysInBasement":null,"DateStamp":1410796800000}},{"type":"Feature","id":113301,"geometry":{"type":"Polygon","coordinates":[[[114.18404720367089,22.381391750177137],[114.18406451754818,22.381401005693061],[114.18405483719296,22.381416078072526],[114.18403834867436,22.381406578694651],[114.18404720367089,22.381391750177137]]]},"properties":{"OBJECTID":113301,"Shape__Length":7.8764864904639253,"Shape__Area":3.872646000895366,"GeoRefNo":"3700726911","DateCreate":1356537600000,"BuildingBlockType":"Temporary Structure","BuildingCSUID":"3700726911T20121227","BuildingID":1810093860,"Status":"Active","BuildingNameEN":"To Fung Shan Road Refuse Collection Point","BuildingNameTC":"道風山路垃圾收集站","BaseHeight":null,"TopHeight":null,"Storeys":null,"StoreysInBasement":null,"DateStamp":1411056000000}},{"type":"Feature","id":113302,"geometry":{"type":"Polygon","coordinates":[[[114.18486693355315,22.381885004000647],[114.18486442010753,22.381921667605368],[114.18486429232985,22.381923531512061],[114.18485458910266,22.381923256833272],[114.18481796383126,22.381922220134321],[114.18481964520674,22.381887136552027],[114.18481986759902,22.381882495844547],[114.18486693355315,22.381885004000647]]]},"properties":{"OBJECTID":113302,"Shape__Length":18.306526798552063,"Shape__Area":20.885268565189108,"GeoRefNo":"3708926965","DateCreate":1357228800000,"BuildingBlockType":"Temporary Structure","BuildingCSUID":"3708926965T20130104","BuildingID":1810094044,"Status":"Active","BuildingNameEN":null,"BuildingNameTC":null,"BaseHeight":null,"TopHeight":null,"Storeys":null,"StoreysInBasement":null,"DateStamp":1411056000000}},{"type":"Feature","id":113303,"geometry":{"type":"Polygon","coordinates":[[[114.18491039114024,22.381956107919994],[114.18490441901464,22.381952768278332],[114.18487730144496,22.381937603674764],[114.18488189400927,22.38193050861446],[114.1848871808949,22.38192234069308],[114.18492894552418,22.381929865099977],[114.18491039114024,22.381956107919994]]]},"properties":{"OBJECTID":113303,"Shape__Length":13.808034175057658,"Shape__Area":10.967681586825954,"GeoRefNo":"3709526969","DateCreate":1357574400000,"BuildingBlockType":"Temporary Structure","BuildingCSUID":"3709526969T20130108","BuildingID":1810094126,"Status":"Active","BuildingNameEN":null,"BuildingNameTC":null,"BaseHeight":null,"TopHeight":null,"Storeys":null,"StoreysInBasement":null,"DateStamp":1409846400000}},{"type":"Feature","id":113304,"geometry":{"type":"Polygon","coordinates":[[[114.18487863100367,22.381801209990112],[114.1849140853932,22.381795802551093],[114.18492587172527,22.381862638593983],[114.18489041722216,22.381868046125856],[114.18487863100367,22.381801209990112]]]},"properties":{"OBJECTID":113304,"Shape__Length":22.399999553619107,"Shape__Area":27.749994563298937,"GeoRefNo":"3709526957","DateCreate":1357747200000,"BuildingBlockType":"Temporary Structure","BuildingCSUID":"3709526957T20130110","BuildingID":1810094138,"Status":"Active","BuildingNameEN":null,"BuildingNameTC":null,"BaseHeight":null,"TopHeight":null,"Storeys":null,"StoreysInBasement":null,"DateStamp":1410710400000}},{"type":"Feature","id":113305,"geometry":{"type":"Polygon","coordinates":[[[114.18489041722216,22.381868046125856],[114.18492587172527,22.381862638593983],[114.18493152914927,22.381894719973563],[114.18492386322792,22.381895889177883],[114.18489607463823,22.381900127416337],[114.18489041722216,22.381868046125856]]]},"properties":{"OBJECTID":113305,"Shape__Length":14.600011286323419,"Shape__Area":13.320023426932247,"GeoRefNo":"3709626962","DateCreate":1357747200000,"BuildingBlockType":"Temporary Structure","BuildingCSUID":"3709626962T20130110","BuildingID":1810094199,"Status":"Active","BuildingNameEN":null,"BuildingNameTC":null,"BaseHeight":null,"TopHeight":null,"Storeys":null,"StoreysInBasement":null,"DateStamp":1410710400000}},{"type":"Feature","id":113306,"geometry":{"type":"Polygon","coordinates":[[[114.18498923135543,22.381890113494389],[114.18496035136131,22.381893194717719],[114.18495471148171,22.381847300969611],[114.18498359437291,22.381844105330369],[114.18498923135543,22.381890113494389]]]},"properties":{"OBJECTID":113306,"Shape__Length":16.231961876200273,"Shape__Area":15.336297849512306,"GeoRefNo":"3710226962","DateCreate":1357747200000,"BuildingBlockType":"Temporary Structure","BuildingCSUID":"3710226962T20130110","BuildingID":1810094200,"Status":"Active","BuildingNameEN":null,"BuildingNameTC":null,"BaseHeight":null,"TopHeight":null,"Storeys":null,"StoreysInBasement":null,"DateStamp":1410710400000}},{"type":"Feature","id":113307,"geometry":{"type":"Polygon","coordinates":[[[114.18492386322792,22.381895889177883],[114.18493152914927,22.381894719973563],[114.18494521850788,22.38189260921537],[114.18494565433377,22.381894762702835],[114.18494881079371,22.381910358532142],[114.1849278167571,22.381914033472203],[114.18492386322792,22.381895889177883]]]},"properties":{"OBJECTID":113307,"Shape__Length":8.4790832382633265,"Shape__Area":4.4823110257018586,"GeoRefNo":"3709826965","DateCreate":1357747200000,"BuildingBlockType":"Temporary Structure","BuildingCSUID":"3709826965T20130110","BuildingID":1810094203,"Status":"Active","BuildingNameEN":null,"BuildingNameTC":null,"BaseHeight":null,"TopHeight":null,"Storeys":null,"StoreysInBasement":null,"DateStamp":1410710400000}},{"type":"Feature","id":113308,"geometry":{"type":"Polygon","coordinates":[[[114.18519590841802,22.380849763279091],[114.18517503783941,22.380872526790881],[114.18514936764467,22.380852170867964],[114.18516919213451,22.380829281527795],[114.18519590841802,22.380849763279091]]]},"properties":{"OBJECTID":113308,"Shape__Length":13.607145367404328,"Shape__Area":11.556494291295161,"GeoRefNo":"3712226848","DateCreate":1385049600000,"BuildingBlockType":"Open-sided Structure","BuildingCSUID":"3712226848T20131122","BuildingID":1810107788,"Status":"Active","BuildingNameEN":null,"BuildingNameTC":null,"BaseHeight":null,"TopHeight":null,"Storeys":null,"StoreysInBasement":null,"DateStamp":1409760000000}},{"type":"Feature","id":113361,"geometry":{"type":"Polygon","coordinates":[[[114.18460217268955,22.380487452755986],[114.18459307488779,22.380499283182331],[114.18459219186124,22.380510137917589],[114.18458427854786,22.380519186884428],[114.18455151481466,22.380491807893925],[114.1845691182079,22.380470088636919],[114.18460217268955,22.380487452755986]]]},"properties":{"OBJECTID":113361,"Shape__Length":15.565258525319861,"Shape__Area":14.56369550029785,"GeoRefNo":"3706126809","DateCreate":1409673600000,"BuildingBlockType":"Open-sided Structure","BuildingCSUID":"3706126809T20140903","BuildingID":1810132606,"Status":"Active","BuildingNameEN":null,"BuildingNameTC":null,"BaseHeight":null,"TopHeight":null,"Storeys":null,"StoreysInBasement":null,"DateStamp":1409673600000}},{"type":"Feature","id":113362,"geometry":{"type":"Polygon","coordinates":[[[114.185831319749,22.381254622576627],[114.18582169664067,22.381250776107532],[114.18585066819021,22.381191082720431],[114.1859029009041,22.381210892774753],[114.18590525049729,22.381206458654887],[114.18593398399135,22.381219740944786],[114.18592947917324,22.381231101599472],[114.18587260478905,22.381208826479629],[114.18586772122922,22.381219609200102],[114.18585028117784,22.381212774064888],[114.185831319749,22.381254622576627]]]},"properties":{"OBJECTID":113362,"Shape__Length":33.961700336079197,"Shape__Area":19.3085289983755,"GeoRefNo":"3719526888","DateCreate":1409760000000,"BuildingBlockType":"Open-sided Structure","BuildingCSUID":"3719526888T20140904","BuildingID":1810132701,"Status":"Active","BuildingNameEN":null,"BuildingNameTC":null,"BaseHeight":null,"TopHeight":null,"Storeys":null,"StoreysInBasement":null,"DateStamp":1409760000000}},{"type":"Feature","id":113363,"geometry":{"type":"Polygon","coordinates":[[[114.1855162728813,22.380717443416646],[114.1855339399704,22.380733550398045],[114.18550097575117,22.380765339619639],[114.18548360401836,22.380748774409998],[114.1855162728813,22.380717443416646]]]},"properties":{"OBJECTID":113363,"Shape__Length":14.833441154026046,"Shape__Area":12.419076169876851,"GeoRefNo":"3715726837","DateCreate":1409760000000,"BuildingBlockType":"Open-sided Structure","BuildingCSUID":"3715726837T20140904","BuildingID":1810132686,"Status":"Active","BuildingNameEN":null,"BuildingNameTC":null,"BaseHeight":null,"TopHeight":null,"Storeys":null,"StoreysInBasement":null,"DateStamp":1409760000000}}]}