{"type":"FeatureCollection","features":[{"type":"Feature","id":82987,"geometry":{"type":"Polygon","coordinates":[[[114.1906901497464,22.388253195652847],[114.19071061248358,22.388275472186237],[114.19070197056092,22.388281893625503],[114.19072070465572,22.388302797667013],[114.19069006964583,22.388326857593359],[114.19064024059543,22.388294216532124],[114.19067485706134,22.388265764914326],[114.1906901497464,22.388253195652847]]]},"properties":{"OBJECTID":82987,"Shape__Length":24.661892579357318,"Shape__Area":33.989071544785887,"GeoRefNo":"3768927674","DateCreate":1114790400000,"BuildingBlockType":"Tower","BuildingCSUID":"3768927674T20050430","BuildingID":1102444713,"Status":"Active","BuildingNameEN":null,"BuildingNameTC":null,"BaseHeight":17.300000000000001,"TopHeight":25.899999999999999,"Storeys":null,"StoreysInBasement":null,"DateStamp":1392048000000}},{"type":"Feature","id":82988,"geometry":{"type":"Polygon","coordinates":[[[114.18999764642555,22.388341761593288],[114.1900171186995,22.388365419964028],[114.19002650851654,22.388360380169633],[114.19004869048655,22.388388165262061],[114.19000717971203,22.388416578656457],[114.18997475867369,22.388375763082557],[114.18996503978576,22.388363527791167],[114.18999764642555,22.388341761593288]]]},"properties":{"OBJECTID":82988,"Shape__Length":24.992377408336214,"Shape__Area":34.736365912980943,"GeoRefNo":"3762027682","DateCreate":1114790400000,"BuildingBlockType":"Tower","BuildingCSUID":"3762027682T20050430","BuildingID":1102444685,"Status":"Active","BuildingNameEN":"YUK YUEN","BuildingNameTC":"沃園","BaseHeight":46.600000000000001,"TopHeight":51.799999999999997,"Storeys":null,"StoreysInBasement":null,"DateStamp":1390752000000}},{"type":"Feature","id":82989,"geometry":{"type":"Polygon","coordinates":[[[114.1906296179708,22.388303618207441],[114.19072458500676,22.388360854532458],[114.19071748950705,22.388371100263925],[114.19070727322456,22.388385852491101],[114.19066178162792,22.388357919396029],[114.19061255856732,22.388327695021779],[114.1906296179708,22.388303618207441]]]},"properties":{"OBJECTID":82989,"Shape__Length":29.827204371182333,"Shape__Area":37.844523234867644,"GeoRefNo":"3769027680","DateCreate":1114790400000,"BuildingBlockType":"Tower","BuildingCSUID":"3769027680T20050430","BuildingID":1102444697,"Status":"Active","BuildingNameEN":null,"BuildingNameTC":null,"BaseHeight":18.5,"TopHeight":26.800000000000001,"Storeys":null,"StoreysInBasement":null,"DateStamp":1392048000000}},{"type":"Feature","id":82990,"geometry":{"type":"Polygon","coordinates":[[[114.19064900224492,22.388221809092126],[114.19067175683477,22.388245394859876],[114.19062888796068,22.388286333858641],[114.19061849649657,22.388276482449534],[114.19059631895311,22.3882946627702],[114.190581479657,22.388281614933774],[114.19062487181093,22.388243181871662],[114.19064900224492,22.388221809092126]]]},"properties":{"OBJECTID":82990,"Shape__Length":26.114818785992295,"Shape__Area":29.863946542742635,"GeoRefNo":"3768627668","DateCreate":1114790400000,"BuildingBlockType":"Temporary Structure","BuildingCSUID":"3768627668T20050430","BuildingID":1102444722,"Status":"Active","BuildingNameEN":null,"BuildingNameTC":null,"BaseHeight":null,"TopHeight":20.300000000000001,"Storeys":null,"StoreysInBasement":null,"DateStamp":1392048000000}},{"type":"Feature","id":82991,"geometry":{"type":"Polygon","coordinates":[[[114.19022512900477,22.388429194455071],[114.19024433178205,22.388477406797858],[114.19020851980953,22.388490910386576],[114.19019006700084,22.388443680859229],[114.19018932666638,22.388441785956537],[114.19020920759789,22.388434793970806],[114.19022512900477,22.388429194455071]]]},"properties":{"OBJECTID":82991,"Shape__Length":19.402261712876633,"Shape__Area":22.728831642912226,"GeoRefNo":"3764227692","DateCreate":1114790400000,"BuildingBlockType":"Tower","BuildingCSUID":"3764227692T20050430","BuildingID":1102444661,"Status":"Active","BuildingNameEN":"KONG HA YUEN","BuildingNameTC":"江夏園","BaseHeight":35.299999999999997,"TopHeight":42.100000000000001,"Storeys":null,"StoreysInBasement":null,"DateStamp":1391011200000}},{"type":"Feature","id":83192,"geometry":{"type":"Polygon","coordinates":[[[114.1864487358763,22.385145791795384],[114.18643300520844,22.385154166190134],[114.18641095935688,22.385164805992655],[114.18638373787603,22.385122617005951],[114.18638056891754,22.385117955457211],[114.18637978267481,22.385116798874424],[114.18641626186155,22.38509497157311],[114.18641791564329,22.3850975597129],[114.1864487358763,22.385145791795384]]]},"properties":{"OBJECTID":83192,"Shape__Length":21.648342660867534,"Shape__Area":28.382600166698712,"GeoRefNo":"3725027323","DateCreate":1306857600000,"BuildingBlockType":"Temporary Structure","BuildingCSUID":"3725027323T20110601","BuildingID":1810068811,"Status":"Active","BuildingNameEN":null,"BuildingNameTC":null,"BaseHeight":null,"TopHeight":null,"Storeys":null,"StoreysInBasement":null,"DateStamp":1365350400000}},{"type":"Feature","id":83355,"geometry":{"type":"Polygon","coordinates":[[[114.19055590807345,22.388545967448415],[114.19055312153009,22.388550501004545],[114.19057609884123,22.38856733193882],[114.19056117540615,22.388587760236465],[114.19056764083255,22.388592713919852],[114.19053459226517,22.388638062472275],[114.19052407492426,22.388632121282232],[114.19052271524392,22.388630351415891],[114.19052481247314,22.388627326015051],[114.19056184438887,22.388576959680787],[114.1905366335039,22.388559117515779],[114.19054992577726,22.388541190812013],[114.19055590807345,22.388545967448415]]]},"properties":{"OBJECTID":83355,"Shape__Length":28.402924240450375,"Shape__Area":17.13195734101113,"GeoRefNo":"3767627702","DateCreate":1392048000000,"BuildingBlockType":"Open-sided Structure","BuildingCSUID":"3767627702T20140211","BuildingID":1810111878,"Status":"Active","BuildingNameEN":null,"BuildingNameTC":null,"BaseHeight":null,"TopHeight":null,"Storeys":null,"StoreysInBasement":null,"DateStamp":1392048000000}},{"type":"Feature","id":83358,"geometry":{"type":"Polygon","coordinates":[[[114.19002650851654,22.388360380169633],[114.1900171186995,22.388365419964028],[114.18999764642555,22.388341761593288],[114.18998679818414,22.388327521349204],[114.18997148526563,22.38833737488844],[114.18996716282972,22.388332319504048],[114.18999472923606,22.388315088932163],[114.19002650851654,22.388360380169633]]]},"properties":{"OBJECTID":83358,"Shape__Length":18.389951257027068,"Shape__Area":9.1778827461734309,"GeoRefNo":"3761927677","DateCreate":1392307200000,"BuildingBlockType":"Open-sided Structure","BuildingCSUID":"3761927677T20140214","BuildingID":1810112138,"Status":"Active","BuildingNameEN":"YUK YUEN","BuildingNameTC":"沃園","BaseHeight":null,"TopHeight":null,"Storeys":null,"StoreysInBasement":null,"DateStamp":1392307200000}},{"type":"Feature","id":83369,"geometry":{"type":"Polygon","coordinates":[[[114.18996503978576,22.388363527791167],[114.18997475867369,22.388375763082557],[114.18997445940337,22.38837592195366],[114.18995870508242,22.388384284589019],[114.18993790431594,22.388356772635785],[114.1899515238333,22.388346430776384],[114.18995169366217,22.38834630180682],[114.18996503978576,22.388363527791167]]]},"properties":{"OBJECTID":83369,"Shape__Length":11.49654381842349,"Shape__Area":7.1987295989869811,"GeoRefNo":"3761527681","DateCreate":1390752000000,"BuildingBlockType":"Open-sided Structure","BuildingCSUID":"3761527681T20140127","BuildingID":1810111036,"Status":"Active","BuildingNameEN":"YUK YUEN","BuildingNameTC":"沃園","BaseHeight":null,"TopHeight":null,"Storeys":null,"StoreysInBasement":null,"DateStamp":1390752000000}},{"type":"Feature","id":83372,"geometry":{"type":"Polygon","coordinates":[[[114.19014240375196,22.388584935266703],[114.19013061878861,22.388578991446199],[114.19014255104329,22.388555113776665],[114.1901500577608,22.388558264809493],[114.19015109662651,22.388556314132188],[114.19016145616045,22.388536924757894],[114.19016574853271,22.388539200094606],[114.19019911639072,22.38855688812496],[114.19019085434705,22.38857587998567],[114.19015420446958,22.388560513066981],[114.19014240375196,22.388584935266703]]]},"properties":{"OBJECTID":83372,"Shape__Length":21.620569092266745,"Shape__Area":15.250631273539925,"GeoRefNo":"3763727702","DateCreate":1391011200000,"BuildingBlockType":"Open-sided Structure","BuildingCSUID":"3763727702T20140130","BuildingID":1810111275,"Status":"Active","BuildingNameEN":null,"BuildingNameTC":null,"BaseHeight":null,"TopHeight":null,"Storeys":null,"StoreysInBasement":null,"DateStamp":1391011200000}},{"type":"Feature","id":83373,"geometry":{"type":"Polygon","coordinates":[[[114.19019929358552,22.388582020040502],[114.19020805869647,22.388563558319458],[114.1902603844006,22.388586304477229],[114.19025040555904,22.388626156978699],[114.19019828628034,22.388711030095418],[114.19018782070654,22.388708139749308],[114.19021369236523,22.388659708391689],[114.19024338235344,22.388601928682746],[114.19019929358552,22.388582020040502]]]},"properties":{"OBJECTID":83373,"Shape__Length":42.788024756521217,"Shape__Area":33.00404271359556,"GeoRefNo":"3764327705","DateCreate":1391011200000,"BuildingBlockType":"Open-sided Structure","BuildingCSUID":"3764327705T20140130","BuildingID":1810111273,"Status":"Active","BuildingNameEN":null,"BuildingNameTC":null,"BaseHeight":null,"TopHeight":null,"Storeys":null,"StoreysInBasement":null,"DateStamp":1391011200000}},{"type":"Feature","id":83374,"geometry":{"type":"Polygon","coordinates":[[[114.19018507013659,22.388713288816103],[114.19017933831697,22.388726134387237],[114.19013654075685,22.388708233376587],[114.19014343819148,22.388693641841112],[114.19018507013659,22.388713288816103]]]},"properties":{"OBJECTID":83374,"Shape__Length":12.945228751316954,"Shape__Area":7.9558668849061096,"GeoRefNo":"3763627719","DateCreate":1391011200000,"BuildingBlockType":"Open-sided Structure","BuildingCSUID":"3763627719T20140130","BuildingID":1810111274,"Status":"Active","BuildingNameEN":null,"BuildingNameTC":null,"BaseHeight":null,"TopHeight":null,"Storeys":null,"StoreysInBasement":null,"DateStamp":1391011200000}},{"type":"Feature","id":83375,"geometry":{"type":"Polygon","coordinates":[[[114.19029087971012,22.388521905322861],[114.19027142001777,22.388528842377998],[114.1902566561629,22.388492342251773],[114.19025613127904,22.388491147738463],[114.19027538733691,22.388483246965212],[114.19029087971012,22.388521905322861]]]},"properties":{"OBJECTID":83375,"Shape__Length":13.343234962351087,"Shape__Area":9.7206642011217017,"GeoRefNo":"3764827697","DateCreate":1391011200000,"BuildingBlockType":"Open-sided Structure","BuildingCSUID":"3764827697T20140130","BuildingID":1810111305,"Status":"Active","BuildingNameEN":"KONG HA YUEN","BuildingNameTC":"江夏園","BaseHeight":null,"TopHeight":null,"Storeys":null,"StoreysInBasement":null,"DateStamp":1391011200000}},{"type":"Feature","id":83376,"geometry":{"type":"Polygon","coordinates":[[[114.190581479657,22.388281614933774],[114.19057332122627,22.388274198320818],[114.19059604680248,22.388251651610961],[114.19060395991248,22.388256817477423],[114.19062129879045,22.388240690204832],[114.19062399263736,22.388242568774448],[114.19062487181093,22.388243181871662],[114.190581479657,22.388281614933774]]]},"properties":{"OBJECTID":83376,"Shape__Length":14.748721201731863,"Shape__Area":5.5745807938799361,"GeoRefNo":"3768127669","DateCreate":1391443200000,"BuildingBlockType":"Open-sided Structure","BuildingCSUID":"3768127669T20140204","BuildingID":1810111400,"Status":"Active","BuildingNameEN":null,"BuildingNameTC":null,"BaseHeight":null,"TopHeight":null,"Storeys":null,"StoreysInBasement":null,"DateStamp":1391443200000}},{"type":"Feature","id":83473,"geometry":{"type":"Polygon","coordinates":[[[114.18988583696205,22.38771788827972],[114.18990925186911,22.387743614335843],[114.18992308854976,22.38773215348899],[114.18994231772164,22.387753283345038],[114.18990105997851,22.387785832671284],[114.1898579206561,22.387738967759731],[114.18987678120462,22.387724726286542],[114.18988583696205,22.38771788827972]]]},"properties":{"OBJECTID":83473,"Shape__Length":24.811778838804596,"Shape__Area":30.817132166088136,"GeoRefNo":"3760827611","DateCreate":1114790400000,"BuildingBlockType":"Tower","BuildingCSUID":"3760827611T20050430","BuildingID":1102444872,"Status":"Active","BuildingNameEN":null,"BuildingNameTC":null,"BaseHeight":46.100000000000001,"TopHeight":50.700000000000003,"Storeys":null,"StoreysInBasement":null,"DateStamp":1389196800000}},{"type":"Feature","id":83476,"geometry":{"type":"Polygon","coordinates":[[[114.18972069568129,22.388127814802793],[114.18972927743239,22.38812665432949],[114.18974541889258,22.388124471539712],[114.18976023437558,22.388196109455489],[114.18973196666779,22.38819873959255],[114.18972069568129,22.388127814802793]]]},"properties":{"OBJECTID":83476,"Shape__Length":21.515704341154997,"Shape__Area":21.981108640796553,"GeoRefNo":"3759327658","DateCreate":1271692800000,"BuildingBlockType":"Temporary Structure","BuildingCSUID":"3759327658T20100420","BuildingID":1109560071,"Status":"Active","BuildingNameEN":null,"BuildingNameTC":null,"BaseHeight":null,"TopHeight":null,"Storeys":null,"StoreysInBasement":null,"DateStamp":1389110400000}},{"type":"Feature","id":83486,"geometry":{"type":"Polygon","coordinates":[[[114.18475672635495,22.381813238433669],[114.18478923853228,22.381833425480298],[114.18477099436301,22.381859389135844],[114.18475898027506,22.381852092428364],[114.18475410542015,22.38185903452198],[114.18473664971225,22.381848803248779],[114.18474238801663,22.381838594230725],[114.18475672635495,22.381813238433669]]]},"properties":{"OBJECTID":83486,"Shape__Length":16.429231415704194,"Shape__Area":15.366422871364797,"GeoRefNo":"3708126958","DateCreate":1114790400000,"BuildingBlockType":"Tower","BuildingCSUID":"3708126958T20050430","BuildingID":1102446674,"Status":"Active","BuildingNameEN":null,"BuildingNameTC":null,"BaseHeight":30.899999999999999,"TopHeight":34.299999999999997,"Storeys":null,"StoreysInBasement":null,"DateStamp":1396972800000}},{"type":"Feature","id":83531,"geometry":{"type":"Polygon","coordinates":[[[114.19058392727467,22.38829965661666],[114.19057061567251,22.38830539321005],[114.19055436646991,22.388273480739183],[114.190567423944,22.388267788960039],[114.19058392727467,22.38829965661666]]]},"properties":{"OBJECTID":83531,"Shape__Length":10.822675487482394,"Shape__Area":5.8617296977611613,"GeoRefNo":"3767827672","DateCreate":1388678400000,"BuildingBlockType":"Open-sided Structure","BuildingCSUID":"3767827672T20140103","BuildingID":1810109719,"Status":"Active","BuildingNameEN":null,"BuildingNameTC":null,"BaseHeight":null,"TopHeight":null,"Storeys":null,"StoreysInBasement":null,"DateStamp":1388678400000}},{"type":"Feature","id":84021,"geometry":{"type":"Polygon","coordinates":[[[114.18990934307527,22.388719434029174],[114.18991039273371,22.388722776861236],[114.1899210286149,22.388756647846044],[114.18990546266762,22.388761182424318],[114.18991545784799,22.388791054567459],[114.18989666804616,22.388796953013653],[114.18990568222333,22.388824522454588],[114.1899248022262,22.38881895810977],[114.18993665254942,22.388852839650887],[114.18994976172245,22.388848774855781],[114.18996487581649,22.388892661943011],[114.18994820293845,22.388897358532354],[114.18994313394596,22.388898786397064],[114.18994970058901,22.388921750469823],[114.18988840780371,22.388939897736748],[114.18988429511555,22.388927667045927],[114.18983478944087,22.388780441182629],[114.18988445872681,22.388766159935244],[114.18988103965565,22.388756741381531],[114.18986300721244,22.388761727680485],[114.18985788809405,22.388745184185041],[114.18987543499669,22.388740197925781],[114.1898722780107,22.388729632475012],[114.18990934307527,22.388719434029174]]]},"properties":{"OBJECTID":84021,"Shape__Length":74.682528637553531,"Shape__Area":159.16755338670038,"GeoRefNo":"3760927736","DateCreate":1114790400000,"BuildingBlockType":"Tower","BuildingCSUID":"3760927736T20050430","BuildingID":1102444531,"Status":"Active","BuildingNameEN":null,"BuildingNameTC":null,"BaseHeight":51.299999999999997,"TopHeight":58.399999999999999,"Storeys":null,"StoreysInBasement":null,"DateStamp":1392048000000}},{"type":"Feature","id":84071,"geometry":{"type":"Polygon","coordinates":[[[114.19057438313847,22.388697777908636],[114.19062671783813,22.388731854627096],[114.19060482526329,22.388763148498999],[114.19060204623635,22.388767120898866],[114.19057277613149,22.388748493430352],[114.19056054198265,22.388763024571301],[114.19053822526575,22.388749173649977],[114.19057438313847,22.388697777908636]]]},"properties":{"OBJECTID":84071,"Shape__Length":26.498202588159085,"Shape__Area":36.751232915778665,"GeoRefNo":"3767927719","DateCreate":1114790400000,"BuildingBlockType":"Temporary Structure","BuildingCSUID":"3767927719T20050430","BuildingID":1102444558,"Status":"Active","BuildingNameEN":null,"BuildingNameTC":null,"BaseHeight":null,"TopHeight":33.799999999999997,"Storeys":null,"StoreysInBasement":null,"DateStamp":1391529600000}},{"type":"Feature","id":84114,"geometry":{"type":"Polygon","coordinates":[[[114.19004781729801,22.388087990919527],[114.19008845995889,22.388135778901887],[114.19009020934779,22.388137835910534],[114.19003956165658,22.38817472971893],[114.18999691707005,22.388124198416051],[114.19004781729801,22.388087990919527]]]},"properties":{"OBJECTID":84114,"Shape__Length":27.374932727824223,"Shape__Area":46.7805627067535,"GeoRefNo":"3762427655","DateCreate":1114790400000,"BuildingBlockType":"Tower","BuildingCSUID":"3762427655T20050430","BuildingID":1102444757,"Status":"Active","BuildingNameEN":null,"BuildingNameTC":null,"BaseHeight":37,"TopHeight":43.299999999999997,"Storeys":null,"StoreysInBasement":null,"DateStamp":1389196800000}},{"type":"Feature","id":84116,"geometry":{"type":"Polygon","coordinates":[[[114.19050401502007,22.388061836753227],[114.19052565716805,22.388129789570947],[114.19048958430933,22.388155457352159],[114.19047218315288,22.388159343929608],[114.19046094798252,22.388161853373735],[114.19045528483683,22.388143485777178],[114.19044145713289,22.388147370063674],[114.19043186947185,22.3881147707],[114.19044323071438,22.388111572941213],[114.19043364325644,22.388081041566103],[114.19047519707149,22.38806970133556],[114.19050401502007,22.388061836753227]]]},"properties":{"OBJECTID":84116,"Shape__Length":35.200930745956718,"Shape__Area":72.491503212742302,"GeoRefNo":"3766927655","DateCreate":1114790400000,"BuildingBlockType":"Tower","BuildingCSUID":"3766927655T20050430","BuildingID":1102444763,"Status":"Active","BuildingNameEN":null,"BuildingNameTC":null,"BaseHeight":20.300000000000001,"TopHeight":25.800000000000001,"Storeys":null,"StoreysInBasement":null,"DateStamp":1391529600000}},{"type":"Feature","id":84194,"geometry":{"type":"Polygon","coordinates":[[[114.19050052298628,22.38829981828702],[114.19051702470411,22.388332191298232],[114.19057061567251,22.38830539321005],[114.19058392727467,22.38829965661666],[114.19058879422288,22.388305798038626],[114.19054550587985,22.38832771878031],[114.19055549971407,22.388342789867011],[114.19051901828932,22.388361657708952],[114.1905162892224,22.388358108946356],[114.19051029801591,22.388361423652977],[114.19048609583187,22.388330649692918],[114.19049589342539,22.388325040914232],[114.19048603533864,22.38830781151859],[114.19050052298628,22.38829981828702]]]},"properties":{"OBJECTID":84194,"Shape__Length":34.427742845865112,"Shape__Area":27.70756639391594,"GeoRefNo":"3767527678","DateCreate":1391443200000,"BuildingBlockType":"Temporary Structure","BuildingCSUID":"3767527678T20140204","BuildingID":1810111375,"Status":"Active","BuildingNameEN":null,"BuildingNameTC":null,"BaseHeight":null,"TopHeight":null,"Storeys":null,"StoreysInBasement":null,"DateStamp":1391443200000}},{"type":"Feature","id":84195,"geometry":{"type":"Polygon","coordinates":[[[114.19003336183425,22.388642962566454],[114.19004498667641,22.388622256988953],[114.19009974708443,22.388649363836539],[114.19008426728396,22.388674344870957],[114.19006287461443,22.38866159011301],[114.19003336183425,22.388642962566454]]]},"properties":{"OBJECTID":84195,"Shape__Length":18.457495599301271,"Shape__Area":18.407835504291061,"GeoRefNo":"3762727712","DateCreate":1392048000000,"BuildingBlockType":"Open-sided Structure","BuildingCSUID":"3762727712T20140211","BuildingID":1810110001,"Status":"Active","BuildingNameEN":null,"BuildingNameTC":null,"BaseHeight":null,"TopHeight":null,"Storeys":null,"StoreysInBasement":null,"DateStamp":1392048000000}},{"type":"Feature","id":84196,"geometry":{"type":"Polygon","coordinates":[[[114.18972905638293,22.388125240438924],[114.18972927743239,22.38812665432949],[114.18972069568129,22.388127814802793],[114.18966909354992,22.388135341326855],[114.18966893690312,22.3881214433721],[114.18969577692326,22.388116682157303],[114.18969371756125,22.38810920505211],[114.18970938071884,22.388106503681282],[114.18971159590889,22.388118929497747],[114.1897276669295,22.388116354519948],[114.18972905638293,22.388125240438924]]]},"properties":{"OBJECTID":84196,"Shape__Length":17.346661019249343,"Shape__Area":10.415004755593852,"GeoRefNo":"3758927654","DateCreate":1389110400000,"BuildingBlockType":"Open-sided Structure","BuildingCSUID":"3758927654T20140108","BuildingID":1810110008,"Status":"Active","BuildingNameEN":null,"BuildingNameTC":null,"BaseHeight":null,"TopHeight":null,"Storeys":null,"StoreysInBasement":null,"DateStamp":1389110400000}},{"type":"Feature","id":84197,"geometry":{"type":"Polygon","coordinates":[[[114.19006675487562,22.38769488188149],[114.1900530254471,22.387710776716485],[114.19004556681989,22.387702216394317],[114.19003273805109,22.387692329023814],[114.1900233489287,22.387704259104524],[114.1899888246854,22.387675535836436],[114.18999702925659,22.387665231347416],[114.19000796447996,22.387675606523008],[114.19002522843645,22.387657932391416],[114.19006675487562,22.38769488188149]]]},"properties":{"OBJECTID":84197,"Shape__Length":23.192201947977434,"Shape__Area":20.61058100375557,"GeoRefNo":"3762327605","DateCreate":1389110400000,"BuildingBlockType":"Open-sided Structure","BuildingCSUID":"3762327605T20140108","BuildingID":1810110013,"Status":"Active","BuildingNameEN":null,"BuildingNameTC":null,"BaseHeight":null,"TopHeight":null,"Storeys":null,"StoreysInBasement":null,"DateStamp":1389110400000}},{"type":"Feature","id":84198,"geometry":{"type":"Polygon","coordinates":[[[114.19000900228805,22.387868696982583],[114.18998573670216,22.387882325927851],[114.18996663301026,22.387853366607779],[114.18994962750915,22.3878315502552],[114.18996989227587,22.387815736173305],[114.19000900228805,22.387868696982583]]]},"properties":{"OBJECTID":84198,"Shape__Length":19.416234798196484,"Shape__Area":18.755758501908272,"GeoRefNo":"3761827624","DateCreate":1389196800000,"BuildingBlockType":"Open-sided Structure","BuildingCSUID":"3761827624T20140109","BuildingID":1810110035,"Status":"Active","BuildingNameEN":null,"BuildingNameTC":null,"BaseHeight":null,"TopHeight":null,"Storeys":null,"StoreysInBasement":null,"DateStamp":1389196800000}},{"type":"Feature","id":84199,"geometry":{"type":"Polygon","coordinates":[[[114.1899109310507,22.387943143502138],[114.1899113060052,22.38794443555836],[114.18987371060581,22.387951039179629],[114.1898650246244,22.38795274538321],[114.1898602112268,22.387935137524678],[114.18990570500208,22.3879251370712],[114.1899109310507,22.387943143502138]]]},"properties":{"OBJECTID":84199,"Shape__Length":13.89354475948344,"Shape__Area":10.16105166514599,"GeoRefNo":"3760827634","DateCreate":1389196800000,"BuildingBlockType":"Open-sided Structure","BuildingCSUID":"3760827634T20140109","BuildingID":1810110037,"Status":"Active","BuildingNameEN":"WING YUEN","BuildingNameTC":"榮苑","BaseHeight":null,"TopHeight":null,"Storeys":null,"StoreysInBasement":null,"DateStamp":1389196800000}},{"type":"Feature","id":84200,"geometry":{"type":"Polygon","coordinates":[[[114.19003956165658,22.38817472971893],[114.19003419195913,22.388178315272818],[114.19000603763263,22.388147424165883],[114.18999910461376,22.388152138660647],[114.18997667982015,22.388123260887639],[114.18999326445515,22.388109524121468],[114.18997086961244,22.388089279520308],[114.18998908545416,22.388073501724957],[114.19003710233495,22.388031911464498],[114.19006318664971,22.388059119097139],[114.19008724256395,22.388084944409641],[114.19007772684614,22.388093343570763],[114.19010138524226,22.388125634764506],[114.19008845995889,22.388135778901887],[114.19004781729801,22.388087990919527],[114.18999691707005,22.388124198416051],[114.19003956165658,22.38817472971893]],[[114.19003325105312,22.388086366615475],[114.19002265548048,22.388073968578421],[114.1900014002527,22.388090469066398],[114.19001151024575,22.388102415618498],[114.19003325105312,22.388086366615475]]]},"properties":{"OBJECTID":84200,"Shape__Length":69.663569294101094,"Shape__Area":69.708171494050077,"GeoRefNo":"3762327648","DateCreate":1389196800000,"BuildingBlockType":"Open-sided Structure","BuildingCSUID":"3762327648T20140109","BuildingID":1810110044,"Status":"Active","BuildingNameEN":null,"BuildingNameTC":null,"BaseHeight":null,"TopHeight":null,"Storeys":null,"StoreysInBasement":null,"DateStamp":1389196800000}},{"type":"Feature","id":84201,"geometry":{"type":"Polygon","coordinates":[[[114.18972683389326,22.388283346110892],[114.18970494114158,22.388298312235079],[114.18966699621576,22.388243201999394],[114.18969673246212,22.388231833466612],[114.18972683389326,22.388283346110892]]]},"properties":{"OBJECTID":84201,"Shape__Length":19.847557203077752,"Shape__Area":20.802143080752668,"GeoRefNo":"3758827669","DateCreate":1389196800000,"BuildingBlockType":"Open-sided Structure","BuildingCSUID":"3758827669T20140109","BuildingID":1810110065,"Status":"Active","BuildingNameEN":null,"BuildingNameTC":null,"BaseHeight":null,"TopHeight":null,"Storeys":null,"StoreysInBasement":null,"DateStamp":1389196800000}},{"type":"Feature","id":84202,"geometry":{"type":"Polygon","coordinates":[[[114.18985502024746,22.388502489259675],[114.18983698809632,22.388510275016309],[114.18981581478869,22.388468709244432],[114.18974913355481,22.388495950623092],[114.18974642318292,22.388496972732838],[114.18974023742507,22.388484274873878],[114.18974362562359,22.388475009292435],[114.18971855169073,22.388421372816239],[114.18972602451585,22.388418362259003],[114.18975655123765,22.388481501202545],[114.18978767293549,22.388467763296081],[114.18975837955294,22.388405545372578],[114.18979122894737,22.388383174152338],[114.18979875593968,22.388395716938334],[114.18979630906605,22.388398254709895],[114.18980437990849,22.388411303161014],[114.18979894235964,22.388416387778371],[114.18981976627929,22.388460238301747],[114.18983352597812,22.388455514235858],[114.18985502024746,22.388502489259675]]]},"properties":{"OBJECTID":84202,"Shape__Length":64.712721695001591,"Shape__Area":58.655027020520635,"GeoRefNo":"3759827688","DateCreate":1389196800000,"BuildingBlockType":"Temporary Structure","BuildingCSUID":"3759827688T20140109","BuildingID":1810110088,"Status":"Active","BuildingNameEN":null,"BuildingNameTC":null,"BaseHeight":null,"TopHeight":null,"Storeys":null,"StoreysInBasement":null,"DateStamp":1389196800000}},{"type":"Feature","id":85262,"geometry":{"type":"Polygon","coordinates":[[[114.18807339564067,22.387392049727247],[114.18815315046258,22.387404551434987],[114.18814483184332,22.387447022546795],[114.18806581508373,22.387435441896699],[114.18807028130384,22.387409876458705],[114.18807339564067,22.387392049727247]]]},"properties":{"OBJECTID":85262,"Shape__Length":26.214991681527035,"Shape__Area":39.956503440444116,"GeoRefNo":"3742427576","DateCreate":1114790400000,"BuildingBlockType":"Tower","BuildingCSUID":"3742427576T20050430","BuildingID":1102444959,"Status":"Active","BuildingNameEN":null,"BuildingNameTC":null,"BaseHeight":58.299999999999997,"TopHeight":61.299999999999997,"Storeys":null,"StoreysInBasement":null,"DateStamp":1448812800000}},{"type":"Feature","id":85455,"geometry":{"type":"Polygon","coordinates":[[[114.1873708668917,22.383701412607721],[114.1873742099112,22.38368868197141],[114.18744036330544,22.383703740379797],[114.1874371063513,22.383715523800237],[114.1873708668917,22.383701412607721]]]},"properties":{"OBJECTID":85455,"Shape__Length":16.810314912627806,"Shape__Area":9.8015641811440677,"GeoRefNo":"3735127164","DateCreate":1114790400000,"BuildingBlockType":"Tower","BuildingCSUID":"3735127164T20050430","BuildingID":1102446062,"Status":"Active","BuildingNameEN":null,"BuildingNameTC":null,"BaseHeight":4.5,"TopHeight":11.800000000000001,"Storeys":null,"StoreysInBasement":null,"DateStamp":1386777600000}},{"type":"Feature","id":85456,"geometry":{"type":"Polygon","coordinates":[[[114.18750998845722,22.383564479987744],[114.18753265594849,22.383569387031223],[114.18753047999677,22.38359043046124],[114.18753020578291,22.383593079312398],[114.18750474178704,22.383586921003165],[114.1875057877962,22.383583143556677],[114.18750826693704,22.383571356754384],[114.18750998845722,22.383564479987744]]]},"properties":{"OBJECTID":85456,"Shape__Length":10.285766037619766,"Shape__Area":6.5709284819475879,"GeoRefNo":"3736427150","DateCreate":1195747200000,"BuildingBlockType":"Temporary Structure","BuildingCSUID":"3736427150T20071123","BuildingID":1102446090,"Status":"Active","BuildingNameEN":null,"BuildingNameTC":null,"BaseHeight":null,"TopHeight":null,"Storeys":null,"StoreysInBasement":null,"DateStamp":1386691200000}},{"type":"Feature","id":85457,"geometry":{"type":"Polygon","coordinates":[[[114.1873742099112,22.38368868197141],[114.18737366932271,22.3836885589206],[114.1873840586577,22.383642950761001],[114.187487118677,22.383666410182975],[114.18747520617039,22.38371167158687],[114.18744036330544,22.383703740379797],[114.1873742099112,22.38368868197141]]]},"properties":{"OBJECTID":85457,"Shape__Length":32.014325203629554,"Shape__Area":55.964851220923848,"GeoRefNo":"3735827162","DateCreate":1114790400000,"BuildingBlockType":"Tower","BuildingCSUID":"3735827162T20050430","BuildingID":1102446063,"Status":"Active","BuildingNameEN":null,"BuildingNameTC":null,"BaseHeight":4.5,"TopHeight":12.1,"Storeys":null,"StoreysInBasement":null,"DateStamp":1386777600000}},{"type":"Feature","id":85509,"geometry":{"type":"Polygon","coordinates":[[[114.19062269393143,22.386957920095192],[114.19057521639583,22.386998098838241],[114.19053569966862,22.386956399252153],[114.19058317678937,22.386916968337875],[114.19062269393143,22.386957920095192]]]},"properties":{"OBJECTID":85509,"Shape__Length":25.413649849727697,"Shape__Area":40.311420168428334,"GeoRefNo":"3768027522","DateCreate":1114790400000,"BuildingBlockType":"Tower","BuildingCSUID":"3768027522T20050430","BuildingID":1102445107,"Status":"Active","BuildingNameEN":null,"BuildingNameTC":null,"BaseHeight":6,"TopHeight":12.800000000000001,"Storeys":null,"StoreysInBasement":null,"DateStamp":1445443200000}},{"type":"Feature","id":85561,"geometry":{"type":"Polygon","coordinates":[[[114.19056805014179,22.386901292280037],[114.19058237480252,22.386916137237023],[114.19058317678937,22.386916968337875],[114.19053569966862,22.386956399252153],[114.1904962218516,22.386915151178886],[114.1905437224887,22.386875918584188],[114.19056805014179,22.386901292280037]]]},"properties":{"OBJECTID":85561,"Shape__Length":25.309062270767999,"Shape__Area":39.971140960535529,"GeoRefNo":"3767627518","DateCreate":1114790400000,"BuildingBlockType":"Tower","BuildingCSUID":"3767627518T20050430","BuildingID":1102445118,"Status":"Active","BuildingNameEN":null,"BuildingNameTC":null,"BaseHeight":6,"TopHeight":12.800000000000001,"Storeys":null,"StoreysInBasement":null,"DateStamp":1445443200000}},{"type":"Feature","id":86565,"geometry":{"type":"Polygon","coordinates":[[[114.19099694146072,22.387201366542438],[114.19100623342055,22.387192912801652],[114.19102916252911,22.387215819321529],[114.19101932885081,22.387223707710316],[114.19099694146072,22.387201366542438]]]},"properties":{"OBJECTID":86565,"Shape__Length":9.5231402008364565,"Shape__Area":4.5783891824908238,"GeoRefNo":"3772427553","DateCreate":1577116800000,"BuildingBlockType":"Open-sided Structure","BuildingCSUID":"3772427553T20191224","BuildingID":1810194834,"Status":"Active","BuildingNameEN":null,"BuildingNameTC":null,"BaseHeight":null,"TopHeight":null,"Storeys":null,"StoreysInBasement":null,"DateStamp":1577116800000}},{"type":"Feature","id":86979,"geometry":{"type":"Polygon","coordinates":[[[114.18736689154311,22.384119380587318],[114.18736094214528,22.384118117423842],[114.18726292659092,22.384097307604588],[114.18727097732867,22.384064725050418],[114.18736882331426,22.384085499385939],[114.18737487981878,22.384086785299072],[114.18736689154311,22.384119380587318]]]},"properties":{"OBJECTID":86979,"Shape__Length":29.3614445484253,"Shape__Area":40.643542106063762,"GeoRefNo":"3734727208","DateCreate":1114790400000,"BuildingBlockType":"Tower","BuildingCSUID":"3734727208T20050430","BuildingID":1102445959,"Status":"Active","BuildingNameEN":null,"BuildingNameTC":null,"BaseHeight":4.7999999999999998,"TopHeight":11.300000000000001,"Storeys":null,"StoreysInBasement":null,"DateStamp":1448985600000}},{"type":"Feature","id":86982,"geometry":{"type":"Polygon","coordinates":[[[114.18725403808978,22.384133280360672],[114.18726292659092,22.384097307604588],[114.18736094214528,22.384118117423842],[114.18735208435361,22.384154097497913],[114.18725403808978,22.384133280360672]]]},"properties":{"OBJECTID":86982,"Shape__Length":28.884946323492802,"Shape__Area":42.324805293110735,"GeoRefNo":"3734527213","DateCreate":1114790400000,"BuildingBlockType":"Tower","BuildingCSUID":"3734527213T20050430","BuildingID":1102445947,"Status":"Active","BuildingNameEN":null,"BuildingNameTC":"藍氏家祠","BaseHeight":4.7999999999999998,"TopHeight":11,"Storeys":null,"StoreysInBasement":null,"DateStamp":1448985600000}},{"type":"Feature","id":86983,"geometry":{"type":"Polygon","coordinates":[[[114.18725344942533,22.384135662831028],[114.18725403808978,22.384133280360672],[114.18735208435361,22.384154097497913],[114.18735801209826,22.384155356057565],[114.18735351282918,22.384174371289173],[114.18735212312176,22.384180244379777],[114.18735027435257,22.384188057888583],[114.18735025347475,22.38418805328438],[114.18724614645056,22.384165218304819],[114.18724906055434,22.384153424706447],[114.18725344942533,22.384135662831028]]]},"properties":{"OBJECTID":86983,"Shape__Length":29.337169211272489,"Shape__Area":40.351160105720936,"GeoRefNo":"3734427216","DateCreate":1114790400000,"BuildingBlockType":"Tower","BuildingCSUID":"3734427216T20050430","BuildingID":1102445941,"Status":"Active","BuildingNameEN":null,"BuildingNameTC":null,"BaseHeight":4.9000000000000004,"TopHeight":11,"Storeys":null,"StoreysInBasement":null,"DateStamp":1448985600000}},{"type":"Feature","id":88352,"geometry":{"type":"Polygon","coordinates":[[[114.1889165998619,22.384768758259103],[114.18896995441602,22.384827344290418],[114.1889405335824,22.384850293050302],[114.18888742177487,22.38479148122833],[114.1889165998619,22.384768758259103]]]},"properties":{"OBJECTID":88352,"Shape__Length":24.8799684958983,"Shape__Area":33.475231505315513,"GeoRefNo":"3751027288","DateCreate":1114790400000,"BuildingBlockType":"Tower","BuildingCSUID":"3751027288T20050430","BuildingID":1102445757,"Status":"Active","BuildingNameEN":null,"BuildingNameTC":null,"BaseHeight":6.4000000000000004,"TopHeight":8.6999999999999993,"Storeys":null,"StoreysInBasement":null,"DateStamp":1286294400000}},{"type":"Feature","id":88360,"geometry":{"type":"Polygon","coordinates":[[[114.18655250747048,22.384787713584696],[114.18655686725356,22.384813736577286],[114.1865718417698,22.384811671841209],[114.1865742516641,22.384835950976246],[114.18656264846021,22.384836947108813],[114.18656224586121,22.384828544503478],[114.18650775571186,22.384833319047033],[114.18650357522898,22.384792358837029],[114.18655250747048,22.384787713584696]]]},"properties":{"OBJECTID":88360,"Shape__Length":24.564517795448737,"Shape__Area":27.50600740113979,"GeoRefNo":"3726227287","DateCreate":1114790400000,"BuildingBlockType":"Tower","BuildingCSUID":"3726227287T20050430","BuildingID":1102445761,"Status":"Active","BuildingNameEN":null,"BuildingNameTC":null,"BaseHeight":8.5999999999999996,"TopHeight":12.1,"Storeys":null,"StoreysInBasement":null,"DateStamp":1286294400000}},{"type":"Feature","id":88365,"geometry":{"type":"Polygon","coordinates":[[[114.18612137831171,22.384658844102997],[114.1861594991193,22.384634774214629],[114.18622235115211,22.384720524415442],[114.18618389921485,22.384744755532338],[114.18612137831171,22.384658844102997]]]},"properties":{"OBJECTID":88365,"Shape__Length":32.5075372653965,"Shape__Area":54.738464446608646,"GeoRefNo":"3722627277","DateCreate":1114790400000,"BuildingBlockType":"Tower","BuildingCSUID":"3722627277T20050430","BuildingID":1102445782,"Status":"Active","BuildingNameEN":"KUI ON TERRACE","BuildingNameTC":"居安臺","BaseHeight":25.800000000000001,"TopHeight":34.899999999999999,"Storeys":null,"StoreysInBasement":null,"DateStamp":1286294400000}},{"type":"Feature","id":88437,"geometry":{"type":"Polygon","coordinates":[[[114.18711613952739,22.384397195452571],[114.18714366366271,22.384356311352896],[114.18725564125607,22.384422307813669],[114.1872273763618,22.384462335795828],[114.18711613952739,22.384397195452571]]]},"properties":{"OBJECTID":88437,"Shape__Length":37.833893986834497,"Shape__Area":72.34734510543899,"GeoRefNo":"3733227246","DateCreate":1114790400000,"BuildingBlockType":"Tower","BuildingCSUID":"3733227246T20050430","BuildingID":1102445854,"Status":"Active","BuildingNameEN":null,"BuildingNameTC":null,"BaseHeight":7,"TopHeight":17.600000000000001,"Storeys":null,"StoreysInBasement":null,"DateStamp":1286294400000}},{"type":"Feature","id":88446,"geometry":{"type":"Polygon","coordinates":[[[114.18736228936866,22.384191613326866],[114.18735949747196,22.384202657837434],[114.18735615321057,22.384215841714642],[114.18734877836059,22.384244926797521],[114.18724806564138,22.384222843750955],[114.18726171651741,22.384169545631437],[114.18735004437714,22.384188926549484],[114.18735013963828,22.384188947403814],[114.18736228936866,22.384191613326866]]]},"properties":{"OBJECTID":88446,"Shape__Length":33.430054482996482,"Shape__Area":64.600106491665386,"GeoRefNo":"3734327221","DateCreate":1114790400000,"BuildingBlockType":"Tower","BuildingCSUID":"3734327221T20050430","BuildingID":1102445923,"Status":"Active","BuildingNameEN":null,"BuildingNameTC":null,"BaseHeight":7.4000000000000004,"TopHeight":15.6,"Storeys":null,"StoreysInBasement":null,"DateStamp":1286294400000}},{"type":"Feature","id":88567,"geometry":{"type":"Polygon","coordinates":[[[114.18408487777835,22.386980278293088],[114.18409929799834,22.386978417359149],[114.18411314032248,22.387067728572937],[114.18409018448158,22.387070664522966],[114.18409867457636,22.387128062122155],[114.18406089065029,22.387133030600008],[114.18403781056442,22.386986321813254],[114.18405140538638,22.386984578317076],[114.18408487777835,22.386980278293088]]]},"properties":{"OBJECTID":88567,"Shape__Length":45.53485650687125,"Shape__Area":89.165714003292067,"GeoRefNo":"3701127530","DateCreate":1114790400000,"BuildingBlockType":"Tower","BuildingCSUID":"3701127530T20050430","BuildingID":1102445051,"Status":"Active","BuildingNameEN":null,"BuildingNameTC":null,"BaseHeight":54,"TopHeight":60.299999999999997,"Storeys":null,"StoreysInBasement":null,"DateStamp":1286294400000}},{"type":"Feature","id":88649,"geometry":{"type":"Polygon","coordinates":[[[114.19086932459545,22.387256834082098],[114.19091585857387,22.387214975117796],[114.19098166302703,22.387277592322562],[114.19093559116068,22.387319274628219],[114.19086932459545,22.387256834082098]]]},"properties":{"OBJECTID":88649,"Shape__Length":32.69650411118355,"Shape__Area":64.470981934291672,"GeoRefNo":"3771527559","DateCreate":1170777600000,"BuildingBlockType":"Tower","BuildingCSUID":"3771527559T20070207","BuildingID":1102444997,"Status":"Active","BuildingNameEN":null,"BuildingNameTC":null,"BaseHeight":6.2999999999999998,"TopHeight":14.5,"Storeys":null,"StoreysInBasement":null,"DateStamp":1286294400000}},{"type":"Feature","id":88656,"geometry":{"type":"Polygon","coordinates":[[[114.18893470993693,22.387126471369783],[114.18894231259168,22.387150970599262],[114.18895275493907,22.387178837096151],[114.18893296715953,22.38718592392258],[114.18891665468671,22.387157675872015],[114.18888676863479,22.387174241879571],[114.18886715054489,22.387167198632092],[114.18893470993693,22.387126471369783]]]},"properties":{"OBJECTID":88656,"Shape__Length":25.865295849362333,"Shape__Area":23.077648094533082,"GeoRefNo":"3750927546","DateCreate":1227628800000,"BuildingBlockType":"Temporary Structure","BuildingCSUID":"3750927546T20081126","BuildingID":1102445032,"Status":"Active","BuildingNameEN":null,"BuildingNameTC":null,"BaseHeight":null,"TopHeight":null,"Storeys":null,"StoreysInBasement":null,"DateStamp":1286294400000}},{"type":"Feature","id":88659,"geometry":{"type":"Polygon","coordinates":[[[114.19074519554572,22.387279469956624],[114.19077818891901,22.38725518459243],[114.19081377367117,22.387296993907398],[114.19078078029422,22.387321279278726],[114.19074519554572,22.387279469956624]]]},"properties":{"OBJECTID":88659,"Shape__Length":20.475319837251607,"Shape__Area":25.585102829712806,"GeoRefNo":"3770027559","DateCreate":1114790400000,"BuildingBlockType":"Tower","BuildingCSUID":"3770027559T20050430","BuildingID":1102444995,"Status":"Active","BuildingNameEN":null,"BuildingNameTC":null,"BaseHeight":7.2000000000000002,"TopHeight":11.4,"Storeys":null,"StoreysInBasement":null,"DateStamp":1286294400000}},{"type":"Feature","id":88660,"geometry":{"type":"Polygon","coordinates":[[[114.19067678085864,22.387407096020869],[114.19065362550651,22.387380145604592],[114.19067524697634,22.38736408008856],[114.19069840223285,22.387391030501803],[114.19067678085864,22.387407096020869]]]},"properties":{"OBJECTID":88660,"Shape__Length":13.340002133530696,"Shape__Area":10.887003860852751,"GeoRefNo":"3768927572","DateCreate":1114790400000,"BuildingBlockType":"Tower","BuildingCSUID":"3768927572T20050430","BuildingID":1102444972,"Status":"Active","BuildingNameEN":null,"BuildingNameTC":null,"BaseHeight":9.1999999999999993,"TopHeight":11.699999999999999,"Storeys":null,"StoreysInBasement":null,"DateStamp":1286294400000}},{"type":"Feature","id":88663,"geometry":{"type":"Polygon","coordinates":[[[114.1880542107458,22.387434539650091],[114.1880621663727,22.387466660653413],[114.18803576350217,22.387472667778834],[114.18802805057435,22.387439625644522],[114.1880542107458,22.387434539650091]]]},"properties":{"OBJECTID":88663,"Shape__Length":12.945567831487063,"Shape__Area":10.260242998583026,"GeoRefNo":"3741827580","DateCreate":1114790400000,"BuildingBlockType":"Tower","BuildingCSUID":"3741827580T20050430","BuildingID":1102444953,"Status":"Active","BuildingNameEN":null,"BuildingNameTC":null,"BaseHeight":59.5,"TopHeight":62.5,"Storeys":null,"StoreysInBasement":null,"DateStamp":1286294400000}},{"type":"Feature","id":88665,"geometry":{"type":"Polygon","coordinates":[[[114.18350587500915,22.387074726317653],[114.18353344498627,22.387104390434033],[114.18350475107883,22.387127283985944],[114.18351656960128,22.387140847338038],[114.18353462102057,22.387126199089252],[114.18354225400803,22.387134705522008],[114.18352271689031,22.38715004918302],[114.18351680277794,22.387143375873762],[114.18349231343539,22.387163289178304],[114.18348788515418,22.38715869282624],[114.18345103456176,22.387187763578851],[114.18344093494868,22.38717672869722],[114.18340977460944,22.387201907054134],[114.18338318545955,22.387173163990301],[114.18350587500915,22.387074726317653]]]},"properties":{"OBJECTID":88665,"Shape__Length":53.204121332681027,"Shape__Area":89.910728998201705,"GeoRefNo":"3694627545","DateCreate":1114790400000,"BuildingBlockType":"Tower","BuildingCSUID":"3694627545T20050430","BuildingID":1102445028,"Status":"Active","BuildingNameEN":null,"BuildingNameTC":null,"BaseHeight":52,"TopHeight":55.100000000000001,"Storeys":null,"StoreysInBasement":null,"DateStamp":1286294400000}},{"type":"Feature","id":88666,"geometry":{"type":"Polygon","coordinates":[[[114.19084883781947,22.3871387618223],[114.19087477762534,22.387164948078155],[114.19077709667435,22.387248479797165],[114.19075165218361,22.387222979802718],[114.19084883781947,22.3871387618223]]]},"properties":{"OBJECTID":88666,"Shape__Length":35.140127535783407,"Shape__Area":53.287497486554145,"GeoRefNo":"3770327550","DateCreate":1114790400000,"BuildingBlockType":"Tower","BuildingCSUID":"3770327550T20050430","BuildingID":1102445010,"Status":"Active","BuildingNameEN":null,"BuildingNameTC":null,"BaseHeight":6.7000000000000002,"TopHeight":14,"Storeys":null,"StoreysInBasement":null,"DateStamp":1286294400000}},{"type":"Feature","id":88671,"geometry":{"type":"Polygon","coordinates":[[[114.19082679568319,22.387246506852748],[114.19083781574248,22.387231018559135],[114.19085394583014,22.387237681684976],[114.19085436477266,22.387251489312135],[114.19086143887756,22.387298736373864],[114.19082728642401,22.387298567751873],[114.19082679568319,22.387246506852748]]]},"properties":{"OBJECTID":88671,"Shape__Length":19.968412026478148,"Shape__Area":21.364843496964738,"GeoRefNo":"3770627559","DateCreate":1181059200000,"BuildingBlockType":"Temporary Structure","BuildingCSUID":"3770627559T20070606","BuildingID":1102445005,"Status":"Active","BuildingNameEN":null,"BuildingNameTC":null,"BaseHeight":null,"TopHeight":11.4,"Storeys":null,"StoreysInBasement":null,"DateStamp":1286294400000}},{"type":"Feature","id":88845,"geometry":{"type":"Polygon","coordinates":[[[114.18836001798753,22.38493903359501],[114.18834290654262,22.384921641667432],[114.18834884847939,22.384910777527146],[114.18835141148313,22.38490385093462],[114.18835294525472,22.384897917772729],[114.18835433285928,22.384885798713903],[114.18835407007262,22.384878474979562],[114.18835323447107,22.38487242458957],[114.188351485993,22.384865290601958],[114.18834942688898,22.384859493153627],[114.18834372592002,22.384848512444961],[114.1883360732301,22.384838615537483],[114.18832670189531,22.384830091391013],[114.18831289448593,22.384841353431817],[114.18831040866179,22.384842139263572],[114.18830765087245,22.384842058184468],[114.18830510663936,22.384841065007503],[114.18830335862754,22.384839584125881],[114.18830209608609,22.384837434951208],[114.18830169774753,22.384834897402865],[114.18830225105071,22.384832513305916],[114.18830374629106,22.384830354905226],[114.1883160681061,22.384820465609931],[114.18830889143344,22.384812997877667],[114.18830195736119,22.384803543413106],[114.1882964895094,22.38479328512793],[114.1882926044201,22.384782421685482],[114.18829055469973,22.384772587592465],[114.18828979634559,22.384761164036149],[114.18829054323528,22.384751167195638],[114.18829296993999,22.38473994208519],[114.18827813100978,22.384724130691872],[114.18827611104902,22.384721954479012],[114.18827505235041,22.384718839023837],[114.1882753725619,22.384715967295264],[114.18827700370028,22.384713221901276],[114.18827956711986,22.384711379493481],[114.18828297543948,22.384710602627433],[114.18828603428405,22.384711081028609],[114.18828897670988,22.384712868863609],[114.18834764338695,22.384662745302808],[114.18834790533904,22.384659936791863],[114.18834918691263,22.384657372032429],[114.1883515852259,22.38465521356698],[114.18835437204415,22.384654093583844],[114.18835785810091,22.384653984969301],[114.18836084901497,22.384654996174682],[114.18836335449015,22.384657045924612],[114.18836466559006,22.384659276370076],[114.18837208510345,22.384667755501145],[114.18838397064967,22.384666616807284],[114.18839590487572,22.384667022328319],[114.18840767414977,22.384668954018466],[114.1884190357069,22.384672375773075],[114.1884297759122,22.38467723342437],[114.18843970054706,22.384683418620192],[114.18844860568237,22.384690823009027],[114.18845631651806,22.384699311145809],[114.18846938598033,22.384688961228342],[114.18847190090833,22.38468788641536],[114.18847492085997,22.384687750740245],[114.18847775640472,22.384688725832554],[114.18848003853863,22.384690748505182],[114.18848121372392,22.384693340180341],[114.18848128190183,22.384695796477388],[114.18848017513423,22.384698541835704],[114.18847829145501,22.384700420319824],[114.18846621240482,22.384710074816613],[114.18847538955428,22.384718887945795],[114.18848592605526,22.384726274154101],[114.18849891922224,22.384732576522008],[114.18851145578908,22.384736386497799],[114.18852447772592,22.384738336150043],[114.1885391308579,22.384738271876895],[114.18854640394248,22.384737359267799],[114.18855355074132,22.384735859683637],[114.18856597982889,22.384731731834307],[114.18858553753884,22.384751345430615],[114.18864338863808,22.38480936168812],[114.18867509397579,22.384841157643621],[114.18877692925456,22.38494328346107],[114.18883773198517,22.385004253042379],[114.18885529981736,22.385021861254813],[114.1888377347627,22.385036627461645],[114.18875275441412,22.385108083230126],[114.18875625062718,22.385113076850828],[114.18875736783735,22.385118946607381],[114.1887560476812,22.38512451853634],[114.18875423206362,22.38512745358959],[114.18875217361445,22.385129584944274],[114.18874668743152,22.385132664756121],[114.18874034653174,22.3851335050614],[114.18873440357132,22.385132087706818],[114.18873152911843,22.385130462424403],[114.18872909159458,22.38512831333956],[114.18862926482814,22.385212692809244],[114.18855261689137,22.385134788911497],[114.18845154357085,22.385032059210154],[114.18841983296102,22.384999828934188],[114.18836001798753,22.38493903359501]]]},"properties":{"OBJECTID":88845,"Shape__Length":191.6051902820173,"Shape__Area":1776.7874854429845,"GeoRefNo":"3744927276","DateCreate":1120665600000,"BuildingBlockType":"Tower","BuildingCSUID":"3744927276T20050707","BuildingID":1102445675,"Status":"Active","BuildingNameEN":"Leisure and Cultural Services Headquarters","BuildingNameTC":"康樂及文化事務署總部","BaseHeight":6.4000000000000004,"TopHeight":83.799999999999997,"Storeys":null,"StoreysInBasement":null,"DateStamp":1286294400000}},{"type":"Feature","id":88863,"geometry":{"type":"Polygon","coordinates":[[[114.18525067821263,22.385105970927455],[114.18526713812575,22.385115599044404],[114.1852567978262,22.385130887262466],[114.18527837498065,22.385143508639253],[114.18524503375447,22.385192804289712],[114.18520710242905,22.385170616640842],[114.18525067821263,22.385105970927455]]]},"properties":{"OBJECTID":88863,"Shape__Length":26.139845498678227,"Shape__Area":33.792711834960237,"GeoRefNo":"3712727326","DateCreate":1114790400000,"BuildingBlockType":"Temporary Structure","BuildingCSUID":"3712727326T20050430","BuildingID":1102445681,"Status":"Active","BuildingNameEN":null,"BuildingNameTC":null,"BaseHeight":40,"TopHeight":44,"Storeys":null,"StoreysInBasement":null,"DateStamp":1286294400000}},{"type":"Feature","id":88864,"geometry":{"type":"Polygon","coordinates":[[[114.18670210450097,22.384954313409601],[114.18676965815592,22.384926478200779],[114.1868033111684,22.384997113321777],[114.18673575758315,22.385024948544412],[114.18670210450097,22.384954313409601]]]},"properties":{"OBJECTID":88864,"Shape__Length":32.328455777419748,"Shape__Area":65.096753119786541,"GeoRefNo":"3728527305","DateCreate":1224000000000,"BuildingBlockType":"Tower","BuildingCSUID":"3728527305T20081015","BuildingID":1102445720,"Status":"Active","BuildingNameEN":null,"BuildingNameTC":null,"BaseHeight":7.9000000000000004,"TopHeight":16.100000000000001,"Storeys":null,"StoreysInBasement":null,"DateStamp":1286294400000}},{"type":"Feature","id":88957,"geometry":{"type":"Polygon","coordinates":[[[114.18668873482683,22.384784034527211],[114.18676097325097,22.384746895882767],[114.18676102588803,22.384746982753153],[114.18678230660461,22.384782078207682],[114.18678230806132,22.384782080555521],[114.18670997377092,22.384819061361668],[114.18668873482683,22.384784034527211]]]},"properties":{"OBJECTID":88957,"Shape__Length":25.926682607932019,"Shape__Area":37.934983885057648,"GeoRefNo":"3728527281","DateCreate":1114790400000,"BuildingBlockType":"Tower","BuildingCSUID":"3728527281T20050430","BuildingID":1102445768,"Status":"Active","BuildingNameEN":null,"BuildingNameTC":null,"BaseHeight":6,"TopHeight":10.5,"Storeys":null,"StoreysInBasement":null,"DateStamp":1286294400000}},{"type":"Feature","id":89045,"geometry":{"type":"Polygon","coordinates":[[[114.18687279537731,22.384946363002559],[114.18694607171057,22.384933619172575],[114.18694880422748,22.384946771143696],[114.18687538718034,22.38495948771147],[114.18687279537731,22.384946363002559]]]},"properties":{"OBJECTID":89045,"Shape__Length":18.328505999719674,"Shape__Area":11.375670860011075,"GeoRefNo":"3730227302","DateCreate":1454515200000,"BuildingBlockType":"Temporary Structure","BuildingCSUID":"3730227302T20160204","BuildingID":1810149122,"Status":"Active","BuildingNameEN":null,"BuildingNameTC":null,"BaseHeight":7.2000000000000002,"TopHeight":10.4,"Storeys":null,"StoreysInBasement":null,"DateStamp":1458489600000}},{"type":"Feature","id":89052,"geometry":{"type":"Polygon","coordinates":[[[114.18693500941168,22.384878608093182],[114.1868617857307,22.384891261880679],[114.18685910748312,22.384877807562756],[114.18693254187602,22.38486516514174],[114.18693500941168,22.384878608093182]]]},"properties":{"OBJECTID":89052,"Shape__Length":18.385940041960559,"Shape__Area":11.617138547434552,"GeoRefNo":"3730027295","DateCreate":1454515200000,"BuildingBlockType":"Temporary Structure","BuildingCSUID":"3730027295T20160204","BuildingID":1810149123,"Status":"Active","BuildingNameEN":null,"BuildingNameTC":null,"BaseHeight":7.2000000000000002,"TopHeight":10.4,"Storeys":null,"StoreysInBasement":null,"DateStamp":1458489600000}},{"type":"Feature","id":89081,"geometry":{"type":"Polygon","coordinates":[[[114.19088025787508,22.387489314809361],[114.19089499044988,22.387503879756082],[114.1908820630813,22.387512421040711],[114.19086934622494,22.387520823236059],[114.19085282888538,22.387526224918471],[114.19083707862025,22.387530940213367],[114.19083362345641,22.387527022892822],[114.19088025787508,22.387489314809361]]]},"properties":{"OBJECTID":89081,"Shape__Length":15.885657227891949,"Shape__Area":10.545933660547124,"GeoRefNo":"3770827586","DateCreate":1193328000000,"BuildingBlockType":"Open-sided Structure","BuildingCSUID":"3770827586T20071026","BuildingID":1102444939,"Status":"Active","BuildingNameEN":null,"BuildingNameTC":null,"BaseHeight":null,"TopHeight":null,"Storeys":null,"StoreysInBasement":null,"DateStamp":1286294400000}},{"type":"Feature","id":89082,"geometry":{"type":"Polygon","coordinates":[[[114.19084986011994,22.387456301869584],[114.19088025787508,22.387489314809361],[114.19083362345641,22.387527022892822],[114.19082720297696,22.387532214371063],[114.19079652352139,22.387498262271862],[114.190849724084,22.387456408893033],[114.19084986011994,22.387456301869584]]]},"properties":{"OBJECTID":89082,"Shape__Length":24.158056284194046,"Shape__Area":35.087151215644816,"GeoRefNo":"3770527585","DateCreate":1143561600000,"BuildingBlockType":"Temporary Structure","BuildingCSUID":"3770527585T20060329","BuildingID":1102444938,"Status":"Active","BuildingNameEN":null,"BuildingNameTC":null,"BaseHeight":5.5999999999999996,"TopHeight":12.1,"Storeys":null,"StoreysInBasement":null,"DateStamp":1286294400000}},{"type":"Feature","id":89099,"geometry":{"type":"Polygon","coordinates":[[[114.1863712745797,22.384911258385046],[114.1863655126845,22.384858935882086],[114.18637760218208,22.384857770232077],[114.18637660132703,22.384847899930911],[114.18638869083956,22.384846969073639],[114.18639070218305,22.384865553768496],[114.18640082044864,22.384864388233169],[114.18639831357005,22.384841441825767],[114.18641163628416,22.384840050337242],[114.1864148911724,22.38486735844214],[114.18648572881844,22.384860364607789],[114.18649017833204,22.384899276950467],[114.1863712745797,22.384911258385046]]]},"properties":{"OBJECTID":89099,"Shape__Length":43.504293232955447,"Shape__Area":63.250397385381,"GeoRefNo":"3725627294","DateCreate":1114790400000,"BuildingBlockType":"Tower","BuildingCSUID":"3725627294T20050430","BuildingID":1102445749,"Status":"Active","BuildingNameEN":null,"BuildingNameTC":null,"BaseHeight":8.5999999999999996,"TopHeight":16,"Storeys":null,"StoreysInBasement":null,"DateStamp":1286294400000}},{"type":"Feature","id":89101,"geometry":{"type":"Polygon","coordinates":[[[114.18649017833204,22.384899276950467],[114.18649465563698,22.384938432754012],[114.18634862532998,22.3849572918995],[114.18634388144373,22.384914276191807],[114.18636231214002,22.384912245768529],[114.1863712745797,22.384911258385046],[114.18649017833204,22.384899276950467]]]},"properties":{"OBJECTID":89101,"Shape__Length":39.488662478833334,"Shape__Area":69.54657606019191,"GeoRefNo":"3725727298","DateCreate":1114790400000,"BuildingBlockType":"Tower","BuildingCSUID":"3725727298T20050430","BuildingID":1102445734,"Status":"Active","BuildingNameEN":null,"BuildingNameTC":null,"BaseHeight":8.5999999999999996,"TopHeight":16.800000000000001,"Storeys":null,"StoreysInBasement":null,"DateStamp":1286294400000}},{"type":"Feature","id":89106,"geometry":{"type":"Polygon","coordinates":[[[114.18675438052067,22.384851217596886],[114.18677592970222,22.384895250000795],[114.18666771894574,22.384939704841848],[114.18664667318664,22.384895709418366],[114.18675438052067,22.384851217596886]]]},"properties":{"OBJECTID":89106,"Shape__Length":35.008778316454347,"Shape__Area":64.988125547137656,"GeoRefNo":"3728627293","DateCreate":1114790400000,"BuildingBlockType":"Tower","BuildingCSUID":"3728627293T20050430","BuildingID":1102445742,"Status":"Active","BuildingNameEN":null,"BuildingNameTC":null,"BaseHeight":6.7000000000000002,"TopHeight":14.9,"Storeys":null,"StoreysInBasement":null,"DateStamp":1286294400000}},{"type":"Feature","id":89111,"geometry":{"type":"Polygon","coordinates":[[[114.18603659841871,22.384712949178798],[114.18609856923304,22.384797980466868],[114.18606181419925,22.384821287183453],[114.18599970997262,22.384736223198587],[114.18603659841871,22.384712949178798]]]},"properties":{"OBJECTID":89111,"Shape__Length":31.932352557071795,"Shape__Area":52.188777644170329,"GeoRefNo":"3721327286","DateCreate":1114790400000,"BuildingBlockType":"Tower","BuildingCSUID":"3721327286T20050430","BuildingID":1102445767,"Status":"Active","BuildingNameEN":"WAH TERRACE","BuildingNameTC":"華臺","BaseHeight":25.800000000000001,"TopHeight":34,"Storeys":null,"StoreysInBasement":null,"DateStamp":1286294400000}},{"type":"Feature","id":89115,"geometry":{"type":"Polygon","coordinates":[[[114.18603659841871,22.384712949178798],[114.18607590505269,22.384688149396034],[114.1861372713215,22.384773439157613],[114.18609856923304,22.384797980466868],[114.18603659841871,22.384712949178798]]]},"properties":{"OBJECTID":89115,"Shape__Length":32.454227583703776,"Shape__Area":55.228440481074038,"GeoRefNo":"3721727283","DateCreate":1114790400000,"BuildingBlockType":"Tower","BuildingCSUID":"3721727283T20050430","BuildingID":1102445770,"Status":"Active","BuildingNameEN":"WAH TERRACE","BuildingNameTC":"華臺","BaseHeight":25.800000000000001,"TopHeight":34.200000000000003,"Storeys":null,"StoreysInBasement":null,"DateStamp":1286294400000}},{"type":"Feature","id":89117,"geometry":{"type":"Polygon","coordinates":[[[114.18883770459603,22.384685006042485],[114.18888003639842,22.384728791896357],[114.18883771122634,22.384762289247558],[114.18856160616609,22.384473874627936],[114.18847330287433,22.384381634221317],[114.18851322964225,22.384349446562769],[114.18863354215537,22.384473869397329],[114.18883770459603,22.384685006042485]]]},"properties":{"OBJECTID":89117,"Shape__Length":124.09489158619996,"Shape__Area":315.1604559025061,"GeoRefNo":"3747427248","DateCreate":1114790400000,"BuildingBlockType":"Tower","BuildingCSUID":"3747427248T20050430","BuildingID":1102445779,"Status":"Active","BuildingNameEN":null,"BuildingNameTC":null,"BaseHeight":6.4000000000000004,"TopHeight":8.9000000000000004,"Storeys":null,"StoreysInBasement":null,"DateStamp":1286294400000}},{"type":"Feature","id":89118,"geometry":{"type":"Polygon","coordinates":[[[114.18640123546471,22.384543280912158],[114.18640567549966,22.384549167195342],[114.18641823032944,22.384565494990472],[114.18645998937119,22.384623107241506],[114.18634405115574,22.384696712851774],[114.18629850462167,22.384632779427573],[114.18633326664798,22.384610381695772],[114.18633404356048,22.384611465312812],[114.18633627686195,22.384609839687673],[114.18632685674055,22.384595842931638],[114.18634715074626,22.38458247656704],[114.18636569694719,22.384570374575947],[114.18637940724538,22.384589850978056],[114.18637968136203,22.384589699068524],[114.18638929432892,22.384583648051319],[114.18637734926881,22.384566581069766],[114.18637317334847,22.384560530866288],[114.18640123546471,22.384543280912158]]]},"properties":{"OBJECTID":89118,"Shape__Length":55.496911464254389,"Shape__Area":138.12782074830599,"GeoRefNo":"3725027262","DateCreate":1114790400000,"BuildingBlockType":"Tower","BuildingCSUID":"3725027262T20050430","BuildingID":1102445794,"Status":"Active","BuildingNameEN":"MING TERRACE","BuildingNameTC":"明臺","BaseHeight":25.300000000000001,"TopHeight":31.899999999999999,"Storeys":null,"StoreysInBasement":null,"DateStamp":1286294400000}},{"type":"Feature","id":89371,"geometry":{"type":"Polygon","coordinates":[[[114.19096562867797,22.387434374728731],[114.19103198814399,22.387497176175668],[114.19098608023093,22.387538828950419],[114.19092053652966,22.387476686641808],[114.19092885779077,22.387468784213127],[114.19096562867797,22.387434374728731]]]},"properties":{"OBJECTID":89371,"Shape__Length":32.590577872031048,"Shape__Area":64.01228199993318,"GeoRefNo":"3771927583","DateCreate":1114790400000,"BuildingBlockType":"Tower","BuildingCSUID":"3771927583T20050430","BuildingID":1102444935,"Status":"Active","BuildingNameEN":null,"BuildingNameTC":null,"BaseHeight":7,"TopHeight":15.199999999999999,"Storeys":null,"StoreysInBasement":null,"DateStamp":1558368000000}},{"type":"Feature","id":89380,"geometry":{"type":"Polygon","coordinates":[[[114.19073862881211,22.38734992554582],[114.19075500413294,22.387338344393442],[114.190795531419,22.387384802920096],[114.19077979855479,22.387397359678378],[114.19073862881211,22.38734992554582]]]},"properties":{"OBJECTID":89380,"Shape__Length":17.628346986472604,"Shape__Area":14.216497786523227,"GeoRefNo":"3769827570","DateCreate":1193328000000,"BuildingBlockType":"Open-sided Structure","BuildingCSUID":"3769827570T20071026","BuildingID":1102444974,"Status":"Active","BuildingNameEN":null,"BuildingNameTC":null,"BaseHeight":null,"TopHeight":null,"Storeys":null,"StoreysInBasement":null,"DateStamp":1286294400000}},{"type":"Feature","id":89381,"geometry":{"type":"Polygon","coordinates":[[[114.18342087853783,22.387300393443372],[114.18345631486285,22.387344307410523],[114.18343233025882,22.387360554294148],[114.1833968939478,22.387316866084802],[114.18342087853783,22.387300393443372]]]},"properties":{"OBJECTID":89381,"Shape__Length":18.265806762257188,"Shape__Area":18.590898502610752,"GeoRefNo":"3694227566","DateCreate":1114790400000,"BuildingBlockType":"Tower","BuildingCSUID":"3694227566T20050430","BuildingID":1102444984,"Status":"Active","BuildingNameEN":null,"BuildingNameTC":null,"BaseHeight":63.899999999999999,"TopHeight":66.900000000000006,"Storeys":null,"StoreysInBasement":null,"DateStamp":1286294400000}},{"type":"Feature","id":89384,"geometry":{"type":"Polygon","coordinates":[[[114.19092885779077,22.387468784213127],[114.19086250809337,22.387405964661756],[114.19090825090089,22.387364140355906],[114.19097389167356,22.387426508424852],[114.19096562867797,22.387434374728731],[114.19092885779077,22.387468784213127]]]},"properties":{"OBJECTID":89384,"Shape__Length":32.610252555268751,"Shape__Area":64.071565511257873,"GeoRefNo":"3771427575","DateCreate":1114790400000,"BuildingBlockType":"Tower","BuildingCSUID":"3771427575T20050430","BuildingID":1102444955,"Status":"Active","BuildingNameEN":null,"BuildingNameTC":null,"BaseHeight":7,"TopHeight":15.199999999999999,"Storeys":null,"StoreysInBasement":null,"DateStamp":1558368000000}},{"type":"Feature","id":89386,"geometry":{"type":"Polygon","coordinates":[[[114.19055322809184,22.386797192328942],[114.19057684992794,22.386822202243934],[114.19047966399043,22.386902753673386],[114.19045632479755,22.386878356892915],[114.19055322809184,22.386797192328942]]]},"properties":{"OBJECTID":89386,"Shape__Length":34.138301787996106,"Shape__Area":48.988590460310938,"GeoRefNo":"3767527510","DateCreate":1114790400000,"BuildingBlockType":"Tower","BuildingCSUID":"3767527510T20050430","BuildingID":1102445132,"Status":"Active","BuildingNameEN":null,"BuildingNameTC":null,"BaseHeight":6.4000000000000004,"TopHeight":14.4,"Storeys":null,"StoreysInBasement":null,"DateStamp":1286294400000}},{"type":"Feature","id":89387,"geometry":{"type":"Polygon","coordinates":[[[114.18999897748837,22.386904437060796],[114.19007403698491,22.386966958250699],[114.1900345476439,22.387007996157401],[114.18995935219137,22.386945447868946],[114.18999897748837,22.386904437060796]]]},"properties":{"OBJECTID":89387,"Shape__Length":32.969727859975897,"Shape__Area":63.355267006565349,"GeoRefNo":"3762127524","DateCreate":1150041600000,"BuildingBlockType":"Tower","BuildingCSUID":"3762127524T20060612","BuildingID":1102445103,"Status":"Active","BuildingNameEN":null,"BuildingNameTC":null,"BaseHeight":20.300000000000001,"TopHeight":28.600000000000001,"Storeys":null,"StoreysInBasement":null,"DateStamp":1286294400000}},{"type":"Feature","id":89388,"geometry":{"type":"Polygon","coordinates":[[[114.18716008658393,22.386885028079863],[114.18721999993588,22.386844965672939],[114.18726698474066,22.386908275621401],[114.1872070902988,22.386948176036714],[114.18716008658393,22.386885028079863]]]},"properties":{"OBJECTID":89388,"Shape__Length":32.209240723473471,"Shape__Area":64.618740452823261,"GeoRefNo":"3733227518","DateCreate":1176307200000,"BuildingBlockType":"Tower","BuildingCSUID":"3733227518T20070412","BuildingID":1102445119,"Status":"Active","BuildingNameEN":null,"BuildingNameTC":null,"BaseHeight":26.800000000000001,"TopHeight":35.100000000000001,"Storeys":null,"StoreysInBasement":null,"DateStamp":1286294400000}},{"type":"Feature","id":89389,"geometry":{"type":"Polygon","coordinates":[[[114.1901696331834,22.386924138060955],[114.19024502403849,22.386987091254369],[114.19020554444313,22.387028029866165],[114.19013009425582,22.386965120547867],[114.1901696331834,22.386924138060955]]]},"properties":{"OBJECTID":89389,"Shape__Length":33.056145909982575,"Shape__Area":63.581851029220843,"GeoRefNo":"3763927527","DateCreate":1150041600000,"BuildingBlockType":"Tower","BuildingCSUID":"3763927527T20060612","BuildingID":1102445095,"Status":"Active","BuildingNameEN":null,"BuildingNameTC":null,"BaseHeight":17.399999999999999,"TopHeight":25.600000000000001,"Storeys":null,"StoreysInBasement":null,"DateStamp":1286294400000}},{"type":"Feature","id":89423,"geometry":{"type":"Polygon","coordinates":[[[114.18867509397579,22.384841157643621],[114.18869613741903,22.384824068458595],[114.18879724220483,22.38492649422065],[114.18877692925456,22.38494328346107],[114.18867509397579,22.384841157643621]]]},"properties":{"OBJECTID":89423,"Shape__Length":36.495293319897428,"Shape__Area":43.718335237381275,"GeoRefNo":"3748927295","DateCreate":1195747200000,"BuildingBlockType":"Open-sided Structure","BuildingCSUID":"3748927295T20071123","BuildingID":1102445739,"Status":"Active","BuildingNameEN":null,"BuildingNameTC":null,"BaseHeight":null,"TopHeight":null,"Storeys":null,"StoreysInBasement":null,"DateStamp":1286294400000}},{"type":"Feature","id":89428,"geometry":{"type":"Polygon","coordinates":[[[114.18858553753884,22.384751345430615],[114.18861774589908,22.384724873906045],[114.18867420772661,22.384784119036986],[114.18864338863808,22.38480936168812],[114.18858553753884,22.384751345430615]]]},"properties":{"OBJECTID":89428,"Shape__Length":26.183805942385678,"Shape__Area":37.923808418347519,"GeoRefNo":"3747827282","DateCreate":1195747200000,"BuildingBlockType":"Open-sided Structure","BuildingCSUID":"3747827282T20071123","BuildingID":1102445769,"Status":"Active","BuildingNameEN":null,"BuildingNameTC":null,"BaseHeight":null,"TopHeight":null,"Storeys":null,"StoreysInBasement":null,"DateStamp":1286294400000}},{"type":"Feature","id":89430,"geometry":{"type":"Polygon","coordinates":[[[114.18612137831171,22.384658844102997],[114.18618389921485,22.384744755532338],[114.18614861275356,22.384766990712475],[114.18608626567568,22.384681014691555],[114.18612137831171,22.384658844102997]]]},"properties":{"OBJECTID":89430,"Shape__Length":31.730766894891737,"Shape__Area":50.306232893313883,"GeoRefNo":"3722327280","DateCreate":1114790400000,"BuildingBlockType":"Tower","BuildingCSUID":"3722327280T20050430","BuildingID":1102445777,"Status":"Active","BuildingNameEN":"WAH TERRACE","BuildingNameTC":"華臺","BaseHeight":25.800000000000001,"TopHeight":35.200000000000003,"Storeys":null,"StoreysInBasement":null,"DateStamp":1286294400000}},{"type":"Feature","id":89655,"geometry":{"type":"Polygon","coordinates":[[[114.19088025787508,22.387489314809361],[114.19084986011994,22.387456301869584],[114.1908657651385,22.387445518051397],[114.19087741921275,22.387458015278018],[114.19089755182623,22.38748154706072],[114.19090548696229,22.387496518970629],[114.19089499044988,22.387503879756082],[114.19088025787508,22.387489314809361]]]},"properties":{"OBJECTID":89655,"Shape__Length":17.418002167731778,"Shape__Area":13.270206004719954,"GeoRefNo":"3771027582","DateCreate":1193328000000,"BuildingBlockType":"Open-sided Structure","BuildingCSUID":"3771027582T20071026","BuildingID":1102444944,"Status":"Active","BuildingNameEN":null,"BuildingNameTC":null,"BaseHeight":null,"TopHeight":null,"Storeys":null,"StoreysInBasement":null,"DateStamp":1286294400000}},{"type":"Feature","id":90649,"geometry":{"type":"Polygon","coordinates":[[[114.19053822526575,22.388749173649977],[114.19052616610432,22.388765718578828],[114.19047229224432,22.388726510637191],[114.19047407300411,22.388719522853354],[114.19051967729514,22.388745156640084],[114.19055317518973,22.388701581556514],[114.19053879264898,22.388692498075208],[114.19054808463466,22.388680044204271],[114.19052259120704,22.388663782040584],[114.19052365440062,22.3886623976626],[114.19052859402684,22.388655965439082],[114.19057997583381,22.388690570448496],[114.19057438313847,22.388697777908636],[114.19053822526575,22.388749173649977]]]},"properties":{"OBJECTID":90649,"Shape__Length":43.506902732769639,"Shape__Area":30.539583765025071,"GeoRefNo":"3767427714","DateCreate":1391529600000,"BuildingBlockType":"Open-sided Structure","BuildingCSUID":"3767427714T20140205","BuildingID":1810111479,"Status":"Active","BuildingNameEN":null,"BuildingNameTC":null,"BaseHeight":null,"TopHeight":null,"Storeys":null,"StoreysInBasement":null,"DateStamp":1391529600000}},{"type":"Feature","id":90650,"geometry":{"type":"Polygon","coordinates":[[[114.1904144339814,22.388666220727341],[114.19042161496627,22.388670901905737],[114.19042155709788,22.388670982011298],[114.19040607982514,22.388692422752186],[114.19038302458897,22.388684155169269],[114.19037709543133,22.388675579925266],[114.19039026728159,22.38865322061547],[114.19039652507792,22.388655057710906],[114.19045053224664,22.388593797638876],[114.19049170355221,22.388621665415194],[114.1904798483443,22.388635448972],[114.19047925547218,22.388636138321402],[114.19044837798127,22.388616441662091],[114.1904144339814,22.388666220727341]]]},"properties":{"OBJECTID":90650,"Shape__Length":37.397184274898848,"Shape__Area":34.611627231972335,"GeoRefNo":"3766427710","DateCreate":1391529600000,"BuildingBlockType":"Open-sided Structure","BuildingCSUID":"3766427710T20140205","BuildingID":1810111480,"Status":"Active","BuildingNameEN":null,"BuildingNameTC":null,"BaseHeight":null,"TopHeight":null,"Storeys":null,"StoreysInBasement":null,"DateStamp":1391529600000}},{"type":"Feature","id":90654,"geometry":{"type":"Polygon","coordinates":[[[114.19060999067935,22.388307202918632],[114.19059631895311,22.3882946627702],[114.19061849649657,22.388276482449534],[114.19062888796068,22.388286333858641],[114.19067175683477,22.388245394859876],[114.19064900224492,22.388221809092126],[114.19065227380987,22.388220021582924],[114.19067668920437,22.388243372595227],[114.19068123274059,22.388240215408228],[114.19069032493762,22.388251330474695],[114.1906901497464,22.388253195652847],[114.19067485706134,22.388265764914326],[114.1906743070987,22.388265326078216],[114.19066613544892,22.388258805930548],[114.19063704358494,22.388287906188818],[114.19063412817349,22.388285403990785],[114.19060999067935,22.388307202918632]]]},"properties":{"OBJECTID":90654,"Shape__Length":34.280509955706044,"Shape__Area":14.848213254830073,"GeoRefNo":"3768627671","DateCreate":1391443200000,"BuildingBlockType":"Open-sided Structure","BuildingCSUID":"3768627671T20140204","BuildingID":1810111401,"Status":"Active","BuildingNameEN":null,"BuildingNameTC":null,"BaseHeight":null,"TopHeight":null,"Storeys":null,"StoreysInBasement":null,"DateStamp":1391443200000}},{"type":"Feature","id":90655,"geometry":{"type":"Polygon","coordinates":[[[114.19072457678899,22.388375890345142],[114.19071952686144,22.388372477243003],[114.19071748950705,22.388371100263925],[114.19072458500676,22.388360854532458],[114.1906296179708,22.388303618207441],[114.19064024059543,22.388294216532124],[114.19069006964583,22.388326857593359],[114.19072070465572,22.388302797667013],[114.19070197056092,22.388281893625503],[114.19071061248358,22.388275472186237],[114.19071816679359,22.388268960534688],[114.19076599697901,22.388317052960073],[114.19074667391601,22.388330293362174],[114.1907564918049,22.388333570595417],[114.19075194054645,22.388364536632345],[114.19073231508133,22.388364077763299],[114.19072457678899,22.388375890345142]]]},"properties":{"OBJECTID":90655,"Shape__Length":48.848985165155788,"Shape__Area":55.903396623884085,"GeoRefNo":"3769227677","DateCreate":1391443200000,"BuildingBlockType":"Open-sided Structure","BuildingCSUID":"3769227677T20140204","BuildingID":1810111406,"Status":"Active","BuildingNameEN":null,"BuildingNameTC":null,"BaseHeight":null,"TopHeight":null,"Storeys":null,"StoreysInBasement":null,"DateStamp":1391443200000}},{"type":"Feature","id":90657,"geometry":{"type":"Polygon","coordinates":[[[114.1907096258098,22.388411905332791],[114.19073676693998,22.388407712842209],[114.19074459530306,22.388422784103174],[114.19072076596935,22.388431338050822],[114.1907096258098,22.388411905332791]]]},"properties":{"OBJECTID":90657,"Shape__Length":9.7556544434070922,"Shape__Area":5.7030280005130241,"GeoRefNo":"3769527687","DateCreate":1391443200000,"BuildingBlockType":"Open-sided Structure","BuildingCSUID":"3769527687T20140204","BuildingID":1810111409,"Status":"Active","BuildingNameEN":null,"BuildingNameTC":null,"BaseHeight":null,"TopHeight":null,"Storeys":null,"StoreysInBasement":null,"DateStamp":1391443200000}},{"type":"Feature","id":90658,"geometry":{"type":"Polygon","coordinates":[[[114.19073917363204,22.387903403360866],[114.1907105865784,22.387916418792422],[114.19070822240757,22.387917398354901],[114.19070004898214,22.387901591585102],[114.19073190854516,22.387888584904783],[114.19073917363204,22.387903403360866]]]},"properties":{"OBJECTID":90658,"Shape__Length":10.873035568240999,"Shape__Area":6.6881099951525256,"GeoRefNo":"3769427630","DateCreate":1391529600000,"BuildingBlockType":"Temporary Structure","BuildingCSUID":"3769427630T20140205","BuildingID":1810111439,"Status":"Active","BuildingNameEN":null,"BuildingNameTC":null,"BaseHeight":null,"TopHeight":null,"Storeys":null,"StoreysInBasement":null,"DateStamp":1391529600000}},{"type":"Feature","id":90659,"geometry":{"type":"Polygon","coordinates":[[[114.19067889286339,22.388098166103315],[114.19065675018503,22.388111103310926],[114.19064377715981,22.388116260844722],[114.19062638215719,22.388084962553389],[114.19064050116629,22.3880810240431],[114.19064887317394,22.388094803898824],[114.190700249798,22.388066163730365],[114.19069261587097,22.388053079163896],[114.19069946393462,22.388049767357021],[114.19070317170502,22.388055859658778],[114.19071152429858,22.38806966660453],[114.19067541214443,22.388090259279629],[114.19067738386542,22.38809473824784],[114.19067889286339,22.388098166103315]]]},"properties":{"OBJECTID":90659,"Shape__Length":27.767405001998515,"Shape__Area":16.440264766976885,"GeoRefNo":"3768927651","DateCreate":1391529600000,"BuildingBlockType":"Open-sided Structure","BuildingCSUID":"3768927651T20140205","BuildingID":1810111444,"Status":"Active","BuildingNameEN":null,"BuildingNameTC":null,"BaseHeight":null,"TopHeight":null,"Storeys":null,"StoreysInBasement":null,"DateStamp":1391529600000}},{"type":"Feature","id":90660,"geometry":{"type":"Polygon","coordinates":[[[114.19087522790437,22.387974705610578],[114.1908859667794,22.38796294694345],[114.1909266578776,22.387994568278138],[114.19086401140616,22.388065382015927],[114.19085801943373,22.38806084921546],[114.19091125748808,22.388002660963277],[114.19087522790437,22.387974705610578]]]},"properties":{"OBJECTID":90660,"Shape__Length":31.411177671971117,"Shape__Area":15.472819506274284,"GeoRefNo":"3771227638","DateCreate":1392048000000,"BuildingBlockType":"Open-sided Structure","BuildingCSUID":"3771227638T20140211","BuildingID":1810111453,"Status":"Active","BuildingNameEN":null,"BuildingNameTC":null,"BaseHeight":null,"TopHeight":null,"Storeys":null,"StoreysInBasement":null,"DateStamp":1392048000000}},{"type":"Feature","id":90661,"geometry":{"type":"Polygon","coordinates":[[[114.19066365036309,22.388756712487876],[114.19064922912605,22.388749245482369],[114.19062471621719,22.388719663599375],[114.19065222285614,22.388679403205703],[114.19064772662489,22.38867793161538],[114.19066614515359,22.388649619369492],[114.19069154004549,22.388662106401537],[114.19068393913841,22.388675858453443],[114.1906698765994,22.388669120452654],[114.19064584574228,22.38871821763631],[114.19065380016781,22.38872158461745],[114.19070406522853,22.388742829122521],[114.19071916264733,22.388714282362081],[114.19070886961421,22.388709346080862],[114.19071226196705,22.388702415138706],[114.19071833661242,22.388708042345502],[114.19073409864419,22.388722643338351],[114.19070787225638,22.388746910589855],[114.19069955450088,22.388754823932587],[114.19068635358859,22.388751012288886],[114.19067207831625,22.388746615648799],[114.19066365036309,22.388756712487876]]]},"properties":{"OBJECTID":90661,"Shape__Length":52.286464670385449,"Shape__Area":37.911324256261807,"GeoRefNo":"3769027714","DateCreate":1391529600000,"BuildingBlockType":"Open-sided Structure","BuildingCSUID":"3769027714T20140205","BuildingID":1810111460,"Status":"Active","BuildingNameEN":null,"BuildingNameTC":null,"BaseHeight":null,"TopHeight":null,"Storeys":null,"StoreysInBasement":null,"DateStamp":1392048000000}},{"type":"Feature","id":90662,"geometry":{"type":"Polygon","coordinates":[[[114.19060285609127,22.388609023562619],[114.19061790753105,22.388615414532545],[114.190611160823,22.3886296214658],[114.19059605027262,22.388623527152795],[114.19060285609127,22.388609023562619]]]},"properties":{"OBJECTID":90662,"Shape__Length":6.8721210073126704,"Shape__Area":2.951121981175354,"GeoRefNo":"3768227709","DateCreate":1392048000000,"BuildingBlockType":"Open-sided Structure","BuildingCSUID":"3768227709T20140211","BuildingID":1810111498,"Status":"Active","BuildingNameEN":null,"BuildingNameTC":null,"BaseHeight":null,"TopHeight":null,"Storeys":null,"StoreysInBasement":null,"DateStamp":1392048000000}},{"type":"Feature","id":90719,"geometry":{"type":"Polygon","coordinates":[[[114.18894524619664,22.388506119311678],[114.18898351837014,22.388498773276332],[114.18899300085533,22.388553849690485],[114.18895057515249,22.388560869586001],[114.18895017099643,22.388560936442108],[114.18894524619664,22.388506119311678]]]},"properties":{"OBJECTID":90719,"Shape__Length":20.772073031784487,"Shape__Area":26.00124970961852,"GeoRefNo":"3751327699","DateCreate":1323014400000,"BuildingBlockType":"Open-sided Structure","BuildingCSUID":"3751327699T20111205","BuildingID":1810076374,"Status":"Active","BuildingNameEN":null,"BuildingNameTC":null,"BaseHeight":null,"TopHeight":null,"Storeys":null,"StoreysInBasement":null,"DateStamp":1323014400000}},{"type":"Feature","id":92273,"geometry":{"type":"Polygon","coordinates":[[[114.1892102614314,22.381099829216552],[114.18940362454481,22.38130350630626],[114.18938921753922,22.381315471697317],[114.1893767150619,22.381329164569255],[114.18936635440845,22.381344325366879],[114.18935833218629,22.381360666362806],[114.18935280052808,22.381377877437341],[114.1893346792062,22.381382966726822],[114.18931781668978,22.381390966094283],[114.18930274847636,22.381401621650795],[114.18928995286308,22.381414595076528],[114.18927983599364,22.3814294744585],[114.18926067033422,22.381394228074914],[114.18923884506785,22.381360345682808],[114.18921447187913,22.381328000568317],[114.18918767536621,22.381297358069794],[114.18915859255522,22.381268575035776],[114.1891273723175,22.381241798561067],[114.18909417410724,22.381217165625397],[114.18905916786433,22.381194802190546],[114.18908157139674,22.381176457240841],[114.18910149792687,22.381155787928179],[114.18911867044672,22.381133081354903],[114.18914306317831,22.38112881844744],[114.18916669942966,22.381121776178716],[114.18918921468648,22.381112063214132],[114.1892102614314,22.381099829216552]]]},"properties":{"OBJECTID":92273,"Shape__Length":104.21632250507338,"Shape__Area":566.64330402316148,"GeoRefNo":"3754126893","DateCreate":1193328000000,"BuildingBlockType":"Open-sided Structure","BuildingCSUID":"3754126893T20071026","BuildingID":1102446869,"Status":"Active","BuildingNameEN":null,"BuildingNameTC":null,"BaseHeight":null,"TopHeight":null,"Storeys":null,"StoreysInBasement":null,"DateStamp":1286294400000}},{"type":"Feature","id":92293,"geometry":{"type":"Polygon","coordinates":[[[114.18510041040446,22.381433565312907],[114.18512023985087,22.381451860143279],[114.18510253897394,22.381467772834743],[114.18508369025125,22.381449252189089],[114.18510041040446,22.381433565312907]]]},"properties":{"OBJECTID":92293,"Shape__Length":10.681624448209076,"Shape__Area":7.0973705002336835,"GeoRefNo":"3711526915","DateCreate":1114790400000,"BuildingBlockType":"Temporary Structure","BuildingCSUID":"3711526915T20050430","BuildingID":1102446850,"Status":"Active","BuildingNameEN":null,"BuildingNameTC":null,"BaseHeight":null,"TopHeight":19.800000000000001,"Storeys":null,"StoreysInBasement":null,"DateStamp":1286294400000}},{"type":"Feature","id":92507,"geometry":{"type":"Polygon","coordinates":[[[114.18648860540601,22.382641673320279],[114.18649953233839,22.382682048141266],[114.18649511534879,22.382699730171264],[114.18630907776027,22.382745218892378],[114.18629019632994,22.38267868309558],[114.18633683441494,22.38266782567306],[114.18634155481529,22.382685037574703],[114.18643038364957,22.382663557744038],[114.18642864496168,22.382655755474289],[114.18648860540601,22.382641673320279]]]},"properties":{"OBJECTID":92507,"Shape__Length":57.67172940898876,"Shape__Area":130.34563401322262,"GeoRefNo":"3724427054","DateCreate":1114790400000,"BuildingBlockType":"Tower","BuildingCSUID":"3724427054T20050430","BuildingID":1102446331,"Status":"Active","BuildingNameEN":null,"BuildingNameTC":null,"BaseHeight":10.800000000000001,"TopHeight":17.899999999999999,"Storeys":2,"StoreysInBasement":null,"DateStamp":1599580800000}},{"type":"Feature","id":92610,"geometry":{"type":"Polygon","coordinates":[[[114.19090210788336,22.38718699597354],[114.19092034176795,22.387204100989273],[114.19090488275232,22.387218352583936],[114.19090145621588,22.387215153549679],[114.19088660468834,22.387201288207677],[114.19090210788336,22.38718699597354]]]},"properties":{"OBJECTID":92610,"Shape__Length":9.8239391815248034,"Shape__Area":5.9872659429215194,"GeoRefNo":"3771227552","DateCreate":1255276800000,"BuildingBlockType":"Temporary Structure","BuildingCSUID":"3771227552T20091012","BuildingID":1108769369,"Status":"Active","BuildingNameEN":null,"BuildingNameTC":null,"BaseHeight":null,"TopHeight":null,"Storeys":null,"StoreysInBasement":null,"DateStamp":1286294400000}},{"type":"Feature","id":92696,"geometry":{"type":"Polygon","coordinates":[[[114.18695898910026,22.384517430511107],[114.18702751479771,22.384554828824207],[114.18700817774643,22.384587088872113],[114.18692902982623,22.38454278394844],[114.18695898910026,22.384517430511107]]]},"properties":{"OBJECTID":92696,"Shape__Length":25.957050402846377,"Shape__Area":35.738277678236173,"GeoRefNo":"3730827258","DateCreate":1268755200000,"BuildingBlockType":"Tower","BuildingCSUID":"3730827258T20100317","BuildingID":1109560186,"Status":"Active","BuildingNameEN":null,"BuildingNameTC":null,"BaseHeight":6.5999999999999996,"TopHeight":13,"Storeys":null,"StoreysInBasement":null,"DateStamp":1286294400000}},{"type":"Feature","id":92813,"geometry":{"type":"Polygon","coordinates":[[[114.18643592790633,22.382787174723845],[114.18653418322266,22.382775561388478],[114.18654116152176,22.382826624699927],[114.18644290617016,22.382838237949137],[114.18643592790633,22.382787174723845]]]},"properties":{"OBJECTID":92813,"Shape__Length":31.80000795639446,"Shape__Area":58.140035108656036,"GeoRefNo":"3725827065","DateCreate":1114790400000,"BuildingBlockType":"Tower","BuildingCSUID":"3725827065T20050430","BuildingID":1102446317,"Status":"Active","BuildingNameEN":null,"BuildingNameTC":null,"BaseHeight":10.800000000000001,"TopHeight":15.6,"Storeys":null,"StoreysInBasement":null,"DateStamp":1286294400000}},{"type":"Feature","id":92814,"geometry":{"type":"Polygon","coordinates":[[[114.18805672152958,22.382445450924195],[114.18788263571665,22.382587197616576],[114.18781247481387,22.382752275496728],[114.18786150346193,22.382818624298555],[114.18757879010468,22.382998798027263],[114.18757601458623,22.382994975952073],[114.18707982049064,22.382320096743669],[114.18724305774784,22.382216333995288],[114.18724318718029,22.382216251718884],[114.18736262840835,22.382140327981844],[114.18741844972679,22.382216322616348],[114.18751009164006,22.382340907581693],[114.18766946974205,22.382317679417739],[114.18779329915932,22.382216297659721],[114.18781970235048,22.382194717069332],[114.18783997035675,22.382216294491666],[114.18805672152958,22.382445450924195]]]},"properties":{"OBJECTID":92814,"Shape__Length":315.11436615132686,"Shape__Area":4753.7925520490735,"GeoRefNo":"3734826997","DateCreate":1114790400000,"BuildingBlockType":"Tower","BuildingCSUID":"3734826997T20050430","BuildingID":1102446264,"Status":"Active","BuildingNameEN":"Citylink Plaza","BuildingNameTC":"連城廣場","BaseHeight":13.1,"TopHeight":61,"Storeys":null,"StoreysInBasement":null,"DateStamp":1286294400000}}]}