{"type":"FeatureCollection","features":[{"type":"Feature","id":1,"geometry":{"type":"Point","coordinates":[114.20674022041291,22.31763998392406]},"properties":{"OBJECTID":1,"DatasetEN":"Hospital Authority Hospital/Institution List","DatasetTC":"醫院管理局轄下醫院/機構目錄","NameEN":"Kai Tak Hospital","AddressEN":"2-3 Shing Cheong Road, Kowloon Bay, Kowloon","NameTC":"啟德醫院","AddressTC":"九龍九龍灣承昌道2至3號","ClusterEN":"KOWLOON CENTRAL CLUSTER","ClusterTC":"九龍中醫院聯網","TelephoneEN":null,"TelephoneTC":null,"WebsiteEN":"https://www.ha.org.hk/visitor/ha_visitor_index.asp?Content_ID=282642&Lang=ENG","WebsiteTC":"https://www.ha.org.hk/visitor/ha_visitor_index.asp?Content_ID=282642&Lang=CHIB5","RemarksEN":null,"RemarksTC":null,"Northing":819849.40000000002,"Easting":839345.09999999998,"Latitude":22.317640000000001,"Longitude":114.20674,"LastUpdate":1781232970000}},{"type":"Feature","id":2,"geometry":{"type":"Point","coordinates":[114.17591003271453,22.250965961465596]},"properties":{"OBJECTID":2,"DatasetEN":"Hospital Authority Hospital/Institution List","DatasetTC":"醫院管理局轄下醫院/機構目錄","NameEN":"Wong Chuk Hang Hospital","AddressEN":"2 Wong Chuk Hang Path, Wong Chuk Hang, HK","NameTC":"黃竹坑醫院","AddressTC":"香港黃竹坑黃竹坑徑2號","ClusterEN":"HONG KONG ISLAND CLUSTER","ClusterTC":"香港島醫院聯網","TelephoneEN":"2873 7222","TelephoneTC":"2873 7222","WebsiteEN":"https://www.ha.org.hk/visitor/ha_visitor_index.asp?Content_ID=282511&Lang=ENG","WebsiteTC":"https://www.ha.org.hk/visitor/ha_visitor_index.asp?Content_ID=282511&Lang=CHIB5","RemarksEN":"N.A.","RemarksTC":"N.A.","Northing":812466,"Easting":836168.59999999998,"Latitude":22.250965999999998,"Longitude":114.17591,"LastUpdate":1776163933000}},{"type":"Feature","id":3,"geometry":{"type":"Point","coordinates":[114.19026044291287,22.274725067406465]},"properties":{"OBJECTID":3,"DatasetEN":"Hospital Authority Hospital/Institution List","DatasetTC":"醫院管理局轄下醫院/機構目錄","NameEN":"Tung Wah Eastern Hospital","AddressEN":"19 Eastern Hospital Road, Causeway Bay, HK","NameTC":"東華東院","AddressTC":"香港銅鑼灣東院道19號","ClusterEN":"HONG KONG ISLAND CLUSTER","ClusterTC":"香港島醫院聯網","TelephoneEN":"2162 6888","TelephoneTC":"2162 6888","WebsiteEN":"https://www.ha.org.hk/visitor/ha_visitor_index.asp?Content_ID=282510&Lang=ENG","WebsiteTC":"https://www.ha.org.hk/visitor/ha_visitor_index.asp?Content_ID=282510&Lang=CHIB5","RemarksEN":"N.A.","RemarksTC":"N.A.","Northing":815097,"Easting":837647.59999999998,"Latitude":22.274725,"Longitude":114.19025999999999,"LastUpdate":1776163933000}},{"type":"Feature","id":4,"geometry":{"type":"Point","coordinates":[114.12398966459966,22.26979532675341]},"properties":{"OBJECTID":4,"DatasetEN":"Hospital Authority Hospital/Institution List","DatasetTC":"醫院管理局轄下醫院/機構目錄","NameEN":"MacLehose Medical Rehabilitation Centre","AddressEN":"7 Sha Wan Drive, Pokfulam, HK","NameTC":"麥理浩復康院","AddressTC":"香港薄扶林沙灣徑7號","ClusterEN":"HONG KONG ISLAND CLUSTER","ClusterTC":"香港島醫院聯網","TelephoneEN":"2817 0018","TelephoneTC":"2817 0018","WebsiteEN":"https://www.ha.org.hk/visitor/ha_visitor_index.asp?Content_ID=282513&Lang=ENG","WebsiteTC":"https://www.ha.org.hk/visitor/ha_visitor_index.asp?Content_ID=282513&Lang=CHIB5","RemarksEN":"N.A.","RemarksTC":"N.A.","Northing":814552,"Easting":830817.40000000002,"Latitude":22.269794999999998,"Longitude":114.12399000000001,"LastUpdate":1776163932000}},{"type":"Feature","id":5,"geometry":{"type":"Point","coordinates":[114.19730047370453,22.212024332611424]},"properties":{"OBJECTID":5,"DatasetEN":"Hospital Authority Hospital/Institution List","DatasetTC":"醫院管理局轄下醫院/機構目錄","NameEN":"Cheshire Home, Chung Hom Kok","AddressEN":"128 Chung Hom Kok Road, HK","NameTC":"舂磡角慈氏護養院","AddressTC":"香港舂磡角道128號","ClusterEN":"HONG KONG ISLAND CLUSTER","ClusterTC":"香港島醫院聯網","TelephoneEN":"2899 1300","TelephoneTC":"2899 1300","WebsiteEN":"https://www.ha.org.hk/visitor/ha_visitor_index.asp?Content_ID=282505&Lang=ENG","WebsiteTC":"https://www.ha.org.hk/visitor/ha_visitor_index.asp?Content_ID=282505&Lang=CHIB5","RemarksEN":"N.A.","RemarksTC":"N.A.","Northing":808154,"Easting":838374.09999999998,"Latitude":22.212024,"Longitude":114.1973,"LastUpdate":1776163932000}},{"type":"Feature","id":6,"geometry":{"type":"Point","coordinates":[114.03150961605395,22.208058590399087]},"properties":{"OBJECTID":6,"DatasetEN":"Hospital Authority Hospital/Institution List","DatasetTC":"醫院管理局轄下醫院/機構目錄","NameEN":"St. John Hospital","AddressEN":"Cheung Chau Hospital Road, Tung Wan, Cheung Chau","NameTC":"長洲醫院","AddressTC":"長洲東灣長洲醫院路","ClusterEN":"HONG KONG ISLAND CLUSTER","ClusterTC":"香港島醫院聯網","TelephoneEN":"2986 2100","TelephoneTC":"2986 2100","WebsiteEN":"https://www.ha.org.hk/visitor/ha_visitor_index.asp?Content_ID=282508&Lang=ENG","WebsiteTC":"https://www.ha.org.hk/visitor/ha_visitor_index.asp?Content_ID=282508&Lang=CHIB5","RemarksEN":"N.A.","RemarksTC":"N.A.","Northing":807721.90000000002,"Easting":821279.30000000005,"Latitude":22.208058999999999,"Longitude":114.03151,"LastUpdate":1776163932000}},{"type":"Feature","id":7,"geometry":{"type":"Point","coordinates":[114.12424029548562,22.271574445258661]},"properties":{"OBJECTID":7,"DatasetEN":"Hospital Authority Hospital/Institution List","DatasetTC":"醫院管理局轄下醫院/機構目錄","NameEN":"The Duchess of Kent Children's Hospital at Sandy Bay","AddressEN":"12 Sandy Bay Road, Pokfulam, HK","NameTC":"大口環根德公爵夫人兒童醫院","AddressTC":"香港薄扶林大口環道12號","ClusterEN":"HONG KONG ISLAND CLUSTER","ClusterTC":"香港島醫院聯網","TelephoneEN":"2817 7111","TelephoneTC":"2817 7111","WebsiteEN":"https://www.ha.org.hk/visitor/ha_visitor_index.asp?Content_ID=282515&Lang=ENG","WebsiteTC":"https://www.ha.org.hk/visitor/ha_visitor_index.asp?Content_ID=282515&Lang=CHIB5","RemarksEN":"N.A.","RemarksTC":"N.A.","Northing":814749,"Easting":830843.30000000005,"Latitude":22.271574000000001,"Longitude":114.12424,"LastUpdate":1776163932000}},{"type":"Feature","id":8,"geometry":{"type":"Point","coordinates":[114.14456985677749,22.286146174604365]},"properties":{"OBJECTID":8,"DatasetEN":"Hospital Authority Hospital/Institution List","DatasetTC":"醫院管理局轄下醫院/機構目錄","NameEN":"Tsan Yuk Hospital","AddressEN":"30 Hospital Road, Sai Ying Pun, HK","NameTC":"贊育醫院","AddressTC":"香港西營盤醫院道30號","ClusterEN":"HONG KONG ISLAND CLUSTER","ClusterTC":"香港島醫院聯網","TelephoneEN":"2589 2100","TelephoneTC":"2589 2100","WebsiteEN":"https://www.ha.org.hk/visitor/ha_visitor_index.asp?Content_ID=282516&Lang=ENG","WebsiteTC":"https://www.ha.org.hk/visitor/ha_visitor_index.asp?Content_ID=282516&Lang=CHIB5","RemarksEN":"N.A.","RemarksTC":"N.A.","Northing":816362,"Easting":832938.90000000002,"Latitude":22.286145999999999,"Longitude":114.14457,"LastUpdate":1776163932000}},{"type":"Feature","id":9,"geometry":{"type":"Point","coordinates":[114.13117031894494,22.27039984800119]},"properties":{"OBJECTID":9,"DatasetEN":"Hospital Authority Hospital/Institution List","DatasetTC":"醫院管理局轄下醫院/機構目錄","NameEN":"Queen Mary Hospital","AddressEN":"102 Pokfulam Road, HK","NameTC":"瑪麗醫院","AddressTC":"香港薄扶林道102號","ClusterEN":"HONG KONG ISLAND CLUSTER","ClusterTC":"香港島醫院聯網","TelephoneEN":"2255 3838","TelephoneTC":"2255 3838","WebsiteEN":"https://www.ha.org.hk/visitor/ha_visitor_index.asp?Content_ID=282514&Lang=ENG","WebsiteTC":"https://www.ha.org.hk/visitor/ha_visitor_index.asp?Content_ID=282514&Lang=CHIB5","RemarksEN":"N.A.","RemarksTC":"N.A.","Northing":814618.69999999995,"Easting":831557.5,"Latitude":22.270399999999999,"Longitude":114.13117,"LastUpdate":1776163932000}},{"type":"Feature","id":10,"geometry":{"type":"Point","coordinates":[114.17528985088749,22.275908629999318]},"properties":{"OBJECTID":10,"DatasetEN":"Hospital Authority Hospital/Institution List","DatasetTC":"醫院管理局轄下醫院/機構目錄","NameEN":"Ruttonjee Hospital","AddressEN":"266 Queen's Road East, Wan Chai, HK","NameTC":"律敦治醫院","AddressTC":"香港灣仔皇后大道東266號","ClusterEN":"HONG KONG ISLAND CLUSTER","ClusterTC":"香港島醫院聯網","TelephoneEN":"2291 2000","TelephoneTC":"2291 2000","WebsiteEN":"https://www.ha.org.hk/visitor/ha_visitor_index.asp?Content_ID=282507&Lang=ENG","WebsiteTC":"https://www.ha.org.hk/visitor/ha_visitor_index.asp?Content_ID=282507&Lang=CHIB5","RemarksEN":"N.A.","RemarksTC":"N.A.","Northing":815228,"Easting":836104.69999999995,"Latitude":22.275908999999999,"Longitude":114.17529,"LastUpdate":1776163932000}},{"type":"Feature","id":11,"geometry":{"type":"Point","coordinates":[114.14660982422177,22.284955426927723]},"properties":{"OBJECTID":11,"DatasetEN":"Hospital Authority Hospital/Institution List","DatasetTC":"醫院管理局轄下醫院/機構目錄","NameEN":"Tung Wah Hospital","AddressEN":"12 Po Yan Street, Sheung Wan, HK","NameTC":"東華醫院","AddressTC":"香港上環普仁街12號","ClusterEN":"HONG KONG ISLAND CLUSTER","ClusterTC":"香港島醫院聯網","TelephoneEN":"2589 8111","TelephoneTC":"2589 8111","WebsiteEN":"https://www.ha.org.hk/visitor/ha_visitor_index.asp?Content_ID=282518&Lang=ENG","WebsiteTC":"https://www.ha.org.hk/visitor/ha_visitor_index.asp?Content_ID=282518&Lang=CHIB5","RemarksEN":"N.A.","RemarksTC":"N.A.","Northing":816230.09999999998,"Easting":833149.09999999998,"Latitude":22.284955,"Longitude":114.14661,"LastUpdate":1776163932000}},{"type":"Feature","id":12,"geometry":{"type":"Point","coordinates":[114.2364302288243,22.269179803804555]},"properties":{"OBJECTID":12,"DatasetEN":"Hospital Authority Hospital/Institution List","DatasetTC":"醫院管理局轄下醫院/機構目錄","NameEN":"Pamela Youde Nethersole Eastern Hospital","AddressEN":"3 Lok Man Road, Chai Wan, HK","NameTC":"東區尤德夫人那打素醫院","AddressTC":"香港柴灣樂民道3號","ClusterEN":"HONG KONG ISLAND CLUSTER","ClusterTC":"香港島醫院聯網","TelephoneEN":"2595 6111","TelephoneTC":"2595 6111","WebsiteEN":"https://www.ha.org.hk/visitor/ha_visitor_index.asp?Content_ID=282506&Lang=ENG","WebsiteTC":"https://www.ha.org.hk/visitor/ha_visitor_index.asp?Content_ID=282506&Lang=CHIB5","RemarksEN":"N.A.","RemarksTC":"N.A.","Northing":814484.09999999998,"Easting":842406.19999999995,"Latitude":22.269179999999999,"Longitude":114.23643,"LastUpdate":1776163932000}},{"type":"Feature","id":13,"geometry":{"type":"Point","coordinates":[114.17773984574708,22.275312612271563]},"properties":{"OBJECTID":13,"DatasetEN":"Hospital Authority Hospital/Institution List","DatasetTC":"醫院管理局轄下醫院/機構目錄","NameEN":"Tang Shiu Kin Hospital","AddressEN":"282 Queen's Road East, Wan Chai, HK","NameTC":"鄧肇堅醫院","AddressTC":"香港灣仔皇后大道東282號","ClusterEN":"HONG KONG ISLAND CLUSTER","ClusterTC":"香港島醫院聯網","TelephoneEN":"2291 2000","TelephoneTC":"2291 2000","WebsiteEN":"https://www.ha.org.hk/visitor/ha_visitor_index.asp?Content_ID=282509&Lang=ENG","WebsiteTC":"https://www.ha.org.hk/visitor/ha_visitor_index.asp?Content_ID=282509&Lang=CHIB5","RemarksEN":"N.A.","RemarksTC":"N.A.","Northing":815162,"Easting":836357.19999999995,"Latitude":22.275313000000001,"Longitude":114.17774,"LastUpdate":1776163932000}},{"type":"Feature","id":14,"geometry":{"type":"Point","coordinates":[114.12483027907679,22.271407568280377]},"properties":{"OBJECTID":14,"DatasetEN":"Hospital Authority Hospital/Institution List","DatasetTC":"醫院管理局轄下醫院/機構目錄","NameEN":"Tung Wah Group of Hospitals Fung Yiu King Hospital","AddressEN":"9 Sandy Bay Road, Pokfulam, HK","NameTC":"東華三院馮堯敬醫院","AddressTC":"香港薄扶林大口環道9號","ClusterEN":"HONG KONG ISLAND CLUSTER","ClusterTC":"香港島醫院聯網","TelephoneEN":"2855 6111","TelephoneTC":"2855 6111","WebsiteEN":"https://www.ha.org.hk/visitor/ha_visitor_index.asp?Content_ID=282517&Lang=ENG","WebsiteTC":"https://www.ha.org.hk/visitor/ha_visitor_index.asp?Content_ID=282517&Lang=CHIB5","RemarksEN":"N.A.","RemarksTC":"N.A.","Northing":814730.5,"Easting":830904.09999999998,"Latitude":22.271408000000001,"Longitude":114.12483,"LastUpdate":1776163932000}},{"type":"Feature","id":15,"geometry":{"type":"Point","coordinates":[114.17315972454429,22.251155566781453]},"properties":{"OBJECTID":15,"DatasetEN":"Hospital Authority Hospital/Institution List","DatasetTC":"醫院管理局轄下醫院/機構目錄","NameEN":"Grantham Hospital","AddressEN":"125 Wong Chuk Hang Road, Aberdeen, HK","NameTC":"葛量洪醫院","AddressTC":"香港仔黃竹坑道125號","ClusterEN":"HONG KONG ISLAND CLUSTER","ClusterTC":"香港島醫院聯網","TelephoneEN":"2518 2111","TelephoneTC":"2518 2111","WebsiteEN":"https://www.ha.org.hk/visitor/ha_visitor_index.asp?Content_ID=100139&Lang=ENG","WebsiteTC":"https://www.ha.org.hk/visitor/ha_visitor_index.asp?Content_ID=100139&Lang=CHIB5","RemarksEN":"N.A.","RemarksTC":"N.A.","Northing":812487,"Easting":835885.09999999998,"Latitude":22.251156000000002,"Longitude":114.17316,"LastUpdate":1775093432000}},{"type":"Feature","id":16,"geometry":{"type":"Point","coordinates":[114.13469960698649,22.340056592400078]},"properties":{"OBJECTID":16,"DatasetEN":"Hospital Authority Hospital/Institution List","DatasetTC":"醫院管理局轄下醫院/機構目錄","NameEN":"Princess Margaret Hospital","AddressEN":"2-10 Princess Margaret Hospital Road, Kwai Chung, New Territories","NameTC":"瑪嘉烈醫院","AddressTC":"新界葵涌瑪嘉烈醫院路2-10號","ClusterEN":"KOWLOON WEST CLUSTER","ClusterTC":"九龍西醫院聯網","TelephoneEN":"2990 1111","TelephoneTC":"2990 1111","WebsiteEN":"https://www.ha.org.hk/visitor/ha_visitor_index.asp?Content_ID=100160&Lang=ENG","WebsiteTC":"https://www.ha.org.hk/visitor/ha_visitor_index.asp?Content_ID=100160&Lang=CHIB5","RemarksEN":"N.A.","RemarksTC":"N.A.","Northing":822332,"Easting":831923.40000000002,"Latitude":22.340057000000002,"Longitude":114.1347,"LastUpdate":1771558448000}},{"type":"Feature","id":17,"geometry":{"type":"Point","coordinates":[113.976210199899,22.407079588000705]},"properties":{"OBJECTID":17,"DatasetEN":"Hospital Authority Hospital/Institution List","DatasetTC":"醫院管理局轄下醫院/機構目錄","NameEN":"Tuen Mun Hospital","AddressEN":"23 Tsing Chung Koon Road, Tuen Mun, NT","NameTC":"屯門醫院","AddressTC":"新界屯門青松觀路23號","ClusterEN":"NEW TERRITORIES WEST CLUSTER","ClusterTC":"新界西醫院聯網","TelephoneEN":"2468 5111","TelephoneTC":"2468 5111","WebsiteEN":"https://www.ha.org.hk/visitor/ha_visitor_index.asp?Content_ID=100173&Lang=ENG","WebsiteTC":"https://www.ha.org.hk/visitor/ha_visitor_index.asp?Content_ID=100173&Lang=CHIB5","RemarksEN":"N.A.","RemarksTC":"N.A.","Northing":829767,"Easting":815606.59999999998,"Latitude":22.407080000000001,"Longitude":113.97620999999999,"LastUpdate":1752823927000}},{"type":"Feature","id":18,"geometry":{"type":"Point","coordinates":[114.17210016539222,22.31428961236206]},"properties":{"OBJECTID":18,"DatasetEN":"Hospital Authority Hospital/Institution List","DatasetTC":"醫院管理局轄下醫院/機構目錄","NameEN":"Kwong Wah Hospital","AddressEN":"25 Waterloo Road, KLN","NameTC":"廣華醫院","AddressTC":"九龍窩打老道25號","ClusterEN":"KOWLOON CENTRAL CLUSTER","ClusterTC":"九龍中醫院聯網","TelephoneEN":"2332 2311","TelephoneTC":"2332 2311","WebsiteEN":"https://www.ha.org.hk/visitor/ha_visitor_index.asp?Content_ID=100153&Lang=ENG","WebsiteTC":"https://www.ha.org.hk/visitor/ha_visitor_index.asp?Content_ID=100153&Lang=CHIB5","RemarksEN":"N.A.","RemarksTC":"N.A.","Northing":819478.09999999998,"Easting":835776.09999999998,"Latitude":22.31429,"Longitude":114.1721,"LastUpdate":1721183800000}},{"type":"Feature","id":19,"geometry":{"type":"Point","coordinates":[114.13336007803265,22.34289183687218]},"properties":{"OBJECTID":19,"DatasetEN":"Hospital Authority Hospital/Institution List","DatasetTC":"醫院管理局轄下醫院/機構目錄","NameEN":"Kwai Chung Hospital","AddressEN":"3-15 Kwai Chung Hospital Road, NT","NameTC":"葵涌醫院","AddressTC":"新界葵涌醫院路3-15號","ClusterEN":"KOWLOON WEST CLUSTER","ClusterTC":"九龍西醫院聯網","TelephoneEN":"2959 8111","TelephoneTC":"2959 8111","WebsiteEN":"https://www.ha.org.hk/visitor/ha_visitor_index.asp?Content_ID=100162&Lang=ENG","WebsiteTC":"https://www.ha.org.hk/visitor/ha_visitor_index.asp?Content_ID=100162&Lang=CHIB5","RemarksEN":"N.A.","RemarksTC":"N.A.","Northing":822646,"Easting":831785.5,"Latitude":22.342891999999999,"Longitude":114.13336,"LastUpdate":1718941264000}},{"type":"Feature","id":20,"geometry":{"type":"Point","coordinates":[114.25626986599677,22.313772638853766]},"properties":{"OBJECTID":20,"DatasetEN":"Hospital Authority Hospital/Institution List","DatasetTC":"醫院管理局轄下醫院/機構目錄","NameEN":"Haven of Hope Hospital","AddressEN":"8 Haven of Hope Road, Tseung Kwan O","NameTC":"靈實醫院","AddressTC":"將軍澳靈實路8號","ClusterEN":"KOWLOON EAST CLUSTER","ClusterTC":"九龍東醫院聯網","TelephoneEN":"2703 8888\u003cbr/\u003e2409 5868","TelephoneTC":"2703 8888\u003cbr/\u003e2409 5868","WebsiteEN":"https://www.ha.org.hk/visitor/ha_visitor_index.asp?Content_ID=100157&Lang=ENG","WebsiteTC":"https://www.ha.org.hk/visitor/ha_visitor_index.asp?Content_ID=100157&Lang=CHIB5","RemarksEN":"N.A.","RemarksTC":"N.A.","Northing":819423,"Easting":844448.40000000002,"Latitude":22.313773000000001,"Longitude":114.25627,"LastUpdate":1682315953000}},{"type":"Feature","id":21,"geometry":{"type":"Point","coordinates":[114.22789968542541,22.322290873362128]},"properties":{"OBJECTID":21,"DatasetEN":"Hospital Authority Hospital/Institution List","DatasetTC":"醫院管理局轄下醫院/機構目錄","NameEN":"United Christian Hospital","AddressEN":"130 Hip Wo Street, Kwun Tong, KLN","NameTC":"基督教聯合醫院","AddressTC":"九龍觀塘協和街130號","ClusterEN":"KOWLOON EAST CLUSTER","ClusterTC":"九龍東醫院聯網","TelephoneEN":"2379 9611","TelephoneTC":"2379 9611","WebsiteEN":"https://www.ha.org.hk/visitor/ha_visitor_index.asp?Content_ID=100156&Lang=ENG","WebsiteTC":"https://www.ha.org.hk/visitor/ha_visitor_index.asp?Content_ID=100156&Lang=CHIB5","RemarksEN":"N.A.","RemarksTC":"N.A.","Northing":820365,"Easting":841525,"Latitude":22.322291,"Longitude":114.22790000000001,"LastUpdate":1653028017000}},{"type":"Feature","id":22,"geometry":{"type":"Point","coordinates":[114.11955954866723,22.369548439177464]},"properties":{"OBJECTID":22,"DatasetEN":"Hospital Authority Hospital/Institution List","DatasetTC":"醫院管理局轄下醫院/機構目錄","NameEN":"Yan Chai Hospital","AddressEN":"7-11 Yan Chai Street, Tsuen Wan, NT","NameTC":"仁濟醫院","AddressTC":"新界荃灣仁濟街7-11號","ClusterEN":"KOWLOON WEST CLUSTER","ClusterTC":"九龍西醫院聯網","TelephoneEN":"2417 8383","TelephoneTC":"2417 8383","WebsiteEN":"https://www.ha.org.hk/visitor/ha_visitor_index.asp?Content_ID=100165&Lang=ENG","WebsiteTC":"https://www.ha.org.hk/visitor/ha_visitor_index.asp?Content_ID=100165&Lang=CHIB5","RemarksEN":"N.A.","RemarksTC":"N.A.","Northing":825598.30000000005,"Easting":830365,"Latitude":22.369548000000002,"Longitude":114.11956000000001,"LastUpdate":1653028017000}},{"type":"Feature","id":23,"geometry":{"type":"Point","coordinates":[114.19632019313902,22.346807635147702]},"properties":{"OBJECTID":23,"DatasetEN":"Hospital Authority Hospital/Institution List","DatasetTC":"醫院管理局轄下醫院/機構目錄","NameEN":"Tung Wah Group of Hospitals Wong Tai Sin Hospital","AddressEN":"124 Shatin Pass Road, Wong Tai Sin, KLN","NameTC":"東華三院黃大仙醫院","AddressTC":"九龍黃大仙沙田坳道124號","ClusterEN":"KOWLOON CENTRAL CLUSTER","ClusterTC":"九龍中醫院聯網","TelephoneEN":"2320 0377","TelephoneTC":"2320 0377","WebsiteEN":"https://www.ha.org.hk/visitor/ha_visitor_index.asp?Content_ID=100154&Lang=ENG","WebsiteTC":"https://www.ha.org.hk/visitor/ha_visitor_index.asp?Content_ID=100154&Lang=CHIB5","RemarksEN":"N.A.","RemarksTC":"N.A.","Northing":823079.09999999998,"Easting":838271.09999999998,"Latitude":22.346807999999999,"Longitude":114.19632,"LastUpdate":1653028016000}},{"type":"Feature","id":24,"geometry":{"type":"Point","coordinates":[114.27020985593903,22.317964435824997]},"properties":{"OBJECTID":24,"DatasetEN":"Hospital Authority Hospital/Institution List","DatasetTC":"醫院管理局轄下醫院/機構目錄","NameEN":"Tseung Kwan O Hospital","AddressEN":"No. 2 Po Ning Lane, Hang Hau, Tseung Kwan O","NameTC":"將軍澳醫院","AddressTC":"將軍澳坑口寶寧里2號","ClusterEN":"KOWLOON EAST CLUSTER","ClusterTC":"九龍東醫院聯網","TelephoneEN":"2208 0111","TelephoneTC":"2208 0111","WebsiteEN":"https://www.ha.org.hk/visitor/ha_visitor_index.asp?Content_ID=101326&Lang=ENG","WebsiteTC":"https://www.ha.org.hk/visitor/ha_visitor_index.asp?Content_ID=101326&Lang=CHIB5","RemarksEN":"N.A.","RemarksTC":"N.A.","Northing":819888,"Easting":845884.40000000002,"Latitude":22.317964,"Longitude":114.27021000000001,"LastUpdate":1653028016000}},{"type":"Feature","id":25,"geometry":{"type":"Point","coordinates":[114.17463975849169,22.461430223521567]},"properties":{"OBJECTID":25,"DatasetEN":"Hospital Authority Hospital/Institution List","DatasetTC":"醫院管理局轄下醫院/機構目錄","NameEN":"Tai Po Hospital","AddressEN":"9 Chuen On Road, Tai Po, NT","NameTC":"大埔醫院","AddressTC":"新界大埔全安路9號","ClusterEN":"NEW TERRITORIES EAST CLUSTER","ClusterTC":"新界東醫院聯網","TelephoneEN":"2607 6111","TelephoneTC":"2607 6111","WebsiteEN":"https://www.ha.org.hk/visitor/ha_visitor_index.asp?Content_ID=100172&Lang=ENG","WebsiteTC":"https://www.ha.org.hk/visitor/ha_visitor_index.asp?Content_ID=100172&Lang=CHIB5","RemarksEN":"N.A.","RemarksTC":"N.A.","Northing":835771.80000000005,"Easting":836038,"Latitude":22.46143,"Longitude":114.17464,"LastUpdate":1653028015000}},{"type":"Feature","id":26,"geometry":{"type":"Point","coordinates":[113.99584990569923,22.458703581825816]},"properties":{"OBJECTID":26,"DatasetEN":"Hospital Authority Hospital/Institution List","DatasetTC":"醫院管理局轄下醫院/機構目錄","NameEN":"Tin Shui Wai Hospital","AddressEN":"11 Tin Tan Street, Tin Shui Wai, NT","NameTC":"天水圍醫院","AddressTC":"新界天水圍天壇街11號","ClusterEN":"NEW TERRITORIES WEST CLUSTER","ClusterTC":"新界西醫院聯網","TelephoneEN":"3513 5000","TelephoneTC":"3513 5000","WebsiteEN":"https://www.ha.org.hk/visitor/ha_visitor_index.asp?Content_ID=235909&Lang=ENG","WebsiteTC":"https://www.ha.org.hk/visitor/ha_visitor_index.asp?Content_ID=235909&Lang=CHIB5","RemarksEN":"N.A.","RemarksTC":"N.A.","Northing":835481.09999999998,"Easting":817635.69999999995,"Latitude":22.458704000000001,"Longitude":113.99585,"LastUpdate":1653028015000}},{"type":"Feature","id":27,"geometry":{"type":"Point","coordinates":[114.1751895262433,22.308859571373144]},"properties":{"OBJECTID":27,"DatasetEN":"Hospital Authority Hospital/Institution List","DatasetTC":"醫院管理局轄下醫院/機構目錄","NameEN":"Queen Elizabeth Hospital","AddressEN":"30 Gascoigne Road, KLN","NameTC":"伊利沙伯醫院","AddressTC":"九龍加士居道30號","ClusterEN":"KOWLOON CENTRAL CLUSTER","ClusterTC":"九龍中醫院聯網","TelephoneEN":"3506 8888","TelephoneTC":"3506 8888","WebsiteEN":"https://www.ha.org.hk/visitor/ha_visitor_index.asp?Content_ID=100149&Lang=ENG","WebsiteTC":"https://www.ha.org.hk/visitor/ha_visitor_index.asp?Content_ID=100149&Lang=CHIB5","RemarksEN":"N.A.","RemarksTC":"N.A.","Northing":818876.80000000005,"Easting":836094.40000000002,"Latitude":22.308859999999999,"Longitude":114.17519,"LastUpdate":1653028014000}},{"type":"Feature","id":28,"geometry":{"type":"Point","coordinates":[114.21262990275645,22.398115445354787]},"properties":{"OBJECTID":28,"DatasetEN":"Hospital Authority Hospital/Institution List","DatasetTC":"醫院管理局轄下醫院/機構目錄","NameEN":"Shatin Hospital","AddressEN":"33 A Kung Kok Street, Ma On Shan, Shatin, NT","NameTC":"沙田醫院","AddressTC":"新界沙田馬鞍山亞公角街33號","ClusterEN":"NEW TERRITORIES EAST CLUSTER","ClusterTC":"新界東醫院聯網","TelephoneEN":"3919 7500","TelephoneTC":"3919 7500","WebsiteEN":"https://www.ha.org.hk/visitor/ha_visitor_index.asp?Content_ID=100168&Lang=ENG","WebsiteTC":"https://www.ha.org.hk/visitor/ha_visitor_index.asp?Content_ID=100168&Lang=CHIB5","RemarksEN":"N.A.","RemarksTC":"N.A.","Northing":828761,"Easting":839949.80000000005,"Latitude":22.398115000000001,"Longitude":114.21263,"LastUpdate":1653028014000}},{"type":"Feature","id":29,"geometry":{"type":"Point","coordinates":[113.97486953547369,22.410049841047897]},"properties":{"OBJECTID":29,"DatasetEN":"Hospital Authority Hospital/Institution List","DatasetTC":"醫院管理局轄下醫院/機構目錄","NameEN":"Siu Lam Hospital","AddressEN":"15 Tsing Chung Koon Road, Tuen Mun, N.T.","NameTC":"小欖醫院","AddressTC":"新界屯門青松觀路15號","ClusterEN":"NEW TERRITORIES WEST CLUSTER","ClusterTC":"新界西醫院聯網","TelephoneEN":"2456 7111","TelephoneTC":"2456 7111","WebsiteEN":"https://www.ha.org.hk/visitor/ha_visitor_index.asp?Content_ID=100177&Lang=ENG","WebsiteTC":"https://www.ha.org.hk/visitor/ha_visitor_index.asp?Content_ID=100177&Lang=CHIB5","RemarksEN":"N.A.","RemarksTC":"N.A.","Northing":830096.09999999998,"Easting":815469,"Latitude":22.410049999999998,"Longitude":113.97487,"LastUpdate":1653028014000}},{"type":"Feature","id":30,"geometry":{"type":"Point","coordinates":[114.20128960925652,22.379939128120377]},"properties":{"OBJECTID":30,"DatasetEN":"Hospital Authority Hospital/Institution List","DatasetTC":"醫院管理局轄下醫院/機構目錄","NameEN":"Prince of Wales Hospital","AddressEN":"30-32 Ngan Shing Street, Shatin, NT","NameTC":"威爾斯親王醫院","AddressTC":"新界沙田銀城街30-32號","ClusterEN":"NEW TERRITORIES EAST CLUSTER","ClusterTC":"新界東醫院聯網","TelephoneEN":"3505 2211","TelephoneTC":"3505 2211","WebsiteEN":"https://www.ha.org.hk/visitor/ha_visitor_index.asp?Content_ID=100166&Lang=ENG","WebsiteTC":"https://www.ha.org.hk/visitor/ha_visitor_index.asp?Content_ID=100166&Lang=CHIB5","RemarksEN":"N.A.","RemarksTC":"N.A.","Northing":826748,"Easting":838782.40000000002,"Latitude":22.379939,"Longitude":114.20129,"LastUpdate":1653028013000}},{"type":"Feature","id":31,"geometry":{"type":"Point","coordinates":[113.93913996854242,22.282570842780885]},"properties":{"OBJECTID":31,"DatasetEN":"Hospital Authority Hospital/Institution List","DatasetTC":"醫院管理局轄下醫院/機構目錄","NameEN":"North Lantau Hospital","AddressEN":"8 Chung Yan Road, Tung Chung, Lantau Island","NameTC":"北大嶼山醫院","AddressTC":"大嶼山東涌松仁路8號","ClusterEN":"KOWLOON WEST CLUSTER","ClusterTC":"九龍西醫院聯網","TelephoneEN":"3467 7000","TelephoneTC":"3467 7000","WebsiteEN":"https://www.ha.org.hk/visitor/ha_visitor_index.asp?Content_ID=216546&Lang=ENG","WebsiteTC":"https://www.ha.org.hk/visitor/ha_visitor_index.asp?Content_ID=216546&Lang=CHIB5","RemarksEN":"N.A.","RemarksTC":"N.A.","Northing":815985,"Easting":811767.90000000002,"Latitude":22.282571000000001,"Longitude":113.93913999999999,"LastUpdate":1653028013000}},{"type":"Feature","id":32,"geometry":{"type":"Point","coordinates":[114.19657048426487,22.345587575592408]},"properties":{"OBJECTID":32,"DatasetEN":"Hospital Authority Hospital/Institution List","DatasetTC":"醫院管理局轄下醫院/機構目錄","NameEN":"Our Lady of Maryknoll Hospital","AddressEN":"118 Shatin Pass Road, Wong Tai Sin, KLN","NameTC":"聖母醫院","AddressTC":"九龍黃大仙沙田坳道118號","ClusterEN":"KOWLOON CENTRAL CLUSTER","ClusterTC":"九龍中醫院聯網","TelephoneEN":"2320 2121","TelephoneTC":"2320 2121","WebsiteEN":"https://www.ha.org.hk/visitor/ha_visitor_index.asp?Content_ID=100155&Lang=ENG","WebsiteTC":"https://www.ha.org.hk/visitor/ha_visitor_index.asp?Content_ID=100155&Lang=CHIB5","RemarksEN":"N.A.","RemarksTC":"N.A.","Northing":822944,"Easting":838296.90000000002,"Latitude":22.345587999999999,"Longitude":114.19656999999999,"LastUpdate":1653028013000}},{"type":"Feature","id":33,"geometry":{"type":"Point","coordinates":[114.04159047670348,22.445229854304017]},"properties":{"OBJECTID":33,"DatasetEN":"Hospital Authority Hospital/Institution List","DatasetTC":"醫院管理局轄下醫院/機構目錄","NameEN":"Pok Oi Hospital","AddressEN":"Au Tau, Yuen Long, NT","NameTC":"博愛醫院","AddressTC":"新界元朗坳頭","ClusterEN":"NEW TERRITORIES WEST CLUSTER","ClusterTC":"新界西醫院聯網","TelephoneEN":"2486 8000","TelephoneTC":"2486 8000","WebsiteEN":"https://www.ha.org.hk/visitor/ha_visitor_index.asp?Content_ID=100174&Lang=ENG","WebsiteTC":"https://www.ha.org.hk/visitor/ha_visitor_index.asp?Content_ID=100174&Lang=CHIB5","RemarksEN":"N.A.","RemarksTC":"N.A.","Northing":833984.09999999998,"Easting":822342.30000000005,"Latitude":22.445229999999999,"Longitude":114.04159,"LastUpdate":1653028013000}},{"type":"Feature","id":34,"geometry":{"type":"Point","coordinates":[114.12455983241948,22.496831826849906]},"properties":{"OBJECTID":34,"DatasetEN":"Hospital Authority Hospital/Institution List","DatasetTC":"醫院管理局轄下醫院/機構目錄","NameEN":"North District Hospital","AddressEN":"9 Po Kin Road, Sheung Shui, NT","NameTC":"北區醫院","AddressTC":"新界上水保健路9號","ClusterEN":"NEW TERRITORIES EAST CLUSTER","ClusterTC":"新界東醫院聯網","TelephoneEN":"2683 8888","TelephoneTC":"2683 8888","WebsiteEN":"https://www.ha.org.hk/visitor/ha_visitor_index.asp?Content_ID=100178&Lang=ENG","WebsiteTC":"https://www.ha.org.hk/visitor/ha_visitor_index.asp?Content_ID=100178&Lang=CHIB5","RemarksEN":"N.A.","RemarksTC":"N.A.","Northing":839693,"Easting":830884.90000000002,"Latitude":22.496832000000001,"Longitude":114.12456,"LastUpdate":1653028012000}},{"type":"Feature","id":35,"geometry":{"type":"Point","coordinates":[114.17956979095699,22.323707665614418]},"properties":{"OBJECTID":35,"DatasetEN":"Hospital Authority Hospital/Institution List","DatasetTC":"醫院管理局轄下醫院/機構目錄","NameEN":"Kowloon Hospital","AddressEN":"147A Argyle Street, KLN","NameTC":"九龍醫院","AddressTC":"九龍亞皆老街147A","ClusterEN":"KOWLOON CENTRAL CLUSTER","ClusterTC":"九龍中醫院聯網","TelephoneEN":"3129 7111","TelephoneTC":"3129 7111","WebsiteEN":"https://www.ha.org.hk/visitor/ha_visitor_index.asp?Content_ID=100151&Lang=ENG","WebsiteTC":"https://www.ha.org.hk/visitor/ha_visitor_index.asp?Content_ID=100151&Lang=CHIB5","RemarksEN":"N.A.","RemarksTC":"N.A.","Northing":820521,"Easting":836545.69999999995,"Latitude":22.323708,"Longitude":114.17957,"LastUpdate":1653028012000}},{"type":"Feature","id":36,"geometry":{"type":"Point","coordinates":[114.18874031748507,22.335679998155744]},"properties":{"OBJECTID":36,"DatasetEN":"Hospital Authority Hospital/Institution List","DatasetTC":"醫院管理局轄下醫院/機構目錄","NameEN":"Hong Kong Buddhist Hospital","AddressEN":"10 Heng Lam Street, Lok Fu, KLN","NameTC":"香港佛教醫院","AddressTC":"九龍樂富杏林街10號","ClusterEN":"KOWLOON CENTRAL CLUSTER","ClusterTC":"九龍中醫院聯網","TelephoneEN":"2339 6111","TelephoneTC":"2339 6111","WebsiteEN":"https://www.ha.org.hk/visitor/ha_visitor_index.asp?Content_ID=100152&Lang=ENG","WebsiteTC":"https://www.ha.org.hk/visitor/ha_visitor_index.asp?Content_ID=100152&Lang=CHIB5","RemarksEN":"N.A.","RemarksTC":"N.A.","Northing":821846.80000000005,"Easting":837490.40000000002,"Latitude":22.33568,"Longitude":114.18874,"LastUpdate":1653028011000}},{"type":"Feature","id":37,"geometry":{"type":"Point","coordinates":[114.17442957287444,22.310793917513177]},"properties":{"OBJECTID":37,"DatasetEN":"Hospital Authority Hospital/Institution List","DatasetTC":"醫院管理局轄下醫院/機構目錄","NameEN":"Hong Kong Red Cross Blood Transfusion Service","AddressEN":"15 King's Park Rise, KLN","NameTC":"香港紅十字會輸血服務中心","AddressTC":"九龍京士柏道15號","ClusterEN":"KOWLOON CENTRAL CLUSTER","ClusterTC":"九龍中醫院聯網","TelephoneEN":"2710 1234","TelephoneTC":"2710 1234","WebsiteEN":"https://www.ha.org.hk/visitor/ha_visitor_index.asp?Content_ID=100179&Lang=ENG","WebsiteTC":"https://www.ha.org.hk/visitor/ha_visitor_index.asp?Content_ID=100179&Lang=CHIB5","RemarksEN":"N.A.","RemarksTC":"N.A.","Northing":819091,"Easting":836016.09999999998,"Latitude":22.310794000000001,"Longitude":114.17443,"LastUpdate":1653028011000}},{"type":"Feature","id":38,"geometry":{"type":"Point","coordinates":[114.20885954755832,22.315756699768315]},"properties":{"OBJECTID":38,"DatasetEN":"Hospital Authority Hospital/Institution List","DatasetTC":"醫院管理局轄下醫院/機構目錄","NameEN":"Hong Kong Children's Hospital","AddressEN":"1 Shing Cheong Road, Kowloon Bay, KLN","NameTC":"香港兒童醫院","AddressTC":"九龍灣承昌道一號","ClusterEN":"KOWLOON CENTRAL CLUSTER","ClusterTC":"九龍中醫院聯網","TelephoneEN":"3513 3888","TelephoneTC":"3513 3888","WebsiteEN":"https://www.ha.org.hk/visitor/ha_visitor_index.asp?Content_ID=244164&Lang=ENG","WebsiteTC":"https://www.ha.org.hk/visitor/ha_visitor_index.asp?Content_ID=244164&Lang=CHIB5","RemarksEN":"N.A.","RemarksTC":"N.A.","Northing":819640.90000000002,"Easting":839563.5,"Latitude":22.315757000000001,"Longitude":114.20886,"LastUpdate":1653028011000}},{"type":"Feature","id":39,"geometry":{"type":"Point","coordinates":[114.1846200292386,22.324926631131213]},"properties":{"OBJECTID":39,"DatasetEN":"Hospital Authority Hospital/Institution List","DatasetTC":"醫院管理局轄下醫院/機構目錄","NameEN":"Hong Kong Eye Hospital","AddressEN":"147K Argyle Street, KLN","NameTC":"香港眼科醫院","AddressTC":"九龍亞皆老街147K","ClusterEN":"KOWLOON CENTRAL CLUSTER","ClusterTC":"九龍中醫院聯網","TelephoneEN":"2762 3007","TelephoneTC":"2762 3007","WebsiteEN":"https://www.ha.org.hk/visitor/ha_visitor_index.asp?Content_ID=100159&Lang=ENG","WebsiteTC":"https://www.ha.org.hk/visitor/ha_visitor_index.asp?Content_ID=100159&Lang=CHIB5","RemarksEN":"N.A.","RemarksTC":"N.A.","Northing":820656,"Easting":837066,"Latitude":22.324926999999999,"Longitude":114.18462,"LastUpdate":1653028011000}},{"type":"Feature","id":40,"geometry":{"type":"Point","coordinates":[113.97374006141389,22.410011400877302]},"properties":{"OBJECTID":40,"DatasetEN":"Hospital Authority Hospital/Institution List","DatasetTC":"醫院管理局轄下醫院/機構目錄","NameEN":"Castle Peak Hospital","AddressEN":"15 Tsing Chung Koon Road, Tuen Mun, NT","NameTC":"青山醫院","AddressTC":"新界屯門青松觀路15號","ClusterEN":"NEW TERRITORIES WEST CLUSTER","ClusterTC":"新界西醫院聯網","TelephoneEN":"2456 7111","TelephoneTC":"2456 7111","WebsiteEN":"https://www.ha.org.hk/visitor/ha_visitor_index.asp?Content_ID=100176&Lang=ENG","WebsiteTC":"https://www.ha.org.hk/visitor/ha_visitor_index.asp?Content_ID=100176&Lang=CHIB5","RemarksEN":"N.A.","RemarksTC":"N.A.","Northing":830092,"Easting":815352.69999999995,"Latitude":22.410011000000001,"Longitude":113.97374000000001,"LastUpdate":1653028010000}},{"type":"Feature","id":41,"geometry":{"type":"Point","coordinates":[114.21653031243341,22.399180134478275]},"properties":{"OBJECTID":41,"DatasetEN":"Hospital Authority Hospital/Institution List","DatasetTC":"醫院管理局轄下醫院/機構目錄","NameEN":"Cheshire Home, Shatin","AddressEN":"30 A Kung Kok Shan Road, Shatin, NT","NameTC":"沙田慈氏護養院","AddressTC":"新界沙田亞公角山路30號","ClusterEN":"NEW TERRITORIES EAST CLUSTER","ClusterTC":"新界東醫院聯網","TelephoneEN":"2636 7288","TelephoneTC":"2636 7288","WebsiteEN":"https://www.ha.org.hk/visitor/ha_visitor_index.asp?Content_ID=100169&Lang=ENG","WebsiteTC":"https://www.ha.org.hk/visitor/ha_visitor_index.asp?Content_ID=100169&Lang=CHIB5","RemarksEN":"N.A.","RemarksTC":"N.A.","Northing":828879,"Easting":840351.40000000002,"Latitude":22.399180000000001,"Longitude":114.21653000000001,"LastUpdate":1653028010000}},{"type":"Feature","id":42,"geometry":{"type":"Point","coordinates":[114.2150996261753,22.39851222201774]},"properties":{"OBJECTID":42,"DatasetEN":"Hospital Authority Hospital/Institution List","DatasetTC":"醫院管理局轄下醫院/機構目錄","NameEN":"Bradbury Hospice","AddressEN":"17 A Kung Kok Shan Road, Shatin, NT","NameTC":"白普理寧養中心","AddressTC":"新界沙田亞公角山路17號","ClusterEN":"NEW TERRITORIES EAST CLUSTER","ClusterTC":"新界東醫院聯網","TelephoneEN":"2636 0163","TelephoneTC":"2636 0163","WebsiteEN":"https://www.ha.org.hk/visitor/ha_visitor_index.asp?Content_ID=100170&Lang=ENG","WebsiteTC":"https://www.ha.org.hk/visitor/ha_visitor_index.asp?Content_ID=100170&Lang=CHIB5","RemarksEN":"N.A.","RemarksTC":"N.A.","Northing":828805,"Easting":840204.09999999998,"Latitude":22.398512,"Longitude":114.21510000000001,"LastUpdate":1653028010000}},{"type":"Feature","id":43,"geometry":{"type":"Point","coordinates":[114.15230969534025,22.340629140538326]},"properties":{"OBJECTID":43,"DatasetEN":"Hospital Authority Hospital/Institution List","DatasetTC":"醫院管理局轄下醫院/機構目錄","NameEN":"Caritas Medical Centre","AddressEN":"111 Wing Hong Street, Sham Shui Po, KLN","NameTC":"明愛醫院","AddressTC":"九龍深水埗永康街111號","ClusterEN":"KOWLOON WEST CLUSTER","ClusterTC":"九龍西醫院聯網","TelephoneEN":"3408 5678","TelephoneTC":"3408 5678","WebsiteEN":"https://www.ha.org.hk/visitor/ha_visitor_index.asp?Content_ID=100163&Lang=ENG","WebsiteTC":"https://www.ha.org.hk/visitor/ha_visitor_index.asp?Content_ID=100163&Lang=CHIB5","RemarksEN":"N.A.","RemarksTC":"N.A.","Northing":822395,"Easting":833737.5,"Latitude":22.340629,"Longitude":114.15231,"LastUpdate":1653028010000}},{"type":"Feature","id":44,"geometry":{"type":"Point","coordinates":[114.17479039405714,22.458695808882148]},"properties":{"OBJECTID":44,"DatasetEN":"Hospital Authority Hospital/Institution List","DatasetTC":"醫院管理局轄下醫院/機構目錄","NameEN":"Alice Ho Miu Ling Nethersole Hospital","AddressEN":"11 Chuen On Road, Tai Po, NT","NameTC":"雅麗氏何妙齡那打素醫院","AddressTC":"新界大埔全安路11號","ClusterEN":"NEW TERRITORIES EAST CLUSTER","ClusterTC":"新界東醫院聯網","TelephoneEN":"2689 2000","TelephoneTC":"2689 2000","WebsiteEN":"https://www.ha.org.hk/visitor/ha_visitor_index.asp?Content_ID=100171&Lang=ENG","WebsiteTC":"https://www.ha.org.hk/visitor/ha_visitor_index.asp?Content_ID=100171&Lang=CHIB5","RemarksEN":"N.A.","RemarksTC":"N.A.","Northing":835469,"Easting":836053.5,"Latitude":22.458696,"Longitude":114.17479,"LastUpdate":1653028009000}}]}