{"type":"FeatureCollection","features":[{"type":"Feature","id":"amenity_point.251032","geometry":{"type":"Point","coordinates":[114.16076148000002,22.329657310000073,4.570000000006985]},"geometry_name":"shape","properties":{"amenity_id":"3d5b1c02-102a-4403-8a40-499b873b133d","amenity_category":"stairs","amenity_name_en":"Stair","amenity_name_zh":"樓梯","amenity_alt_name":null,"amenity_accessibility":null,"amenity_phone":null,"amenity_website":null,"amenity_hours":null,"amenity_correlation_id":null,"unit_id":"ea688589-a913-439a-aebe-beb02ea53f2f","level_id":"ea7e7b10-672d-47ce-85d8-b01a89185e00","level_floorpolyid":"F3464621134T2005043002000000","level_ordinal":0,"level_z_value":4.57,"level_name_en":"GROUND FLOOR","level_name_zh":null,"level_short_name_en":"G/F","venue_id":"61f55315-a44b-47ed-9201-7da2e5bcf1c1","building_id":"9ac49e56-893f-4983-831d-0310158eece1","bbox":[114.16076148000002,22.329657310000073,114.16076148000002,22.329657310000073]}},{"type":"Feature","id":"amenity_point.251033","geometry":{"type":"Point","coordinates":[114.16076998000005,22.329663740000058,11.570000000006985]},"geometry_name":"shape","properties":{"amenity_id":"c2c1092a-b13d-42f1-9b09-54faa5ddf10e","amenity_category":"stairs","amenity_name_en":"Stair","amenity_name_zh":"樓梯","amenity_alt_name":null,"amenity_accessibility":null,"amenity_phone":null,"amenity_website":null,"amenity_hours":null,"amenity_correlation_id":null,"unit_id":"99f4f7cb-0f46-44ac-9503-98220633bddf","level_id":"391de1b0-4624-4df0-b67b-1aedef9b2aa5","level_floorpolyid":"F3464621134T2005043001000100","level_ordinal":1,"level_z_value":11.57,"level_name_en":"1st FLOOR","level_name_zh":null,"level_short_name_en":"1/F","venue_id":"61f55315-a44b-47ed-9201-7da2e5bcf1c1","building_id":"9ac49e56-893f-4983-831d-0310158eece1","bbox":[114.16076998000005,22.329663740000058,114.16076998000005,22.329663740000058]}},{"type":"Feature","id":"amenity_point.251035","geometry":{"type":"Point","coordinates":[114.16055410000001,22.329428550000046,4.570000000006985]},"geometry_name":"shape","properties":{"amenity_id":"5eb360bc-5aa0-4a7e-a641-4003af63d279","amenity_category":"stairs","amenity_name_en":"Stair","amenity_name_zh":"樓梯","amenity_alt_name":null,"amenity_accessibility":null,"amenity_phone":null,"amenity_website":null,"amenity_hours":null,"amenity_correlation_id":null,"unit_id":"60120db9-b9e8-4678-ab7a-892159f96011","level_id":"ea7e7b10-672d-47ce-85d8-b01a89185e00","level_floorpolyid":"F3464621134T2005043002000000","level_ordinal":0,"level_z_value":4.57,"level_name_en":"GROUND FLOOR","level_name_zh":null,"level_short_name_en":"G/F","venue_id":"61f55315-a44b-47ed-9201-7da2e5bcf1c1","building_id":"9ac49e56-893f-4983-831d-0310158eece1","bbox":[114.16055410000001,22.329428550000046,114.16055410000001,22.329428550000046]}},{"type":"Feature","id":"amenity_point.251036","geometry":{"type":"Point","coordinates":[114.16055267000002,22.329427250000037,11.570000000006985]},"geometry_name":"shape","properties":{"amenity_id":"d661ebb0-7f22-461e-8915-1c246e3478ec","amenity_category":"stairs","amenity_name_en":"Stair","amenity_name_zh":"樓梯","amenity_alt_name":null,"amenity_accessibility":null,"amenity_phone":null,"amenity_website":null,"amenity_hours":null,"amenity_correlation_id":null,"unit_id":"4d46f294-6973-47cc-8baf-0a5e9482a9ae","level_id":"391de1b0-4624-4df0-b67b-1aedef9b2aa5","level_floorpolyid":"F3464621134T2005043001000100","level_ordinal":1,"level_z_value":11.57,"level_name_en":"1st FLOOR","level_name_zh":null,"level_short_name_en":"1/F","venue_id":"61f55315-a44b-47ed-9201-7da2e5bcf1c1","building_id":"9ac49e56-893f-4983-831d-0310158eece1","bbox":[114.16055267000002,22.329427250000037,114.16055267000002,22.329427250000037]}},{"type":"Feature","id":"amenity_point.251038","geometry":{"type":"Point","coordinates":[114.16068889000007,22.32958412000005,11.570000000006985]},"geometry_name":"shape","properties":{"amenity_id":"aa9781b0-2d02-41f7-a10c-9ed277ad659a","amenity_category":"escalator","amenity_name_en":"DN 2/F-1/F","amenity_name_zh":"扶手電梯","amenity_alt_name":null,"amenity_accessibility":null,"amenity_phone":null,"amenity_website":null,"amenity_hours":null,"amenity_correlation_id":null,"unit_id":"e637282b-bbb4-45bf-872f-b73f38cdc0f4","level_id":"391de1b0-4624-4df0-b67b-1aedef9b2aa5","level_floorpolyid":"F3464621134T2005043001000100","level_ordinal":1,"level_z_value":11.57,"level_name_en":"1st FLOOR","level_name_zh":null,"level_short_name_en":"1/F","venue_id":"61f55315-a44b-47ed-9201-7da2e5bcf1c1","building_id":"9ac49e56-893f-4983-831d-0310158eece1","bbox":[114.16068889000007,22.32958412000005,114.16068889000007,22.32958412000005]}},{"type":"Feature","id":"amenity_point.251039","geometry":{"type":"Point","coordinates":[114.16097830000001,22.329278600000066,4.570000000006985]},"geometry_name":"shape","properties":{"amenity_id":"be0caf14-70ec-43a7-a1b6-3681d4728a9c","amenity_category":"stairs","amenity_name_en":"Stair","amenity_name_zh":"樓梯","amenity_alt_name":null,"amenity_accessibility":null,"amenity_phone":null,"amenity_website":null,"amenity_hours":null,"amenity_correlation_id":null,"unit_id":"ea4c38d4-1c98-428c-b60b-338696204415","level_id":"ea7e7b10-672d-47ce-85d8-b01a89185e00","level_floorpolyid":"F3464621134T2005043002000000","level_ordinal":0,"level_z_value":4.57,"level_name_en":"GROUND FLOOR","level_name_zh":null,"level_short_name_en":"G/F","venue_id":"61f55315-a44b-47ed-9201-7da2e5bcf1c1","building_id":"9ac49e56-893f-4983-831d-0310158eece1","bbox":[114.16097830000001,22.329278600000066,114.16097830000001,22.329278600000066]}},{"type":"Feature","id":"amenity_point.251040","geometry":{"type":"Point","coordinates":[114.16098223000006,22.329285480000067,11.570000000006985]},"geometry_name":"shape","properties":{"amenity_id":"ecc52188-f655-4152-91b7-3e57fd5b52d5","amenity_category":"stairs","amenity_name_en":"Stair","amenity_name_zh":"樓梯","amenity_alt_name":null,"amenity_accessibility":null,"amenity_phone":null,"amenity_website":null,"amenity_hours":null,"amenity_correlation_id":null,"unit_id":"c621ae3d-daed-459c-a675-64ae252d97c3","level_id":"391de1b0-4624-4df0-b67b-1aedef9b2aa5","level_floorpolyid":"F3464621134T2005043001000100","level_ordinal":1,"level_z_value":11.57,"level_name_en":"1st FLOOR","level_name_zh":null,"level_short_name_en":"1/F","venue_id":"61f55315-a44b-47ed-9201-7da2e5bcf1c1","building_id":"9ac49e56-893f-4983-831d-0310158eece1","bbox":[114.16098223000006,22.329285480000067,114.16098223000006,22.329285480000067]}},{"type":"Feature","id":"amenity_point.251042","geometry":{"type":"Point","coordinates":[114.16105478000009,22.32933556000006,4.570000000006985]},"geometry_name":"shape","properties":{"amenity_id":"72f246c7-5b91-41e4-a26e-220fb20c5ae2","amenity_category":"escalator","amenity_name_en":"DN 1/F-G/F","amenity_name_zh":"扶手電梯","amenity_alt_name":null,"amenity_accessibility":null,"amenity_phone":null,"amenity_website":null,"amenity_hours":null,"amenity_correlation_id":null,"unit_id":"014d7e88-d39d-4e1e-8b25-44fa10094551","level_id":"ea7e7b10-672d-47ce-85d8-b01a89185e00","level_floorpolyid":"F3464621134T2005043002000000","level_ordinal":0,"level_z_value":4.57,"level_name_en":"GROUND FLOOR","level_name_zh":null,"level_short_name_en":"G/F","venue_id":"61f55315-a44b-47ed-9201-7da2e5bcf1c1","building_id":"9ac49e56-893f-4983-831d-0310158eece1","bbox":[114.16105478000009,22.32933556000006,114.16105478000009,22.32933556000006]}},{"type":"Feature","id":"amenity_point.251043","geometry":{"type":"Point","coordinates":[114.16108936,22.32935254000006,4.570000000006985]},"geometry_name":"shape","properties":{"amenity_id":"f9e62cf3-2c2d-4843-8759-399a3c8c3778","amenity_category":"stairs","amenity_name_en":"Stair","amenity_name_zh":"樓梯","amenity_alt_name":null,"amenity_accessibility":null,"amenity_phone":null,"amenity_website":null,"amenity_hours":null,"amenity_correlation_id":null,"unit_id":"2c2f391e-304a-4da4-9226-182b4d88805b","level_id":"ea7e7b10-672d-47ce-85d8-b01a89185e00","level_floorpolyid":"F3464621134T2005043002000000","level_ordinal":0,"level_z_value":4.57,"level_name_en":"GROUND FLOOR","level_name_zh":null,"level_short_name_en":"G/F","venue_id":"61f55315-a44b-47ed-9201-7da2e5bcf1c1","building_id":"9ac49e56-893f-4983-831d-0310158eece1","bbox":[114.16108936,22.32935254000006,114.16108936,22.32935254000006]}},{"type":"Feature","id":"amenity_point.251044","geometry":{"type":"Point","coordinates":[114.16114299000003,22.32937970000006,4.570000000006985]},"geometry_name":"shape","properties":{"amenity_id":"d8bbcdc5-2459-4f7f-af64-52f7787b988e","amenity_category":"ramp","amenity_name_en":"RAMP","amenity_name_zh":"斜道","amenity_alt_name":null,"amenity_accessibility":null,"amenity_phone":null,"amenity_website":null,"amenity_hours":null,"amenity_correlation_id":null,"unit_id":"bc522463-47a6-4607-a201-2f1c72bbcbbc","level_id":"ea7e7b10-672d-47ce-85d8-b01a89185e00","level_floorpolyid":"F3464621134T2005043002000000","level_ordinal":0,"level_z_value":4.57,"level_name_en":"GROUND FLOOR","level_name_zh":null,"level_short_name_en":"G/F","venue_id":"61f55315-a44b-47ed-9201-7da2e5bcf1c1","building_id":"9ac49e56-893f-4983-831d-0310158eece1","bbox":[114.16114299000003,22.32937970000006,114.16114299000003,22.32937970000006]}},{"type":"Feature","id":"amenity_point.251045","geometry":{"type":"Point","coordinates":[114.16122786000005,22.32930383000007,4.570000000006985]},"geometry_name":"shape","properties":{"amenity_id":"c8330dcb-66ab-4809-91f7-ea623a427fd0","amenity_category":"elevator","amenity_name_en":"L.","amenity_name_zh":"升降機","amenity_alt_name":null,"amenity_accessibility":null,"amenity_phone":null,"amenity_website":null,"amenity_hours":null,"amenity_correlation_id":null,"unit_id":"06981756-52cf-48e7-b301-b0b832b3d97b","level_id":"ea7e7b10-672d-47ce-85d8-b01a89185e00","level_floorpolyid":"F3464621134T2005043002000000","level_ordinal":0,"level_z_value":4.57,"level_name_en":"GROUND FLOOR","level_name_zh":null,"level_short_name_en":"G/F","venue_id":"61f55315-a44b-47ed-9201-7da2e5bcf1c1","building_id":"9ac49e56-893f-4983-831d-0310158eece1","bbox":[114.16122786000005,22.32930383000007,114.16122786000005,22.32930383000007]}},{"type":"Feature","id":"amenity_point.251046","geometry":{"type":"Point","coordinates":[114.16122786000005,22.32930383000007,11.570000000006985]},"geometry_name":"shape","properties":{"amenity_id":"3d2a5cfb-5e1a-40ea-957c-ace5397f73aa","amenity_category":"elevator","amenity_name_en":"LIFT","amenity_name_zh":"升降機","amenity_alt_name":null,"amenity_accessibility":null,"amenity_phone":null,"amenity_website":null,"amenity_hours":null,"amenity_correlation_id":null,"unit_id":"ce88f43b-41f4-4f80-a725-955238282d70","level_id":"391de1b0-4624-4df0-b67b-1aedef9b2aa5","level_floorpolyid":"F3464621134T2005043001000100","level_ordinal":1,"level_z_value":11.57,"level_name_en":"1st FLOOR","level_name_zh":null,"level_short_name_en":"1/F","venue_id":"61f55315-a44b-47ed-9201-7da2e5bcf1c1","building_id":"9ac49e56-893f-4983-831d-0310158eece1","bbox":[114.16122786000005,22.32930383000007,114.16122786000005,22.32930383000007]}},{"type":"Feature","id":"amenity_point.251050","geometry":{"type":"Point","coordinates":[114.16119497000011,22.329304300000047,4.570000000006985]},"geometry_name":"shape","properties":{"amenity_id":"4693dd49-5b85-4fe5-ad9d-056ec0594e82","amenity_category":"elevator","amenity_name_en":"L.","amenity_name_zh":"升降機","amenity_alt_name":null,"amenity_accessibility":null,"amenity_phone":null,"amenity_website":null,"amenity_hours":null,"amenity_correlation_id":null,"unit_id":"05f3d3cc-04b9-4b26-9a16-af3372daadf6","level_id":"ea7e7b10-672d-47ce-85d8-b01a89185e00","level_floorpolyid":"F3464621134T2005043002000000","level_ordinal":0,"level_z_value":4.57,"level_name_en":"GROUND FLOOR","level_name_zh":null,"level_short_name_en":"G/F","venue_id":"61f55315-a44b-47ed-9201-7da2e5bcf1c1","building_id":"9ac49e56-893f-4983-831d-0310158eece1","bbox":[114.16119497000011,22.329304300000047,114.16119497000011,22.329304300000047]}},{"type":"Feature","id":"amenity_point.251056","geometry":{"type":"Point","coordinates":[114.16121224000005,22.329323480000028,4.570000000006985]},"geometry_name":"shape","properties":{"amenity_id":"eaf37c60-054b-4b3d-a894-320cb6227c09","amenity_category":"elevator","amenity_name_en":"L.","amenity_name_zh":"升降機","amenity_alt_name":null,"amenity_accessibility":null,"amenity_phone":null,"amenity_website":null,"amenity_hours":null,"amenity_correlation_id":null,"unit_id":"1c61e7ce-04cf-4b45-bc84-3c07744590eb","level_id":"ea7e7b10-672d-47ce-85d8-b01a89185e00","level_floorpolyid":"F3464621134T2005043002000000","level_ordinal":0,"level_z_value":4.57,"level_name_en":"GROUND FLOOR","level_name_zh":null,"level_short_name_en":"G/F","venue_id":"61f55315-a44b-47ed-9201-7da2e5bcf1c1","building_id":"9ac49e56-893f-4983-831d-0310158eece1","bbox":[114.16121224000005,22.329323480000028,114.16121224000005,22.329323480000028]}},{"type":"Feature","id":"amenity_point.251062","geometry":{"type":"Point","coordinates":[114.16117861000009,22.329286120000063,4.570000000006985]},"geometry_name":"shape","properties":{"amenity_id":"192699c0-5d2c-4163-b7c5-1bc022b526d3","amenity_category":"elevator","amenity_name_en":"L.","amenity_name_zh":"升降機","amenity_alt_name":null,"amenity_accessibility":null,"amenity_phone":null,"amenity_website":null,"amenity_hours":null,"amenity_correlation_id":null,"unit_id":"dc8bf103-2681-4774-877f-b1a44ae478cb","level_id":"ea7e7b10-672d-47ce-85d8-b01a89185e00","level_floorpolyid":"F3464621134T2005043002000000","level_ordinal":0,"level_z_value":4.57,"level_name_en":"GROUND FLOOR","level_name_zh":null,"level_short_name_en":"G/F","venue_id":"61f55315-a44b-47ed-9201-7da2e5bcf1c1","building_id":"9ac49e56-893f-4983-831d-0310158eece1","bbox":[114.16117861000009,22.329286120000063,114.16117861000009,22.329286120000063]}},{"type":"Feature","id":"amenity_point.251068","geometry":{"type":"Point","coordinates":[114.16120277000005,22.329275960000075,4.570000000006985]},"geometry_name":"shape","properties":{"amenity_id":"67405abf-961d-4055-b40f-20d9ee2f60b9","amenity_category":"elevator","amenity_name_en":"FIREMAN'S L.","amenity_name_zh":"升降機(消防員專用)","amenity_alt_name":null,"amenity_accessibility":null,"amenity_phone":null,"amenity_website":null,"amenity_hours":null,"amenity_correlation_id":null,"unit_id":"e11619b8-7634-42d4-bd8e-0d158fc256dd","level_id":"ea7e7b10-672d-47ce-85d8-b01a89185e00","level_floorpolyid":"F3464621134T2005043002000000","level_ordinal":0,"level_z_value":4.57,"level_name_en":"GROUND FLOOR","level_name_zh":null,"level_short_name_en":"G/F","venue_id":"61f55315-a44b-47ed-9201-7da2e5bcf1c1","building_id":"9ac49e56-893f-4983-831d-0310158eece1","bbox":[114.16120277000005,22.329275960000075,114.16120277000005,22.329275960000075]}},{"type":"Feature","id":"amenity_point.251069","geometry":{"type":"Point","coordinates":[114.16120277000005,22.329275970000026,11.570000000006985]},"geometry_name":"shape","properties":{"amenity_id":"526473aa-3d67-41bc-9548-36d8a24afa97","amenity_category":"elevator","amenity_name_en":"FIREMAN'S LIFT","amenity_name_zh":"升降機(消防員專用)","amenity_alt_name":null,"amenity_accessibility":null,"amenity_phone":null,"amenity_website":null,"amenity_hours":null,"amenity_correlation_id":null,"unit_id":"c2444917-2c35-45cd-9855-a6c9dcab2a10","level_id":"391de1b0-4624-4df0-b67b-1aedef9b2aa5","level_floorpolyid":"F3464621134T2005043001000100","level_ordinal":1,"level_z_value":11.57,"level_name_en":"1st FLOOR","level_name_zh":null,"level_short_name_en":"1/F","venue_id":"61f55315-a44b-47ed-9201-7da2e5bcf1c1","building_id":"9ac49e56-893f-4983-831d-0310158eece1","bbox":[114.16120277000005,22.329275970000026,114.16120277000005,22.329275970000026]}},{"type":"Feature","id":"amenity_point.251078","geometry":{"type":"Point","coordinates":[114.16117210000004,22.329259640000032,4.570000000006985]},"geometry_name":"shape","properties":{"amenity_id":"6ec814f5-a3db-4382-a917-d36b8e743524","amenity_category":"ramp","amenity_name_en":"RAMP","amenity_name_zh":"斜道","amenity_alt_name":null,"amenity_accessibility":null,"amenity_phone":null,"amenity_website":null,"amenity_hours":null,"amenity_correlation_id":null,"unit_id":"c58aa3f3-b126-4667-92de-c19eb1bdab6c","level_id":"ea7e7b10-672d-47ce-85d8-b01a89185e00","level_floorpolyid":"F3464621134T2005043002000000","level_ordinal":0,"level_z_value":4.57,"level_name_en":"GROUND FLOOR","level_name_zh":null,"level_short_name_en":"G/F","venue_id":"61f55315-a44b-47ed-9201-7da2e5bcf1c1","building_id":"9ac49e56-893f-4983-831d-0310158eece1","bbox":[114.16117210000004,22.329259640000032,114.16117210000004,22.329259640000032]}},{"type":"Feature","id":"amenity_point.251079","geometry":{"type":"Point","coordinates":[114.16115332000004,22.329281070000036,11.570000000006985]},"geometry_name":"shape","properties":{"amenity_id":"48875cce-982e-48f4-a481-d6522e07db09","amenity_category":"escalator","amenity_name_en":"UP G/F-1/F","amenity_name_zh":"扶手電梯","amenity_alt_name":null,"amenity_accessibility":null,"amenity_phone":null,"amenity_website":null,"amenity_hours":null,"amenity_correlation_id":null,"unit_id":"385b7e0e-5c3f-4b49-8ab3-42d9266e2c6e","level_id":"391de1b0-4624-4df0-b67b-1aedef9b2aa5","level_floorpolyid":"F3464621134T2005043001000100","level_ordinal":1,"level_z_value":11.57,"level_name_en":"1st FLOOR","level_name_zh":null,"level_short_name_en":"1/F","venue_id":"61f55315-a44b-47ed-9201-7da2e5bcf1c1","building_id":"9ac49e56-893f-4983-831d-0310158eece1","bbox":[114.16115332000004,22.329281070000036,114.16115332000004,22.329281070000036]}},{"type":"Feature","id":"amenity_point.251080","geometry":{"type":"Point","coordinates":[114.1614636600001,22.329117850000046,4.570000000006985]},"geometry_name":"shape","properties":{"amenity_id":"529da35d-848b-4522-a94c-6bba6dfc178e","amenity_category":"stairs","amenity_name_en":"Stair","amenity_name_zh":"樓梯","amenity_alt_name":null,"amenity_accessibility":null,"amenity_phone":null,"amenity_website":null,"amenity_hours":null,"amenity_correlation_id":null,"unit_id":"28675a34-f878-45b9-ad96-a6699ca2e397","level_id":"ea7e7b10-672d-47ce-85d8-b01a89185e00","level_floorpolyid":"F3464621134T2005043002000000","level_ordinal":0,"level_z_value":4.57,"level_name_en":"GROUND FLOOR","level_name_zh":null,"level_short_name_en":"G/F","venue_id":"61f55315-a44b-47ed-9201-7da2e5bcf1c1","building_id":"9ac49e56-893f-4983-831d-0310158eece1","bbox":[114.1614636600001,22.329117850000046,114.1614636600001,22.329117850000046]}},{"type":"Feature","id":"amenity_point.251081","geometry":{"type":"Point","coordinates":[114.16146505000006,22.329119010000056,11.570000000006985]},"geometry_name":"shape","properties":{"amenity_id":"9565ce19-92b5-4b26-bc51-738425bad888","amenity_category":"stairs","amenity_name_en":"Stair","amenity_name_zh":"樓梯","amenity_alt_name":null,"amenity_accessibility":null,"amenity_phone":null,"amenity_website":null,"amenity_hours":null,"amenity_correlation_id":null,"unit_id":"2d8976ab-1ed9-4a22-aecb-04392f7021ff","level_id":"391de1b0-4624-4df0-b67b-1aedef9b2aa5","level_floorpolyid":"F3464621134T2005043001000100","level_ordinal":1,"level_z_value":11.57,"level_name_en":"1st FLOOR","level_name_zh":null,"level_short_name_en":"1/F","venue_id":"61f55315-a44b-47ed-9201-7da2e5bcf1c1","building_id":"9ac49e56-893f-4983-831d-0310158eece1","bbox":[114.16146505000006,22.329119010000056,114.16146505000006,22.329119010000056]}},{"type":"Feature","id":"amenity_point.251083","geometry":{"type":"Point","coordinates":[114.16132986000002,22.329157330000044,4.570000000006985]},"geometry_name":"shape","properties":{"amenity_id":"bc65befa-65b1-47a8-a1eb-4c8db492c31d","amenity_category":"ramp","amenity_name_en":"RAMP","amenity_name_zh":"斜道","amenity_alt_name":null,"amenity_accessibility":null,"amenity_phone":null,"amenity_website":null,"amenity_hours":null,"amenity_correlation_id":null,"unit_id":"41594275-fff0-43b3-8b38-daad5e2cb127","level_id":"ea7e7b10-672d-47ce-85d8-b01a89185e00","level_floorpolyid":"F3464621134T2005043002000000","level_ordinal":0,"level_z_value":4.57,"level_name_en":"GROUND FLOOR","level_name_zh":null,"level_short_name_en":"G/F","venue_id":"61f55315-a44b-47ed-9201-7da2e5bcf1c1","building_id":"9ac49e56-893f-4983-831d-0310158eece1","bbox":[114.16132986000002,22.329157330000044,114.16132986000002,22.329157330000044]}},{"type":"Feature","id":"amenity_point.251084","geometry":{"type":"Point","coordinates":[114.16125480000005,22.328883440000027,4.570000000006985]},"geometry_name":"shape","properties":{"amenity_id":"ccf295b2-bbec-47ec-845a-9b026587bd3f","amenity_category":"stairs","amenity_name_en":"Stair","amenity_name_zh":"樓梯","amenity_alt_name":null,"amenity_accessibility":null,"amenity_phone":null,"amenity_website":null,"amenity_hours":null,"amenity_correlation_id":null,"unit_id":"81868500-cf92-48f2-9993-bee524cdbe58","level_id":"ea7e7b10-672d-47ce-85d8-b01a89185e00","level_floorpolyid":"F3464621134T2005043002000000","level_ordinal":0,"level_z_value":4.57,"level_name_en":"GROUND FLOOR","level_name_zh":null,"level_short_name_en":"G/F","venue_id":"61f55315-a44b-47ed-9201-7da2e5bcf1c1","building_id":"9ac49e56-893f-4983-831d-0310158eece1","bbox":[114.16125480000005,22.328883440000027,114.16125480000005,22.328883440000027]}},{"type":"Feature","id":"amenity_point.251085","geometry":{"type":"Point","coordinates":[114.1612481300001,22.32887972000003,11.570000000006985]},"geometry_name":"shape","properties":{"amenity_id":"62bf17c7-53e1-4e4a-8ba3-45e94a1b0e57","amenity_category":"stairs","amenity_name_en":"Stair","amenity_name_zh":"樓梯","amenity_alt_name":null,"amenity_accessibility":null,"amenity_phone":null,"amenity_website":null,"amenity_hours":null,"amenity_correlation_id":null,"unit_id":"70f7526e-b1b2-4734-a49f-a181c2a7a83d","level_id":"391de1b0-4624-4df0-b67b-1aedef9b2aa5","level_floorpolyid":"F3464621134T2005043001000100","level_ordinal":1,"level_z_value":11.57,"level_name_en":"1st FLOOR","level_name_zh":null,"level_short_name_en":"1/F","venue_id":"61f55315-a44b-47ed-9201-7da2e5bcf1c1","building_id":"9ac49e56-893f-4983-831d-0310158eece1","bbox":[114.1612481300001,22.32887972000003,114.1612481300001,22.32887972000003]}},{"type":"Feature","id":"amenity_point.251087","geometry":{"type":"Point","coordinates":[114.16138994000005,22.32902948000003,4.570000000006985]},"geometry_name":"shape","properties":{"amenity_id":"e894fecf-2e81-4778-a4a6-d7a7daa579b0","amenity_category":"escalator","amenity_name_en":"UP G/F-1/F","amenity_name_zh":"扶手電梯","amenity_alt_name":null,"amenity_accessibility":null,"amenity_phone":null,"amenity_website":null,"amenity_hours":null,"amenity_correlation_id":null,"unit_id":"581e071a-3029-4ac4-a15f-d34285f6df55","level_id":"ea7e7b10-672d-47ce-85d8-b01a89185e00","level_floorpolyid":"F3464621134T2005043002000000","level_ordinal":0,"level_z_value":4.57,"level_name_en":"GROUND FLOOR","level_name_zh":null,"level_short_name_en":"G/F","venue_id":"61f55315-a44b-47ed-9201-7da2e5bcf1c1","building_id":"9ac49e56-893f-4983-831d-0310158eece1","bbox":[114.16138994000005,22.32902948000003,114.16138994000005,22.32902948000003]}},{"type":"Feature","id":"amenity_point.251088","geometry":{"type":"Point","coordinates":[114.16136553000001,22.32900225000003,11.570000000006985]},"geometry_name":"shape","properties":{"amenity_id":"ddb75f0c-fbce-41b0-929b-ea0a367de107","amenity_category":"escalator","amenity_name_en":"UP G/F-1/F","amenity_name_zh":"扶手電梯","amenity_alt_name":null,"amenity_accessibility":null,"amenity_phone":null,"amenity_website":null,"amenity_hours":null,"amenity_correlation_id":null,"unit_id":"79ae062a-5b6f-4f5d-8492-b6dcbe984c9d","level_id":"391de1b0-4624-4df0-b67b-1aedef9b2aa5","level_floorpolyid":"F3464621134T2005043001000100","level_ordinal":1,"level_z_value":11.57,"level_name_en":"1st FLOOR","level_name_zh":null,"level_short_name_en":"1/F","venue_id":"61f55315-a44b-47ed-9201-7da2e5bcf1c1","building_id":"9ac49e56-893f-4983-831d-0310158eece1","bbox":[114.16136553000001,22.32900225000003,114.16136553000001,22.32900225000003]}},{"type":"Feature","id":"amenity_point.251089","geometry":{"type":"Point","coordinates":[114.16107817000011,22.32903802000004,4.570000000006985]},"geometry_name":"shape","properties":{"amenity_id":"f04f8bea-9da1-48f1-83a5-4409d7cca93f","amenity_category":"security","amenity_name_en":"GUARD RM.","amenity_name_zh":"保安/控制室","amenity_alt_name":null,"amenity_accessibility":null,"amenity_phone":null,"amenity_website":null,"amenity_hours":null,"amenity_correlation_id":null,"unit_id":"f8980e37-87f5-4ef6-a936-84e8ee8d0ae8","level_id":"ea7e7b10-672d-47ce-85d8-b01a89185e00","level_floorpolyid":"F3464621134T2005043002000000","level_ordinal":0,"level_z_value":4.57,"level_name_en":"GROUND FLOOR","level_name_zh":null,"level_short_name_en":"G/F","venue_id":"61f55315-a44b-47ed-9201-7da2e5bcf1c1","building_id":"9ac49e56-893f-4983-831d-0310158eece1","bbox":[114.16107817000011,22.32903802000004,114.16107817000011,22.32903802000004]}},{"type":"Feature","id":"amenity_point.251090","geometry":{"type":"Point","coordinates":[114.16104759000007,22.329249580000067,4.570000000006985]},"geometry_name":"shape","properties":{"amenity_id":"b53777a9-a54c-4ac5-b6ae-279f9850f787","amenity_category":"restroom.male","amenity_name_en":"M.","amenity_name_zh":"洗手間(男性)","amenity_alt_name":null,"amenity_accessibility":null,"amenity_phone":null,"amenity_website":null,"amenity_hours":null,"amenity_correlation_id":null,"unit_id":"7520c4a3-d858-4a4f-af11-15b951e75606","level_id":"ea7e7b10-672d-47ce-85d8-b01a89185e00","level_floorpolyid":"F3464621134T2005043002000000","level_ordinal":0,"level_z_value":4.57,"level_name_en":"GROUND FLOOR","level_name_zh":null,"level_short_name_en":"G/F","venue_id":"61f55315-a44b-47ed-9201-7da2e5bcf1c1","building_id":"9ac49e56-893f-4983-831d-0310158eece1","bbox":[114.16104759000007,22.329249580000067,114.16104759000007,22.329249580000067]}},{"type":"Feature","id":"amenity_point.251091","geometry":{"type":"Point","coordinates":[114.16057767000007,22.32944678000007,4.570000000006985]},"geometry_name":"shape","properties":{"amenity_id":"525dfdd0-f995-4a5b-ab85-6000164273dc","amenity_category":"elevator","amenity_name_en":"LIFT FOR DISABLED PERSON","amenity_name_zh":"升降機","amenity_alt_name":null,"amenity_accessibility":null,"amenity_phone":null,"amenity_website":null,"amenity_hours":null,"amenity_correlation_id":null,"unit_id":"e5da15e6-bad4-40ed-8174-ecbb54166c0d","level_id":"ea7e7b10-672d-47ce-85d8-b01a89185e00","level_floorpolyid":"F3464621134T2005043002000000","level_ordinal":0,"level_z_value":4.57,"level_name_en":"GROUND FLOOR","level_name_zh":null,"level_short_name_en":"G/F","venue_id":"61f55315-a44b-47ed-9201-7da2e5bcf1c1","building_id":"9ac49e56-893f-4983-831d-0310158eece1","bbox":[114.16057767000007,22.32944678000007,114.16057767000007,22.32944678000007]}},{"type":"Feature","id":"amenity_point.251092","geometry":{"type":"Point","coordinates":[114.16057767000007,22.32944678000007,11.570000000006985]},"geometry_name":"shape","properties":{"amenity_id":"c3238c5f-ef80-48fa-bdf1-667c843ac7c2","amenity_category":"elevator","amenity_name_en":"LIFT FOR DISABLED PERSON","amenity_name_zh":"升降機","amenity_alt_name":null,"amenity_accessibility":null,"amenity_phone":null,"amenity_website":null,"amenity_hours":null,"amenity_correlation_id":null,"unit_id":"399b08ab-3e94-440e-a0dd-aeec2d4c6ddf","level_id":"391de1b0-4624-4df0-b67b-1aedef9b2aa5","level_floorpolyid":"F3464621134T2005043001000100","level_ordinal":1,"level_z_value":11.57,"level_name_en":"1st FLOOR","level_name_zh":null,"level_short_name_en":"1/F","venue_id":"61f55315-a44b-47ed-9201-7da2e5bcf1c1","building_id":"9ac49e56-893f-4983-831d-0310158eece1","bbox":[114.16057767000007,22.32944678000007,114.16057767000007,22.32944678000007]}},{"type":"Feature","id":"amenity_point.251094","geometry":{"type":"Point","coordinates":[114.16136086000006,22.329116890000023,4.570000000006985]},"geometry_name":"shape","properties":{"amenity_id":"d3c84ffc-fd2c-4b64-8cd8-a0d357771788","amenity_category":"parking","amenity_name_en":"VANS","amenity_name_zh":"停車位( 一般)","amenity_alt_name":null,"amenity_accessibility":null,"amenity_phone":null,"amenity_website":null,"amenity_hours":null,"amenity_correlation_id":null,"unit_id":"30891e1b-06b0-46df-8bd1-c3f5a3859424","level_id":"ea7e7b10-672d-47ce-85d8-b01a89185e00","level_floorpolyid":"F3464621134T2005043002000000","level_ordinal":0,"level_z_value":4.57,"level_name_en":"GROUND FLOOR","level_name_zh":null,"level_short_name_en":"G/F","venue_id":"61f55315-a44b-47ed-9201-7da2e5bcf1c1","building_id":"9ac49e56-893f-4983-831d-0310158eece1","bbox":[114.16136086000006,22.329116890000023,114.16136086000006,22.329116890000023]}},{"type":"Feature","id":"amenity_point.251095","geometry":{"type":"Point","coordinates":[114.16111580000006,22.329333940000026,4.570000000006985]},"geometry_name":"shape","properties":{"amenity_id":"9700ab5b-5839-4389-8266-c85a0061c0b2","amenity_category":"reception.desk","amenity_name_en":"RECEPTION","amenity_name_zh":"接待處","amenity_alt_name":null,"amenity_accessibility":null,"amenity_phone":null,"amenity_website":null,"amenity_hours":null,"amenity_correlation_id":null,"unit_id":"85559a6d-44d1-448b-807d-3c52cc660507","level_id":"ea7e7b10-672d-47ce-85d8-b01a89185e00","level_floorpolyid":"F3464621134T2005043002000000","level_ordinal":0,"level_z_value":4.57,"level_name_en":"GROUND FLOOR","level_name_zh":null,"level_short_name_en":"G/F","venue_id":"61f55315-a44b-47ed-9201-7da2e5bcf1c1","building_id":"9ac49e56-893f-4983-831d-0310158eece1","bbox":[114.16111580000006,22.329333940000026,114.16111580000006,22.329333940000026]}},{"type":"Feature","id":"amenity_point.251096","geometry":{"type":"Point","coordinates":[114.16104429000006,22.329244220000078,11.570000000006985]},"geometry_name":"shape","properties":{"amenity_id":"abc5f1de-8ac6-4157-ad6d-6bbbf2833c89","amenity_category":"restroom.male","amenity_name_en":"M.","amenity_name_zh":"洗手間(男性)","amenity_alt_name":null,"amenity_accessibility":null,"amenity_phone":null,"amenity_website":null,"amenity_hours":null,"amenity_correlation_id":null,"unit_id":"edf7c7a3-a1b8-43c5-8c88-58a1033c89e8","level_id":"391de1b0-4624-4df0-b67b-1aedef9b2aa5","level_floorpolyid":"F3464621134T2005043001000100","level_ordinal":1,"level_z_value":11.57,"level_name_en":"1st FLOOR","level_name_zh":null,"level_short_name_en":"1/F","venue_id":"61f55315-a44b-47ed-9201-7da2e5bcf1c1","building_id":"9ac49e56-893f-4983-831d-0310158eece1","bbox":[114.16104429000006,22.329244220000078,114.16104429000006,22.329244220000078]}},{"type":"Feature","id":"amenity_point.251097","geometry":{"type":"Point","coordinates":[114.16103535000002,22.329287360000023,11.570000000006985]},"geometry_name":"shape","properties":{"amenity_id":"f0f1511f-fd6f-4382-8ca6-d1a3b06cae71","amenity_category":"restroom.wheelchair","amenity_name_en":"DISABLED LAV.","amenity_name_zh":"洗手間(殘疾人士)","amenity_alt_name":null,"amenity_accessibility":null,"amenity_phone":null,"amenity_website":null,"amenity_hours":null,"amenity_correlation_id":null,"unit_id":"96bdc41e-07c4-4dea-bbc7-6e7b3c8bf28e","level_id":"391de1b0-4624-4df0-b67b-1aedef9b2aa5","level_floorpolyid":"F3464621134T2005043001000100","level_ordinal":1,"level_z_value":11.57,"level_name_en":"1st FLOOR","level_name_zh":null,"level_short_name_en":"1/F","venue_id":"61f55315-a44b-47ed-9201-7da2e5bcf1c1","building_id":"9ac49e56-893f-4983-831d-0310158eece1","bbox":[114.16103535000002,22.329287360000023,114.16103535000002,22.329287360000023]}},{"type":"Feature","id":"amenity_point.251101","geometry":{"type":"Point","coordinates":[114.16100654000002,22.329268220000074,11.570000000006985]},"geometry_name":"shape","properties":{"amenity_id":"5ae6e916-351f-4269-894e-020c375719d2","amenity_category":"restroom.female","amenity_name_en":"F.","amenity_name_zh":"洗手間(女性)","amenity_alt_name":null,"amenity_accessibility":null,"amenity_phone":null,"amenity_website":null,"amenity_hours":null,"amenity_correlation_id":null,"unit_id":"e83a69a8-9aa7-4236-b7a7-f8951d8e63b5","level_id":"391de1b0-4624-4df0-b67b-1aedef9b2aa5","level_floorpolyid":"F3464621134T2005043001000100","level_ordinal":1,"level_z_value":11.57,"level_name_en":"1st FLOOR","level_name_zh":null,"level_short_name_en":"1/F","venue_id":"61f55315-a44b-47ed-9201-7da2e5bcf1c1","building_id":"9ac49e56-893f-4983-831d-0310158eece1","bbox":[114.16100654000002,22.329268220000074,114.16100654000002,22.329268220000074]}},{"type":"Feature","id":"amenity_point.251102","geometry":{"type":"Point","coordinates":[114.16069049000009,22.329576920000022,4.570000000006985]},"geometry_name":"shape","properties":{"amenity_id":"538cf194-f9c8-49b2-9a31-aeb9d0963629","amenity_category":"escalator","amenity_name_en":"UP G/F-1/F","amenity_name_zh":"扶手電梯","amenity_alt_name":null,"amenity_accessibility":null,"amenity_phone":null,"amenity_website":null,"amenity_hours":null,"amenity_correlation_id":null,"unit_id":"604e01ce-ff13-4182-8cc6-c6bb9355d24a","level_id":"ea7e7b10-672d-47ce-85d8-b01a89185e00","level_floorpolyid":"F3464621134T2005043002000000","level_ordinal":0,"level_z_value":4.57,"level_name_en":"GROUND FLOOR","level_name_zh":null,"level_short_name_en":"G/F","venue_id":"61f55315-a44b-47ed-9201-7da2e5bcf1c1","building_id":"9ac49e56-893f-4983-831d-0310158eece1","bbox":[114.16069049000009,22.329576920000022,114.16069049000009,22.329576920000022]}},{"type":"Feature","id":"amenity_point.251103","geometry":{"type":"Point","coordinates":[114.16064516000006,22.329500160000066,4.570000000006985]},"geometry_name":"shape","properties":{"amenity_id":"3bb5d000-0fbe-47ec-8546-22a52ec8b740","amenity_category":"escalator","amenity_name_en":"DN 1/F-G/F","amenity_name_zh":"扶手電梯","amenity_alt_name":null,"amenity_accessibility":null,"amenity_phone":null,"amenity_website":null,"amenity_hours":null,"amenity_correlation_id":null,"unit_id":"b7cdcfb3-6c72-4a4a-b60b-b6a5519ce234","level_id":"ea7e7b10-672d-47ce-85d8-b01a89185e00","level_floorpolyid":"F3464621134T2005043002000000","level_ordinal":0,"level_z_value":4.57,"level_name_en":"GROUND FLOOR","level_name_zh":null,"level_short_name_en":"G/F","venue_id":"61f55315-a44b-47ed-9201-7da2e5bcf1c1","building_id":"9ac49e56-893f-4983-831d-0310158eece1","bbox":[114.16064516000006,22.329500160000066,114.16064516000006,22.329500160000066]}},{"type":"Feature","id":"amenity_point.251104","geometry":{"type":"Point","coordinates":[114.16106625000009,22.32934830000005,4.570000000006985]},"geometry_name":"shape","properties":{"amenity_id":"b054c59e-9018-468e-b7ed-34f34bd2612e","amenity_category":"escalator","amenity_name_en":"UP G/F-1/F","amenity_name_zh":"扶手電梯","amenity_alt_name":null,"amenity_accessibility":null,"amenity_phone":null,"amenity_website":null,"amenity_hours":null,"amenity_correlation_id":null,"unit_id":"92cb9417-55bb-4e90-8fbd-4696012a5cd8","level_id":"ea7e7b10-672d-47ce-85d8-b01a89185e00","level_floorpolyid":"F3464621134T2005043002000000","level_ordinal":0,"level_z_value":4.57,"level_name_en":"GROUND FLOOR","level_name_zh":null,"level_short_name_en":"G/F","venue_id":"61f55315-a44b-47ed-9201-7da2e5bcf1c1","building_id":"9ac49e56-893f-4983-831d-0310158eece1","bbox":[114.16106625000009,22.32934830000005,114.16106625000009,22.32934830000005]}},{"type":"Feature","id":"amenity_point.251105","geometry":{"type":"Point","coordinates":[114.16137282000011,22.329042970000046,4.570000000006985]},"geometry_name":"shape","properties":{"amenity_id":"449850a2-eac2-449e-8bf6-bb9437a97d13","amenity_category":"escalator","amenity_name_en":"DN 1/F-G/F","amenity_name_zh":"扶手電梯","amenity_alt_name":null,"amenity_accessibility":null,"amenity_phone":null,"amenity_website":null,"amenity_hours":null,"amenity_correlation_id":null,"unit_id":"f5bcae39-bf0f-4745-8fca-5038802c4b51","level_id":"ea7e7b10-672d-47ce-85d8-b01a89185e00","level_floorpolyid":"F3464621134T2005043002000000","level_ordinal":0,"level_z_value":4.57,"level_name_en":"GROUND FLOOR","level_name_zh":null,"level_short_name_en":"G/F","venue_id":"61f55315-a44b-47ed-9201-7da2e5bcf1c1","building_id":"9ac49e56-893f-4983-831d-0310158eece1","bbox":[114.16137282000011,22.329042970000046,114.16137282000011,22.329042970000046]}},{"type":"Feature","id":"amenity_point.251106","geometry":{"type":"Point","coordinates":[114.16062326000008,22.329515840000056,4.570000000006985]},"geometry_name":"shape","properties":{"amenity_id":"caa11110-8e62-4a79-91cd-5dad80f7a4f3","amenity_category":"ramp","amenity_name_en":"RAMP FOR DISABLED","amenity_name_zh":"斜道","amenity_alt_name":null,"amenity_accessibility":null,"amenity_phone":null,"amenity_website":null,"amenity_hours":null,"amenity_correlation_id":null,"unit_id":"fb439253-20e9-4ba2-bca6-e30f1eaed55a","level_id":"ea7e7b10-672d-47ce-85d8-b01a89185e00","level_floorpolyid":"F3464621134T2005043002000000","level_ordinal":0,"level_z_value":4.57,"level_name_en":"GROUND FLOOR","level_name_zh":null,"level_short_name_en":"G/F","venue_id":"61f55315-a44b-47ed-9201-7da2e5bcf1c1","building_id":"9ac49e56-893f-4983-831d-0310158eece1","bbox":[114.16062326000008,22.329515840000056,114.16062326000008,22.329515840000056]}},{"type":"Feature","id":"amenity_point.251107","geometry":{"type":"Point","coordinates":[114.16101083000001,22.32927286000006,4.570000000006985]},"geometry_name":"shape","properties":{"amenity_id":"c9443fe1-b6d3-400d-be43-9867f13053f8","amenity_category":"restroom.female","amenity_name_en":"F.","amenity_name_zh":"洗手間(女性)","amenity_alt_name":null,"amenity_accessibility":null,"amenity_phone":null,"amenity_website":null,"amenity_hours":null,"amenity_correlation_id":null,"unit_id":"7364f7ae-603a-438d-9f0f-54fd6517eaa2","level_id":"ea7e7b10-672d-47ce-85d8-b01a89185e00","level_floorpolyid":"F3464621134T2005043002000000","level_ordinal":0,"level_z_value":4.57,"level_name_en":"GROUND FLOOR","level_name_zh":null,"level_short_name_en":"G/F","venue_id":"61f55315-a44b-47ed-9201-7da2e5bcf1c1","building_id":"9ac49e56-893f-4983-831d-0310158eece1","bbox":[114.16101083000001,22.32927286000006,114.16101083000001,22.32927286000006]}},{"type":"Feature","id":"amenity_point.251108","geometry":{"type":"Point","coordinates":[114.16104383000004,22.329297420000046,4.570000000006985]},"geometry_name":"shape","properties":{"amenity_id":"6a4cae44-148e-4872-acea-56e215c5a8d5","amenity_category":"restroom.wheelchair","amenity_name_en":"DISABLED LAV.","amenity_name_zh":"洗手間(殘疾人士)","amenity_alt_name":null,"amenity_accessibility":null,"amenity_phone":null,"amenity_website":null,"amenity_hours":null,"amenity_correlation_id":null,"unit_id":"42c1bddc-86e9-4ebb-9027-092bc372e034","level_id":"ea7e7b10-672d-47ce-85d8-b01a89185e00","level_floorpolyid":"F3464621134T2005043002000000","level_ordinal":0,"level_z_value":4.57,"level_name_en":"GROUND FLOOR","level_name_zh":null,"level_short_name_en":"G/F","venue_id":"61f55315-a44b-47ed-9201-7da2e5bcf1c1","building_id":"9ac49e56-893f-4983-831d-0310158eece1","bbox":[114.16104383000004,22.329297420000046,114.16104383000004,22.329297420000046]}},{"type":"Feature","id":"amenity_point.251109","geometry":{"type":"Point","coordinates":[114.16070750000006,22.32956967000007,11.570000000006985]},"geometry_name":"shape","properties":{"amenity_id":"a0f4cc7f-fb7b-4995-824d-e89a3eb88122","amenity_category":"escalator","amenity_name_en":"DN 1/F-G/F","amenity_name_zh":"扶手電梯","amenity_alt_name":null,"amenity_accessibility":null,"amenity_phone":null,"amenity_website":null,"amenity_hours":null,"amenity_correlation_id":null,"unit_id":"fc244355-4486-4837-9783-4f0a649e3059","level_id":"391de1b0-4624-4df0-b67b-1aedef9b2aa5","level_floorpolyid":"F3464621134T2005043001000100","level_ordinal":1,"level_z_value":11.57,"level_name_en":"1st FLOOR","level_name_zh":null,"level_short_name_en":"1/F","venue_id":"61f55315-a44b-47ed-9201-7da2e5bcf1c1","building_id":"9ac49e56-893f-4983-831d-0310158eece1","bbox":[114.16070750000006,22.32956967000007,114.16070750000006,22.32956967000007]}},{"type":"Feature","id":"amenity_point.251110","geometry":{"type":"Point","coordinates":[114.16062434000003,22.32951249000007,11.570000000006985]},"geometry_name":"shape","properties":{"amenity_id":"827feb02-f6ce-4d49-8780-a5c8b42d888e","amenity_category":"escalator","amenity_name_en":"UP G/F-1/F","amenity_name_zh":"扶手電梯","amenity_alt_name":null,"amenity_accessibility":null,"amenity_phone":null,"amenity_website":null,"amenity_hours":null,"amenity_correlation_id":null,"unit_id":"a4bb1835-e6ff-4e98-a997-cb3abe741ead","level_id":"391de1b0-4624-4df0-b67b-1aedef9b2aa5","level_floorpolyid":"F3464621134T2005043001000100","level_ordinal":1,"level_z_value":11.57,"level_name_en":"1st FLOOR","level_name_zh":null,"level_short_name_en":"1/F","venue_id":"61f55315-a44b-47ed-9201-7da2e5bcf1c1","building_id":"9ac49e56-893f-4983-831d-0310158eece1","bbox":[114.16062434000003,22.32951249000007,114.16062434000003,22.32951249000007]}},{"type":"Feature","id":"amenity_point.251111","geometry":{"type":"Point","coordinates":[114.16064299000004,22.329498000000058,11.570000000006985]},"geometry_name":"shape","properties":{"amenity_id":"4590c049-8323-48f7-889e-f1b1aff65c4c","amenity_category":"escalator","amenity_name_en":"UP 1/F-2/F","amenity_name_zh":"扶手電梯","amenity_alt_name":null,"amenity_accessibility":null,"amenity_phone":null,"amenity_website":null,"amenity_hours":null,"amenity_correlation_id":null,"unit_id":"5947a172-d613-499d-9dcc-a3fc70753f60","level_id":"391de1b0-4624-4df0-b67b-1aedef9b2aa5","level_floorpolyid":"F3464621134T2005043001000100","level_ordinal":1,"level_z_value":11.57,"level_name_en":"1st FLOOR","level_name_zh":null,"level_short_name_en":"1/F","venue_id":"61f55315-a44b-47ed-9201-7da2e5bcf1c1","building_id":"9ac49e56-893f-4983-831d-0310158eece1","bbox":[114.16064299000004,22.329498000000058,114.16064299000004,22.329498000000058]}},{"type":"Feature","id":"amenity_point.251112","geometry":{"type":"Point","coordinates":[114.16134869000007,22.329016230000036,11.570000000006985]},"geometry_name":"shape","properties":{"amenity_id":"e94f31fe-e907-4b6a-93a5-83cb6a52da20","amenity_category":"escalator","amenity_name_en":"DN 1/F-G/F","amenity_name_zh":"扶手電梯","amenity_alt_name":null,"amenity_accessibility":null,"amenity_phone":null,"amenity_website":null,"amenity_hours":null,"amenity_correlation_id":null,"unit_id":"08ef9e1f-20a6-4634-874c-ccfe97f5ccb3","level_id":"391de1b0-4624-4df0-b67b-1aedef9b2aa5","level_floorpolyid":"F3464621134T2005043001000100","level_ordinal":1,"level_z_value":11.57,"level_name_en":"1st FLOOR","level_name_zh":null,"level_short_name_en":"1/F","venue_id":"61f55315-a44b-47ed-9201-7da2e5bcf1c1","building_id":"9ac49e56-893f-4983-831d-0310158eece1","bbox":[114.16134869000007,22.329016230000036,114.16134869000007,22.329016230000036]}},{"type":"Feature","id":"amenity_point.251113","geometry":{"type":"Point","coordinates":[114.1611443600001,22.329271220000066,11.570000000006985]},"geometry_name":"shape","properties":{"amenity_id":"129f6bca-63da-4647-9d85-72091ce15e3f","amenity_category":"escalator","amenity_name_en":"DN 1/F-G/F","amenity_name_zh":"扶手電梯","amenity_alt_name":null,"amenity_accessibility":null,"amenity_phone":null,"amenity_website":null,"amenity_hours":null,"amenity_correlation_id":null,"unit_id":"6b24f634-665f-426a-9fa8-922872f76f62","level_id":"391de1b0-4624-4df0-b67b-1aedef9b2aa5","level_floorpolyid":"F3464621134T2005043001000100","level_ordinal":1,"level_z_value":11.57,"level_name_en":"1st FLOOR","level_name_zh":null,"level_short_name_en":"1/F","venue_id":"61f55315-a44b-47ed-9201-7da2e5bcf1c1","building_id":"9ac49e56-893f-4983-831d-0310158eece1","bbox":[114.1611443600001,22.329271220000066,114.1611443600001,22.329271220000066]}},{"type":"Feature","id":"amenity_point.251116","geometry":{"type":"Point","coordinates":[114.16128570000001,22.329189820000067,4.570000000006985]},"geometry_name":"shape","properties":{"amenity_id":"8da845c2-422b-4ce2-8687-76633aecb904","amenity_category":"parking","amenity_name_en":"LORRIES","amenity_name_zh":"停車位( 一般)","amenity_alt_name":null,"amenity_accessibility":null,"amenity_phone":null,"amenity_website":null,"amenity_hours":null,"amenity_correlation_id":null,"unit_id":"768eddce-32cc-4107-a33f-6a5fdc29bd90","level_id":"ea7e7b10-672d-47ce-85d8-b01a89185e00","level_floorpolyid":"F3464621134T2005043002000000","level_ordinal":0,"level_z_value":4.57,"level_name_en":"GROUND FLOOR","level_name_zh":null,"level_short_name_en":"G/F","venue_id":"61f55315-a44b-47ed-9201-7da2e5bcf1c1","building_id":"9ac49e56-893f-4983-831d-0310158eece1","bbox":[114.16128570000001,22.329189820000067,114.16128570000001,22.329189820000067]}}]}