{"type":"FeatureCollection","features":[{"type":"Feature","id":"level_polygon.10050","geometry":{"type":"Polygon","coordinates":[[[114.16125087000012,22.329310000000078,4.570000000006985],[114.16135312000006,22.329230950000067,4.570000000006985],[114.16138440000009,22.32920677000004,4.570000000006985],[114.16141683000001,22.32918170000005,4.570000000006985],[114.16145316000006,22.32915361000005,4.570000000006985],[114.16146264000008,22.32914628000003,4.570000000006985],[114.16146730000003,22.329142690000026,4.570000000006985],[114.16148426000007,22.329129570000077,4.570000000006985],[114.16149197000004,22.329123610000067,4.570000000006985],[114.16148921000001,22.329120510000052,4.570000000006985],[114.16148117000012,22.329111530000034,4.570000000006985],[114.16148031000012,22.32911057000007,4.570000000006985],[114.16146511000011,22.329093560000047,4.570000000006985],[114.16144319000011,22.329069040000036,4.570000000006985],[114.16144087000009,22.329066440000076,4.570000000006985],[114.16144066000004,22.329066210000065,4.570000000006985],[114.1614371500001,22.329062280000073,4.570000000006985],[114.16143226000008,22.32905685000003,4.570000000006985],[114.16143211000008,22.329056680000065,4.570000000006985],[114.16141328000003,22.329035610000062,4.570000000006985],[114.16136869000002,22.32898572000005,4.570000000006985],[114.16134865000004,22.328963300000055,4.570000000006985],[114.1613053000001,22.32891481000007,4.570000000006985],[114.16128081000011,22.32888741000005,4.570000000006985],[114.16126540000005,22.328870190000032,4.570000000006985],[114.16125632,22.328860030000044,4.570000000006985],[114.16125403000001,22.32885746000005,4.570000000006985],[114.16122928000004,22.328876860000037,4.570000000006985],[114.16122411000003,22.328880920000074,4.570000000006985],[114.16121546000011,22.328887700000053,4.570000000006985],[114.1611793400001,22.328916010000057,4.570000000006985],[114.16116155000009,22.32892996000004,4.570000000006985],[114.16113053000004,22.32895428000006,4.570000000006985],[114.16106767000008,22.329003560000046,4.570000000006985],[114.1610646800001,22.329005900000027,4.570000000006985],[114.1610573800001,22.329011620000074,4.570000000006985],[114.16104361000009,22.329022420000058,4.570000000006985],[114.16101518000005,22.329044710000062,4.570000000006985],[114.16100509000012,22.329052620000027,4.570000000006985],[114.16099397000005,22.329061340000067,4.570000000006985],[114.16104065000002,22.329113430000064,4.570000000006985],[114.16108573000008,22.32916373000006,4.570000000006985],[114.16102989000001,22.32920714000005,4.570000000006985],[114.16100576000008,22.329225890000032,4.570000000006985],[114.16099664000001,22.32923298000003,4.570000000006985],[114.16097246000004,22.32925177000004,4.570000000006985],[114.16096246000006,22.329259540000066,4.570000000006985],[114.16094996000004,22.329269260000046,4.570000000006985],[114.16085845000009,22.329167380000058,4.570000000006985],[114.16082029000006,22.32919663000007,4.570000000006985],[114.1607912500001,22.32921888000004,4.570000000006985],[114.16059898000003,22.329366270000037,4.570000000006985],[114.16056593000008,22.329391600000065,4.570000000006985],[114.16055054000003,22.32940339000004,4.570000000006985],[114.16053319000002,22.329416700000024,4.570000000006985],[114.16052548000005,22.329422600000044,4.570000000006985],[114.1605271300001,22.329424430000074,4.570000000006985],[114.16053667000006,22.32943499000004,4.570000000006985],[114.16055300000005,22.329453090000072,4.570000000006985],[114.16057285000011,22.329475090000074,4.570000000006985],[114.16058064000003,22.32948373000005,4.570000000006985],[114.16058526000006,22.329488840000067,4.570000000006985],[114.16060317000006,22.32950869000007,4.570000000006985],[114.16062735000003,22.32953548000006,4.570000000006985],[114.16071449000003,22.329632040000035,4.570000000006985],[114.16073605000008,22.329655930000058,4.570000000006985],[114.16075301000001,22.329674730000022,4.570000000006985],[114.16076148000002,22.329684120000024,4.570000000006985],[114.1607637300001,22.329686610000067,4.570000000006985],[114.16077923000012,22.32967462000005,4.570000000006985],[114.16078912000012,22.329666970000062,4.570000000006985],[114.16080392000003,22.329655540000033,4.570000000006985],[114.16086715000006,22.329606650000073,4.570000000006985],[114.16106605000004,22.329452880000076,4.570000000006985],[114.16108225000005,22.329440360000035,4.570000000006985],[114.16109532000007,22.329430260000038,4.570000000006985],[114.16111809000006,22.32941266000006,4.570000000006985],[114.16113439000003,22.32940005000006,4.570000000006985],[114.1611505300001,22.32938757000005,4.570000000006985],[114.16116609000005,22.329375540000058,4.570000000006985],[114.16117108000003,22.329371690000073,4.570000000006985],[114.16118314000005,22.32936237000007,4.570000000006985],[114.16118440000002,22.32936139000003,4.570000000006985],[114.16119532000005,22.329352950000043,4.570000000006985],[114.16121159000011,22.329340370000068,4.570000000006985],[114.16123028000004,22.32932592000003,4.570000000006985],[114.16125087000012,22.329310000000078,4.570000000006985]]]},"geometry_name":"shape","properties":{"level_id":"ea7e7b10-672d-47ce-85d8-b01a89185e00","level_floorpolyid":"F3464621134T2005043002000000","level_ordinal":0,"level_z_value":4.57,"level_name_en":"GROUND FLOOR","level_name_zh":null,"level_short_name_en":"G/F","level_category":"unspecified","level_restriction":null,"level_outdoor":0,"venue_id":"61f55315-a44b-47ed-9201-7da2e5bcf1c1","venue_category":"governmentfacility","venue_name_en":"Pei Ho Street Municipal Services Building","venue_name_zh":"北河街市政大廈","venue_alt_name":null,"venue_restriction":null,"venue_hours":null,"venue_website":null,"venue_phone":null,"address_address":"333 KI LUNG STREET","address_unit":null,"address_locality":"SHAM SHUI PO DISTRICT","building_id":"9ac49e56-893f-4983-831d-0310158eece1","building_category":"unspecified","building_name_en":"Pei Ho Street Municipal Services Building","building_name_zh":"北河街市政大廈","building_alt_name":null,"building_restriction":"","bbox":[114.16052548000005,22.32885746000005,114.16149197000004,22.329686610000067]}},{"type":"Feature","id":"level_polygon.10051","geometry":{"type":"Polygon","coordinates":[[[114.1612884000001,22.32928099000003,11.570000000006985],[114.16131167000003,22.329263000000026,11.570000000006985],[114.16145316000006,22.329153620000056,11.570000000006985],[114.16148146,22.32913173000003,11.570000000006985],[114.16148590000012,22.329128300000036,11.570000000006985],[114.16149197000004,22.329123610000067,11.570000000006985],[114.16148575000011,22.32911665000006,11.570000000006985],[114.16148266000005,22.32911320000005,11.570000000006985],[114.16148175000001,22.32911218000004,11.570000000006985],[114.16147697000008,22.329106830000057,11.570000000006985],[114.16146511000011,22.329093560000047,11.570000000006985],[114.16144154000006,22.329067200000054,11.570000000006985],[114.16144066000004,22.329066210000065,11.570000000006985],[114.16143714000009,22.329062290000024,11.570000000006985],[114.16143211000008,22.329056680000065,11.570000000006985],[114.16131122000002,22.328921430000037,11.570000000006985],[114.1613053000001,22.32891481000007,11.570000000006985],[114.1612808000001,22.32888741000005,11.570000000006985],[114.16126787000007,22.328872940000053,11.570000000006985],[114.16126286000008,22.328867350000053,11.570000000006985],[114.16125928000008,22.328863330000047,11.570000000006985],[114.16125402000011,22.32885746000005,11.570000000006985],[114.16124797000009,22.328862210000068,11.570000000006985],[114.16124317000003,22.328865970000038,11.570000000006985],[114.1612154500001,22.328887700000053,11.570000000006985],[114.16099396000004,22.329061340000067,11.570000000006985],[114.16101867000009,22.329088910000053,11.570000000006985],[114.16108573000008,22.32916373000006,11.570000000006985],[114.16106667000008,22.329178540000044,11.570000000006985],[114.16105330000005,22.32918894000005,11.570000000006985],[114.16103078000003,22.329206440000064,11.570000000006985],[114.1610229800001,22.329212510000048,11.570000000006985],[114.1610169600001,22.329217190000065,11.570000000006985],[114.16100666000011,22.329225190000045,11.570000000006985],[114.16099691000011,22.329232770000033,11.570000000006985],[114.16097246000004,22.32925178000005,11.570000000006985],[114.16096958000003,22.329254010000056,11.570000000006985],[114.16096447000007,22.32925799000003,11.570000000006985],[114.16094996000004,22.329269270000054,11.570000000006985],[114.16087223000011,22.329182720000063,11.570000000006985],[114.16085845000009,22.329167380000058,11.570000000006985],[114.16056593000008,22.329391600000065,11.570000000006985],[114.16055054000003,22.329403400000047,11.570000000006985],[114.16053652000005,22.329414150000048,11.570000000006985],[114.16053165000005,22.329417870000043,11.570000000006985],[114.16052548000005,22.329422600000044,11.570000000006985],[114.16053117000001,22.329428910000047,11.570000000006985],[114.16053550000004,22.32943370000004,11.570000000006985],[114.16054004000011,22.32943873000005,11.570000000006985],[114.16055300000005,22.329453100000023,11.570000000006985],[114.16057334000004,22.329475640000055,11.570000000006985],[114.16058525000005,22.329488840000067,11.570000000006985],[114.1606426300001,22.329552420000027,11.570000000006985],[114.16071449000003,22.329632040000035,11.570000000006985],[114.16073605000008,22.329655930000058,11.570000000006985],[114.16075014,22.329671550000057,11.570000000006985],[114.16075486000011,22.329676780000057,11.570000000006985],[114.16075892000003,22.329681280000045,11.570000000006985],[114.1607637300001,22.329686610000067,11.570000000006985],[114.16077010000004,22.32968168000008,11.570000000006985],[114.16077512000004,22.32967780000007,11.570000000006985],[114.16078912000012,22.32966698000007,11.570000000006985],[114.16080391000003,22.329655540000033,11.570000000006985],[114.16111860000001,22.329412260000026,11.570000000006985],[114.16113439000003,22.32940006000007,11.570000000006985],[114.16115806000005,22.329381760000047,11.570000000006985],[114.16116609000005,22.329375540000058,11.570000000006985],[114.16116666000005,22.32937510000005,11.570000000006985],[114.16121159000011,22.329340370000068,11.570000000006985],[114.16123028000004,22.32932592000003,11.570000000006985],[114.16125087000012,22.329310000000078,11.570000000006985],[114.1612884000001,22.32928099000003,11.570000000006985]]]},"geometry_name":"shape","properties":{"level_id":"391de1b0-4624-4df0-b67b-1aedef9b2aa5","level_floorpolyid":"F3464621134T2005043001000100","level_ordinal":1,"level_z_value":11.57,"level_name_en":"1st FLOOR","level_name_zh":null,"level_short_name_en":"1/F","level_category":"unspecified","level_restriction":null,"level_outdoor":0,"venue_id":"61f55315-a44b-47ed-9201-7da2e5bcf1c1","venue_category":"governmentfacility","venue_name_en":"Pei Ho Street Municipal Services Building","venue_name_zh":"北河街市政大廈","venue_alt_name":null,"venue_restriction":null,"venue_hours":null,"venue_website":null,"venue_phone":null,"address_address":"333 KI LUNG STREET","address_unit":null,"address_locality":"SHAM SHUI PO DISTRICT","building_id":"9ac49e56-893f-4983-831d-0310158eece1","building_category":"unspecified","building_name_en":"Pei Ho Street Municipal Services Building","building_name_zh":"北河街市政大廈","building_alt_name":null,"building_restriction":"","bbox":[114.16052548000005,22.32885746000005,114.16149197000004,22.329686610000067]}}]}