{"type":"FeatureCollection","features":[{"type":"Feature","id":94006,"geometry":{"type":"Polygon","coordinates":[[[114.18730201679318,22.329551129884937],[114.18728228987489,22.329551749753097],[114.18728165201372,22.329521299480611],[114.1873012260448,22.329520640429692],[114.18730201679318,22.329551129884937]]]},"properties":{"OBJECTID":94006,"Shape__Length":10.801111930649828,"Shape__Area":6.8357896417823865,"GeoRefNo":"3734121168","DateCreate":1114790400000,"BuildingBlockType":"Tower","BuildingCSUID":"3734121168T20050430","BuildingID":1108227751,"Status":"Active","BuildingNameEN":"TIN SHING BUILDING","BuildingNameTC":"天成樓","BaseHeight":11.6,"TopHeight":15.4,"Storeys":4,"StoreysInBasement":null,"DateStamp":1599580800000}},{"type":"Feature","id":94007,"geometry":{"type":"Polygon","coordinates":[[[114.18751566548094,22.32957542952267],[114.18736594917877,22.329581881108748],[114.18736526196587,22.329566629221002],[114.18733208650536,22.329567968712794],[114.18733093587173,22.329539373716816],[114.18736406940792,22.32953823759668],[114.18736339441092,22.329525372762106],[114.18744202625194,22.329522253707761],[114.18751340790801,22.329519405920475],[114.18751566548094,22.32957542952267]]]},"properties":{"OBJECTID":94007,"Shape__Length":50.23969454798209,"Shape__Area":107.13074928506822,"GeoRefNo":"3735521168","DateCreate":1114790400000,"BuildingBlockType":"Tower","BuildingCSUID":"3735521168T20050430","BuildingID":1108227733,"Status":"Active","BuildingNameEN":null,"BuildingNameTC":null,"BaseHeight":10.5,"TopHeight":30.199999999999999,"Storeys":6,"StoreysInBasement":null,"DateStamp":1599580800000}},{"type":"Feature","id":94008,"geometry":{"type":"Polygon","coordinates":[[[114.18730615252487,22.329634467179716],[114.18728473486587,22.329634818046042],[114.18728423354504,22.329603942966443],[114.18730444484524,22.329603477399431],[114.18730615252487,22.329634467179716]]]},"properties":{"OBJECTID":94008,"Shape__Length":11.145164857930581,"Shape__Area":7.3501687720486899,"GeoRefNo":"3734121177","DateCreate":1114790400000,"BuildingBlockType":"Tower","BuildingCSUID":"3734121177T20050430","BuildingID":1108227682,"Status":"Active","BuildingNameEN":"TIN SHING BUILDING","BuildingNameTC":"天成樓","BaseHeight":11.6,"TopHeight":15.4,"Storeys":4,"StoreysInBasement":null,"DateStamp":1599580800000}},{"type":"Feature","id":94044,"geometry":{"type":"Polygon","coordinates":[[[114.18751749651551,22.329620880507154],[114.18744492767242,22.329623609802425],[114.18744123186605,22.329623748573532],[114.18744097571869,22.329607220275374],[114.18739186778853,22.329609561952026],[114.18739171837532,22.329600171058416],[114.18733349154807,22.329603002317356],[114.18733269907685,22.329583307389424],[114.18736594917877,22.329581881108748],[114.18751566548094,22.32957542952267],[114.18751749651551,22.329620880507154]]]},"properties":{"OBJECTID":94044,"Shape__Length":47.89516999715152,"Shape__Area":68.258299230098856,"GeoRefNo":"3735821173","DateCreate":1114790400000,"BuildingBlockType":"Tower","BuildingCSUID":"3735821173T20050430","BuildingID":1108227692,"Status":"Active","BuildingNameEN":null,"BuildingNameTC":null,"BaseHeight":10.4,"TopHeight":27.100000000000001,"Storeys":5,"StoreysInBasement":null,"DateStamp":1599580800000}},{"type":"Feature","id":94045,"geometry":{"type":"Polygon","coordinates":[[[114.1873012260448,22.329520640429692],[114.18728165201372,22.329521299480611],[114.18711592828005,22.329527534681574],[114.18711160061952,22.329414412091133],[114.18714725144126,22.329413108428621],[114.18723570227431,22.329409797491039],[114.18729606487534,22.329408244408373],[114.1873012260448,22.329520640429692]]]},"properties":{"OBJECTID":94045,"Shape__Length":63.113529704897921,"Shape__Area":238.57997878139432,"GeoRefNo":"3733021159","DateCreate":1114790400000,"BuildingBlockType":"Tower","BuildingCSUID":"3733021159T20050430","BuildingID":1108227776,"Status":"Active","BuildingNameEN":null,"BuildingNameTC":"聯發樓","BaseHeight":11.4,"TopHeight":31.899999999999999,"Storeys":6,"StoreysInBasement":null,"DateStamp":1599580800000}},{"type":"Feature","id":94046,"geometry":{"type":"Polygon","coordinates":[[[114.18751340790801,22.329519405920475],[114.18744202625194,22.329522253707761],[114.18744131512177,22.32950659354913],[114.18739960898232,22.3295080827079],[114.18739960839125,22.329492505855004],[114.18737171594162,22.329493118048443],[114.18737187969091,22.329503424100555],[114.18732961167879,22.329504232733118],[114.18732811757027,22.329467131220639],[114.1875112636852,22.329460496587505],[114.18751340790801,22.329519405920475]]]},"properties":{"OBJECTID":94046,"Shape__Length":53.012914003369495,"Shape__Area":95.740063901094331,"GeoRefNo":"3735521161","DateCreate":1114790400000,"BuildingBlockType":"Tower","BuildingCSUID":"3735521161T20050430","BuildingID":1108227785,"Status":"Active","BuildingNameEN":null,"BuildingNameTC":null,"BaseHeight":10.5,"TopHeight":24.699999999999999,"Storeys":4,"StoreysInBasement":null,"DateStamp":1599580800000}},{"type":"Feature","id":94047,"geometry":{"type":"Polygon","coordinates":[[[114.1875112636852,22.329460496587505],[114.18732811757027,22.329467131220639],[114.18732659924548,22.329429395311074],[114.18732654731542,22.329428105747155],[114.18736853954866,22.329426142031402],[114.18736927748674,22.329438272585335],[114.18739736266511,22.329437199729693],[114.18739664984095,22.329423462904433],[114.18743794808671,22.329422044843792],[114.1874372466807,22.329404035378055],[114.18750884858022,22.32940069216054],[114.1875112636852,22.329460496587505]]]},"properties":{"OBJECTID":94047,"Shape__Length":53.568711216428312,"Shape__Area":95.684394164561638,"GeoRefNo":"3735521156","DateCreate":1114790400000,"BuildingBlockType":"Tower","BuildingCSUID":"3735521156T20050430","BuildingID":1108227836,"Status":"Active","BuildingNameEN":null,"BuildingNameTC":null,"BaseHeight":10.5,"TopHeight":24.600000000000001,"Storeys":4,"StoreysInBasement":null,"DateStamp":1599580800000}},{"type":"Feature","id":94048,"geometry":{"type":"Polygon","coordinates":[[[114.18742511408465,22.329246600773782],[114.18740998572383,22.329247071081316],[114.18741082654081,22.329262874095939],[114.18736350471531,22.329264693950652],[114.18736020106979,22.329162697788419],[114.18735733171353,22.329067296090042],[114.1874191015998,22.329065365752971],[114.18742511408465,22.329246600773782]]]},"properties":{"OBJECTID":94048,"Shape__Length":56.504796800371139,"Shape__Area":136.93678292971097,"GeoRefNo":"3735121120","DateCreate":1114790400000,"BuildingBlockType":"Tower","BuildingCSUID":"3735121120T20050430","BuildingID":1108228000,"Status":"Active","BuildingNameEN":null,"BuildingNameTC":null,"BaseHeight":10.6,"TopHeight":30.5,"Storeys":5,"StoreysInBasement":null,"DateStamp":1599580800000}},{"type":"Feature","id":94049,"geometry":{"type":"Polygon","coordinates":[[[114.18723523380476,22.329142440415907],[114.18721216858818,22.329143738596301],[114.18721352930383,22.329180982893398],[114.18720612684641,22.329181313615862],[114.18720953304611,22.329269775277854],[114.18717211692854,22.329271294446137],[114.18716432482441,22.329073720946397],[114.18723206660481,22.329071477751235],[114.18723523380476,22.329142440415907]]]},"properties":{"OBJECTID":94049,"Shape__Length":57.672248305136115,"Shape__Area":112.50655879919448,"GeoRefNo":"3733021129","DateCreate":1114790400000,"BuildingBlockType":"Tower","BuildingCSUID":"3733021129T20050430","BuildingID":1108227994,"Status":"Active","BuildingNameEN":"Kimley Court","BuildingNameTC":"錦利閣","BaseHeight":11,"TopHeight":23.600000000000001,"Storeys":3,"StoreysInBasement":null,"DateStamp":1599580800000}},{"type":"Feature","id":94050,"geometry":{"type":"Polygon","coordinates":[[[114.18730101370032,22.329251913582986],[114.18727096956528,22.329253028630625],[114.18726834887971,22.329165788124975],[114.18723600668517,22.329166504072038],[114.18723523380476,22.329142440415907],[114.18723206660481,22.329071477751235],[114.18729418156562,22.329069547439623],[114.18730101370032,22.329251913582986]]]},"properties":{"OBJECTID":94050,"Shape__Length":53.23493514014023,"Shape__Area":96.829258780203475,"GeoRefNo":"3733821120","DateCreate":1114790400000,"BuildingBlockType":"Tower","BuildingCSUID":"3733821120T20050430","BuildingID":1108228012,"Status":"Active","BuildingNameEN":null,"BuildingNameTC":null,"BaseHeight":10.9,"TopHeight":30.399999999999999,"Storeys":4,"StoreysInBasement":null,"DateStamp":1599580800000}},{"type":"Feature","id":94051,"geometry":{"type":"Polygon","coordinates":[[[114.18717211692854,22.329271294446137],[114.18713483843501,22.329272602913516],[114.1871310115263,22.329144847040286],[114.18709998773268,22.329146117083333],[114.18709693022232,22.329075609731117],[114.18716432482441,22.329073720946397],[114.18717211692854,22.329271294446137]]]},"properties":{"OBJECTID":94051,"Shape__Length":57.848244014932661,"Shape__Area":107.38192765828775,"GeoRefNo":"3732421120","DateCreate":1114790400000,"BuildingBlockType":"Tower","BuildingCSUID":"3732421120T20050430","BuildingID":1108227993,"Status":"Active","BuildingNameEN":null,"BuildingNameTC":null,"BaseHeight":11.300000000000001,"TopHeight":24.899999999999999,"Storeys":null,"StoreysInBasement":null,"DateStamp":1398096000000}},{"type":"Feature","id":94052,"geometry":{"type":"Polygon","coordinates":[[[114.18736020106979,22.329162697788419],[114.18732944446947,22.32916358333576],[114.18733255896974,22.329250816945191],[114.18730101370032,22.329251913582986],[114.18729418156562,22.329069547439623],[114.18735733171353,22.329067296090042],[114.18736020106979,22.329162697788419]]]},"properties":{"OBJECTID":94052,"Shape__Length":53.373000666989633,"Shape__Area":99.81022646050971,"GeoRefNo":"3734421131","DateCreate":1114790400000,"BuildingBlockType":"Tower","BuildingCSUID":"3734421131T20050430","BuildingID":1108228015,"Status":"Active","BuildingNameEN":"Hung Wan Court","BuildingNameTC":"鴻運閣","BaseHeight":10.699999999999999,"TopHeight":30.100000000000001,"Storeys":4,"StoreysInBasement":null,"DateStamp":1599580800000}},{"type":"Feature","id":94053,"geometry":{"type":"Polygon","coordinates":[[[114.18749704492836,22.329104961016217],[114.18749894752189,22.329152125642366],[114.18749956778089,22.329167501976183],[114.18750371097687,22.329259525065087],[114.18742611846102,22.329262411995469],[114.18742511408465,22.329246600773782],[114.1874191015998,22.329065365752971],[114.18749622761453,22.329062631744367],[114.18749704492836,22.329104961016217]]]},"properties":{"OBJECTID":94053,"Shape__Length":59.601605452180671,"Shape__Area":173.51671634219298,"GeoRefNo":"3735821127","DateCreate":1114790400000,"BuildingBlockType":"Tower","BuildingCSUID":"3735821127T20050430","BuildingID":1108228004,"Status":"Active","BuildingNameEN":null,"BuildingNameTC":null,"BaseHeight":10.300000000000001,"TopHeight":30.5,"Storeys":6,"StoreysInBasement":null,"DateStamp":1599580800000}},{"type":"Feature","id":94054,"geometry":{"type":"Polygon","coordinates":[[[114.18729606487534,22.329408244408373],[114.18723570227431,22.329409797491039],[114.18714725144126,22.329413108428621],[114.18711160061952,22.329414412091133],[114.18710658332725,22.329301549172015],[114.1872909616404,22.329294244369407],[114.18729606487534,22.329408244408373]]]},"properties":{"OBJECTID":94054,"Shape__Length":63.171985290080947,"Shape__Area":238.56367081705227,"GeoRefNo":"3733221146","DateCreate":1398096000000,"BuildingBlockType":"Podium","BuildingCSUID":"3733221146P20140422","BuildingID":1810119945,"Status":"Active","BuildingNameEN":"LUXE METRO","BuildingNameTC":"滙豪","BaseHeight":12.199999999999999,"TopHeight":18.100000000000001,"Storeys":2,"StoreysInBasement":null,"DateStamp":1599580800000}},{"type":"Feature","id":94055,"geometry":{"type":"Polygon","coordinates":[[[114.187543967317,22.330273179962248],[114.18747005148397,22.330275386396629],[114.18746931974626,22.330258151849215],[114.18742291976629,22.330259243885997],[114.18742242160914,22.330247562950582],[114.18735954778289,22.330250030409243],[114.18735857053038,22.330225720867446],[114.18754182468139,22.330220123626436],[114.187543967317,22.330273179962248]]]},"properties":{"OBJECTID":94055,"Shape__Length":49.550523064129536,"Shape__Area":80.931449668505337,"GeoRefNo":"3736121245","DateCreate":1114790400000,"BuildingBlockType":"Tower","BuildingCSUID":"3736121245T20050430","BuildingID":1108227073,"Status":"Active","BuildingNameEN":null,"BuildingNameTC":null,"BaseHeight":11.1,"TopHeight":29.100000000000001,"Storeys":4,"StoreysInBasement":null,"DateStamp":1599580800000}},{"type":"Feature","id":94056,"geometry":{"type":"Polygon","coordinates":[[[114.18754182468139,22.330220123626436],[114.18735857053038,22.330225720867446],[114.1873575585622,22.330200571212732],[114.18742031209852,22.330198082811755],[114.18741996038425,22.330189837461464],[114.18746635545533,22.330188315750721],[114.18746557558875,22.330170005483271],[114.18753969236573,22.330167450005636],[114.18754182468139,22.330220123626436]]]},"properties":{"OBJECTID":94056,"Shape__Length":49.350402546349542,"Shape__Area":80.718870401185256,"GeoRefNo":"3736021240","DateCreate":1114790400000,"BuildingBlockType":"Tower","BuildingCSUID":"3736021240T20050430","BuildingID":1108227121,"Status":"Active","BuildingNameEN":null,"BuildingNameTC":null,"BaseHeight":11.1,"TopHeight":29.100000000000001,"Storeys":4,"StoreysInBasement":null,"DateStamp":1599580800000}},{"type":"Feature","id":98928,"geometry":{"type":"Polygon","coordinates":[[[114.18679178017558,22.33104775746429],[114.18677030240472,22.331048052367027],[114.1867664949738,22.330963806215152],[114.18678796541917,22.330963053191958],[114.18679178017558,22.33104775746429]]]},"properties":{"OBJECTID":98928,"Shape__Length":23.15154476505262,"Shape__Area":20.717230787609981,"GeoRefNo":"3728821329","DateCreate":1114790400000,"BuildingBlockType":"Tower","BuildingCSUID":"3728821329T20050430","BuildingID":1108226527,"Status":"Active","BuildingNameEN":null,"BuildingNameTC":null,"BaseHeight":15.800000000000001,"TopHeight":32.5,"Storeys":3,"StoreysInBasement":null,"DateStamp":1599580800000}},{"type":"Feature","id":98934,"geometry":{"type":"Polygon","coordinates":[[[114.18757748306116,22.331062453309318],[114.1873718985906,22.331068749656588],[114.18736861509537,22.33097333807407],[114.18757330173855,22.330966967197824],[114.18757748306116,22.331062453309318]]]},"properties":{"OBJECTID":98934,"Shape__Length":63.442962376554206,"Shape__Area":223.63773924741514,"GeoRefNo":"3735921330","DateCreate":1114790400000,"BuildingBlockType":"Tower","BuildingCSUID":"3735921330T20050430","BuildingID":1108226521,"Status":"Active","BuildingNameEN":null,"BuildingNameTC":null,"BaseHeight":12.5,"TopHeight":16.800000000000001,"Storeys":1,"StoreysInBasement":null,"DateStamp":1599580800000}},{"type":"Feature","id":99116,"geometry":{"type":"Polygon","coordinates":[[[114.19123611310036,22.331834500925549],[114.19121723302945,22.331828845756572],[114.19123135364568,22.331794764626803],[114.19125066277047,22.331801521215901],[114.19123611310036,22.331834500925549]]]},"properties":{"OBJECTID":99116,"Shape__Length":12.160906869071567,"Shape__Area":8.3188032838189265,"GeoRefNo":"3774721418","DateCreate":1114790400000,"BuildingBlockType":"Tower","BuildingCSUID":"3774721418T20050430","BuildingID":1108226032,"Status":"Active","BuildingNameEN":"CARPENTER RD PARK","BuildingNameTC":"賈炳達道公園","BaseHeight":6.7000000000000002,"TopHeight":9.3000000000000007,"Storeys":null,"StoreysInBasement":null,"DateStamp":1361808000000}},{"type":"Feature","id":99119,"geometry":{"type":"Polygon","coordinates":[[[114.18643208851741,22.331871134629267],[114.18645922836733,22.331870220930607],[114.18646029785826,22.331895560676109],[114.18643315761454,22.331896465344371],[114.18643208851741,22.331871134629267]]]},"properties":{"OBJECTID":99119,"Shape__Length":11.210881074778568,"Shape__Area":7.8551748792058964,"GeoRefNo":"3725321427","DateCreate":1114790400000,"BuildingBlockType":"Tower","BuildingCSUID":"3725321427T20050430","BuildingID":1108225997,"Status":"Active","BuildingNameEN":"MUNSANG COLLEGE","BuildingNameTC":"民生書院","BaseHeight":18.399999999999999,"TopHeight":21.100000000000001,"Storeys":null,"StoreysInBasement":null,"DateStamp":1361808000000}},{"type":"Feature","id":99217,"geometry":{"type":"Polygon","coordinates":[[[114.18906541880708,22.331777502741755],[114.18911000521317,22.331688216186151],[114.18915692441838,22.331708495128353],[114.18911233793867,22.33179778160633],[114.18906541880708,22.331777502741755]]]},"properties":{"OBJECTID":99217,"Shape__Length":32.463586941616207,"Shape__Area":58.105353964977333,"GeoRefNo":"3752821410","DateCreate":1114790400000,"BuildingBlockType":"Tower","BuildingCSUID":"3752821410T20050430","BuildingID":1108226051,"Status":"Active","BuildingNameEN":"Kowloon Walled City Park Substation","BuildingNameTC":"九龍寨城公園變電站","BaseHeight":16,"TopHeight":21,"Storeys":null,"StoreysInBasement":null,"DateStamp":1361808000000}},{"type":"Feature","id":99545,"geometry":{"type":"Polygon","coordinates":[[[114.18591319009599,22.331662156443564],[114.18591480921286,22.331696938176552],[114.185617656562,22.331709031786538],[114.18560932211146,22.331532513822122],[114.18587228201136,22.331522623161774],[114.18588362477657,22.331522196465809],[114.18589498685817,22.331521769135833],[114.18590663461038,22.331521331042676],[114.18590800002369,22.331550664370159],[114.18590839379388,22.331559122751418],[114.18590883120835,22.331568518685156],[114.18590924665502,22.33157744322374],[114.18590965179827,22.331586147958603],[114.18591142227166,22.331624377559255],[114.18591182925891,22.331633073624573],[114.18591225821417,22.331642241265591],[114.18591275093435,22.331652770804933],[114.18591319009599,22.331662156443564]]]},"properties":{"OBJECTID":99545,"Shape__Length":100.32594321781342,"Shape__Area":598.08737225140385,"GeoRefNo":"3718021398","DateCreate":1114790400000,"BuildingBlockType":"Tower","BuildingCSUID":"3718021398T20050430","BuildingID":1108226105,"Status":"Active","BuildingNameEN":"Mei Kwong Building","BuildingNameTC":"美光樓","BaseHeight":20,"TopHeight":32.200000000000003,"Storeys":1,"StoreysInBasement":1,"DateStamp":1599580800000}},{"type":"Feature","id":99703,"geometry":{"type":"Polygon","coordinates":[[[114.18589710788443,22.332014263384526],[114.18589407136521,22.331944765561762],[114.18593106675291,22.331943462182114],[114.18593146623076,22.331953079186064],[114.18596725739825,22.33195190102964],[114.18596685791798,22.331942284025772],[114.18598065595845,22.331941771935924],[114.18598424515628,22.33205777324142],[114.18593413569764,22.33205911854974],[114.18593312241066,22.332026370290563],[114.18591362013484,22.332026866892598],[114.18591341672251,22.332014039777288],[114.18589710788443,22.332014263384526]]]},"properties":{"OBJECTID":99703,"Shape__Length":45.513558712111646,"Shape__Area":93.911004073560278,"GeoRefNo":"3720121438","DateCreate":1114790400000,"BuildingBlockType":"Tower","BuildingCSUID":"3720121438T20050430","BuildingID":1108225923,"Status":"Active","BuildingNameEN":"YEE YUEN","BuildingNameTC":"怡苑","BaseHeight":20.399999999999999,"TopHeight":36,"Storeys":4,"StoreysInBasement":null,"DateStamp":1599580800000}},{"type":"Feature","id":99704,"geometry":{"type":"Polygon","coordinates":[[[114.18580849866918,22.332063969470717],[114.1858047047055,22.331947973410454],[114.18581900574445,22.331947290086724],[114.18581940151131,22.331956677985325],[114.18585716792326,22.331955472742205],[114.18585652521215,22.331946088198752],[114.18589407136521,22.331944765561762],[114.18589710788443,22.332014263384526],[114.18588304666346,22.332014456250914],[114.18588326459533,22.332028199608143],[114.18586054885697,22.332028511166023],[114.18586132970727,22.332062179022611],[114.18580849866918,22.332063969470717]]]},"properties":{"OBJECTID":99704,"Shape__Length":46.360173189091007,"Shape__Area":98.875730782901414,"GeoRefNo":"3719221438","DateCreate":1114790400000,"BuildingBlockType":"Tower","BuildingCSUID":"3719221438T20050430","BuildingID":1108225922,"Status":"Active","BuildingNameEN":"YEE YUEN","BuildingNameTC":"怡苑","BaseHeight":20.600000000000001,"TopHeight":36,"Storeys":4,"StoreysInBasement":null,"DateStamp":1599580800000}},{"type":"Feature","id":99706,"geometry":{"type":"Polygon","coordinates":[[[114.18598424515628,22.33205777324142],[114.18598065595845,22.331941771935924],[114.18599622937487,22.331941193911607],[114.18599589173557,22.331951050086833],[114.18603142504355,22.331949188135248],[114.1860310255589,22.331939571131549],[114.18607225597302,22.331938776623343],[114.18607481636174,22.332006785869087],[114.18605952243436,22.332007912041274],[114.18605950435854,22.332022345980199],[114.18603778711149,22.332023331187365],[114.18603880402944,22.332056308461219],[114.18598424515628,22.33205777324142]]]},"properties":{"OBJECTID":99706,"Shape__Length":46.759665081798545,"Shape__Area":101.53440850584984,"GeoRefNo":"3721121437","DateCreate":1114790400000,"BuildingBlockType":"Tower","BuildingCSUID":"3721121437T20050430","BuildingID":1108225924,"Status":"Active","BuildingNameEN":"YEE YUEN","BuildingNameTC":"怡苑","BaseHeight":20.399999999999999,"TopHeight":36.100000000000001,"Storeys":4,"StoreysInBasement":null,"DateStamp":1599580800000}},{"type":"Feature","id":101285,"geometry":{"type":"Polygon","coordinates":[[[114.18880039754833,22.32871958069282],[114.18879774499513,22.328657813770761],[114.18896901977841,22.328652377537438],[114.18896947763791,22.328652363054204],[114.18897069914837,22.328674033023205],[114.18897819392542,22.328844575491626],[114.18896536850491,22.32884499492955],[114.18889540715527,22.328847282993273],[114.18883807563681,22.328849158026141],[114.18883264867364,22.328848761969102],[114.18882735978762,22.328847482721201],[114.18882235171689,22.328845354807189],[114.18881775962085,22.328842435655876],[114.18881370743243,22.328838804050243],[114.18881030451338,22.328834558001208],[114.18880764270274,22.328829812102494],[114.18880579383833,22.328824694437909],[114.18880480781785,22.328819343124604],[114.18880245962188,22.328766226486977],[114.18880039754833,22.32871958069282]]]},"properties":{"OBJECTID":101285,"Shape__Length":76.579234139655355,"Shape__Area":375.33053548897192,"GeoRefNo":"3750621080","DateCreate":1454428800000,"BuildingBlockType":"Podium","BuildingCSUID":"3750621080P20160203","BuildingID":1810149070,"Status":"Active","BuildingNameEN":null,"BuildingNameTC":null,"BaseHeight":8.5,"TopHeight":24.5,"Storeys":4,"StoreysInBasement":null,"DateStamp":1599580800000}},{"type":"Feature","id":101338,"geometry":{"type":"Polygon","coordinates":[[[114.18896536850491,22.32884499492955],[114.18889540715527,22.328847282993273],[114.18889444998408,22.328823563242526],[114.18888487298203,22.328833010577917],[114.18881712053191,22.328774603798678],[114.18882630142078,22.328765311641973],[114.18880245962188,22.328766226486977],[114.18880039754833,22.32871958069282],[114.18880585866594,22.328719378907429],[114.18882373450283,22.328718718353166],[114.18884016037026,22.328718111365436],[114.18884106845508,22.328741152742957],[114.18885280526439,22.328740672439164],[114.1888659569439,22.328751904967834],[114.18887695781922,22.328741492338846],[114.18887647803606,22.328730359470548],[114.18889276983889,22.328714873065071],[114.18891544136891,22.328693322235534],[114.18895204893194,22.328725336986295],[114.18895300376091,22.328751052225261],[114.18895996570126,22.328757411583535],[114.18895054613999,22.328766749279819],[114.18893455323601,22.328782603213433],[114.18893148057766,22.3287856491879],[114.18891792688036,22.328773739129858],[114.18890539243995,22.328786209404093],[114.18891460121741,22.32879423627481],[114.1889392776074,22.328793460692896],[114.18893984555118,22.328808190977753],[114.18896370570121,22.328807269428538],[114.18896536850491,22.32884499492955]]]},"properties":{"OBJECTID":101338,"Shape__Length":77.359142915236163,"Shape__Area":161.84887462962874,"GeoRefNo":"3750521082","DateCreate":1454428800000,"BuildingBlockType":"Tower","BuildingCSUID":"3750521082T20160203","BuildingID":1810149071,"Status":"Active","BuildingNameEN":"Billionnaire Luxe","BuildingNameTC":"金．御門","BaseHeight":24.5,"TopHeight":80.299999999999997,"Storeys":19,"StoreysInBasement":null,"DateStamp":1599580800000}},{"type":"Feature","id":105813,"geometry":{"type":"Polygon","coordinates":[[[114.18699544566627,22.326981458184015],[114.18701831435642,22.32698544176537],[114.18698688264654,22.327139021403404],[114.18694023008032,22.327130918736739],[114.18697187499502,22.326977352278899],[114.18699544566627,22.326981458184015]]]},"properties":{"OBJECTID":105813,"Shape__Length":44.383851823578716,"Shape__Area":84.461931073229849,"GeoRefNo":"3730920891","DateCreate":1195747200000,"BuildingBlockType":"Open-sided Structure","BuildingCSUID":"3730920891T20071123","BuildingID":1108229601,"Status":"Active","BuildingNameEN":"KA WAH COURT","BuildingNameTC":"嘉華閣","BaseHeight":null,"TopHeight":null,"Storeys":null,"StoreysInBasement":null,"DateStamp":1274198400000}},{"type":"Feature","id":105921,"geometry":{"type":"Polygon","coordinates":[[[114.18688543091142,22.327064053456297],[114.18687390238769,22.327119401277141],[114.18680258831692,22.327107013006895],[114.18681382120891,22.327050316581527],[114.18688543091142,22.327064053456297]]]},"properties":{"OBJECTID":105921,"Shape__Length":27.633686708419933,"Shape__Area":47.368543734860062,"GeoRefNo":"3729420894","DateCreate":1195747200000,"BuildingBlockType":"Open-sided Structure","BuildingCSUID":"3729420894T20071123","BuildingID":1108229617,"Status":"Active","BuildingNameEN":"KA WAH COURT","BuildingNameTC":"嘉華閣","BaseHeight":null,"TopHeight":null,"Storeys":null,"StoreysInBasement":null,"DateStamp":1274198400000}},{"type":"Feature","id":105937,"geometry":{"type":"Polygon","coordinates":[[[114.18587243565919,22.326190698649679],[114.18581465180456,22.326180552114902],[114.18581805035349,22.326162895684242],[114.18583699967603,22.326166368518702],[114.18583832417995,22.326159752908051],[114.1859010243768,22.326170498158255],[114.18590587012567,22.326146552021559],[114.18595460729216,22.326153850605586],[114.18595176868189,22.326167857657147],[114.18594456997681,22.326203365155692],[114.18587243565919,22.326190698649679]]]},"properties":{"OBJECTID":105937,"Shape__Length":38.274244895929655,"Shape__Area":49.859889638663844,"GeoRefNo":"3719920794","DateCreate":1195747200000,"BuildingBlockType":"Open-sided Structure","BuildingCSUID":"3719920794T20071123","BuildingID":1108230179,"Status":"Active","BuildingNameEN":"CROWFIELDS COURT","BuildingNameTC":"嘉樂閣","BaseHeight":null,"TopHeight":null,"Storeys":null,"StoreysInBasement":null,"DateStamp":1274198400000}},{"type":"Feature","id":106028,"geometry":{"type":"Polygon","coordinates":[[[114.18581780513458,22.326065371409094],[114.1858224631934,22.32604176429323],[114.18582748782725,22.326017608729256],[114.18597691734777,22.3260437610747],[114.18597344414552,22.326060899428395],[114.18596897285977,22.326082963120395],[114.18596693118559,22.326093038029239],[114.18581780513458,22.326065371409094]]]},"properties":{"OBJECTID":106028,"Shape__Length":42.266156186287965,"Shape__Area":85.684094189677737,"GeoRefNo":"3719720780","DateCreate":1195747200000,"BuildingBlockType":"Open-sided Structure","BuildingCSUID":"3719720780T20071123","BuildingID":1108230256,"Status":"Active","BuildingNameEN":"CROWFIELDS COURT","BuildingNameTC":"嘉樂閣","BaseHeight":null,"TopHeight":null,"Storeys":null,"StoreysInBasement":null,"DateStamp":1274198400000}},{"type":"Feature","id":106030,"geometry":{"type":"Polygon","coordinates":[[[114.18567569907812,22.326093977739632],[114.18567439765683,22.326098868776551],[114.1856489718845,22.32609475420076],[114.18564306375693,22.326123854143667],[114.18568157302457,22.326130942320663],[114.18567985011364,22.326139878451436],[114.18569984524169,22.326143995216018],[114.18569843791613,22.326150304331961],[114.18563983096107,22.32613977686967],[114.18550890008429,22.326116258078901],[114.18552083948285,22.326066110047872],[114.18565006604302,22.326089364957827],[114.18567569907812,22.326093977739632]]]},"properties":{"OBJECTID":106030,"Shape__Length":56.194512807721246,"Shape__Area":87.920898500549001,"GeoRefNo":"3716520785","DateCreate":1195747200000,"BuildingBlockType":"Open-sided Structure","BuildingCSUID":"3716520785T20071123","BuildingID":1108230216,"Status":"Active","BuildingNameEN":"CROWFIELDS COURT","BuildingNameTC":"嘉樂閣","BaseHeight":null,"TopHeight":null,"Storeys":null,"StoreysInBasement":null,"DateStamp":1274198400000}},{"type":"Feature","id":106234,"geometry":{"type":"Polygon","coordinates":[[[114.19076707407969,22.330341497226904],[114.19076612189717,22.330325360832369],[114.19073955101116,22.33032644425597],[114.19073919325926,22.330317036406736],[114.19090700325243,22.330310798584637],[114.19090796869055,22.330335055547611],[114.19076707407969,22.330341497226904]]]},"properties":{"OBJECTID":106234,"Shape__Length":40.094388525328142,"Shape__Area":42.930421143944358,"GeoRefNo":"3770421253","DateCreate":1114790400000,"BuildingBlockType":"Tower","BuildingCSUID":"3770421253T20050430","BuildingID":1108227023,"Status":"Active","BuildingNameEN":"SOUTH WALL MANSION","BuildingNameTC":"城南大樓","BaseHeight":6.7999999999999998,"TopHeight":14.800000000000001,"Storeys":10,"StoreysInBasement":null,"DateStamp":1599580800000}},{"type":"Feature","id":106968,"geometry":{"type":"Polygon","coordinates":[[[114.18718550661011,22.331258869045055],[114.18726747207944,22.331256030533268],[114.1872691374774,22.331295221793912],[114.18718716936046,22.331298007477798],[114.18718550661011,22.331258869045055]]]},"properties":{"OBJECTID":106968,"Shape__Length":25.580627884282528,"Shape__Area":36.675465424703766,"GeoRefNo":"3733421359","DateCreate":1197475200000,"BuildingBlockType":"Open-sided Structure","BuildingCSUID":"3733421359T20071213","BuildingID":1108226386,"Status":"Active","BuildingNameEN":"HOLY FAMILY CANOSSIAN SCHOOL","BuildingNameTC":"嘉諾撒聖家學校","BaseHeight":null,"TopHeight":null,"Storeys":null,"StoreysInBasement":null,"DateStamp":1274198400000}},{"type":"Feature","id":107415,"geometry":{"type":"Polygon","coordinates":[[[114.18587243565919,22.326190698649679],[114.18594456997681,22.326203365155692],[114.18593449520141,22.326253093912516],[114.18591223165579,22.326362960105723],[114.18583974151343,22.326350227501461],[114.18587243565919,22.326190698649679]]]},"properties":{"OBJECTID":107415,"Shape__Length":51.130623035041197,"Shape__Area":136.34548727485924,"GeoRefNo":"3719620805","DateCreate":1195747200000,"BuildingBlockType":"Open-sided Structure","BuildingCSUID":"3719620805T20071123","BuildingID":1108230096,"Status":"Active","BuildingNameEN":"LOMOND COURT","BuildingNameTC":"露明閣","BaseHeight":null,"TopHeight":null,"Storeys":null,"StoreysInBasement":null,"DateStamp":1274198400000}},{"type":"Feature","id":107766,"geometry":{"type":"Polygon","coordinates":[[[114.18674810811184,22.333754956076024],[114.18671183535467,22.33375667193414],[114.18668989518025,22.333757859707724],[114.18668945854621,22.333488334890959],[114.18668952681021,22.333451389344095],[114.18668956328196,22.333431679110248],[114.18668962172683,22.333400043724701],[114.18668984148206,22.333281133292346],[114.18679472504289,22.333281105024142],[114.18679473336132,22.333276589734137],[114.18686975918298,22.333276569481338],[114.18699743208481,22.333276534972807],[114.18706615625833,22.333276419209831],[114.18712455486815,22.333276136195405],[114.18712462570635,22.333331385543929],[114.18712457815477,22.333375204083161],[114.18723437408738,22.333375307967838],[114.18723890257972,22.33345135499426],[114.18724173082356,22.333498835247848],[114.18724252827209,22.333512223481108],[114.18724771807531,22.333599596434645],[114.18725113326835,22.333653120815704],[114.18725407070887,22.333712158304966],[114.18719660454664,22.333714854909182],[114.18708629303811,22.333719175924781],[114.1870851862663,22.333699473981653],[114.18708667924844,22.333653719106369],[114.18708692539046,22.33357370455197],[114.18708716783446,22.333494892689508],[114.18708726672563,22.333462723142798],[114.1870191047624,22.333462541683058],[114.18701325463348,22.333625038193539],[114.18701014855417,22.333711312291886],[114.18701080659767,22.333722132780007],[114.18675014342159,22.333732342931405],[114.18674674104435,22.33373247625034],[114.18674810811184,22.333754956076024]]]},"properties":{"OBJECTID":107766,"Shape__Length":274.92874556971185,"Shape__Area":2492.8598760606033,"GeoRefNo":"3729621613","DateCreate":1195401600000,"BuildingBlockType":"Tower","BuildingCSUID":"3729621613T20071119","BuildingID":1108225116,"Status":"Active","BuildingNameEN":"HKICC LEE SHAU KEE SCHOOL OF CREATIVITY","BuildingNameTC":"香港兆基創意書院","BaseHeight":21.399999999999999,"TopHeight":37.799999999999997,"Storeys":null,"StoreysInBasement":null,"DateStamp":1274198400000}},{"type":"Feature","id":108011,"geometry":{"type":"Polygon","coordinates":[[[114.19168166953854,22.331575804834394],[114.1916733802438,22.331593524947802],[114.19164488283666,22.331582013113],[114.19165266357433,22.331564101870146],[114.19168166953854,22.331575804834394]]]},"properties":{"OBJECTID":108011,"Shape__Length":10.737001704667847,"Shape__Area":6.9074749860282818,"GeoRefNo":"3779121392","DateCreate":1214496000000,"BuildingBlockType":"Tower","BuildingCSUID":"3779121392T20080627","BuildingID":1108226170,"Status":"Active","BuildingNameEN":null,"BuildingNameTC":null,"BaseHeight":6.5999999999999996,"TopHeight":9.9000000000000004,"Storeys":null,"StoreysInBasement":null,"DateStamp":1274198400000}},{"type":"Feature","id":108070,"geometry":{"type":"Polygon","coordinates":[[[114.19174217894502,22.331539832733004],[114.19172973550133,22.331567300659795],[114.19169397427204,22.331552822594144],[114.19170658128839,22.331525422926219],[114.19174217894502,22.331539832733004]]]},"properties":{"OBJECTID":108070,"Shape__Length":14.618407144342722,"Shape__Area":13.230219973850856,"GeoRefNo":"3779721388","DateCreate":1214496000000,"BuildingBlockType":"Tower","BuildingCSUID":"3779721388T20080627","BuildingID":1108226194,"Status":"Active","BuildingNameEN":null,"BuildingNameTC":null,"BaseHeight":6.5999999999999996,"TopHeight":9.9000000000000004,"Storeys":null,"StoreysInBasement":null,"DateStamp":1274198400000}},{"type":"Feature","id":108352,"geometry":{"type":"Polygon","coordinates":[[[114.18719797273742,22.33155687742342],[114.18719579459406,22.331505204578644],[114.18727581544462,22.331502313538731],[114.18727798982518,22.331553897612103],[114.18719797273742,22.33155687742342]]]},"properties":{"OBJECTID":108352,"Shape__Length":27.94292823413393,"Shape__Area":47.202069028920576,"GeoRefNo":"3733521387","DateCreate":1197475200000,"BuildingBlockType":"Open-sided Structure","BuildingCSUID":"3733521387T20071213","BuildingID":1108226205,"Status":"Active","BuildingNameEN":"HOLY FAMILY CANOSSIAN SCHOOL","BuildingNameTC":"嘉諾撒聖家學校","BaseHeight":null,"TopHeight":null,"Storeys":null,"StoreysInBasement":null,"DateStamp":1274198400000}},{"type":"Feature","id":108576,"geometry":{"type":"Polygon","coordinates":[[[114.18732850000866,22.330180532428866],[114.18721589345888,22.330184163836272],[114.18714374137062,22.330186274736217],[114.18714170168543,22.330137230404823],[114.18720928592278,22.330134558547634],[114.18721366936222,22.330134365193061],[114.18721431670794,22.330148860229809],[114.18726130466898,22.330147543985529],[114.18726165981698,22.33015510003165],[114.18732734744987,22.330153509388609],[114.18732850000866,22.330180532428866]]]},"properties":{"OBJECTID":108576,"Shape__Length":48.951983551409981,"Shape__Area":80.041339934527429,"GeoRefNo":"3733521236","DateCreate":1460390400000,"BuildingBlockType":"Tower","BuildingCSUID":"3733521236T20160412","BuildingID":1810150383,"Status":"Active","BuildingNameEN":"Luna Mansion","BuildingNameTC":"愛月閣","BaseHeight":12.300000000000001,"TopHeight":32,"Storeys":6,"StoreysInBasement":null,"DateStamp":1599580800000}},{"type":"Feature","id":108577,"geometry":{"type":"Polygon","coordinates":[[[114.18732570931176,22.330114138593338],[114.18720853056834,22.330117795667555],[114.18720928592278,22.330134558547634],[114.18714170168543,22.330137230404823],[114.18713943343292,22.330087194258756],[114.18732436651067,22.330080735007055],[114.18732570931176,22.330114138593338]]]},"properties":{"OBJECTID":108577,"Shape__Length":49.218209046386093,"Shape__Area":82.979412106863023,"GeoRefNo":"3733521229","DateCreate":1460390400000,"BuildingBlockType":"Tower","BuildingCSUID":"3733521229T20160412","BuildingID":1810150386,"Status":"Active","BuildingNameEN":null,"BuildingNameTC":null,"BaseHeight":12,"TopHeight":29.399999999999999,"Storeys":5,"StoreysInBasement":null,"DateStamp":1599580800000}},{"type":"Feature","id":108578,"geometry":{"type":"Polygon","coordinates":[[[114.18732436651067,22.330080735007055],[114.18713943343292,22.330087194258756],[114.18713746194084,22.330038817553341],[114.18718501213441,22.330036949526832],[114.18720534461244,22.330036151909908],[114.18720562116229,22.330053293924696],[114.18732312346701,22.330048252714199],[114.18732436651067,22.330080735007055]]]},"properties":{"OBJECTID":108578,"Shape__Length":49.041722065099293,"Shape__Area":80.415524172804751,"GeoRefNo":"3733521225","DateCreate":1460390400000,"BuildingBlockType":"Tower","BuildingCSUID":"3733521225T20160412","BuildingID":1810150387,"Status":"Active","BuildingNameEN":null,"BuildingNameTC":null,"BaseHeight":12,"TopHeight":29.399999999999999,"Storeys":5,"StoreysInBasement":null,"DateStamp":1599580800000}},{"type":"Feature","id":110460,"geometry":{"type":"Polygon","coordinates":[[[114.19058911435285,22.328091517734016],[114.19059842829967,22.328067855817949],[114.19063718918892,22.328080082641968],[114.19065598358561,22.328085538222378],[114.19066615826424,22.328088098428069],[114.19067489745152,22.328091773129895],[114.1907019517665,22.328103242368687],[114.19072828875917,22.3281145996852],[114.19071919302772,22.328137208533448],[114.19073176262081,22.328142775714451],[114.19076133104137,22.32815513514328],[114.19080167418687,22.328171725370325],[114.19080304348607,22.328172625511275],[114.19080384840775,22.328173152195891],[114.19080459043562,22.328173726657713],[114.19080522045816,22.328174387190661],[114.19080577924223,22.328175125754008],[114.19080628551899,22.328175917241097],[114.19080672414464,22.328176745940024],[114.19080707997533,22.328177596319488],[114.19080733747907,22.32817845302883],[114.19080746054863,22.328179328533402],[114.19080746820947,22.328180229333562],[114.19080741064359,22.328181144407655],[114.19080733832402,22.328182062824347],[114.19080706285524,22.328183075899084],[114.19079018786891,22.328224960752845],[114.19073775405251,22.328206923958135],[114.19070866596516,22.328203027947829],[114.19070699000272,22.328206703539209],[114.19067143648977,22.328194233535502],[114.19067861658324,22.328175967661892],[114.19067119468284,22.328173407222003],[114.19065683331299,22.328207821296242],[114.19065605557863,22.328209351685445],[114.19065563332647,22.328210174317391],[114.19065515137447,22.328210952343355],[114.19065456846675,22.328211656327149],[114.19065391605659,22.328212326361843],[114.19065321744071,22.328212972379134],[114.19065247766537,22.32821358173576],[114.19065170177662,22.328214141517549],[114.19065089472363,22.32821463908126],[114.19065005669971,22.328215066028427],[114.19064916974925,22.328215438615679],[114.19064824367588,22.328215756029348],[114.19064729294197,22.328216014475419],[114.19064633162166,22.328216209798597],[114.19064537398324,22.328216338024209],[114.1906444239076,22.328216381542287],[114.1906434650861,22.328216323557335],[114.19064249985135,22.328216195856804],[114.19064153111867,22.328216032034245],[114.19064056228869,22.328215865592814],[114.19063959617958,22.328215729945416],[114.19060559867842,22.328203705002551],[114.19060425558681,22.328202793298566],[114.19060350695943,22.328202221635877],[114.19060285024497,22.32820156462634],[114.19060222400537,22.328200869053614],[114.19060162901822,22.328200145483429],[114.19060107712578,22.328199396353014],[114.19060058046148,22.328198624189913],[114.19060015678738,22.32819781851715],[114.19059981629411,22.328196966600718],[114.19059954714166,22.328196088941073],[114.19059933690767,22.328195206580524],[114.19059923558063,22.328194315451039],[114.1905992372387,22.328193407425637],[114.19059923938208,22.32819249921954],[114.19059882955111,22.328191313448301],[114.19059845120479,22.328190487723777],[114.19059783816961,22.328189826737056],[114.19059705993941,22.328189277111466],[114.19059621571063,22.328188789712215],[114.19059536265485,22.328188363360447],[114.19059443962736,22.328188066784133],[114.19059337446997,22.328187508603833],[114.19059257954794,22.328186994108606],[114.19059181820487,22.328186420189297],[114.19059114042864,22.328185777178909],[114.19059058290777,22.328185041233585],[114.19059011400151,22.328184239538093],[114.19058974031401,22.328183409749407],[114.19058957026428,22.328182516639007],[114.19058952125435,22.328181611236776],[114.19058953892835,22.32818070339059],[114.19058967745109,22.328179814408092],[114.19058996031305,22.328178950698959],[114.19059027433364,22.328178091954022],[114.19060188253026,22.328149468530356],[114.19059553808411,22.328147130147805],[114.19058739999687,22.328165952383117],[114.19054981094911,22.328152591206727],[114.19055148592263,22.328148693464627],[114.1905283819255,22.328134551717024],[114.19047432840823,22.328115180704842],[114.19049174621333,22.328072744971958],[114.19049241437854,22.328071388792743],[114.19049295117537,22.328070634332445],[114.19049355902905,22.328069928811946],[114.19049422269963,22.328069265820769],[114.19049492549074,22.32806863434304],[114.19049568128679,22.328068075466742],[114.19049652590968,22.328067637231559],[114.19049743266375,22.328067292818936],[114.19049834631234,22.328066978026019],[114.19049927743605,22.32806669682541],[114.19050022196468,22.328066517127418],[114.19050118621443,22.328066509550712],[114.19050216056992,22.32806661377181],[114.19050312240583,22.328066737861207],[114.19050407803314,22.328066898615305],[114.19050503298139,22.328067063613858],[114.19054693059554,22.328078864854287],[114.19058911435285,22.328091517734016]]]},"properties":{"OBJECTID":110460,"Shape__Length":100.81895024387984,"Shape__Area":304.48041769289006,"GeoRefNo":"3768621010","DateCreate":1194969600000,"BuildingBlockType":"Tower","BuildingCSUID":"3768621010T20071114","BuildingID":1108228819,"Status":"Active","BuildingNameEN":"Prince Ritz","BuildingNameTC":"太子滙","BaseHeight":34.5,"TopHeight":126.09999999999999,"Storeys":29,"StoreysInBasement":null,"DateStamp":1599580800000}},{"type":"Feature","id":111876,"geometry":{"type":"Polygon","coordinates":[[[114.19038806027928,22.332180103140271],[114.19041075311389,22.332093458964284],[114.19045238318159,22.332102687794215],[114.19042947054263,22.332189658630465],[114.19038806027928,22.332180103140271]]]},"properties":{"OBJECTID":111876,"Shape__Length":28.595159943829579,"Shape__Area":43.560288041877833,"GeoRefNo":"3766321455","DateCreate":1185724800000,"BuildingBlockType":"Tower","BuildingCSUID":"3766321455T20070730","BuildingID":1108225860,"Status":"Active","BuildingNameEN":"KOWLOON WALLED CITY PARK","BuildingNameTC":"九龍寨城公園","BaseHeight":10.9,"TopHeight":17.100000000000001,"Storeys":null,"StoreysInBasement":null,"DateStamp":1361808000000}},{"type":"Feature","id":112129,"geometry":{"type":"Polygon","coordinates":[[[114.19049439988153,22.332304280309206],[114.19047217340274,22.332391133242421],[114.19042378720492,22.332380242725847],[114.19044660278782,22.332293044781494],[114.19049439988153,22.332304280309206]]]},"properties":{"OBJECTID":112129,"Shape__Length":30.031624855681372,"Shape__Area":50.586555903451455,"GeoRefNo":"3766721477","DateCreate":1185724800000,"BuildingBlockType":"Tower","BuildingCSUID":"3766721477T20070730","BuildingID":1108225756,"Status":"Active","BuildingNameEN":"KOWLOON WALLED CITY PARK","BuildingNameTC":"九龍寨城公園","BaseHeight":11.6,"TopHeight":17.100000000000001,"Storeys":null,"StoreysInBasement":null,"DateStamp":1361808000000}},{"type":"Feature","id":112272,"geometry":{"type":"Polygon","coordinates":[[[114.19046696745177,22.332411476145406],[114.19045117279767,22.332473195436361],[114.1903199329914,22.332443224887381],[114.1903339054611,22.332386872905349],[114.19033523927679,22.332381780269579],[114.19046696745177,22.332411476145406]]]},"properties":{"OBJECTID":112272,"Shape__Length":41.894947464388892,"Shape__Area":97.685322547471941,"GeoRefNo":"3766021486","DateCreate":1185724800000,"BuildingBlockType":"Tower","BuildingCSUID":"3766021486T20070730","BuildingID":1108225711,"Status":"Active","BuildingNameEN":"KOWLOON WALLED CITY PARK","BuildingNameTC":"九龍寨城公園","BaseHeight":12.300000000000001,"TopHeight":17.100000000000001,"Storeys":null,"StoreysInBasement":null,"DateStamp":1361808000000}},{"type":"Feature","id":112919,"geometry":{"type":"Polygon","coordinates":[[[114.19278546589797,22.332599428993024],[114.19277756476458,22.33242674991504],[114.19281578800582,22.332425174467517],[114.19282339103354,22.332598228883963],[114.19278546589797,22.332599428993024]]]},"properties":{"OBJECTID":112919,"Shape__Length":46.168978108773722,"Shape__Area":75.206661913410869,"GeoRefNo":"3790921495","DateCreate":1114790400000,"BuildingBlockType":"Tower","BuildingCSUID":"3790921495T20050430","BuildingID":1108225672,"Status":"Active","BuildingNameEN":"ON TUNG HOUSE","BuildingNameTC":"安東樓","BaseHeight":8.5999999999999996,"TopHeight":13.300000000000001,"Storeys":null,"StoreysInBasement":null,"DateStamp":1361808000000}},{"type":"Feature","id":113004,"geometry":{"type":"Polygon","coordinates":[[[114.19009824113184,22.332127838258703],[114.19010172681533,22.332111961039338],[114.19013834083277,22.33211891835689],[114.19013485505617,22.332134795577058],[114.19009824113184,22.332127838258703]]]},"properties":{"OBJECTID":113004,"Shape__Length":11.288613449108201,"Shape__Area":6.9083951289676868,"GeoRefNo":"3763221452","DateCreate":1114790400000,"BuildingBlockType":"Tower","BuildingCSUID":"3763221452T20050430","BuildingID":1108225891,"Status":"Active","BuildingNameEN":"KOWLOON WALLED CITY PARK","BuildingNameTC":"九龍寨城公園","BaseHeight":14,"TopHeight":16.5,"Storeys":null,"StoreysInBasement":null,"DateStamp":1361808000000}},{"type":"Feature","id":113047,"geometry":{"type":"Polygon","coordinates":[[[114.18615099440338,22.332521285083025],[114.18614911479642,22.332458942582878],[114.18617392555622,22.332458859879299],[114.18617165818675,22.332373737763266],[114.18614686054026,22.332373729979313],[114.18614531527477,22.332320660148703],[114.18616609261561,22.332320593120379],[114.18616382525316,22.332235471002743],[114.18614240010351,22.33223575209276],[114.1861408692025,22.332182608661146],[114.18616321991099,22.332182606021139],[114.18616082636534,22.332097511001034],[114.18613742704493,22.332097592447596],[114.1861352265998,22.332046372838015],[114.18615827975708,22.332046163267751],[114.18615723075082,22.331998168683075],[114.18625709209151,22.331996552572832],[114.18626011790751,22.332100521468654],[114.1863189315374,22.332098179115992],[114.1863204580697,22.332135981035719],[114.18626319739975,22.332136535243674],[114.18626429648191,22.332169370369513],[114.18628486526747,22.332168863458527],[114.18629178831888,22.332343415138091],[114.18627015174056,22.332343741500559],[114.18627120222543,22.332375592295129],[114.18632985934387,22.332373873689821],[114.18633131787166,22.332410754493004],[114.18627266073781,22.332412473098831],[114.18627260023062,22.332515809937963],[114.18615853235283,22.33252094573173],[114.18615099440338,22.332521285083025]]]},"properties":{"OBJECTID":113047,"Shape__Length":183.47560571414593,"Shape__Area":747.02168502774998,"GeoRefNo":"3723121471","DateCreate":1114790400000,"BuildingBlockType":"Tower","BuildingCSUID":"3723121471T20050430","BuildingID":1108225697,"Status":"Active","BuildingNameEN":null,"BuildingNameTC":"民生書院林子豐紀念樓","BaseHeight":19.800000000000001,"TopHeight":36.200000000000003,"Storeys":5,"StoreysInBasement":null,"DateStamp":1599580800000}},{"type":"Feature","id":113190,"geometry":{"type":"Polygon","coordinates":[[[114.19034053621051,22.332361555934678],[114.19036381721988,22.332272666083803],[114.19040620919887,22.332281582403688],[114.19038273763879,22.332371163386771],[114.19034053621051,22.332361555934678]]]},"properties":{"OBJECTID":113190,"Shape__Length":29.294687856327791,"Shape__Area":45.527450125161394,"GeoRefNo":"3765821475","DateCreate":1185724800000,"BuildingBlockType":"Tower","BuildingCSUID":"3765821475T20070730","BuildingID":1108225771,"Status":"Active","BuildingNameEN":"KOWLOON WALLED CITY PARK","BuildingNameTC":"九龍寨城公園","BaseHeight":11.699999999999999,"TopHeight":17.100000000000001,"Storeys":null,"StoreysInBasement":null,"DateStamp":1361808000000}},{"type":"Feature","id":113347,"geometry":{"type":"Polygon","coordinates":[[[114.19041721208792,22.332068797624089],[114.1904248251646,22.332039729805423],[114.19043122333498,22.332014719076451],[114.19056334222111,22.332043872195044],[114.19054742837578,22.332098869776452],[114.19056917224395,22.33210428628292],[114.19054025648232,22.332213197528237],[114.19051909500965,22.332207780968794],[114.19048834712063,22.332200106666598],[114.19051620130136,22.332091393199384],[114.19041721208792,22.332068797624089]]]},"properties":{"OBJECTID":113347,"Shape__Length":69.613775105637458,"Shape__Area":155.75637171954983,"GeoRefNo":"3767021446","DateCreate":1185724800000,"BuildingBlockType":"Tower","BuildingCSUID":"3767021446T20070730","BuildingID":1108225852,"Status":"Active","BuildingNameEN":"KOWLOON WALLED CITY PARK","BuildingNameTC":"九龍寨城公園","BaseHeight":9.9000000000000004,"TopHeight":17.100000000000001,"Storeys":null,"StoreysInBasement":null,"DateStamp":1361808000000}},{"type":"Feature","id":113415,"geometry":{"type":"Polygon","coordinates":[[[114.19036765545091,22.332258011389488],[114.19038435721913,22.332194241906858],[114.19051511807417,22.332223321217164],[114.19049868994273,22.332287516301168],[114.19036765545091,22.332258011389488]]]},"properties":{"OBJECTID":113415,"Shape__Length":42.314851845140844,"Shape__Area":101.07804089496715,"GeoRefNo":"3766421468","DateCreate":1114790400000,"BuildingBlockType":"Tower","BuildingCSUID":"3766421468T20050430","BuildingID":1108225813,"Status":"Active","BuildingNameEN":"KOWLOON WALLED CITY PARK","BuildingNameTC":"九龍寨城公園","BaseHeight":11.1,"TopHeight":17.100000000000001,"Storeys":null,"StoreysInBasement":null,"DateStamp":1361808000000}},{"type":"Feature","id":115680,"geometry":{"type":"Polygon","coordinates":[[[114.18883265204829,22.325703532098903],[114.18875853584858,22.325737384571944],[114.18869704558702,22.325613681054634],[114.18883263916331,22.325552890432252],[114.18891779453718,22.325516966839682],[114.18890761391839,22.325495857516295],[114.18896736554279,22.325469569709192],[114.1889972267273,22.325526262493085],[114.18902052849079,22.325516382634358],[114.18904624581739,22.32556710018067],[114.18902244748757,22.325577204219581],[114.18905081251698,22.325635485675974],[114.18899007744176,22.325661309143975],[114.18897939698107,22.325640881852955],[114.18883265204829,22.325703532098903]]]},"properties":{"OBJECTID":115680,"Shape__Length":109.75783751228512,"Shape__Area":536.80783809953709,"GeoRefNo":"3750820730","DateCreate":1114790400000,"BuildingBlockType":"Tower","BuildingCSUID":"3750820730T20050430","BuildingID":1108230480,"Status":"Active","BuildingNameEN":null,"BuildingNameTC":"聖三一堂","BaseHeight":6.5,"TopHeight":19.199999999999999,"Storeys":null,"StoreysInBasement":null,"DateStamp":1462377600000}},{"type":"Feature","id":120179,"geometry":{"type":"Polygon","coordinates":[[[114.18711550877299,22.327777261208631],[114.18704433146719,22.32777908880362],[114.18704097929474,22.327693504714464],[114.18708459514869,22.327692050114138],[114.18708563923923,22.327704752740125],[114.18710785390422,22.32770314009619],[114.18710829574725,22.327691230351824],[114.18723100854938,22.327686986367706],[114.18723278471576,22.327774249881688],[114.18716660035489,22.327775949336811],[114.18716539806995,22.327759703119941],[114.18714515754388,22.327760398590204],[114.18714564007438,22.327776487540241],[114.18711550877299,22.327777261208631]]]},"properties":{"OBJECTID":120179,"Shape__Length":64.256018800561591,"Shape__Area":179.66993991431292,"GeoRefNo":"3732520967","DateCreate":1114790400000,"BuildingBlockType":"Tower","BuildingCSUID":"3732520967T20050430","BuildingID":1108229180,"Status":"Active","BuildingNameEN":"Yue Luen Mansion","BuildingNameTC":"裕聯大廈","BaseHeight":8.9000000000000004,"TopHeight":28.100000000000001,"Storeys":6,"StoreysInBasement":null,"DateStamp":1599580800000}},{"type":"Feature","id":122187,"geometry":{"type":"Polygon","coordinates":[[[114.18780103663921,22.32924934111233],[114.18768161111102,22.329253713180581],[114.18767302478636,22.329055058977964],[114.18780567347116,22.329050364261494],[114.18780742595186,22.329093115467668],[114.18780952465114,22.329144314219256],[114.18778209638799,22.329145449683878],[114.18778381021032,22.32920659492676],[114.18779960638479,22.329206150095693],[114.18780103663921,22.32924934111233]]]},"properties":{"OBJECTID":122187,"Shape__Length":74.430308561864663,"Shape__Area":274.75306787265589,"GeoRefNo":"3738421125","DateCreate":1114790400000,"BuildingBlockType":"Tower","BuildingCSUID":"3738421125T20050430","BuildingID":1108228016,"Status":"Active","BuildingNameEN":null,"BuildingNameTC":"福興樓","BaseHeight":9.8000000000000007,"TopHeight":33.399999999999999,"Storeys":6,"StoreysInBasement":null,"DateStamp":1599580800000}},{"type":"Feature","id":122292,"geometry":{"type":"Polygon","coordinates":[[[114.18793915080884,22.329244347365609],[114.18781380297895,22.329248822885685],[114.18781170827648,22.329197882680152],[114.18780952465114,22.329144314219256],[114.18780567347116,22.329050364261494],[114.18793105850067,22.329045965685697],[114.18793915080884,22.329244347365609]]]},"properties":{"OBJECTID":122292,"Shape__Length":69.825549213623447,"Shape__Area":284.1933316410782,"GeoRefNo":"3740121123","DateCreate":1463932800000,"BuildingBlockType":"Podium","BuildingCSUID":"3740121123P20160523","BuildingID":1810151523,"Status":"Active","BuildingNameEN":null,"BuildingNameTC":null,"BaseHeight":9.8000000000000007,"TopHeight":25.100000000000001,"Storeys":4,"StoreysInBasement":null,"DateStamp":1599580800000}},{"type":"Feature","id":130477,"geometry":{"type":"Polygon","coordinates":[[[114.1863450109351,22.333807112686845],[114.18628861882202,22.333947015991409],[114.18628318295561,22.333960569039164],[114.18616612778499,22.333919615920422],[114.1861754894983,22.333896559411421],[114.18613224335037,22.333881378787854],[114.18612054050624,22.333910340614057],[114.18599804066353,22.33386751952991],[114.18602495705835,22.333801423382525],[114.18603845926543,22.333806054128715],[114.18607154951314,22.333724698382827],[114.18605856265495,22.333720062914068],[114.18608581837113,22.333654315406712],[114.18620667039683,22.333697158465331],[114.18619472038222,22.333726645620612],[114.18623813762117,22.333741800480734],[114.18625161889305,22.333707863596342],[114.18636872293108,22.333748802292945],[114.1863450109351,22.333807112686845]]]},"properties":{"OBJECTID":130477,"Shape__Length":128.99493257754719,"Shape__Area":734.31396142295,"GeoRefNo":"3722721639","DateCreate":1466956800000,"BuildingBlockType":"Tower","BuildingCSUID":"3722721639T20160627","BuildingID":1810152389,"Status":"Active","BuildingNameEN":"Parc Inverness Tower 1","BuildingNameTC":"賢文禮士第１座","BaseHeight":22.899999999999999,"TopHeight":57.200000000000003,"Storeys":10,"StoreysInBasement":2,"DateStamp":1599580800000}},{"type":"Feature","id":130479,"geometry":{"type":"Polygon","coordinates":[[[114.18660870159897,22.333565863779715],[114.18661846523678,22.333617341281535],[114.18660343093283,22.333653824010536],[114.18662396187007,22.333661465711135],[114.18661112818887,22.333693221612549],[114.18662430628684,22.333697813498084],[114.18662398754553,22.333748369224388],[114.18660166784136,22.333804073978904],[114.18662689851207,22.33381291998441],[114.18658586643677,22.333914075773606],[114.18652015320974,22.333891161462493],[114.18653500260268,22.333854095739198],[114.1864976731698,22.333841090054086],[114.18651498546164,22.333797675598522],[114.1864847647267,22.333787202472379],[114.18652419747056,22.333689550938235],[114.18650596561081,22.333683076290114],[114.18652759873109,22.333629747624556],[114.18651846832348,22.333581275275442],[114.18660870159897,22.333565863779715]]]},"properties":{"OBJECTID":130479,"Shape__Length":103.4716549843555,"Shape__Area":377.83552894623591,"GeoRefNo":"3726521632","DateCreate":1466956800000,"BuildingBlockType":"Tower","BuildingCSUID":"3726521632T20160627","BuildingID":1810152391,"Status":"Active","BuildingNameEN":"Parc Inverness Tower 3","BuildingNameTC":"賢文禮士第３座","BaseHeight":22.899999999999999,"TopHeight":57.299999999999997,"Storeys":10,"StoreysInBasement":2,"DateStamp":1599580800000}},{"type":"Feature","id":130480,"geometry":{"type":"Polygon","coordinates":[[[114.18660870159897,22.333565863779715],[114.18651846832348,22.333581275275442],[114.18650886548436,22.333534198539379],[114.18644419600278,22.333465396060756],[114.1864241142469,22.333481921403759],[114.18627079279803,22.333319035018949],[114.18632996872914,22.333271019133594],[114.18636087384435,22.333303916350673],[114.18640382878658,22.333268751092465],[114.18637297549674,22.333235746416502],[114.18643564210896,22.333184131510446],[114.18648394394378,22.33323624772483],[114.18647163507158,22.33324606514844],[114.18654561981313,22.3333259919204],[114.18655784113126,22.333316183165877],[114.1866238074236,22.333387439310968],[114.1866082085842,22.333400163706248],[114.18662462860634,22.333417679780165],[114.18657582577167,22.333457675633664],[114.18658698094923,22.333469669648213],[114.18656979343648,22.333483466877762],[114.18659792196814,22.333513362270601],[114.18660870159897,22.333565863779715]]]},"properties":{"OBJECTID":130480,"Shape__Length":142.77480418363456,"Shape__Area":739.49321591909597,"GeoRefNo":"3725421587","DateCreate":1466956800000,"BuildingBlockType":"Tower","BuildingCSUID":"3725421587T20160627","BuildingID":1810152392,"Status":"Active","BuildingNameEN":"Parc Inverness Tower 5","BuildingNameTC":"賢文禮士第５座","BaseHeight":22.899999999999999,"TopHeight":57.200000000000003,"Storeys":10,"StoreysInBasement":2,"DateStamp":1599580800000}},{"type":"Feature","id":130481,"geometry":{"type":"Polygon","coordinates":[[[114.18620690054551,22.333371821197435],[114.18621796175773,22.333362598710572],[114.18623946190013,22.333385178877911],[114.18622832798555,22.333394445439655],[114.18620690054551,22.333371821197435]]]},"properties":{"OBJECTID":130481,"Shape__Length":9.7485997894003891,"Shape__Area":5.1249804531720651,"GeoRefNo":"3723121592","DateCreate":1466956800000,"BuildingBlockType":"Tower","BuildingCSUID":"3723121592T20160627","BuildingID":1810152394,"Status":"Active","BuildingNameEN":null,"BuildingNameTC":null,"BaseHeight":22.800000000000001,"TopHeight":24.699999999999999,"Storeys":null,"StoreysInBasement":null,"DateStamp":1466956800000}},{"type":"Feature","id":133810,"geometry":{"type":"Polygon","coordinates":[[[114.18597773347405,22.333465382240188],[114.18597854408009,22.333478461362311],[114.18573201416142,22.333486492347312],[114.18572956976813,22.33345144489552],[114.1857152536935,22.333066978260586],[114.18572586360374,22.333066374526236],[114.18572441104733,22.33303706893134],[114.18575648790859,22.333035254369477],[114.18575485008579,22.33300054624085],[114.18575388420798,22.332980075596222],[114.18614658209492,22.33296636142585],[114.18621323140911,22.332964033742208],[114.18621430023414,22.332963996384034],[114.18628341208552,22.332961582738417],[114.18645070449941,22.33295573995348],[114.18646056640162,22.332955395483339],[114.18647025309454,22.332955057163826],[114.18647514332524,22.332954886375568],[114.18647616807175,22.332980127506314],[114.18647891181537,22.333047707412259],[114.18647915723361,22.333053751925572],[114.18646868554764,22.333054262415132],[114.18647536290497,22.333063731844529],[114.18601123141127,22.333451429185562],[114.18598667195735,22.333471944076472],[114.18597773347405,22.333465382240188]],[[114.18582686647174,22.333372090356107],[114.18595114042428,22.333368205318568],[114.18610835068476,22.333236719834826],[114.18608574380798,22.33321569071482],[114.18612805147173,22.333181041302662],[114.18615024209068,22.33320168320957],[114.1861906483996,22.333167888634648],[114.18618850792782,22.333108252980779],[114.18626878812515,22.33310411611323],[114.18633847397372,22.333045247293143],[114.18617272156324,22.333051330628688],[114.18613609649826,22.333052674770027],[114.18601735648161,22.333057032567353],[114.18581474125025,22.333064468416104],[114.18582521525668,22.333330198133925],[114.18582686647174,22.333372090356107]]]},"properties":{"OBJECTID":133810,"Shape__Length":408.79193644546046,"Shape__Area":2104.1143149635172,"GeoRefNo":"3718421571","DateCreate":1114790400000,"BuildingBlockType":"Tower","BuildingCSUID":"3718421571T20050430","BuildingID":1108225242,"Status":"Active","BuildingNameEN":null,"BuildingNameTC":"民生書院林百欣樓","BaseHeight":25.5,"TopHeight":38.600000000000001,"Storeys":null,"StoreysInBasement":null,"DateStamp":1466956800000}},{"type":"Feature","id":133811,"geometry":{"type":"Polygon","coordinates":[[[114.18571987372746,22.333451893705536],[114.18572293769324,22.333495824142606],[114.1857232077918,22.333499696981775],[114.18567691207828,22.333501296573168],[114.18567434775819,22.333451447918172],[114.18567424626184,22.333448975170622],[114.18567482256164,22.333448955271908],[114.18571970658067,22.333447404433354],[114.18571987372746,22.333451893705536]]]},"properties":{"OBJECTID":133811,"Shape__Length":21.06149595851533,"Shape__Area":27.399032478165314,"GeoRefNo":"3717721603","DateCreate":1347897600000,"BuildingBlockType":"Tower","BuildingCSUID":"3717721603T20120918","BuildingID":1810089341,"Status":"Active","BuildingNameEN":"MUNSANG COLLEGE","BuildingNameTC":"民生書院","BaseHeight":23.199999999999999,"TopHeight":27,"Storeys":null,"StoreysInBasement":null,"DateStamp":1466956800000}},{"type":"Feature","id":133813,"geometry":{"type":"Polygon","coordinates":[[[114.18590187693002,22.333825672996216],[114.18581733599855,22.333744658336204],[114.18583704988264,22.333726775793401],[114.18582887320463,22.333718893184656],[114.18588283552842,22.333670412679446],[114.18594082461168,22.333726007090078],[114.18592535321936,22.333740185876945],[114.18594692800589,22.333761069051551],[114.18593082732856,22.333775566021576],[114.18594376663239,22.333787808772179],[114.18590187693002,22.333825672996216]]]},"properties":{"OBJECTID":133813,"Shape__Length":48.530604456783536,"Shape__Area":125.58844380291563,"GeoRefNo":"3719621632","DateCreate":1466956800000,"BuildingBlockType":"Tower","BuildingCSUID":"3719621632T20160627","BuildingID":1810152384,"Status":"Active","BuildingNameEN":"Parc Inverness House A","BuildingNameTC":null,"BaseHeight":25.100000000000001,"TopHeight":38.399999999999999,"Storeys":3,"StoreysInBasement":2,"DateStamp":1599580800000}},{"type":"Feature","id":134340,"geometry":{"type":"Polygon","coordinates":[[[114.18598240701465,22.333753085375239],[114.18589779638282,22.333672044662055],[114.18591776611296,22.33365402600413],[114.18590984745933,22.333646357048458],[114.18596340630167,22.333597804384251],[114.18602152894994,22.333653328681695],[114.18600579557989,22.333667459629147],[114.18602747752132,22.333688179694899],[114.18601067510291,22.333703521704035],[114.18602367110135,22.333715850506568],[114.18598240701465,22.333753085375239]]]},"properties":{"OBJECTID":134340,"Shape__Length":48.554869649945957,"Shape__Area":125.38181352586447,"GeoRefNo":"3720421624","DateCreate":1466956800000,"BuildingBlockType":"Tower","BuildingCSUID":"3720421624T20160627","BuildingID":1810152385,"Status":"Active","BuildingNameEN":"Parc Inverness House B","BuildingNameTC":null,"BaseHeight":24.600000000000001,"TopHeight":37.899999999999999,"Storeys":3,"StoreysInBasement":2,"DateStamp":1599580800000}},{"type":"Feature","id":134341,"geometry":{"type":"Polygon","coordinates":[[[114.18599227060639,22.333608306401807],[114.18602104494126,22.333537464578811],[114.18613642294714,22.333578040964305],[114.1861183432066,22.333624024985454],[114.18610638685053,22.333619453849437],[114.1860955848733,22.333644688613134],[114.18599227060639,22.333608306401807]]]},"properties":{"OBJECTID":134341,"Shape__Length":42.234870081097206,"Shape__Area":102.86641196318271,"GeoRefNo":"3721521616","DateCreate":1466956800000,"BuildingBlockType":"Tower","BuildingCSUID":"3721521616T20160627","BuildingID":1810152386,"Status":"Active","BuildingNameEN":"Parc Inverness House C","BuildingNameTC":null,"BaseHeight":24.100000000000001,"TopHeight":37.399999999999999,"Storeys":3,"StoreysInBasement":2,"DateStamp":1599580800000}},{"type":"Feature","id":134342,"geometry":{"type":"Polygon","coordinates":[[[114.18606339709768,22.333544395488797],[114.18609243284858,22.333472948318008],[114.18620759132236,22.333513141137026],[114.18618879648309,22.333560287262603],[114.18617765574348,22.333556249521013],[114.18616747548421,22.33358103534378],[114.18606339709768,22.333544395488797]]]},"properties":{"OBJECTID":134342,"Shape__Length":42.331356362900472,"Shape__Area":103.97603273496769,"GeoRefNo":"3722221609","DateCreate":1466956800000,"BuildingBlockType":"Tower","BuildingCSUID":"3722221609T20160627","BuildingID":1810152387,"Status":"Active","BuildingNameEN":"Parc Inverness House D","BuildingNameTC":null,"BaseHeight":23.600000000000001,"TopHeight":36.899999999999999,"Storeys":3,"StoreysInBasement":2,"DateStamp":1599580800000}},{"type":"Feature","id":134343,"geometry":{"type":"Polygon","coordinates":[[[114.18613380618189,22.333479033100353],[114.18616301590815,22.333407275164138],[114.18627823795214,22.333447816780883],[114.18625934609474,22.333495242958925],[114.18624866499181,22.333491350407158],[114.18623841939663,22.333515757405568],[114.18613380618189,22.333479033100353]]]},"properties":{"OBJECTID":134343,"Shape__Length":42.390376833951578,"Shape__Area":104.53222163281899,"GeoRefNo":"3722921601","DateCreate":1466956800000,"BuildingBlockType":"Tower","BuildingCSUID":"3722921601T20160627","BuildingID":1810152388,"Status":"Active","BuildingNameEN":"Parc Inverness House E","BuildingNameTC":null,"BaseHeight":23.600000000000001,"TopHeight":36.899999999999999,"Storeys":3,"StoreysInBasement":2,"DateStamp":1599580800000}},{"type":"Feature","id":137116,"geometry":{"type":"Polygon","coordinates":[[[114.19380469511209,22.333245423482115],[114.19368676104214,22.333249784285474],[114.19344875280319,22.333258584691094],[114.19344669447226,22.333167820540098],[114.19348135108245,22.333166917447315],[114.1934803628023,22.333146316540528],[114.19325733221109,22.333155105282373],[114.19325322647255,22.33306471167927],[114.193296793716,22.333062996415546],[114.19329584329994,22.33304221913631],[114.19325223820597,22.333043934403616],[114.19320139091484,22.333045943975009],[114.19304820439943,22.333051997853303],[114.19304383337928,22.332961322064637],[114.19320138030812,22.332955060949807],[114.19342425895479,22.332946203216501],[114.19342832671869,22.333035520917246],[114.19339514893529,22.333036794191614],[114.19339609937521,22.333058471006275],[114.19361916780018,22.333050034803911],[114.19362308406917,22.333139352514248],[114.19358073025748,22.333140979511516],[114.1935817187356,22.333163114983954],[114.19368675010003,22.333158727875624],[114.19380468402503,22.333153801848361],[114.19382894062194,22.333152788693987],[114.19383335012174,22.333244363991035],[114.19380469511209,22.333245423482115]]]},"properties":{"OBJECTID":137116,"Shape__Length":261.2699967974994,"Shape__Area":1217.2855309899967,"GeoRefNo":"3797521561","DateCreate":1114790400000,"BuildingBlockType":"Tower","BuildingCSUID":"3797521561T20050430","BuildingID":1108225342,"Status":"Active","BuildingNameEN":"Cheung Tung House","BuildingNameTC":"祥東樓","BaseHeight":9.5999999999999996,"TopHeight":77.799999999999997,"Storeys":25,"StoreysInBasement":null,"DateStamp":1786636800000}},{"type":"Feature","id":137657,"geometry":{"type":"Polygon","coordinates":[[[114.18751797204372,22.332700444622187],[114.18750002482425,22.332708647738279],[114.18749120737006,22.332691951047686],[114.18750915449084,22.332683747932553],[114.18751797204372,22.332700444622187]]]},"properties":{"OBJECTID":137657,"Shape__Length":8.2400036347933376,"Shape__Area":4.2436037438017626,"GeoRefNo":"3736321516","DateCreate":1397577600000,"BuildingBlockType":"Tower","BuildingCSUID":"3736321516T20140416","BuildingID":1810119415,"Status":"Active","BuildingNameEN":"HAU WONG TEMPLE","BuildingNameTC":"侯王古廟","BaseHeight":25,"TopHeight":27.399999999999999,"Storeys":null,"StoreysInBasement":null,"DateStamp":1469548800000}},{"type":"Feature","id":137705,"geometry":{"type":"Polygon","coordinates":[[[114.18769050081399,22.332685183845992],[114.18767545830109,22.332685921387277],[114.1876730991989,22.332654043598932],[114.18768833907588,22.332652394407607],[114.18769050081399,22.332685183845992]]]},"properties":{"OBJECTID":137705,"Shape__Length":10.308513387119691,"Shape__Area":5.6157165906155999,"GeoRefNo":"3738221514","DateCreate":1114790400000,"BuildingBlockType":"Tower","BuildingCSUID":"3738221514T20050430","BuildingID":1108225630,"Status":"Active","BuildingNameEN":null,"BuildingNameTC":null,"BaseHeight":26,"TopHeight":28,"Storeys":null,"StoreysInBasement":null,"DateStamp":1361808000000}},{"type":"Feature","id":138117,"geometry":{"type":"Polygon","coordinates":[[[114.19257299170626,22.333202597284654],[114.19247587260816,22.333206352844105],[114.19245887237879,22.332829897904542],[114.19255623187962,22.332825534483607],[114.19255758688602,22.332856020685004],[114.19258212650585,22.332855115334272],[114.19257881322841,22.332780566959123],[114.19257294953303,22.332648634464821],[114.19266735256268,22.332645016106426],[114.19266915396572,22.332686275564701],[114.19269301191109,22.332685136913607],[114.19268803400011,22.332573289969936],[114.19268168783708,22.332430701619888],[114.19277756476458,22.33242674991504],[114.19278546589797,22.332599428993024],[114.19279485065429,22.332804534293217],[114.19269847933123,22.3328079835049],[114.19269718268899,22.332778849718391],[114.19267323510655,22.33277975340317],[114.19268224837862,22.33298619490623],[114.1925880956109,22.332989420057483],[114.19258638442361,22.332950919794243],[114.19256184196371,22.33295175064362],[114.19257299170626,22.333202597284654]]]},"properties":{"OBJECTID":138117,"Shape__Length":270.11371621912264,"Shape__Area":1253.1662020479894,"GeoRefNo":"3789121535","DateCreate":1114790400000,"BuildingBlockType":"Tower","BuildingCSUID":"3789121535T20050430","BuildingID":1108225371,"Status":"Active","BuildingNameEN":"On Tung House","BuildingNameTC":"安東樓","BaseHeight":8.6999999999999993,"TopHeight":47.100000000000001,"Storeys":13,"StoreysInBasement":null,"DateStamp":1786636800000}},{"type":"Feature","id":138129,"geometry":{"type":"Polygon","coordinates":[[[114.18572069827862,22.332895070860271],[114.18572059448525,22.332908436123525],[114.18566075172546,22.332911645792421],[114.18566005204795,22.332897704241411],[114.18572069827862,22.332895070860271]]]},"properties":{"OBJECTID":138129,"Shape__Length":15.455287255711665,"Shape__Area":9.3933704320988998,"GeoRefNo":"3717621539","DateCreate":1114790400000,"BuildingBlockType":"Tower","BuildingCSUID":"3717621539T20050430","BuildingID":1108225519,"Status":"Active","BuildingNameEN":"MUNSANG COLLEGE","BuildingNameTC":"民生書院","BaseHeight":22.199999999999999,"TopHeight":24.699999999999999,"Storeys":null,"StoreysInBasement":null,"DateStamp":1361808000000}},{"type":"Feature","id":138132,"geometry":{"type":"Polygon","coordinates":[[[114.18593252519356,22.332851366359911],[114.18586439990301,22.332853786212631],[114.18586235834836,22.332804041650093],[114.18582140524816,22.332805605494862],[114.18581893875762,22.332745505228189],[114.18585989184028,22.332743941384045],[114.18585788694135,22.332695091026739],[114.18592600476593,22.332692489933393],[114.18593252519356,22.332851366359911]]]},"properties":{"OBJECTID":138132,"Shape__Length":57.683646174804124,"Shape__Area":151.70446083970913,"GeoRefNo":"3719421520","DateCreate":1114790400000,"BuildingBlockType":"Tower","BuildingCSUID":"3719421520T20050430","BuildingID":1108225553,"Status":"Active","BuildingNameEN":"Man Wah Heights Block C","BuildingNameTC":"文華閣Ｃ座","BaseHeight":21.5,"TopHeight":38.299999999999997,"Storeys":6,"StoreysInBasement":null,"DateStamp":1599580800000}},{"type":"Feature","id":138572,"geometry":{"type":"Polygon","coordinates":[[[114.19362022802187,22.332785926373479],[114.19363922923532,22.332809144732703],[114.19352045536547,22.332891576937456],[114.19350203791547,22.332869023696944],[114.19349610380637,22.332873195893043],[114.19328852677646,22.332615013964478],[114.19320134778836,22.332676414028153],[114.19316629249364,22.332701103467105],[114.19316017102869,22.332693515868623],[114.19313570428537,22.332710656204483],[114.19309419022723,22.332658561607786],[114.19311814395917,22.332641434243381],[114.19306631068795,22.332577175220756],[114.19318261626016,22.332496112269364],[114.19320132949015,22.332519623481275],[114.19321111099129,22.332531912841013],[114.19330544056641,22.332465690888696],[114.1933341800169,22.332502179273234],[114.19332405570493,22.332509258020686],[114.19336360725018,22.332557912018505],[114.19341768544714,22.332520234797766],[114.1936279682304,22.332780484376443],[114.19362022802187,22.332785926373479]]]},"properties":{"OBJECTID":138572,"Shape__Length":186.45207974874313,"Shape__Area":1074.052229016969,"GeoRefNo":"3797121513","DateCreate":1114790400000,"BuildingBlockType":"Tower","BuildingCSUID":"3797121513T20050430","BuildingID":1108225531,"Status":"Active","BuildingNameEN":"Hong Tung House","BuildingNameTC":"康東樓","BaseHeight":9.8000000000000007,"TopHeight":50.799999999999997,"Storeys":14,"StoreysInBasement":null,"DateStamp":1786636800000}},{"type":"Feature","id":140892,"geometry":{"type":"Polygon","coordinates":[[[114.19095256406182,22.332968921046113],[114.19089510275677,22.33293111545882],[114.19097035099367,22.332832126717797],[114.19102781227842,22.332869932369174],[114.19095256406182,22.332968921046113]]]},"properties":{"OBJECTID":140892,"Shape__Length":41.352091339908263,"Shape__Area":97.341171130019561,"GeoRefNo":"3771921539","DateCreate":1114790400000,"BuildingBlockType":"Tower","BuildingCSUID":"3771921539T20050430","BuildingID":1108225496,"Status":"Active","BuildingNameEN":"KOWLOON WALLED CITY PARK","BuildingNameTC":"九龍寨城公園","BaseHeight":13,"TopHeight":19.899999999999999,"Storeys":null,"StoreysInBasement":null,"DateStamp":1361808000000}},{"type":"Feature","id":141100,"geometry":{"type":"Polygon","coordinates":[[[114.19183988596382,22.333174003596916],[114.19184408773123,22.333264969855115],[114.19146081619425,22.333279914934074],[114.19145636588493,22.333189864569754],[114.19171104325893,22.33317933214083],[114.19170931687606,22.333157304730374],[114.19167307740499,22.333158735697459],[114.191668614562,22.333073496560488],[114.19207555923572,22.333056028059357],[114.19207966992371,22.333142680413662],[114.19179733119095,22.333153829335608],[114.19179846370319,22.333175716735688],[114.19183988596382,22.333174003596916]]]},"properties":{"OBJECTID":141100,"Shape__Length":188.86189643663056,"Shape__Area":818.28497586703236,"GeoRefNo":"3780021567","DateCreate":1114790400000,"BuildingBlockType":"Tower","BuildingCSUID":"3780021567T20050430","BuildingID":1108225334,"Status":"Active","BuildingNameEN":"Shing Tung House","BuildingNameTC":"盛東樓","BaseHeight":10.4,"TopHeight":47.100000000000001,"Storeys":13,"StoreysInBasement":null,"DateStamp":1786636800000}},{"type":"Feature","id":141893,"geometry":{"type":"Polygon","coordinates":[[[114.18740729698344,22.328560815426734],[114.18734484310593,22.328562815248919],[114.18734417402972,22.328536907629815],[114.1872832928926,22.328539808759203],[114.18728251052133,22.328518703250584],[114.1874703000065,22.328512048586827],[114.18747213702736,22.32855873911538],[114.18740729698344,22.328560815426734]]]},"properties":{"OBJECTID":141893,"Shape__Length":49.144827336155494,"Shape__Area":81.861234957326801,"GeoRefNo":"3735021056","DateCreate":1114790400000,"BuildingBlockType":"Tower","BuildingCSUID":"3735021056T20050430","BuildingID":1108228530,"Status":"Active","BuildingNameEN":null,"BuildingNameTC":null,"BaseHeight":9.5999999999999996,"TopHeight":23,"Storeys":null,"StoreysInBasement":null,"DateStamp":1361808000000}},{"type":"Feature","id":141894,"geometry":{"type":"Polygon","coordinates":[[[114.19047328694045,22.328560878513194],[114.19060391374221,22.328556984405424],[114.19060548360736,22.328600651842251],[114.19047507706001,22.328605081988215],[114.19047328694045,22.328560878513194]]]},"properties":{"OBJECTID":141894,"Shape__Length":36.644752254661718,"Shape__Area":65.497880361692822,"GeoRefNo":"3767421060","DateCreate":1114790400000,"BuildingBlockType":"Tower","BuildingCSUID":"3767421060T20050430","BuildingID":1108228497,"Status":"Active","BuildingNameEN":null,"BuildingNameTC":null,"BaseHeight":6.7000000000000002,"TopHeight":23.5,"Storeys":5,"StoreysInBasement":null,"DateStamp":1599580800000}},{"type":"Feature","id":141901,"geometry":{"type":"Polygon","coordinates":[[[114.18936314385076,22.328596283510713],[114.18936132920744,22.328550710266132],[114.1894623596377,22.328546873727692],[114.18946303289029,22.328569543150717],[114.18952267676215,22.328567392102286],[114.18952314434692,22.328577244342693],[114.18953800558391,22.328576599839522],[114.18953863573995,22.3285905682074],[114.18953296651728,22.328590752875666],[114.18950659501235,22.328591611671619],[114.18936314385076,22.328596283510713]]]},"properties":{"OBJECTID":141901,"Shape__Length":46.391247235985475,"Shape__Area":71.265479841245792,"GeoRefNo":"3756021059","DateCreate":1114790400000,"BuildingBlockType":"Tower","BuildingCSUID":"3756021059T20050430","BuildingID":1108228504,"Status":"Active","BuildingNameEN":null,"BuildingNameTC":null,"BaseHeight":7.4000000000000004,"TopHeight":19.600000000000001,"Storeys":null,"StoreysInBasement":null,"DateStamp":1361808000000}},{"type":"Feature","id":141903,"geometry":{"type":"Polygon","coordinates":[[[114.19122539727871,22.328605145958779],[114.19122419445192,22.328575969151373],[114.19126030404725,22.328574664543424],[114.19125962565204,22.328558612830815],[114.19139864804397,22.328553650010296],[114.19140058004633,22.328598518203581],[114.19122539727871,22.328605145958779]]]},"properties":{"OBJECTID":141903,"Shape__Length":46.103189598609795,"Shape__Area":83.544247758376713,"GeoRefNo":"3775521060","DateCreate":1114790400000,"BuildingBlockType":"Tower","BuildingCSUID":"3775521060T20050430","BuildingID":1108228496,"Status":"Active","BuildingNameEN":null,"BuildingNameTC":"富仁樓","BaseHeight":6.2000000000000002,"TopHeight":26.300000000000001,"Storeys":6,"StoreysInBasement":null,"DateStamp":1599580800000}},{"type":"Feature","id":142296,"geometry":{"type":"Polygon","coordinates":[[[114.18805973980817,22.328704537628365],[114.18790256093622,22.328710829302317],[114.187874634905,22.32871194711668],[114.18787391790282,22.328695004435261],[114.187901825387,22.328695065113489],[114.18790000863417,22.32865612364316],[114.1879594240506,22.328653684748705],[114.18805750105163,22.328649658923943],[114.18805973980817,22.328704537628365]]]},"properties":{"OBJECTID":142296,"Shape__Length":50.478984767861483,"Shape__Area":103.7342377990516,"GeoRefNo":"3740921071","DateCreate":1114790400000,"BuildingBlockType":"Tower","BuildingCSUID":"3740921071T20050430","BuildingID":1108228414,"Status":"Active","BuildingNameEN":null,"BuildingNameTC":null,"BaseHeight":8.8000000000000007,"TopHeight":28,"Storeys":6,"StoreysInBasement":null,"DateStamp":1599580800000}},{"type":"Feature","id":142298,"geometry":{"type":"Polygon","coordinates":[[[114.19126329733614,22.328641333737977],[114.19126287773551,22.328628279072717],[114.19122639400719,22.328629324356072],[114.19122539727871,22.328605145958779],[114.19140058004633,22.328598518203581],[114.19140217889208,22.328635649202706],[114.19126329733614,22.328641333737977]]]},"properties":{"OBJECTID":142298,"Shape__Length":44.385519442719108,"Shape__Area":69.362572332637598,"GeoRefNo":"3775621064","DateCreate":1114790400000,"BuildingBlockType":"Tower","BuildingCSUID":"3775621064T20050430","BuildingID":1108228466,"Status":"Active","BuildingNameEN":null,"BuildingNameTC":"富仁樓","BaseHeight":6.2000000000000002,"TopHeight":26,"Storeys":6,"StoreysInBasement":null,"DateStamp":1599580800000}},{"type":"Feature","id":142300,"geometry":{"type":"Polygon","coordinates":[[[114.1873245567933,22.328678333628787],[114.18732340070054,22.328642816958119],[114.1873048814649,22.328642843712412],[114.18730420331482,22.328621417701967],[114.18747438095836,22.328615770448575],[114.18747474361705,22.328624988483842],[114.18747665144151,22.328673477809104],[114.1873245567933,22.328678333628787]]]},"properties":{"OBJECTID":142300,"Shape__Length":47.83246467363189,"Shape__Area":104.54740444488027,"GeoRefNo":"3735021068","DateCreate":1114790400000,"BuildingBlockType":"Tower","BuildingCSUID":"3735021068T20050430","BuildingID":1108228436,"Status":"Active","BuildingNameEN":null,"BuildingNameTC":null,"BaseHeight":9.8000000000000007,"TopHeight":27.699999999999999,"Storeys":null,"StoreysInBasement":null,"DateStamp":1361808000000}},{"type":"Feature","id":142337,"geometry":{"type":"Polygon","coordinates":[[[114.1874703000065,22.328512048586827],[114.18728251052133,22.328518703250584],[114.18728182375847,22.328500179308829],[114.18739169039206,22.328497301365104],[114.18739052537195,22.328471054318644],[114.18746857706499,22.328468256506849],[114.1874703000065,22.328512048586827]]]},"properties":{"OBJECTID":142337,"Shape__Length":48.54487415547635,"Shape__Area":61.596257645089693,"GeoRefNo":"3735421050","DateCreate":1114790400000,"BuildingBlockType":"Tower","BuildingCSUID":"3735421050T20050430","BuildingID":1108228564,"Status":"Active","BuildingNameEN":null,"BuildingNameTC":null,"BaseHeight":9.5999999999999996,"TopHeight":27.699999999999999,"Storeys":null,"StoreysInBasement":null,"DateStamp":1361808000000}},{"type":"Feature","id":142500,"geometry":{"type":"Polygon","coordinates":[[[114.18936406645291,22.328737417380683],[114.18936261580293,22.328690730095932],[114.18950938046022,22.328686582946023],[114.18951143138162,22.328731815716683],[114.18936406645291,22.328737417380683]]]},"properties":{"OBJECTID":142500,"Shape__Length":40.506983078683348,"Shape__Area":77.206426406610149,"GeoRefNo":"3756221074","DateCreate":1114790400000,"BuildingBlockType":"Tower","BuildingCSUID":"3756221074T20050430","BuildingID":1108228396,"Status":"Active","BuildingNameEN":null,"BuildingNameTC":"永昌樓","BaseHeight":7.4000000000000004,"TopHeight":25.399999999999999,"Storeys":6,"StoreysInBasement":null,"DateStamp":1599580800000}},{"type":"Feature","id":142504,"geometry":{"type":"Polygon","coordinates":[[[114.19130562618251,22.328680647410589],[114.19122862285363,22.328683387194356],[114.19122756086684,22.328657979108414],[114.19126379084669,22.328656689028232],[114.19126329733614,22.328641333737977],[114.19140217889208,22.328635649202706],[114.19140396582118,22.328677148458862],[114.19130562618251,22.328680647410589]]]},"properties":{"OBJECTID":142504,"Shape__Length":45.250417318720288,"Shape__Area":75.863335627547102,"GeoRefNo":"3775621069","DateCreate":1114790400000,"BuildingBlockType":"Tower","BuildingCSUID":"3775621069T20050430","BuildingID":1108228434,"Status":"Active","BuildingNameEN":null,"BuildingNameTC":"富仁樓","BaseHeight":6.2000000000000002,"TopHeight":26.399999999999999,"Storeys":6,"StoreysInBasement":null,"DateStamp":1599580800000}},{"type":"Feature","id":142505,"geometry":{"type":"Polygon","coordinates":[[[114.19101939553673,22.328689530366734],[114.19101730823799,22.328648361290817],[114.19119500642341,22.328641572702931],[114.19119673286153,22.328682537988275],[114.19108630944102,22.328686866614166],[114.19101939553673,22.328689530366734]]]},"properties":{"OBJECTID":142505,"Shape__Length":45.712192097041964,"Shape__Area":83.291660679545814,"GeoRefNo":"3773321070","DateCreate":1114790400000,"BuildingBlockType":"Tower","BuildingCSUID":"3773321070T20050430","BuildingID":1108228428,"Status":"Active","BuildingNameEN":"Yen Shing Building","BuildingNameTC":"仁成大廈","BaseHeight":6.2000000000000002,"TopHeight":26.300000000000001,"Storeys":6,"StoreysInBasement":null,"DateStamp":1599580800000}},{"type":"Feature","id":142533,"geometry":{"type":"Polygon","coordinates":[[[114.18841125503241,22.32850888642162],[114.18833090133681,22.328511905016292],[114.18829618152098,22.328513209324914],[114.18822980974582,22.32851570256415],[114.18822778701116,22.328461027485329],[114.18829386689595,22.328458690586949],[114.18829453006512,22.328474312186643],[114.18832914215588,22.328473346894164],[114.18832964615422,22.328484394333401],[114.18834755999646,22.328483528654068],[114.18841018671108,22.328480502378184],[114.18841033545124,22.328484455686443],[114.18841125503241,22.32850888642162]]]},"properties":{"OBJECTID":142533,"Shape__Length":49.555675581080187,"Shape__Area":82.341263868013073,"GeoRefNo":"3744221049","DateCreate":1114790400000,"BuildingBlockType":"Tower","BuildingCSUID":"3744221049T20050430","BuildingID":1108228566,"Status":"Active","BuildingNameEN":null,"BuildingNameTC":null,"BaseHeight":8.4000000000000004,"TopHeight":23.800000000000001,"Storeys":4,"StoreysInBasement":null,"DateStamp":1599580800000}},{"type":"Feature","id":142535,"geometry":{"type":"Polygon","coordinates":[[[114.18902805236971,22.328537446008873],[114.18902273025988,22.328537669374395],[114.18902214294087,22.328518995163758],[114.18899900201995,22.328520121300642],[114.18899773316461,22.32848308525401],[114.18899701461713,22.328465543488271],[114.18902042244949,22.328464291264645],[114.1890198120729,22.328449469502797],[114.18902068731344,22.328449433585568],[114.18917404212119,22.328443117277786],[114.18917768804378,22.328533887285786],[114.18902805236971,22.328537446008873]]]},"properties":{"OBJECTID":142535,"Shape__Length":56.494176692486988,"Shape__Area":172.37418381515647,"GeoRefNo":"3752621050","DateCreate":1114790400000,"BuildingBlockType":"Tower","BuildingCSUID":"3752621050T20050430","BuildingID":1108228550,"Status":"Active","BuildingNameEN":null,"BuildingNameTC":null,"BaseHeight":7.7000000000000002,"TopHeight":25.800000000000001,"Storeys":6,"StoreysInBasement":null,"DateStamp":1599580800000}},{"type":"Feature","id":142539,"geometry":{"type":"Polygon","coordinates":[[[114.18627932845551,22.32829308556024],[114.18628444424971,22.3284333541697],[114.18624767264475,22.328434515024433],[114.18624823569282,22.328449953046622],[114.18628500730179,22.328448792191779],[114.18629957164528,22.328448590140198],[114.18630256723789,22.328544081711684],[114.18610218743153,22.328550985348549],[114.18609869098795,22.328455042543755],[114.18614953551206,22.328453879017964],[114.18614952453096,22.328437613310623],[114.18611695443673,22.328438981507229],[114.18611452184045,22.328394570587076],[114.18618090370421,22.328392275170398],[114.18618154993024,22.328401888190253],[114.18621165874777,22.328401012289955],[114.18620924411158,22.328326589486707],[114.18617913531003,22.32832746538654],[114.18617879047878,22.328336863174481],[114.18611240152508,22.328338700559453],[114.18611152277245,22.328298849994898],[114.18614410375119,22.32829816893592],[114.18614313076155,22.328283520209723],[114.18609179983582,22.328285148746112],[114.18608882242499,22.328190802335062],[114.18611668577412,22.328189907345504],[114.18628970270446,22.328184350033965],[114.18629218286996,22.328278474137374],[114.18624232576329,22.328279624014431],[114.18624255824869,22.32829428298761],[114.18627932845551,22.32829308556024]]]},"properties":{"OBJECTID":142539,"Shape__Length":180.5954964747209,"Shape__Area":669.68954491722343,"GeoRefNo":"3723221038","DateCreate":1114790400000,"BuildingBlockType":"Tower","BuildingCSUID":"3723221038T20050430","BuildingID":1108228539,"Status":"Active","BuildingNameEN":"Kalam Court","BuildingNameTC":"嘉林閣","BaseHeight":11.199999999999999,"TopHeight":32.399999999999999,"Storeys":7,"StoreysInBasement":null,"DateStamp":1599580800000}},{"type":"Feature","id":142723,"geometry":{"type":"Polygon","coordinates":[[[114.18726373232045,22.328679154371461],[114.18707842143775,22.32868528441373],[114.18707449830035,22.328580035731981],[114.18725935434735,22.328573373641401],[114.1872601082613,22.328591682289616],[114.18723666620676,22.328592693505833],[114.18723924860109,22.328661392515635],[114.18726296353731,22.32866061553483],[114.18726373232045,22.328679154371461]]]},"properties":{"OBJECTID":142723,"Shape__Length":66.381290366665596,"Shape__Area":204.55258826016447,"GeoRefNo":"3732721065","DateCreate":1114790400000,"BuildingBlockType":"Tower","BuildingCSUID":"3732721065T20050430","BuildingID":1108228433,"Status":"Active","BuildingNameEN":null,"BuildingNameTC":null,"BaseHeight":10.4,"TopHeight":30.100000000000001,"Storeys":6,"StoreysInBasement":null,"DateStamp":1599580800000}},{"type":"Feature","id":142724,"geometry":{"type":"Polygon","coordinates":[[[114.19068790527535,22.328645573056559],[114.19068569159357,22.328645646845057],[114.190684951088,22.328621189919318],[114.19067070064527,22.328621397485538],[114.19066880895386,22.328577407685074],[114.19068361138206,22.328576950918027],[114.1906829512188,22.328555148615749],[114.1908348132376,22.328550268352739],[114.19083838049838,22.328640559256126],[114.19068938057787,22.328645523894366],[114.19068790527535,22.328645573056559]]]},"properties":{"OBJECTID":142724,"Shape__Length":54.393911577738365,"Shape__Area":164.52837104818772,"GeoRefNo":"3769721061","DateCreate":1114790400000,"BuildingBlockType":"Tower","BuildingCSUID":"3769721061T20050430","BuildingID":1108228462,"Status":"Active","BuildingNameEN":"Kwok Ping House","BuildingNameTC":"慖蘋樓","BaseHeight":6.5,"TopHeight":23.100000000000001,"Storeys":5,"StoreysInBasement":null,"DateStamp":1599580800000}},{"type":"Feature","id":142764,"geometry":{"type":"Polygon","coordinates":[[[114.18833194079274,22.328632390906591],[114.18823425776405,22.328635938339037],[114.18823185271648,22.328570927784355],[114.1882985287279,22.328568498368988],[114.18840775836759,22.328564662359117],[114.1884115075563,22.328629501324379],[114.18833194079274,22.328632390906591]]]},"properties":{"OBJECTID":142764,"Shape__Length":50.80369614145777,"Shape__Area":131.06425377360068,"GeoRefNo":"3744221062","DateCreate":1114790400000,"BuildingBlockType":"Tower","BuildingCSUID":"3744221062T20050430","BuildingID":1108228470,"Status":"Active","BuildingNameEN":"Fook Luen Mansion","BuildingNameTC":"福聯樓","BaseHeight":8.5999999999999996,"TopHeight":27,"Storeys":6,"StoreysInBasement":null,"DateStamp":1599580800000}},{"type":"Feature","id":142765,"geometry":{"type":"Polygon","coordinates":[[[114.19047328694045,22.328560878513194],[114.19047136955433,22.328513534211439],[114.19056848807156,22.32851069735959],[114.19060221423226,22.328509712241068],[114.19060391374221,22.328556984405424],[114.19047328694045,22.328560878513194]]]},"properties":{"OBJECTID":142765,"Shape__Length":37.43502510701785,"Shape__Area":70.637910653554997,"GeoRefNo":"3767521055","DateCreate":1114790400000,"BuildingBlockType":"Tower","BuildingCSUID":"3767521055T20050430","BuildingID":1108228531,"Status":"Active","BuildingNameEN":null,"BuildingNameTC":null,"BaseHeight":6.4000000000000004,"TopHeight":23.5,"Storeys":5,"StoreysInBasement":null,"DateStamp":1599580800000}},{"type":"Feature","id":143654,"geometry":{"type":"Polygon","coordinates":[[[114.18841657568068,22.327273195431808],[114.1884207327973,22.327204000981073],[114.18846269432156,22.327205130139937],[114.1884644006403,22.327166638229471],[114.18842342540796,22.327164362928876],[114.18842560858505,22.327094939873501],[114.18857420361174,22.327101297997135],[114.1885715270293,22.327170720819254],[114.18852635677747,22.327168905234362],[114.18852539115872,22.327208313606167],[114.18856908119977,22.327210358765697],[114.18856566425863,22.32727932397033],[114.18841657568068,22.327273195431808]]]},"properties":{"OBJECTID":143654,"Shape__Length":87.751621462240209,"Shape__Area":263.75972225832447,"GeoRefNo":"3746620904","DateCreate":1114790400000,"BuildingBlockType":"Tower","BuildingCSUID":"3746620904T20050430","BuildingID":1108229508,"Status":"Active","BuildingNameEN":"Fook Lung Garden","BuildingNameTC":"福龍花園","BaseHeight":6.9000000000000004,"TopHeight":25.300000000000001,"Storeys":6,"StoreysInBasement":null,"DateStamp":1599580800000}},{"type":"Feature","id":143876,"geometry":{"type":"Polygon","coordinates":[[[114.18738396138041,22.327050203344971],[114.1873975013151,22.326985129144308],[114.1874841468921,22.32700021809746],[114.18748783687501,22.326977992499156],[114.18740143839337,22.326963591210951],[114.18741423798055,22.326898288402035],[114.18750112967217,22.326912231077937],[114.18752131248429,22.326810496222141],[114.18759166620215,22.326822841886969],[114.18757148258322,22.32692480576706],[114.18759591970102,22.326926858514046],[114.18761585713706,22.326826039996554],[114.18768670388943,22.326837468802186],[114.18766627348374,22.326939203785059],[114.18775365918118,22.326954292183551],[114.18773962628104,22.327020053584608],[114.18765248751276,22.327005423735383],[114.18764855070134,22.327027420067235],[114.18773618330582,22.327042737383813],[114.18772338426947,22.327107123522143],[114.18763624510467,22.327091806436787],[114.18761532126129,22.327193770639241],[114.18754521443846,22.327182112557772],[114.18756515137416,22.32708014833927],[114.18753972525413,22.327075805135241],[114.18751756686947,22.327177769858377],[114.18744992920365,22.32716611066979],[114.18746986597749,22.327063688612114],[114.18738396138041,22.327050203344971]]]},"properties":{"OBJECTID":143876,"Shape__Length":233.27444033791122,"Shape__Area":899.71073701090938,"GeoRefNo":"3737020886","DateCreate":1114790400000,"BuildingBlockType":"Tower","BuildingCSUID":"3737020886T20050430","BuildingID":1108229565,"Status":"Active","BuildingNameEN":"Belvedere Heights","BuildingNameTC":"碧殿閣","BaseHeight":6.5999999999999996,"TopHeight":32.600000000000001,"Storeys":10,"StoreysInBasement":null,"DateStamp":1599580800000}},{"type":"Feature","id":144093,"geometry":{"type":"Polygon","coordinates":[[[114.18902805236971,22.328537446008873],[114.18917768804378,22.328533887285786],[114.18918040109645,22.32862165920983],[114.18900334638347,22.328628419352171],[114.18900279774421,22.328614742122181],[114.18903052527075,22.328613898206594],[114.18902971628015,22.328595552906702],[114.18900205270408,22.328596170330282],[114.18900092206052,22.32856798523953],[114.18902848382953,22.328567607134286],[114.18902805236971,22.328537446008873]]]},"properties":{"OBJECTID":144093,"Shape__Length":61.961200723784494,"Shape__Area":165.08973931260419,"GeoRefNo":"3752621060","DateCreate":1114790400000,"BuildingBlockType":"Tower","BuildingCSUID":"3752621060T20050430","BuildingID":1108228480,"Status":"Active","BuildingNameEN":null,"BuildingNameTC":null,"BaseHeight":7.7000000000000002,"TopHeight":24.100000000000001,"Storeys":5,"StoreysInBasement":null,"DateStamp":1599580800000}},{"type":"Feature","id":144094,"geometry":{"type":"Polygon","coordinates":[[[114.1882985287279,22.328568498368988],[114.18823185271648,22.328570927784355],[114.18822980974582,22.32851570256415],[114.18829618152098,22.328513209324914],[114.18833090133681,22.328511905016292],[114.18841125503241,22.32850888642162],[114.18841230662214,22.328536826071097],[114.18833220543215,22.328540490154531],[114.18833256852913,22.3285484494148],[114.18829773728078,22.328549854964486],[114.1882985287279,22.328568498368988]]]},"properties":{"OBJECTID":144094,"Shape__Length":49.59961660149154,"Shape__Area":82.45243533456555,"GeoRefNo":"3744221055","DateCreate":1114790400000,"BuildingBlockType":"Tower","BuildingCSUID":"3744221055T20050430","BuildingID":1108228525,"Status":"Active","BuildingNameEN":null,"BuildingNameTC":null,"BaseHeight":8.5,"TopHeight":23.899999999999999,"Storeys":4,"StoreysInBasement":null,"DateStamp":1599580800000}},{"type":"Feature","id":144108,"geometry":{"type":"Polygon","coordinates":[[[114.18688686171049,22.326628819121233],[114.18690064914102,22.326564890563503],[114.18728870177557,22.326633020279981],[114.18727491485751,22.326697635826815],[114.18720703036273,22.32668528932442],[114.18719742861144,22.326731116010095],[114.18713546915434,22.32672037139567],[114.18714506962957,22.326674086411437],[114.18701473173083,22.326651682272214],[114.18700562415609,22.326697279809686],[114.18694514517622,22.326686763051853],[114.18695548655717,22.326639790443554],[114.18688686171049,22.326628819121233]]]},"properties":{"OBJECTID":144108,"Shape__Length":116.8215102877548,"Shape__Area":360.44057733081144,"GeoRefNo":"3732120844","DateCreate":1114790400000,"BuildingBlockType":"Tower","BuildingCSUID":"3732120844T20050430","BuildingID":1108229892,"Status":"Active","BuildingNameEN":"Angie Court","BuildingNameTC":"雅緻園","BaseHeight":8.1999999999999993,"TopHeight":40.799999999999997,"Storeys":12,"StoreysInBasement":null,"DateStamp":1599580800000}},{"type":"Feature","id":144317,"geometry":{"type":"Polygon","coordinates":[[[114.18959040812024,22.328497415289668],[114.18974079901558,22.328491833949151],[114.18974557718765,22.328625776638024],[114.18956563802087,22.328631868819272],[114.18956488895221,22.328611441967762],[114.18959477419364,22.328609943881538],[114.18959394806869,22.328588650912867],[114.18956409268989,22.328589727719841],[114.18956326947396,22.328567280190533],[114.18959307641047,22.328566185868201],[114.18959206318955,22.328540071485222],[114.18956231907806,22.328541361495194],[114.18956159599118,22.328521642187681],[114.18959128006948,22.3285198876493],[114.18959086413741,22.32850916819794],[114.18959040812024,22.328497415289668]]]},"properties":{"OBJECTID":144317,"Shape__Length":78.941383714562775,"Shape__Area":250.86503793524284,"GeoRefNo":"3758421057","DateCreate":1114790400000,"BuildingBlockType":"Tower","BuildingCSUID":"3758421057T20050430","BuildingID":1108228475,"Status":"Active","BuildingNameEN":null,"BuildingNameTC":"興富樓","BaseHeight":7.2000000000000002,"TopHeight":24.800000000000001,"Storeys":6,"StoreysInBasement":null,"DateStamp":1599580800000}}]}