{"type":"FeatureCollection","features":[{"type":"Feature","id":493,"geometry":{"type":"Polygon","coordinates":[[[114.18615859954639,22.329297962025869],[114.18611590517845,22.329300277209619],[114.18611805961888,22.329340601711465],[114.18612734070953,22.329340210335761],[114.18612812629088,22.329363972013201],[114.18615944951415,22.329362992291617],[114.18616003479453,22.329407775191562],[114.18610046330549,22.329409806155919],[114.18609482899807,22.329263129755979],[114.18615811573223,22.329260942350828],[114.18615859954639,22.329297962025869]]]},"properties":{"OBJECTID":493,"Shape__Length":53.672547798669768,"Shape__Area":74.869905708963387,"GeoRefNo":"3722121138","DateCreate":1347465600000,"BuildingBlockType":"Open-sided Structure","BuildingCSUID":"3722121138T20120913","BuildingID":1810088885,"Status":"Active","BuildingNameEN":"GRACIOUS COURT","BuildingNameTC":"嘉翠閣","BaseHeight":null,"TopHeight":null,"Storeys":null,"StoreysInBasement":null,"DateStamp":1347465600000}},{"type":"Feature","id":497,"geometry":{"type":"Polygon","coordinates":[[[114.18657013250187,22.32924297498063],[114.18656404652492,22.329093202846863],[114.18659505683887,22.3290922111395],[114.18660058752593,22.329241903836433],[114.18657013250187,22.32924297498063]]]},"properties":{"OBJECTID":497,"Shape__Length":39.519243274672313,"Shape__Area":52.56494446345387,"GeoRefNo":"3726821126","DateCreate":1346947200000,"BuildingBlockType":"Open-sided Structure","BuildingCSUID":"3726821126T20120907","BuildingID":1810088904,"Status":"Active","BuildingNameEN":"MAN YUEN MANSION","BuildingNameTC":"文園大廈","BaseHeight":null,"TopHeight":null,"Storeys":null,"StoreysInBasement":null,"DateStamp":1346947200000}},{"type":"Feature","id":498,"geometry":{"type":"Polygon","coordinates":[[[114.18663917745306,22.329320711678438],[114.18664158616527,22.329379091996458],[114.18667021930993,22.329378469679153],[114.1866722357298,22.329427692466815],[114.18664360988717,22.329428772815245],[114.18664457060302,22.32945026554523],[114.18657864999393,22.329452584061542],[114.18657212771568,22.329292075497552],[114.18663794875998,22.329289810180018],[114.18663917745306,22.329320711678438]]]},"properties":{"OBJECTID":498,"Shape__Length":55.00092929916319,"Shape__Area":136.85637059448521,"GeoRefNo":"3727221148","DateCreate":1346947200000,"BuildingBlockType":"Open-sided Structure","BuildingCSUID":"3727221148T20120907","BuildingID":1810088905,"Status":"Active","BuildingNameEN":"FOOK HONG COURT","BuildingNameTC":"福康園","BaseHeight":null,"TopHeight":null,"Storeys":null,"StoreysInBasement":null,"DateStamp":1346947200000}},{"type":"Feature","id":499,"geometry":{"type":"Polygon","coordinates":[[[114.18642463655129,22.331471845593057],[114.18646412790834,22.331470461300828],[114.1864638347442,22.331463121623234],[114.18646246927038,22.331428932376095],[114.18644494983329,22.331410222323193],[114.18644248740367,22.3313520110725],[114.18632933255887,22.331356153930134],[114.18632917580062,22.331351949300732],[114.18632703058685,22.331294416045317],[114.18647661216013,22.331288939466276],[114.18648369394285,22.331462435110897],[114.18649221050012,22.331672467131654],[114.18646568836645,22.331673860864772],[114.18646509660505,22.331683262366699],[114.18642512261759,22.331685414467675],[114.18642586813529,22.33170436067229],[114.18636926333753,22.33170634071725],[114.18636805348254,22.331676403419834],[114.1864013234249,22.331675239674507],[114.18640090202014,22.331664813803549],[114.18647133335186,22.331662350150836],[114.18646721093425,22.331558768549911],[114.18639667036017,22.331561296775941],[114.18639570136331,22.331529051969945],[114.18642751925562,22.331528275626503],[114.18642463655129,22.331471845593057]]]},"properties":{"OBJECTID":499,"Shape__Length":157.16159452349939,"Shape__Area":276.1644609624484,"GeoRefNo":"3725021364","DateCreate":1347292800000,"BuildingBlockType":"Open-sided Structure","BuildingCSUID":"3725021364T20120911","BuildingID":1810088975,"Status":"Active","BuildingNameEN":"BETHEL BIBLE SEMINARY","BuildingNameTC":"伯特利神學院","BaseHeight":null,"TopHeight":null,"Storeys":null,"StoreysInBasement":null,"DateStamp":1347292800000}},{"type":"Feature","id":1693,"geometry":{"type":"Polygon","coordinates":[[[114.18612142316006,22.330030822974571],[114.18604056884188,22.330033839378512],[114.18604559693131,22.330215857888334],[114.18598714845994,22.330217952232054],[114.18597944492527,22.330011166505301],[114.18597971350914,22.330011157549869],[114.18597980620795,22.330011154474235],[114.18598982573606,22.330010821492632],[114.18603988678107,22.330009147998279],[114.18641223446325,22.329996700423745],[114.18641320889502,22.330021928653309],[114.18636035833923,22.330023628344758],[114.18627026244496,22.330026247248004],[114.18627104278448,22.33005968591473],[114.18621254252302,22.330061410269479],[114.18621176960517,22.330028429723527],[114.18612142316006,22.330030822974571]]]},"properties":{"OBJECTID":1693,"Shape__Length":142.28003304591863,"Shape__Area":268.15023417918121,"GeoRefNo":"3720921230","DateCreate":1197475200000,"BuildingBlockType":"Open-sided Structure","BuildingCSUID":"3720921230T20071213","BuildingID":1108227142,"Status":"Active","BuildingNameEN":"GRAMPIAN CREST","BuildingNameTC":"嘉苑","BaseHeight":null,"TopHeight":null,"Storeys":null,"StoreysInBasement":null,"DateStamp":1347465600000}},{"type":"Feature","id":8285,"geometry":{"type":"Polygon","coordinates":[[[114.19264292015717,22.330264070980288],[114.19264690910353,22.330349900133839],[114.1926579427856,22.330349451952674],[114.19265926969787,22.33037872734479],[114.1925309985334,22.330383459293095],[114.19252713999141,22.330298257569229],[114.19253500720491,22.33028882598958],[114.19259610862296,22.330286505790653],[114.19259513503663,22.330265755232944],[114.19264292015717,22.330264070980288]]]},"properties":{"OBJECTID":8285,"Shape__Length":51.41226168063578,"Shape__Area":140.96253317995775,"GeoRefNo":"3788721255","DateCreate":1427731200000,"BuildingBlockType":"Tower","BuildingCSUID":"3788721255T20150331","BuildingID":1810140588,"Status":"Active","BuildingNameEN":"High Place","BuildingNameTC":"曉薈","BaseHeight":16.5,"TopHeight":87.400000000000006,"Storeys":null,"StoreysInBasement":null,"DateStamp":1427731200000}},{"type":"Feature","id":8286,"geometry":{"type":"Polygon","coordinates":[[[114.19265328701771,22.330246737210924],[114.1926579427856,22.330349451952674],[114.19265926969787,22.33037872734479],[114.19266006238121,22.330396215441102],[114.19265864374859,22.330396267595802],[114.19248381520543,22.330402698815867],[114.19247702337559,22.33025272443977],[114.19251608956455,22.33025135244041],[114.19251657658818,22.330262105829995],[114.19261733640903,22.330258566986302],[114.19261692862722,22.330248192964063],[114.19265328701771,22.330246737210924]]]},"properties":{"OBJECTID":8286,"Shape__Length":71.866541073265068,"Shape__Area":289.24050525068981,"GeoRefNo":"3788521254","DateCreate":1427731200000,"BuildingBlockType":"Podium","BuildingCSUID":"3788521254P20150331","BuildingID":1810140592,"Status":"Active","BuildingNameEN":"HIGH PLACE","BuildingNameTC":"曉薈","BaseHeight":6.2000000000000002,"TopHeight":16.5,"Storeys":3,"StoreysInBasement":null,"DateStamp":1599580800000}},{"type":"Feature","id":14172,"geometry":{"type":"Polygon","coordinates":[[[114.19259197745021,22.332411883867564],[114.19264818031843,22.332410169716205],[114.19264960202916,22.332432067920767],[114.19259316073185,22.33243447149027],[114.19259197745021,22.332411883867564]]]},"properties":{"OBJECTID":14172,"Shape__Length":16.547301246116447,"Shape__Area":14.322017897364244,"GeoRefNo":"3788921486","DateCreate":1196870400000,"BuildingBlockType":"Temporary Structure","BuildingCSUID":"3788921486T20071206","BuildingID":1108225733,"Status":"Active","BuildingNameEN":"ON TUNG HOUSE","BuildingNameTC":"安東樓","BaseHeight":null,"TopHeight":null,"Storeys":null,"StoreysInBasement":null,"DateStamp":1274198400000}},{"type":"Feature","id":14290,"geometry":{"type":"Polygon","coordinates":[[[114.19253192017558,22.332405779696838],[114.1925344150216,22.332459419654352],[114.19251510553438,22.332460333703011],[114.19251246136437,22.332406338316058],[114.19253192017558,22.332405779696838]]]},"properties":{"OBJECTID":14290,"Shape__Length":15.928175528873725,"Shape__Area":11.922401497122324,"GeoRefNo":"3788021487","DateCreate":1196870400000,"BuildingBlockType":"Temporary Structure","BuildingCSUID":"3788021487T20071206","BuildingID":1108225719,"Status":"Active","BuildingNameEN":"ON TUNG HOUSE","BuildingNameTC":"安東樓","BaseHeight":null,"TopHeight":null,"Storeys":null,"StoreysInBasement":null,"DateStamp":1274198400000}},{"type":"Feature","id":14690,"geometry":{"type":"Polygon","coordinates":[[[114.18597092372488,22.326243422090823],[114.18598204381993,22.326189947385252],[114.18601465809657,22.326196811495983],[114.1860038192408,22.326249287224321],[114.18597092372488,22.326243422090823]]]},"properties":{"OBJECTID":14690,"Shape__Length":18.844201393420615,"Shape__Area":20.593017582826608,"GeoRefNo":"3720620799","DateCreate":1195747200000,"BuildingBlockType":"Open-sided Structure","BuildingCSUID":"3720620799T20071123","BuildingID":1108230149,"Status":"Active","BuildingNameEN":null,"BuildingNameTC":null,"BaseHeight":null,"TopHeight":null,"Storeys":null,"StoreysInBasement":null,"DateStamp":1274198400000}},{"type":"Feature","id":19225,"geometry":{"type":"Polygon","coordinates":[[[114.18983003608163,22.328153916073855],[114.18982501088909,22.328018697558534],[114.18985386530656,22.328017686075011],[114.18985883054164,22.328152919765653],[114.18983003608163,22.328153916073855]]]},"properties":{"OBJECTID":19225,"Shape__Length":35.909473899541268,"Shape__Area":44.524405579978946,"GeoRefNo":"3760421006","DateCreate":1541606400000,"BuildingBlockType":"Tower","BuildingCSUID":"3760421006T20181108","BuildingID":1810182012,"Status":"Active","BuildingNameEN":null,"BuildingNameTC":null,"BaseHeight":7.0999999999999996,"TopHeight":12.699999999999999,"Storeys":null,"StoreysInBasement":null,"DateStamp":1541606400000}},{"type":"Feature","id":30258,"geometry":{"type":"Polygon","coordinates":[[[114.18762354473419,22.330752260968044],[114.18767755294738,22.330750108084249],[114.18787081594981,22.330769574000456],[114.18812491869041,22.330760896165376],[114.18832214742986,22.330726611244252],[114.18870388375313,22.33071333586663],[114.18872421254302,22.331204950204604],[114.18764369497156,22.331243225250308],[114.18762354473419,22.330752260968044]]]},"properties":{"OBJECTID":30258,"Shape__Length":332.09777546388187,"Shape__Area":5930.5422609315474,"GeoRefNo":"3739721328","DateCreate":1114790400000,"BuildingBlockType":"Tower","BuildingCSUID":"3739721328T20050430","BuildingID":1108226420,"Status":"Active","BuildingNameEN":"Kcp","BuildingNameTC":"九龍城廣場","BaseHeight":9.5999999999999996,"TopHeight":31.600000000000001,"Storeys":7,"StoreysInBasement":3,"DateStamp":1599580800000}},{"type":"Feature","id":31106,"geometry":{"type":"Polygon","coordinates":[[[114.18829130560182,22.333548615478936],[114.18827869400002,22.333549261966329],[114.18827292722364,22.33354955758319],[114.18827238508035,22.33353991151855],[114.18827828221944,22.333539601262956],[114.18829090284639,22.333538937165322],[114.188303523182,22.333538273066758],[114.18831614361456,22.333537608967159],[114.188328764047,22.333536944866594],[114.18834138370278,22.333536280855402],[114.18834797478819,22.333535934064443],[114.18835397278168,22.333535618380608],[114.18836658913686,22.333534954548291],[114.18837850397396,22.333534327609758],[114.18839112032889,22.333533663685241],[114.18840373668372,22.333532999850046],[114.18841635303846,22.33353233601386],[114.18842896929597,22.333531672086398],[114.18844158565045,22.333531008248251],[114.18845420200481,22.333530344318827],[114.18846681835903,22.333529680478716],[114.18847943461608,22.333529016637648],[114.18849205097008,22.333528352705244],[114.18850466732395,22.333527688862212],[114.18851728358062,22.333527024927861],[114.18852989993428,22.33352636108286],[114.18854251628778,22.333525697236848],[114.18855513264117,22.333525033299559],[114.18856044920913,22.333524753508762],[114.18856781270324,22.333524742590484],[114.18858044221484,22.33352472379482],[114.18859307162937,22.333524704998162],[114.18860570114099,22.333524686200533],[114.1886183305555,22.333524667401917],[114.18863096006709,22.333524648602314],[114.18864453222007,22.333524628468734],[114.18865716173164,22.33352460966708],[114.18866979114614,22.333524590864453],[114.18868242065773,22.333524572060828],[114.18869505016929,22.333524553256229],[114.18870767958377,22.333524534450667],[114.18870795206968,22.333531553447969],[114.18869533277186,22.333531833417162],[114.18868271337692,22.333532113385374],[114.18867009407901,22.333532393352598],[114.18865747468398,22.333532673318885],[114.18864485528889,22.333532953284145],[114.18856821481771,22.333534653440854],[114.18856462751448,22.333534604935512],[114.18855556699229,22.333535069401769],[114.18854294888931,22.333535716271417],[114.1885303308833,22.333536363049788],[114.18851771287716,22.33353700982715],[114.18850509477383,22.333537656693874],[114.18849247676746,22.333538303469265],[114.1884798586639,22.33353895024371],[114.18846724056024,22.333539597107457],[114.18845462255351,22.333540243879934],[114.18844200444964,22.333540890741727],[114.18842938644265,22.33354153751225],[114.18841676833853,22.333542184281747],[114.18840415023428,22.333542831140612],[114.18839153222696,22.333543477908147],[114.18837891412248,22.333544124765034],[114.18836700937841,22.33354473499632],[114.18835439127372,22.333545381760988],[114.18834797559093,22.333545710659184],[114.18834178423474,22.333546027982059],[114.18832916477081,22.333546674835155],[114.1883165450156,22.333547321777608],[114.18830392526021,22.333547968628757],[114.18829130560182,22.333548615478936]]]},"properties":{"OBJECTID":31106,"Shape__Length":91.603969498020376,"Shape__Area":46.766874848449135,"GeoRefNo":"3746421609","DateCreate":1241539200000,"BuildingBlockType":"Tower","BuildingCSUID":"3746421609T20090506","BuildingID":1108225221,"Status":"Active","BuildingNameEN":null,"BuildingNameTC":null,"BaseHeight":46.799999999999997,"TopHeight":71.700000000000003,"Storeys":1,"StoreysInBasement":null,"DateStamp":1599580800000}},{"type":"Feature","id":46479,"geometry":{"type":"Polygon","coordinates":[[[114.18924123967881,22.3315919191582],[114.18920559941964,22.331659594256259],[114.18913195006887,22.33162700316872],[114.18916761122037,22.331559275978531],[114.18924123967881,22.3315919191582]]]},"properties":{"OBJECTID":46479,"Shape__Length":33.500853142377707,"Shape__Area":70.139069629031482,"GeoRefNo":"3753621396","DateCreate":1114790400000,"BuildingBlockType":"Tower","BuildingCSUID":"3753621396T20050430","BuildingID":1108226136,"Status":"Active","BuildingNameEN":"CARPENTER RD PARK","BuildingNameTC":"賈炳達道公園","BaseHeight":12.9,"TopHeight":16.300000000000001,"Storeys":null,"StoreysInBasement":null,"DateStamp":1361808000000}},{"type":"Feature","id":46495,"geometry":{"type":"Polygon","coordinates":[[[114.18649343336065,22.331701997238465],[114.18642586813529,22.33170436067229],[114.18642512261759,22.331685414467675],[114.18646509660505,22.331683262366699],[114.18646568836645,22.331673860864772],[114.18649221050012,22.331672467131654],[114.18649343336065,22.331701997238465]]]},"properties":{"OBJECTID":46495,"Shape__Length":20.24191723145579,"Shape__Area":17.991230925206935,"GeoRefNo":"3725721405","DateCreate":1114790400000,"BuildingBlockType":"Tower","BuildingCSUID":"3725721405T20050430","BuildingID":1108226110,"Status":"Active","BuildingNameEN":"INTERNATIONAL CHRISTIAN SCHOOL","BuildingNameTC":"基督教國際學校","BaseHeight":17.800000000000001,"TopHeight":20,"Storeys":null,"StoreysInBasement":null,"DateStamp":1361808000000}},{"type":"Feature","id":47671,"geometry":{"type":"Polygon","coordinates":[[[114.18767339726503,22.331529657946046],[114.18767107101176,22.331482964037942],[114.18772189033193,22.331480772701873],[114.18772422778233,22.331527690476594],[114.18767339726503,22.331529657946046]]]},"properties":{"OBJECTID":47671,"Shape__Length":20.859371277952071,"Shape__Area":27.193744624679475,"GeoRefNo":"3738321384","DateCreate":1114790400000,"BuildingBlockType":"Tower","BuildingCSUID":"3738321384T20050430","BuildingID":1108226223,"Status":"Active","BuildingNameEN":"CARPENTER RD PARK","BuildingNameTC":"賈炳達道公園","BaseHeight":14.699999999999999,"TopHeight":18,"Storeys":null,"StoreysInBasement":null,"DateStamp":1361808000000}},{"type":"Feature","id":47874,"geometry":{"type":"Polygon","coordinates":[[[114.18719579459406,22.331505204578644],[114.18718716936046,22.331298007477798],[114.1872691374774,22.331295221793912],[114.18726747207944,22.331256030533268],[114.18718550661011,22.331258869045055],[114.18717873829334,22.331090882603473],[114.18727716429079,22.331087644244526],[114.18727931651274,22.331159796464302],[114.18751972455287,22.331153025371343],[114.18751899406868,22.331138369959966],[114.18753775715902,22.331138109724492],[114.18753607528647,22.33111040599864],[114.18757871751623,22.331108643025921],[114.18758476470482,22.331244905969378],[114.18728832686683,22.331255299337467],[114.18729153177213,22.331314075119934],[114.18732595840093,22.331313199817771],[114.1873266506435,22.331316478325434],[114.18732718520172,22.3313191414092],[114.18732766559673,22.331321813436755],[114.1873280916343,22.331324493414741],[114.18732846312022,22.331327180349795],[114.18732877995737,22.331329873429176],[114.18732904195153,22.331332571569249],[114.18732924919969,22.331335273866923],[114.18732940150763,22.331337979238551],[114.18732949877823,22.3313406868714],[114.18732954101138,22.331343395772084],[114.18732952830409,22.331346104856955],[114.18732946046214,22.331348813222927],[114.18732933767963,22.331351519966983],[114.18732915995642,22.331354224005384],[114.18732892719542,22.33135692452543],[114.18732863978481,22.331359620443436],[114.18732829753037,22.331362310766028],[114.18732767047744,22.331364987290261],[114.18729365699858,22.331366416953511],[114.18729914064237,22.331501470835288],[114.18729375949488,22.331501665249931],[114.18729592513041,22.331553041981472],[114.18730211222874,22.33155274673339],[114.18730258516868,22.331585578914851],[114.18719932436888,22.331589143602471],[114.18719797273742,22.33155687742342],[114.18727798982518,22.331553897612103],[114.18727581544462,22.331502313538731],[114.18719579459406,22.331505204578644]]]},"properties":{"OBJECTID":47874,"Shape__Length":243.69928203725561,"Shape__Area":861.71430933484157,"GeoRefNo":"3733621349","DateCreate":1114790400000,"BuildingBlockType":"Tower","BuildingCSUID":"3733621349T20050430","BuildingID":1108226180,"Status":"Active","BuildingNameEN":"HOLY FAMILY CANOSSIAN SCHOOL","BuildingNameTC":"嘉諾撒聖家學校","BaseHeight":12.800000000000001,"TopHeight":30.199999999999999,"Storeys":4,"StoreysInBasement":null,"DateStamp":1599580800000}},{"type":"Feature","id":48374,"geometry":{"type":"Polygon","coordinates":[[[114.18563627197609,22.331465695272076],[114.18563647670813,22.33147367477266],[114.18563691838051,22.331490888029435],[114.18561051362072,22.331492166566662],[114.18560987443273,22.331467431930214],[114.18563627197609,22.331465695272076]]]},"properties":{"OBJECTID":48374,"Shape__Length":10.980481890872014,"Shape__Area":7.5297028000701234,"GeoRefNo":"3716921382","DateCreate":1114790400000,"BuildingBlockType":"Tower","BuildingCSUID":"3716921382T20050430","BuildingID":1108226255,"Status":"Active","BuildingNameEN":"INTERNATIONAL CHRISTIAN SCHOOL","BuildingNameTC":"基督教國際學校","BaseHeight":22.5,"TopHeight":24.899999999999999,"Storeys":null,"StoreysInBasement":null,"DateStamp":1361808000000}},{"type":"Feature","id":48440,"geometry":{"type":"Polygon","coordinates":[[[114.18930526344997,22.331517332030401],[114.1892706039912,22.331584717818355],[114.18919794042164,22.331552472285143],[114.18923335384513,22.331485202678344],[114.18930526344997,22.331517332030401]]]},"properties":{"OBJECTID":48440,"Shape__Length":33.078825295414745,"Shape__Area":68.386399143222604,"GeoRefNo":"3754321389","DateCreate":1114790400000,"BuildingBlockType":"Tower","BuildingCSUID":"3754321389T20050430","BuildingID":1108226185,"Status":"Active","BuildingNameEN":"CARPENTER RD PARK","BuildingNameTC":"賈炳達道公園","BaseHeight":12.9,"TopHeight":16.199999999999999,"Storeys":null,"StoreysInBasement":null,"DateStamp":1361808000000}},{"type":"Feature","id":48448,"geometry":{"type":"Polygon","coordinates":[[[114.18575508236094,22.331434927815252],[114.18575144978122,22.33136465736116],[114.185824011595,22.331361873648],[114.18582813505881,22.3314499137282],[114.18581482753567,22.331450187731747],[114.18581455152419,22.331432779495969],[114.18575508236094,22.331434927815252]]]},"properties":{"OBJECTID":48448,"Shape__Length":34.460806285564637,"Shape__Area":60.818331752100299,"GeoRefNo":"3718821370","DateCreate":1114790400000,"BuildingBlockType":"Tower","BuildingCSUID":"3718821370T20050430","BuildingID":1108226290,"Status":"Active","BuildingNameEN":"INTERNATIONAL CHRISTIAN SCHOOL","BuildingNameTC":"基督教國際學校","BaseHeight":22.600000000000001,"TopHeight":35.399999999999999,"Storeys":3,"StoreysInBasement":null,"DateStamp":1599580800000}},{"type":"Feature","id":48503,"geometry":{"type":"Polygon","coordinates":[[[114.18568035435734,22.331456480143306],[114.18562652988827,22.331458726630757],[114.18562606513868,22.331444986626931],[114.18560524645336,22.331446192615445],[114.18560166796144,22.331370403567007],[114.18567643913983,22.331367535093516],[114.18568035435734,22.331456480143306]]]},"properties":{"OBJECTID":48503,"Shape__Length":35.189430283479652,"Shape__Area":72.743695046400475,"GeoRefNo":"3717121372","DateCreate":1114790400000,"BuildingBlockType":"Tower","BuildingCSUID":"3717121372T20050430","BuildingID":1108226281,"Status":"Active","BuildingNameEN":null,"BuildingNameTC":"恩光樓","BaseHeight":22.399999999999999,"TopHeight":35.399999999999999,"Storeys":3,"StoreysInBasement":null,"DateStamp":1599580800000}},{"type":"Feature","id":48577,"geometry":{"type":"Polygon","coordinates":[[[114.18573185350182,22.33129421484821],[114.18573076705565,22.331282526897507],[114.18577985553434,22.331279103771639],[114.18577968351026,22.33129248908924],[114.18573185350182,22.33129421484821]]]},"properties":{"OBJECTID":48577,"Shape__Length":12.783918004397872,"Shape__Area":6.9439538665132163,"GeoRefNo":"3718321361","DateCreate":1114790400000,"BuildingBlockType":"Tower","BuildingCSUID":"3718321361T20050430","BuildingID":1108226388,"Status":"Active","BuildingNameEN":"INVERNESS VILLA","BuildingNameTC":"賢文別墅","BaseHeight":20.800000000000001,"TopHeight":23.100000000000001,"Storeys":null,"StoreysInBasement":null,"DateStamp":1361808000000}},{"type":"Feature","id":48582,"geometry":{"type":"Polygon","coordinates":[[[114.18673939000317,22.331269120453037],[114.18673542809272,22.33119781396119],[114.1867265528907,22.331197850896555],[114.18672576365474,22.331161017280525],[114.18684964267257,22.331156848649425],[114.18685191827865,22.331200963440342],[114.18681693401561,22.331201782415679],[114.18681991022513,22.331266021813963],[114.18673939000317,22.331269120453037]]]},"properties":{"OBJECTID":48582,"Shape__Length":49.589421093731417,"Shape__Area":121.15783873839212,"GeoRefNo":"3728921351","DateCreate":1114790400000,"BuildingBlockType":"Tower","BuildingCSUID":"3728921351T20050430","BuildingID":1108226410,"Status":"Active","BuildingNameEN":"Garmen Garden","BuildingNameTC":"嘉皇花園","BaseHeight":16.5,"TopHeight":36.100000000000001,"Storeys":7,"StoreysInBasement":null,"DateStamp":1599580800000}},{"type":"Feature","id":48638,"geometry":{"type":"Polygon","coordinates":[[[114.18568035435734,22.331456480143306],[114.18567643913983,22.331367535093516],[114.18575144978122,22.33136465736116],[114.18575508236094,22.331434927815252],[114.18569188103629,22.331437210962754],[114.18569193192178,22.3314559969165],[114.18568035435734,22.331456480143306]]]},"properties":{"OBJECTID":48638,"Shape__Length":35.172297004610009,"Shape__Area":62.963724317859729,"GeoRefNo":"3718021375","DateCreate":1114790400000,"BuildingBlockType":"Tower","BuildingCSUID":"3718021375T20050430","BuildingID":1108226282,"Status":"Active","BuildingNameEN":"INTERNATIONAL CHRISTIAN SCHOOL","BuildingNameTC":"基督教國際學校","BaseHeight":22.399999999999999,"TopHeight":35.399999999999999,"Storeys":3,"StoreysInBasement":null,"DateStamp":1599580800000}},{"type":"Feature","id":48708,"geometry":{"type":"Polygon","coordinates":[[[114.18582813505881,22.3314499137282],[114.185824011595,22.331361873648],[114.185899077656,22.331358993767214],[114.18590255227423,22.331433634576562],[114.18588075596251,22.331433933533329],[114.18588148590345,22.331448815348317],[114.18582813505881,22.3314499137282]]]},"properties":{"OBJECTID":48708,"Shape__Length":35.164305634885316,"Shape__Area":72.406385364565566,"GeoRefNo":"3719621374","DateCreate":1114790400000,"BuildingBlockType":"Tower","BuildingCSUID":"3719621374T20050430","BuildingID":1108226292,"Status":"Active","BuildingNameEN":"INTERNATIONAL CHRISTIAN SCHOOL","BuildingNameTC":"基督教國際學校","BaseHeight":20.600000000000001,"TopHeight":35,"Storeys":3,"StoreysInBasement":null,"DateStamp":1599580800000}},{"type":"Feature","id":49020,"geometry":{"type":"Polygon","coordinates":[[[114.18565577816156,22.331193741961521],[114.18565234176432,22.331110366312679],[114.18568000940941,22.331109223248649],[114.18569035399366,22.331108795898245],[114.18569975644036,22.331108407430253],[114.18571713502327,22.331107689450207],[114.18571836082918,22.331160317082791],[114.18574328056872,22.33115882982257],[114.18574435177403,22.331179663766374],[114.18576435141954,22.331179389490174],[114.18576252857197,22.331157878565243],[114.18577489216266,22.331158854540828],[114.18577183456777,22.331106202175626],[114.1858089356992,22.331104362852894],[114.18582933171139,22.331103351741621],[114.18582985365948,22.331115684687365],[114.18583249110715,22.331177996907016],[114.18581742958966,22.331178203459459],[114.18581772743224,22.331196986058732],[114.18583352236635,22.33119631122991],[114.18583667445694,22.331270498273391],[114.18577917734204,22.331273348709956],[114.18577666440078,22.331223896301989],[114.1857657931682,22.331223587152717],[114.18576596367943,22.331203194374904],[114.18574522330641,22.331203478806309],[114.18574680652067,22.331225451297509],[114.18572162179875,22.331225796655808],[114.1857243779581,22.331275016604106],[114.18565921203526,22.3312770557501],[114.18565577816156,22.331193741961521]]]},"properties":{"OBJECTID":49020,"Shape__Length":109.25652185880698,"Shape__Area":261.67865661741234,"GeoRefNo":"3717721350","DateCreate":1114790400000,"BuildingBlockType":"Tower","BuildingCSUID":"3717721350T20050430","BuildingID":1108226396,"Status":"Active","BuildingNameEN":"Inverness Villa Block A","BuildingNameTC":"賢文別墅Ａ座","BaseHeight":20.399999999999999,"TopHeight":37,"Storeys":6,"StoreysInBasement":null,"DateStamp":1599580800000}},{"type":"Feature","id":49416,"geometry":{"type":"Polygon","coordinates":[[[114.18615994633956,22.331300533311328],[114.18616007705153,22.331327686003789],[114.18613440622701,22.331328498335274],[114.18613312877086,22.331301515122295],[114.18615994633956,22.331300533311328]]]},"properties":{"OBJECTID":49416,"Shape__Length":11.408713521965884,"Shape__Area":8.1111642183345971,"GeoRefNo":"3722321363","DateCreate":1114790400000,"BuildingBlockType":"Tower","BuildingCSUID":"3722321363T20050430","BuildingID":1108226370,"Status":"Active","BuildingNameEN":"INTERNATIONAL CHRISTIAN SCHOOL","BuildingNameTC":"基督教國際學校","BaseHeight":18.300000000000001,"TopHeight":21.5,"Storeys":null,"StoreysInBasement":null,"DateStamp":1361808000000}},{"type":"Feature","id":49475,"geometry":{"type":"Polygon","coordinates":[[[114.18613228724837,22.331018359124698],[114.18617338155975,22.330993739215302],[114.18619105210763,22.331017781306358],[114.18621111463953,22.331006050775681],[114.18625131138579,22.33106437778298],[114.18625177774841,22.331078117424322],[114.18627103929117,22.331078081987396],[114.18627006452165,22.331063432905843],[114.18631746848706,22.331062782013348],[114.18631554793609,22.331004387586304],[114.18640046915061,22.331002534124849],[114.18640804720907,22.331214119387013],[114.18632265040908,22.331217124911532],[114.18632173935417,22.331160091244854],[114.18627336601753,22.331161900999266],[114.1862731611176,22.331149074154041],[114.18625439334861,22.331149102789592],[114.18625482686144,22.331160781021907],[114.1862194953267,22.331221519691962],[114.18619933941855,22.331211945100783],[114.18618492077758,22.331236886051123],[114.18614259717975,22.331215473458062],[114.18619669268863,22.33112354850514],[114.18621275561144,22.331124244375804],[114.18621126864187,22.331108456747909],[114.18619498090681,22.331109138685903],[114.18613228724837,22.331018359124698]]]},"properties":{"OBJECTID":49475,"Shape__Length":138.53211304824836,"Shape__Area":460.11811838627966,"GeoRefNo":"3723721341","DateCreate":1114790400000,"BuildingBlockType":"Tower","BuildingCSUID":"3723721341T20050430","BuildingID":1108226427,"Status":"Active","BuildingNameEN":"Grand Court","BuildingNameTC":"格蘭大廈","BaseHeight":14.4,"TopHeight":35.100000000000001,"Storeys":6,"StoreysInBasement":null,"DateStamp":1599580800000}},{"type":"Feature","id":49553,"geometry":{"type":"Polygon","coordinates":[[[114.18607658937638,22.331106375713095],[114.18607893901537,22.331161099728298],[114.18602537418633,22.331162750766609],[114.18602772390339,22.331217474872471],[114.18608104532241,22.331216056294451],[114.18608326054938,22.331262305296626],[114.18600379215934,22.331265686257694],[114.18600358873989,22.331252859051006],[114.18598777927733,22.331252617654453],[114.18598824045522,22.331266128642248],[114.18590185489649,22.331269375298028],[114.18590061647787,22.331222425555936],[114.18595517250513,22.331220990063034],[114.1859532985679,22.331165113898098],[114.18589803088305,22.331168392029994],[114.18589592036172,22.331113192177487],[114.18607658937638,22.331106375713095]]]},"properties":{"OBJECTID":49553,"Shape__Length":97.384491787603878,"Shape__Area":252.25221954767852,"GeoRefNo":"3721221343","DateCreate":1114790400000,"BuildingBlockType":"Tower","BuildingCSUID":"3721221343T20050430","BuildingID":1108226409,"Status":"Active","BuildingNameEN":"Inverness Villa Block B","BuildingNameTC":"賢文別墅Ｂ座","BaseHeight":18,"TopHeight":36.600000000000001,"Storeys":6,"StoreysInBasement":null,"DateStamp":1599580800000}},{"type":"Feature","id":49585,"geometry":{"type":"Polygon","coordinates":[[[114.19078444720827,22.330384749692158],[114.19078352471871,22.330363659930644],[114.1907410326257,22.330365401157266],[114.19074017026449,22.330342727245561],[114.19076707407969,22.330341497226904],[114.19090796869055,22.330335055547611],[114.19090975710179,22.330379987866568],[114.19078444720827,22.330384749692158]]]},"properties":{"OBJECTID":49585,"Shape__Length":44.438524810344902,"Shape__Area":74.722134320132483,"GeoRefNo":"3770521257","DateCreate":1114790400000,"BuildingBlockType":"Tower","BuildingCSUID":"3770521257T20050430","BuildingID":1108226978,"Status":"Active","BuildingNameEN":null,"BuildingNameTC":"城南樓","BaseHeight":6.7999999999999998,"TopHeight":36.399999999999999,"Storeys":9,"StoreysInBasement":null,"DateStamp":1599580800000}},{"type":"Feature","id":49859,"geometry":{"type":"Polygon","coordinates":[[[114.1910639875412,22.329740325325091],[114.19106391045935,22.329738305732324],[114.19106228872423,22.329695814634388],[114.19121641180804,22.329690293818121],[114.19123784136191,22.329689526211634],[114.19123871663783,22.329712448823596],[114.19121957153426,22.329713081491111],[114.19122049631827,22.329733231529129],[114.1910639875412,22.329740325325091]]]},"properties":{"OBJECTID":49859,"Shape__Length":45.92096717198114,"Shape__Area":83.229904158011038,"GeoRefNo":"3773821186","DateCreate":1114790400000,"BuildingBlockType":"Tower","BuildingCSUID":"3773821186T20050430","BuildingID":1108227589,"Status":"Active","BuildingNameEN":"Yick Fung Building","BuildingNameTC":"億豐樓","BaseHeight":6.5,"TopHeight":26.600000000000001,"Storeys":6,"StoreysInBasement":null,"DateStamp":1599580800000}},{"type":"Feature","id":49994,"geometry":{"type":"Polygon","coordinates":[[[114.19130988592461,22.329712362651332],[114.19130929699833,22.329702745223489],[114.19127033482559,22.329704251839665],[114.19126905560231,22.329673324464856],[114.19144398191003,22.329665003722567],[114.19144561367608,22.329705774218944],[114.19130988592461,22.329712362651332]]]},"properties":{"OBJECTID":49994,"Shape__Length":45.075955586027007,"Shape__Area":77.291123307684913,"GeoRefNo":"3776021183","DateCreate":1114790400000,"BuildingBlockType":"Tower","BuildingCSUID":"3776021183T20050430","BuildingID":1108227614,"Status":"Active","BuildingNameEN":null,"BuildingNameTC":null,"BaseHeight":6.2999999999999998,"TopHeight":37.700000000000003,"Storeys":9,"StoreysInBasement":null,"DateStamp":1599580800000}},{"type":"Feature","id":49995,"geometry":{"type":"Polygon","coordinates":[[[114.19073204210586,22.329750675729155],[114.19071606740192,22.329751407311367],[114.19071484688193,22.329720987536362],[114.19073334985694,22.329720002519871],[114.19073272916988,22.329704887815637],[114.19088270248884,22.329698521687547],[114.19088483326098,22.32974367793906],[114.19073204210586,22.329750675729155]]]},"properties":{"OBJECTID":49995,"Shape__Length":44.834547457161769,"Shape__Area":84.370158831530716,"GeoRefNo":"3770221186","DateCreate":1114790400000,"BuildingBlockType":"Tower","BuildingCSUID":"3770221186T20050430","BuildingID":1108227577,"Status":"Active","BuildingNameEN":null,"BuildingNameTC":"朋德大廈","BaseHeight":6.5999999999999996,"TopHeight":35.700000000000003,"Storeys":9,"StoreysInBasement":null,"DateStamp":1599580800000}},{"type":"Feature","id":50053,"geometry":{"type":"Polygon","coordinates":[[[114.19106228872423,22.329695814634388],[114.1910587050079,22.329601921720492],[114.19121321615016,22.329595371747946],[114.19121407810678,22.329620973193602],[114.19123518341763,22.329619918624335],[114.19123683586089,22.32966319483705],[114.19121551986251,22.329663800063447],[114.19121641180804,22.329690293818121],[114.19106228872423,22.329695814634388]]]},"properties":{"OBJECTID":50053,"Shape__Length":57.169389437674013,"Shape__Area":176.86659145327241,"GeoRefNo":"3773821177","DateCreate":1114790400000,"BuildingBlockType":"Tower","BuildingCSUID":"3773821177T20050430","BuildingID":1108227633,"Status":"Active","BuildingNameEN":null,"BuildingNameTC":null,"BaseHeight":6.4000000000000004,"TopHeight":26.600000000000001,"Storeys":6,"StoreysInBasement":null,"DateStamp":1599580800000}},{"type":"Feature","id":50058,"geometry":{"type":"Polygon","coordinates":[[[114.18809866961583,22.329690506676837],[114.1879135375269,22.329697065891274],[114.1879092015111,22.329593288172585],[114.18804050875275,22.329588638057178],[114.18808386620488,22.329587102562886],[114.18809446304721,22.329586727238262],[114.18809866961583,22.329690506676837]]]},"properties":{"OBJECTID":50058,"Shape__Length":61.18694258210239,"Shape__Area":219.57730596936935,"GeoRefNo":"3741021184","DateCreate":1114790400000,"BuildingBlockType":"Tower","BuildingCSUID":"3741021184T20050430","BuildingID":1108227625,"Status":"Active","BuildingNameEN":"Sun Hong House","BuildingNameTC":"新康大樓","BaseHeight":9.5,"TopHeight":31.800000000000001,"Storeys":6,"StoreysInBasement":null,"DateStamp":1599580800000}},{"type":"Feature","id":50060,"geometry":{"type":"Polygon","coordinates":[[[114.18770027815251,22.329697064709784],[114.18769816115116,22.329644768294113],[114.18788243960053,22.329638519945622],[114.18788362038651,22.329667692170137],[114.18782411777671,22.329670323935787],[114.18782372252051,22.329676514878756],[114.18778767542732,22.329676778303373],[114.18778746401389,22.329671781967015],[114.18776989320089,22.329670841715515],[114.18777087795068,22.329694583864455],[114.18770027815251,22.329697064709784]]]},"properties":{"OBJECTID":50060,"Shape__Length":50.839042520443044,"Shape__Area":82.866282526033444,"GeoRefNo":"3738621181","DateCreate":1114790400000,"BuildingBlockType":"Tower","BuildingCSUID":"3738621181T20050430","BuildingID":1108227627,"Status":"Active","BuildingNameEN":null,"BuildingNameTC":null,"BaseHeight":9.8000000000000007,"TopHeight":24,"Storeys":4,"StoreysInBasement":null,"DateStamp":1599580800000}},{"type":"Feature","id":50062,"geometry":{"type":"Polygon","coordinates":[[[114.1884529588252,22.329703720223954],[114.18827757480479,22.329709540814438],[114.18827726058544,22.32970104071013],[114.18827570378953,22.329658925973941],[114.18834341513369,22.329656343940645],[114.18834429349259,22.329678835719129],[114.18845190729354,22.329675514176536],[114.1884529588252,22.329703720223954]]]},"properties":{"OBJECTID":50062,"Shape__Length":47.379825226494802,"Shape__Area":74.125982849790603,"GeoRefNo":"3744621182","DateCreate":1114790400000,"BuildingBlockType":"Tower","BuildingCSUID":"3744621182T20050430","BuildingID":1108227616,"Status":"Active","BuildingNameEN":null,"BuildingNameTC":null,"BaseHeight":9.1999999999999993,"TopHeight":22.600000000000001,"Storeys":4,"StoreysInBasement":null,"DateStamp":1599580800000}},{"type":"Feature","id":50198,"geometry":{"type":"Polygon","coordinates":[[[114.19003624755032,22.329118724571316],[114.19002910634291,22.328972904797059],[114.19011897068829,22.3289694945503],[114.19012707147573,22.329162272824746],[114.19011447258617,22.329162728457341],[114.19011282864936,22.329133813656988],[114.19004677176777,22.329136093860409],[114.19003711456376,22.329136427153603],[114.19003624755032,22.329118724571316]]]},"properties":{"OBJECTID":50198,"Shape__Length":61.066610771122711,"Shape__Area":171.27964746445767,"GeoRefNo":"3762821110","DateCreate":1114790400000,"BuildingBlockType":"Tower","BuildingCSUID":"3762821110T20050430","BuildingID":1108228084,"Status":"Active","BuildingNameEN":null,"BuildingNameTC":null,"BaseHeight":6.9000000000000004,"TopHeight":26.600000000000001,"Storeys":5,"StoreysInBasement":null,"DateStamp":1599580800000}},{"type":"Feature","id":50258,"geometry":{"type":"Polygon","coordinates":[[[114.19112984582698,22.329141176096197],[114.19108037950558,22.329142996502767],[114.19104329007696,22.329144361480836],[114.19104158249073,22.3291444243931],[114.19103947210633,22.329104504883635],[114.19122058396732,22.329097260827172],[114.19122142474095,22.329116035787241],[114.19117297371227,22.329117543312528],[114.19117366785281,22.329139563245345],[114.19112984582698,22.329141176096197]]]},"properties":{"OBJECTID":50258,"Shape__Length":46.234576296109353,"Shape__Area":71.03354575817437,"GeoRefNo":"3773421120","DateCreate":1114790400000,"BuildingBlockType":"Tower","BuildingCSUID":"3773421120T20050430","BuildingID":1108228101,"Status":"Active","BuildingNameEN":null,"BuildingNameTC":null,"BaseHeight":6.4000000000000004,"TopHeight":23.600000000000001,"Storeys":4,"StoreysInBasement":null,"DateStamp":1599580800000}},{"type":"Feature","id":50398,"geometry":{"type":"Polygon","coordinates":[[[114.19073305381156,22.329342966851684],[114.19086568914268,22.329337969184742],[114.19086778712285,22.329382430989465],[114.1907413526454,22.329387330776388],[114.19072115840595,22.329388113382763],[114.19072111688119,22.329387332511779],[114.19071969055027,22.329360512433876],[114.19073376785791,22.329359867436736],[114.19073305381156,22.329342966851684]]]},"properties":{"OBJECTID":50398,"Shape__Length":40.107958773909942,"Shape__Area":71.96300687251393,"GeoRefNo":"3770121146","DateCreate":1114790400000,"BuildingBlockType":"Tower","BuildingCSUID":"3770121146T20050430","BuildingID":1108227916,"Status":"Active","BuildingNameEN":null,"BuildingNameTC":null,"BaseHeight":6.5999999999999996,"TopHeight":28.199999999999999,"Storeys":6,"StoreysInBasement":null,"DateStamp":1599580800000}},{"type":"Feature","id":50465,"geometry":{"type":"Polygon","coordinates":[[[114.18565081316723,22.329384689019697],[114.18561922784589,22.329385512066878],[114.1856185502827,22.329374052203036],[114.18556792013617,22.329376841868424],[114.18556695162262,22.329355290252842],[114.18556340183429,22.329276295867214],[114.18561522736286,22.329274209801522],[114.18561481583515,22.329263905928077],[114.18563011590207,22.329263237647787],[114.18562992207538,22.329251097935249],[114.18561362714739,22.329251321693803],[114.18561347717413,22.329241930617552],[114.18556139380628,22.329243332900809],[114.18555785136729,22.329160676070117],[114.18574265980997,22.329155452748864],[114.18577852210498,22.329154439167176],[114.18578130203242,22.32923573187524],[114.1857287322008,22.329237599133577],[114.1857289041089,22.329248364482723],[114.18571285972426,22.329248813911786],[114.18571441239892,22.329268724366838],[114.18574801180088,22.329266017681526],[114.18574971429997,22.329329397292771],[114.18573686501493,22.329329357000439],[114.18573918967756,22.329370877327726],[114.1856864312573,22.329372203921658],[114.18568502484999,22.329330526862854],[114.18565441749011,22.329331405220948],[114.18565705828306,22.329373065415925],[114.18565064638987,22.329373611663716],[114.18565081316723,22.329384689019697]]]},"properties":{"OBJECTID":50465,"Shape__Length":125.9212733057802,"Shape__Area":439.00059185073167,"GeoRefNo":"3717321137","DateCreate":1114790400000,"BuildingBlockType":"Tower","BuildingCSUID":"3717321137T20050430","BuildingID":1108227922,"Status":"Active","BuildingNameEN":"Ming Yuen Court","BuildingNameTC":"明苑閣","BaseHeight":16,"TopHeight":34.899999999999999,"Storeys":6,"StoreysInBasement":null,"DateStamp":1599580800000}},{"type":"Feature","id":50466,"geometry":{"type":"Polygon","coordinates":[[[114.18855926733303,22.329340999465611],[114.18855833957198,22.329317789849842],[114.1884801455459,22.329320936235138],[114.1884796657654,22.329309480342474],[114.18846870669329,22.329309862762159],[114.18846816359397,22.329295675754661],[114.18864564989073,22.329290442695548],[114.18864745454215,22.329337579500006],[114.18855926733303,22.329340999465611]]]},"properties":{"OBJECTID":50466,"Shape__Length":47.216785071394263,"Shape__Area":72.185793512827544,"GeoRefNo":"3747421142","DateCreate":1114790400000,"BuildingBlockType":"Tower","BuildingCSUID":"3747421142T20050430","BuildingID":1108227950,"Status":"Active","BuildingNameEN":null,"BuildingNameTC":null,"BaseHeight":8.6999999999999993,"TopHeight":27,"Storeys":4,"StoreysInBasement":null,"DateStamp":1599580800000}},{"type":"Feature","id":50525,"geometry":{"type":"Polygon","coordinates":[[[114.18805607302238,22.330323869543687],[114.18805546949721,22.330309798403121],[114.18802208183874,22.330310711265472],[114.18802147963106,22.330299727861362],[114.18793885704731,22.33030305905671],[114.18793780459157,22.330277871660829],[114.18812222217773,22.330271563157684],[114.18812425423859,22.330321694577872],[114.18805607302238,22.330323869543687]]]},"properties":{"OBJECTID":50525,"Shape__Length":49.124757242213263,"Shape__Area":76.245682683818885,"GeoRefNo":"3742121251","DateCreate":1114790400000,"BuildingBlockType":"Tower","BuildingCSUID":"3742121251T20050430","BuildingID":1108227035,"Status":"Active","BuildingNameEN":null,"BuildingNameTC":null,"BaseHeight":10,"TopHeight":23.699999999999999,"Storeys":4,"StoreysInBasement":null,"DateStamp":1599580800000}},{"type":"Feature","id":50564,"geometry":{"type":"Polygon","coordinates":[[[114.18838266246409,22.32912148001887],[114.18837929572446,22.32903668560704],[114.18844152438734,22.329034412678819],[114.18844861862577,22.329226042327903],[114.18844883955799,22.329232010715],[114.188420718402,22.329232900253945],[114.18841668341422,22.329120864594653],[114.18838266246409,22.32912148001887]]]},"properties":{"OBJECTID":50564,"Shape__Length":56.523497501671869,"Shape__Area":96.429024692689111,"GeoRefNo":"3745621119","DateCreate":1114790400000,"BuildingBlockType":"Tower","BuildingCSUID":"3745621119T20050430","BuildingID":1108228040,"Status":"Active","BuildingNameEN":null,"BuildingNameTC":null,"BaseHeight":8.6999999999999993,"TopHeight":24.699999999999999,"Storeys":4,"StoreysInBasement":null,"DateStamp":1599580800000}},{"type":"Feature","id":50567,"geometry":{"type":"Polygon","coordinates":[[[114.19105084901449,22.329396091580112],[114.19105051363229,22.329387303948995],[114.19104917327194,22.329352185031357],[114.19114065114876,22.329348481756725],[114.19119782389718,22.329346167127497],[114.19119952861824,22.32938729080762],[114.19119965774451,22.329390404450972],[114.19105084901449,22.329396091580112]]]},"properties":{"OBJECTID":50567,"Shape__Length":40.439600410120988,"Shape__Area":74.895162349394923,"GeoRefNo":"3773521148","DateCreate":1114790400000,"BuildingBlockType":"Tower","BuildingCSUID":"3773521148T20050430","BuildingID":1108227903,"Status":"Active","BuildingNameEN":null,"BuildingNameTC":null,"BaseHeight":6.7000000000000002,"TopHeight":28.600000000000001,"Storeys":6,"StoreysInBasement":null,"DateStamp":1599580800000}},{"type":"Feature","id":50568,"geometry":{"type":"Polygon","coordinates":[[[114.19133989984616,22.329381862843078],[114.19125715280008,22.329385549107968],[114.19125578756193,22.329352541725264],[114.19126949368425,22.329351902132977],[114.19126879074852,22.329337008957644],[114.19125517091824,22.3293376330999],[114.19125383594412,22.329305359358866],[114.19132285006813,22.329302627953666],[114.19142315918505,22.329298658050007],[114.19142930958652,22.3292984146638],[114.19143248444401,22.329377738298884],[114.19133989984616,22.329381862843078]]]},"properties":{"OBJECTID":50568,"Shape__Length":56.671393700873509,"Shape__Area":157.54035776181277,"GeoRefNo":"3775721144","DateCreate":1114790400000,"BuildingBlockType":"Tower","BuildingCSUID":"3775721144T20050430","BuildingID":1108227921,"Status":"Active","BuildingNameEN":null,"BuildingNameTC":null,"BaseHeight":6.2999999999999998,"TopHeight":35.299999999999997,"Storeys":10,"StoreysInBasement":null,"DateStamp":1599580800000}},{"type":"Feature","id":50569,"geometry":{"type":"Polygon","coordinates":[[[114.18859394513973,22.329220603472336],[114.18859421002264,22.329227412242144],[114.18857127336993,22.329228137796683],[114.18857020999467,22.329194355002741],[114.1885571414106,22.329195027282282],[114.18855599013291,22.329169806661643],[114.18856833005967,22.329169407339176],[114.18856754748586,22.329120387401577],[114.18854051429658,22.329121555385719],[114.18853747408674,22.329030908051713],[114.18858649496696,22.329029117531949],[114.18859394513973,22.329220603472336]]]},"properties":{"OBJECTID":50569,"Shape__Length":56.808847576078122,"Shape__Area":82.880403392773914,"GeoRefNo":"3747221113","DateCreate":1114790400000,"BuildingBlockType":"Tower","BuildingCSUID":"3747221113T20050430","BuildingID":1108228044,"Status":"Active","BuildingNameEN":null,"BuildingNameTC":null,"BaseHeight":8.5999999999999996,"TopHeight":24.699999999999999,"Storeys":4,"StoreysInBasement":null,"DateStamp":1599580800000}},{"type":"Feature","id":50570,"geometry":{"type":"Polygon","coordinates":[[[114.19050220335029,22.329309492053788],[114.19050036949047,22.329265846676648],[114.19067090019662,22.329259817656247],[114.19067129239866,22.329269213673843],[114.19065438784763,22.329269900718316],[114.19065482732582,22.329281326174886],[114.19059367953422,22.329283719425945],[114.19059486537684,22.329306280341321],[114.19050220335029,22.329309492053788]]]},"properties":{"OBJECTID":50570,"Shape__Length":44.827606503498608,"Shape__Area":62.672230604380147,"GeoRefNo":"3767721138","DateCreate":1114790400000,"BuildingBlockType":"Tower","BuildingCSUID":"3767721138T20050430","BuildingID":1108227970,"Status":"Active","BuildingNameEN":null,"BuildingNameTC":null,"BaseHeight":6.7000000000000002,"TopHeight":24.699999999999999,"Storeys":null,"StoreysInBasement":null,"DateStamp":1361808000000}},{"type":"Feature","id":50624,"geometry":{"type":"Polygon","coordinates":[[[114.1861216645532,22.329193715272041],[114.18612079384866,22.329139201120526],[114.18632441798307,22.329132510302461],[114.1863265854487,22.329190901296748],[114.1863169565618,22.329191033526481],[114.18631870883894,22.329238891633402],[114.18613531516735,22.329244388253812],[114.18613400545975,22.329193316676676],[114.1861216645532,22.329193715272041]]]},"properties":{"OBJECTID":50624,"Shape__Length":65.625252813291297,"Shape__Area":234.81500402612392,"GeoRefNo":"3723021127","DateCreate":1114790400000,"BuildingBlockType":"Tower","BuildingCSUID":"3723021127T20050430","BuildingID":1108228027,"Status":"Active","BuildingNameEN":null,"BuildingNameTC":null,"BaseHeight":12.6,"TopHeight":33,"Storeys":7,"StoreysInBasement":null,"DateStamp":1599580800000}},{"type":"Feature","id":50685,"geometry":{"type":"Polygon","coordinates":[[[114.1906537178989,22.330340799116872],[114.19054234750848,22.33034593081312],[114.19054092292977,22.330309973683857],[114.19066414600456,22.330305120925463],[114.19066554189874,22.330340254286376],[114.1906537178989,22.330340799116872]]]},"properties":{"OBJECTID":50685,"Shape__Length":33.290743108441674,"Shape__Area":50.04609441709929,"GeoRefNo":"3768121253","DateCreate":1114790400000,"BuildingBlockType":"Tower","BuildingCSUID":"3768121253T20050430","BuildingID":1108227017,"Status":"Active","BuildingNameEN":null,"BuildingNameTC":null,"BaseHeight":7,"TopHeight":30.600000000000001,"Storeys":8,"StoreysInBasement":null,"DateStamp":1599580800000}},{"type":"Feature","id":50686,"geometry":{"type":"Polygon","coordinates":[[[114.19147018867216,22.330319779187892],[114.19140141985483,22.330322798347964],[114.19137016288889,22.330324170552299],[114.19129611033271,22.330327421595406],[114.19129432761709,22.330284320411124],[114.19133277508766,22.33028263457825],[114.19146846385294,22.330276684682907],[114.19147018867216,22.330319779187892]]]},"properties":{"OBJECTID":50686,"Shape__Length":45.465123135617517,"Shape__Area":85.754859599351008,"GeoRefNo":"3776421250","DateCreate":1114790400000,"BuildingBlockType":"Tower","BuildingCSUID":"3776421250T20050430","BuildingID":1108227036,"Status":"Active","BuildingNameEN":"Yat Hong Court","BuildingNameTC":"日康閣","BaseHeight":6.5999999999999996,"TopHeight":29.800000000000001,"Storeys":6,"StoreysInBasement":null,"DateStamp":1599580800000}},{"type":"Feature","id":50687,"geometry":{"type":"Polygon","coordinates":[[[114.19142689812519,22.330391484379192],[114.19140495178354,22.330392325114524],[114.19140288137581,22.330351569741666],[114.19140141985483,22.330322798347964],[114.19147018867216,22.330319779187892],[114.19147299306151,22.330389718535667],[114.19142689812519,22.330391484379192]]]},"properties":{"OBJECTID":50687,"Shape__Length":29.565921247207761,"Shape__Area":54.519150851987973,"GeoRefNo":"3776821257","DateCreate":1114790400000,"BuildingBlockType":"Tower","BuildingCSUID":"3776821257T20050430","BuildingID":1108226969,"Status":"Active","BuildingNameEN":null,"BuildingNameTC":null,"BaseHeight":6.7000000000000002,"TopHeight":37.799999999999997,"Storeys":9,"StoreysInBasement":null,"DateStamp":1599580800000}},{"type":"Feature","id":50750,"geometry":{"type":"Polygon","coordinates":[[[114.18812624836941,22.330370891425396],[114.18794193865826,22.330376814590757],[114.18794058754168,22.330344478155165],[114.1879865548356,22.330342362654392],[114.18798696270059,22.330351981370367],[114.18802403363541,22.330351682521144],[114.18802353398266,22.33034257033696],[114.18805653997767,22.330341624900338],[114.18805607302238,22.330323869543687],[114.18812425423859,22.330321694577872],[114.18812624836941,22.330370891425396]]]},"properties":{"OBJECTID":50750,"Shape__Length":51.068163573530683,"Shape__Area":77.128630083525493,"GeoRefNo":"3742121256","DateCreate":1114790400000,"BuildingBlockType":"Tower","BuildingCSUID":"3742121256T20050430","BuildingID":1108226980,"Status":"Active","BuildingNameEN":null,"BuildingNameTC":null,"BaseHeight":10,"TopHeight":24.800000000000001,"Storeys":4,"StoreysInBasement":null,"DateStamp":1599580800000}},{"type":"Feature","id":50859,"geometry":{"type":"Polygon","coordinates":[[[114.18850721479232,22.330315821494548],[114.18850635601569,22.330293387874253],[114.18859049559364,22.330291774528437],[114.18858988404607,22.330271800821187],[114.18868309313191,22.330268449736582],[114.18868467328195,22.330309722633068],[114.18850721479232,22.330315821494548]]]},"properties":{"OBJECTID":50859,"Shape__Length":45.845888439816669,"Shape__Area":64.859195357059505,"GeoRefNo":"3747821249","DateCreate":1114790400000,"BuildingBlockType":"Tower","BuildingCSUID":"3747821249T20050430","BuildingID":1108227043,"Status":"Active","BuildingNameEN":null,"BuildingNameTC":null,"BaseHeight":9.0999999999999996,"TopHeight":27.399999999999999,"Storeys":4,"StoreysInBasement":null,"DateStamp":1599580800000}},{"type":"Feature","id":50860,"geometry":{"type":"Polygon","coordinates":[[[114.18636577668323,22.33032016851315],[114.18631968498214,22.330321592812304],[114.18619243348638,22.33032552490311],[114.18613251555146,22.330327376371155],[114.18609391450984,22.330328569083452],[114.18609143773079,22.330271052814087],[114.18624703840557,22.330265253349459],[114.18624652052144,22.330253227353037],[114.18636277984632,22.33024899063285],[114.18636577668323,22.33032016851315]]]},"properties":{"OBJECTID":50860,"Shape__Length":71.647344101645629,"Shape__Area":197.23434183238399,"GeoRefNo":"3722821251","DateCreate":1118160000000,"BuildingBlockType":"Tower","BuildingCSUID":"3722821251T20050608","BuildingID":1108227034,"Status":"Active","BuildingNameEN":null,"BuildingNameTC":null,"BaseHeight":15,"TopHeight":25.800000000000001,"Storeys":3,"StoreysInBasement":null,"DateStamp":1599580800000}},{"type":"Feature","id":50922,"geometry":{"type":"Polygon","coordinates":[[[114.18772748449986,22.330367843359618],[114.18772538275485,22.330316025116939],[114.18790967243903,22.330309373431191],[114.1879117901009,22.330361532484602],[114.1878028777121,22.330365261848375],[114.18772748449986,22.330367843359618]]]},"properties":{"OBJECTID":50922,"Shape__Length":49.522435105992471,"Shape__Area":109.460964630023,"GeoRefNo":"3739521255","DateCreate":1114790400000,"BuildingBlockType":"Tower","BuildingCSUID":"3739521255T20050430","BuildingID":1108226998,"Status":"Active","BuildingNameEN":"Fuk Lo Tsuen Road Substation","BuildingNameTC":"福老村道變電站","BaseHeight":10.699999999999999,"TopHeight":15.699999999999999,"Storeys":4,"StoreysInBasement":null,"DateStamp":1599580800000}},{"type":"Feature","id":50976,"geometry":{"type":"Polygon","coordinates":[[[114.18868633602536,22.330353152839084],[114.18861418745115,22.330355110602486],[114.18859245268379,22.33035570034296],[114.18859183558757,22.330335544760352],[114.18850811909562,22.3303394431749],[114.18850721479232,22.330315821494548],[114.18868467328195,22.330309722633068],[114.18868633602536,22.330353152839084]]]},"properties":{"OBJECTID":50976,"Shape__Length":46.268489625948391,"Shape__Area":68.254039618373682,"GeoRefNo":"3747821254","DateCreate":1114790400000,"BuildingBlockType":"Tower","BuildingCSUID":"3747821254T20050430","BuildingID":1108227007,"Status":"Active","BuildingNameEN":null,"BuildingNameTC":null,"BaseHeight":9.1999999999999993,"TopHeight":23.899999999999999,"Storeys":4,"StoreysInBasement":null,"DateStamp":1599580800000}},{"type":"Feature","id":50978,"geometry":{"type":"Polygon","coordinates":[[[114.18604030846748,22.330232835503196],[114.18604288186741,22.330297188551103],[114.18604420872295,22.330330368370262],[114.18600942301377,22.33033169395631],[114.18600674085945,22.330331815388913],[114.18600673463719,22.330331662953039],[114.18600276364405,22.330234104081008],[114.18604030846748,22.330232835503196]]]},"properties":{"OBJECTID":50978,"Shape__Length":29.369351413583558,"Shape__Area":41.827194653215194,"GeoRefNo":"3720921248","DateCreate":1118160000000,"BuildingBlockType":"Tower","BuildingCSUID":"3720921248T20050608","BuildingID":1108227031,"Status":"Active","BuildingNameEN":null,"BuildingNameTC":null,"BaseHeight":16.600000000000001,"TopHeight":19,"Storeys":3,"StoreysInBasement":null,"DateStamp":1599580800000}},{"type":"Feature","id":50989,"geometry":{"type":"Polygon","coordinates":[[[114.18685267974379,22.328902828318682],[114.18681480089504,22.328904161493419],[114.18661574031985,22.328911167638992],[114.18661347426186,22.328847865820997],[114.18661141701372,22.328790397927751],[114.18661060687474,22.3287677651658],[114.18660859592255,22.328711589906959],[114.18669500979634,22.328708487090552],[114.18670126947981,22.328854534370929],[114.18676001967833,22.328853028996594],[114.18675374601062,22.328706378024773],[114.18684503326433,22.328703100088156],[114.18684627307211,22.328735483595693],[114.18684805027046,22.328781905383615],[114.18685267974379,22.328902828318682]]]},"properties":{"OBJECTID":50989,"Shape__Length":125.48421130217415,"Shape__Area":441.60383764254124,"GeoRefNo":"3728321093","DateCreate":1114790400000,"BuildingBlockType":"Tower","BuildingCSUID":"3728321093T20050430","BuildingID":1108228251,"Status":"Active","BuildingNameEN":null,"BuildingNameTC":null,"BaseHeight":11.699999999999999,"TopHeight":28.600000000000001,"Storeys":5,"StoreysInBasement":null,"DateStamp":1599580800000}},{"type":"Feature","id":51050,"geometry":{"type":"Polygon","coordinates":[[[114.1895134933922,22.328777295201718],[114.18936548887322,22.328783193300819],[114.18936406645291,22.328737417380683],[114.18951143138162,22.328731815716683],[114.1895134933922,22.328777295201718]]]},"properties":{"OBJECTID":51050,"Shape__Length":40.568098128052235,"Shape__Area":76.988461909009899,"GeoRefNo":"3756221079","DateCreate":1114790400000,"BuildingBlockType":"Tower","BuildingCSUID":"3756221079T20050430","BuildingID":1108228353,"Status":"Active","BuildingNameEN":null,"BuildingNameTC":null,"BaseHeight":7.4000000000000004,"TopHeight":25.399999999999999,"Storeys":6,"StoreysInBasement":null,"DateStamp":1599580800000}},{"type":"Feature","id":51059,"geometry":{"type":"Polygon","coordinates":[[[114.1896584606305,22.328819491298344],[114.18956810302754,22.328823398823459],[114.18956163612333,22.328654768979099],[114.18965282703763,22.328652036360918],[114.18965401719532,22.328687414934411],[114.1896584606305,22.328819491298344]]]},"properties":{"OBJECTID":51059,"Shape__Length":55.955757346116016,"Shape__Area":174.24860986960218,"GeoRefNo":"3758121079","DateCreate":1114790400000,"BuildingBlockType":"Tower","BuildingCSUID":"3758121079T20050430","BuildingID":1108228318,"Status":"Active","BuildingNameEN":"T & P Mansion","BuildingNameTC":"東寶大樓","BaseHeight":7.2999999999999998,"TopHeight":24.800000000000001,"Storeys":5,"StoreysInBasement":1,"DateStamp":1599580800000}},{"type":"Feature","id":51114,"geometry":{"type":"Polygon","coordinates":[[[114.18859394513973,22.329220603472336],[114.18858649496696,22.329029117531949],[114.18863470747985,22.329027356495907],[114.18864179406361,22.329218323472976],[114.18859394513973,22.329220603472336]]]},"properties":{"OBJECTID":51114,"Shape__Length":52.284091829289366,"Shape__Area":104.94847334266511,"GeoRefNo":"3747821120","DateCreate":1114790400000,"BuildingBlockType":"Tower","BuildingCSUID":"3747821120T20050430","BuildingID":1108228051,"Status":"Active","BuildingNameEN":"Yat Fung Lau","BuildingNameTC":"億富樓","BaseHeight":8.5999999999999996,"TopHeight":28.199999999999999,"Storeys":3,"StoreysInBasement":null,"DateStamp":1599580800000}},{"type":"Feature","id":51118,"geometry":{"type":"Polygon","coordinates":[[[114.19053254534286,22.328657114075217],[114.19053191825451,22.328637804933365],[114.19053143243413,22.328622847618014],[114.19054624514047,22.32862222569328],[114.19054718639271,22.328640123599129],[114.19056346101985,22.328639571716721],[114.19056197832035,22.328621565038286],[114.19057826545387,22.328620881216491],[114.190578960868,22.32863904608709],[114.19059990426059,22.328638335860056],[114.19059847471954,22.328620032703366],[114.19061400609944,22.32861938054921],[114.19061518289561,22.328637817741146],[114.19063566590499,22.32863712317155],[114.19063496247911,22.328618500722186],[114.19064902292563,22.328617910368841],[114.19065602721871,22.328777544669368],[114.19065624105041,22.328782418096033],[114.1905367423892,22.328786339209856],[114.19053645703008,22.32877755482378],[114.19053254534286,22.328657114075217]]]},"properties":{"OBJECTID":51118,"Shape__Length":73.008179618634344,"Shape__Area":210.14205331881561,"GeoRefNo":"3768021071","DateCreate":1114790400000,"BuildingBlockType":"Tower","BuildingCSUID":"3768021071T20050430","BuildingID":1108228351,"Status":"Active","BuildingNameEN":null,"BuildingNameTC":null,"BaseHeight":6.5999999999999996,"TopHeight":23,"Storeys":5,"StoreysInBasement":null,"DateStamp":1599580800000}},{"type":"Feature","id":51122,"geometry":{"type":"Polygon","coordinates":[[[114.18864564989073,22.329290442695548],[114.18846816359397,22.329295675754661],[114.18846769812217,22.329283517823335],[114.18847851577135,22.329282027361309],[114.18847812128753,22.329272608129934],[114.18855646323492,22.329270847929457],[114.18855545765875,22.329245689699814],[114.18864379562747,22.329242009554189],[114.18864564989073,22.329290442695548]]]},"properties":{"OBJECTID":51122,"Shape__Length":47.149445194576614,"Shape__Area":70.005266967086072,"GeoRefNo":"3747421136","DateCreate":1114790400000,"BuildingBlockType":"Tower","BuildingCSUID":"3747421136T20050430","BuildingID":1108227984,"Status":"Active","BuildingNameEN":null,"BuildingNameTC":null,"BaseHeight":8.6999999999999993,"TopHeight":27,"Storeys":4,"StoreysInBasement":null,"DateStamp":1599580800000}},{"type":"Feature","id":51123,"geometry":{"type":"Polygon","coordinates":[[[114.18850089494602,22.329223710939651],[114.18849319556159,22.329032525370156],[114.18853747408674,22.329030908051713],[114.18854051429658,22.329121555385719],[114.18851301451025,22.329122743446888],[114.18851502043185,22.329171059181967],[114.18852834791171,22.329170646245487],[114.18852952563496,22.329196447892173],[114.18851543737168,22.329197172619349],[114.18851668866068,22.32922986450561],[114.18850116252865,22.329230355623693],[114.18850089494602,22.329223710939651]]]},"properties":{"OBJECTID":51123,"Shape__Length":55.630333597541807,"Shape__Area":69.139310799887028,"GeoRefNo":"3746721119","DateCreate":1114790400000,"BuildingBlockType":"Tower","BuildingCSUID":"3746721119T20050430","BuildingID":1108228042,"Status":"Active","BuildingNameEN":null,"BuildingNameTC":null,"BaseHeight":8.6999999999999993,"TopHeight":24.699999999999999,"Storeys":4,"StoreysInBasement":null,"DateStamp":1599580800000}},{"type":"Feature","id":51183,"geometry":{"type":"Polygon","coordinates":[[[114.19050036949047,22.329265846676648],[114.1904985113087,22.32922162180876],[114.19059023238538,22.329218139802599],[114.19059143991305,22.329241112149724],[114.19065320555863,22.32923916793774],[114.19065362927127,22.329250181510805],[114.19067046119491,22.329249299141114],[114.19067090019662,22.329259817656247],[114.19050036949047,22.329265846676648]]]},"properties":{"OBJECTID":51183,"Shape__Length":44.975833416977906,"Shape__Area":63.628184893597187,"GeoRefNo":"3767721133","DateCreate":1114790400000,"BuildingBlockType":"Tower","BuildingCSUID":"3767721133T20050430","BuildingID":1108228006,"Status":"Active","BuildingNameEN":null,"BuildingNameTC":null,"BaseHeight":6.7000000000000002,"TopHeight":24.699999999999999,"Storeys":null,"StoreysInBasement":null,"DateStamp":1361808000000}},{"type":"Feature","id":51239,"geometry":{"type":"Polygon","coordinates":[[[114.18844861862577,22.329226042327903],[114.18844152438734,22.329034412678819],[114.18849319556159,22.329032525370156],[114.18850089494602,22.329223710939651],[114.18844861862577,22.329226042327903]]]},"properties":{"OBJECTID":51239,"Shape__Length":53.137598345190561,"Shape__Area":113.66820850002564,"GeoRefNo":"3746221114","DateCreate":1114790400000,"BuildingBlockType":"Tower","BuildingCSUID":"3746221114T20050430","BuildingID":1108228045,"Status":"Active","BuildingNameEN":null,"BuildingNameTC":null,"BaseHeight":8.8000000000000007,"TopHeight":24.699999999999999,"Storeys":5,"StoreysInBasement":null,"DateStamp":1599580800000}},{"type":"Feature","id":51278,"geometry":{"type":"Polygon","coordinates":[[[114.18740032380668,22.328850041016302],[114.18748421783613,22.328847256994003],[114.18748555230607,22.328899705995621],[114.18730625255341,22.328905847100923],[114.18730491837144,22.328871960011512],[114.1873184308687,22.328872001220297],[114.18731787896904,22.328852776858707],[114.18740032380668,22.328850041016302]]]},"properties":{"OBJECTID":51278,"Shape__Length":48.718157779085182,"Shape__Area":104.84562336835435,"GeoRefNo":"3735121092","DateCreate":1114790400000,"BuildingBlockType":"Tower","BuildingCSUID":"3735121092T20050430","BuildingID":1108228254,"Status":"Active","BuildingNameEN":null,"BuildingNameTC":"永發樓","BaseHeight":10.199999999999999,"TopHeight":32.200000000000003,"Storeys":6,"StoreysInBasement":null,"DateStamp":1599580800000}},{"type":"Feature","id":51283,"geometry":{"type":"Polygon","coordinates":[[[114.1879138304723,22.328768129935696],[114.18806212046464,22.328762897161123],[114.18806272063777,22.328777609566345],[114.18806285378255,22.328780871765282],[114.18806684044893,22.32887859893291],[114.18788201628253,22.328885491228572],[114.18787810429097,22.328793920651968],[114.18791474803473,22.328793879950997],[114.1879138304723,22.328768129935696]]]},"properties":{"OBJECTID":51283,"Shape__Length":63.942132249051888,"Shape__Area":234.33983762204372,"GeoRefNo":"3741021089","DateCreate":1114790400000,"BuildingBlockType":"Tower","BuildingCSUID":"3741021089T20050430","BuildingID":1108228266,"Status":"Active","BuildingNameEN":null,"BuildingNameTC":null,"BaseHeight":8.9000000000000004,"TopHeight":30.300000000000001,"Storeys":6,"StoreysInBasement":null,"DateStamp":1599580800000}},{"type":"Feature","id":51293,"geometry":{"type":"Polygon","coordinates":[[[114.19142315918505,22.329298658050007],[114.19132285006813,22.329302627953666],[114.19132172992079,22.32928853646068],[114.1913209302184,22.329278476733251],[114.19130203220456,22.329279069112033],[114.19125956486509,22.329280400213079],[114.19125885131287,22.329269860050637],[114.19125121096165,22.329270300971494],[114.19125074883496,22.329259980771621],[114.19142136316044,22.329253833556649],[114.19142315918505,22.329298658050007]]]},"properties":{"OBJECTID":51293,"Shape__Length":45.009886150704986,"Shape__Area":67.502651558107672,"GeoRefNo":"3776021137","DateCreate":1114790400000,"BuildingBlockType":"Tower","BuildingCSUID":"3776021137T20050430","BuildingID":1108227978,"Status":"Active","BuildingNameEN":"Pak Ho Building","BuildingNameTC":"百好樓","BaseHeight":6.2999999999999998,"TopHeight":28.899999999999999,"Storeys":7,"StoreysInBasement":null,"DateStamp":1599580800000}},{"type":"Feature","id":51344,"geometry":{"type":"Polygon","coordinates":[[[114.18612847952436,22.330194536194394],[114.18612142316006,22.330030822974571],[114.18621176960517,22.330028429723527],[114.18621254252302,22.330061410269479],[114.18627104278448,22.33005968591473],[114.18627026244496,22.330026247248004],[114.18636035833923,22.330023628344758],[114.18636641640643,22.330186668021842],[114.18627606625516,22.330188832253413],[114.18627479944456,22.330155858509993],[114.18621704717235,22.330158030739693],[114.18621758416812,22.330191701957709],[114.18612847952436,22.330194536194394]]]},"properties":{"OBJECTID":51344,"Shape__Length":100.02589886282635,"Shape__Area":399.86211381798097,"GeoRefNo":"3723421229","DateCreate":1114790400000,"BuildingBlockType":"Tower","BuildingCSUID":"3723421229T20050430","BuildingID":1108227165,"Status":"Active","BuildingNameEN":"Grampian Crest","BuildingNameTC":"嘉苑","BaseHeight":14.199999999999999,"TopHeight":34.100000000000001,"Storeys":7,"StoreysInBasement":null,"DateStamp":1599580800000}},{"type":"Feature","id":51391,"geometry":{"type":"Polygon","coordinates":[[[114.18558943350664,22.328806502636926],[114.18571831686815,22.328802424995391],[114.18572253552178,22.328912108520537],[114.18549100172416,22.328918741828911],[114.18548648491313,22.328809759719171],[114.18558943350664,22.328806502636926]]]},"properties":{"OBJECTID":51391,"Shape__Length":71.99282261321747,"Shape__Area":289.32316389933271,"GeoRefNo":"3716721091","DateCreate":1114790400000,"BuildingBlockType":"Tower","BuildingCSUID":"3716721091T20050430","BuildingID":1108228244,"Status":"Active","BuildingNameEN":null,"BuildingNameTC":null,"BaseHeight":19.699999999999999,"TopHeight":32.100000000000001,"Storeys":4,"StoreysInBasement":1,"DateStamp":1599580800000}},{"type":"Feature","id":51407,"geometry":{"type":"Polygon","coordinates":[[[114.19108570150966,22.330241085836246],[114.1910852564001,22.330230976409432],[114.19108371500741,22.330195962177868],[114.19121297580274,22.330190831954717],[114.19121498294183,22.330236122585166],[114.19108570150966,22.330241085836246]]]},"properties":{"OBJECTID":51407,"Shape__Length":36.679302215962423,"Shape__Area":66.783442846440522,"GeoRefNo":"3773821241","DateCreate":1114790400000,"BuildingBlockType":"Tower","BuildingCSUID":"3773821241T20050430","BuildingID":1108227114,"Status":"Active","BuildingNameEN":null,"BuildingNameTC":null,"BaseHeight":6.7000000000000002,"TopHeight":32.100000000000001,"Storeys":7,"StoreysInBasement":null,"DateStamp":1599580800000}},{"type":"Feature","id":51408,"geometry":{"type":"Polygon","coordinates":[[[114.19121695223544,22.330280558203153],[114.1910876922376,22.3302867062663],[114.19108622310154,22.330253039481811],[114.19108570150966,22.330241085836246],[114.19121498294183,22.330236122585166],[114.19121695223544,22.330280558203153]]]},"properties":{"OBJECTID":51408,"Shape__Length":36.644713162954226,"Shape__Area":66.529582224910513,"GeoRefNo":"3773821246","DateCreate":1114790400000,"BuildingBlockType":"Tower","BuildingCSUID":"3773821246T20050430","BuildingID":1108227071,"Status":"Active","BuildingNameEN":null,"BuildingNameTC":null,"BaseHeight":6.7999999999999998,"TopHeight":34.799999999999997,"Storeys":7,"StoreysInBasement":null,"DateStamp":1599580800000}},{"type":"Feature","id":51413,"geometry":{"type":"Polygon","coordinates":[[[114.19017517224434,22.330114166910029],[114.19020115100543,22.330113295485251],[114.1902047387907,22.330205859742495],[114.19017893657957,22.330206751472119],[114.19017569696588,22.330128208970997],[114.19017517224434,22.330114166910029]]]},"properties":{"OBJECTID":51413,"Shape__Length":25.854550885868555,"Shape__Area":27.404185745722941,"GeoRefNo":"3763921234","DateCreate":1114790400000,"BuildingBlockType":"Tower","BuildingCSUID":"3763921234T20050430","BuildingID":1108227154,"Status":"Active","BuildingNameEN":"LOK SIN TONG PRIMARY SCHOOL","BuildingNameTC":"樂善堂小學校","BaseHeight":7,"TopHeight":10.4,"Storeys":null,"StoreysInBasement":null,"DateStamp":1361808000000}},{"type":"Feature","id":51460,"geometry":{"type":"Polygon","coordinates":[[[114.19050234260936,22.32940080785529],[114.19050173094324,22.329387351163888],[114.19050029029884,22.32935565718914],[114.19065505708996,22.329349373767982],[114.19065585532475,22.329364721176173],[114.19066866379917,22.329364283183576],[114.1906697219635,22.329387336907995],[114.1906700131096,22.329393680506655],[114.19059612690421,22.329396821313715],[114.19050234260936,22.32940080785529]]]},"properties":{"OBJECTID":51460,"Shape__Length":44.535771273933129,"Shape__Area":83.959336614331264,"GeoRefNo":"3767921147","DateCreate":1114790400000,"BuildingBlockType":"Tower","BuildingCSUID":"3767921147T20050430","BuildingID":1108227900,"Status":"Active","BuildingNameEN":null,"BuildingNameTC":null,"BaseHeight":6.7999999999999998,"TopHeight":31.100000000000001,"Storeys":7,"StoreysInBasement":null,"DateStamp":1599580800000}},{"type":"Feature","id":51518,"geometry":{"type":"Polygon","coordinates":[[[114.18995089785329,22.329343141410305],[114.18994833092101,22.329284931019675],[114.18999767238734,22.329283160366025],[114.19004445470219,22.329281481656725],[114.19004560238002,22.329310976351454],[114.19010747462364,22.329308826983283],[114.19010826438753,22.329327610622222],[114.19012589869966,22.329326977397145],[114.19012625543445,22.329336356170483],[114.18999767784679,22.329341331319693],[114.18995089785329,22.329343141410305]]]},"properties":{"OBJECTID":51518,"Shape__Length":49.028659247377824,"Shape__Area":85.620888014778629,"GeoRefNo":"3762021140","DateCreate":1114790400000,"BuildingBlockType":"Tower","BuildingCSUID":"3762021140T20050430","BuildingID":1108227946,"Status":"Active","BuildingNameEN":null,"BuildingNameTC":null,"BaseHeight":7.0999999999999996,"TopHeight":22.5,"Storeys":4,"StoreysInBasement":null,"DateStamp":1599580800000}},{"type":"Feature","id":51521,"geometry":{"type":"Polygon","coordinates":[[[114.19073305381156,22.329342966851684],[114.19069972972206,22.329344222519286],[114.19069904040404,22.329327040538953],[114.19073037219138,22.329325713249212],[114.19072946785809,22.329298640360406],[114.19086360283663,22.329293755448848],[114.19086568914268,22.329337969184742],[114.19073305381156,22.329342966851684]]]},"properties":{"OBJECTID":51521,"Shape__Length":43.976209592119091,"Shape__Area":74.224520475554939,"GeoRefNo":"3770121141","DateCreate":1114790400000,"BuildingBlockType":"Tower","BuildingCSUID":"3770121141T20050430","BuildingID":1108227944,"Status":"Active","BuildingNameEN":null,"BuildingNameTC":null,"BaseHeight":6.5999999999999996,"TopHeight":28.899999999999999,"Storeys":6,"StoreysInBasement":null,"DateStamp":1599580800000}},{"type":"Feature","id":51556,"geometry":{"type":"Polygon","coordinates":[[[114.18903397372438,22.328842526235746],[114.189025568042,22.328662285894175],[114.18906341304502,22.32866117887302],[114.18906344620478,22.32864851040593],[114.18908053424846,22.328647911471382],[114.18908399101699,22.328734074450782],[114.1890841791528,22.328738767360139],[114.18908826570879,22.328840683602635],[114.18903397372438,22.328842526235746]]]},"properties":{"OBJECTID":51556,"Shape__Length":54.001476796596094,"Shape__Area":115.46041800438526,"GeoRefNo":"3752321083","DateCreate":1114790400000,"BuildingBlockType":"Tower","BuildingCSUID":"3752321083T20050430","BuildingID":1108228299,"Status":"Active","BuildingNameEN":null,"BuildingNameTC":null,"BaseHeight":7.9000000000000004,"TopHeight":26.300000000000001,"Storeys":6,"StoreysInBasement":null,"DateStamp":1599580800000}},{"type":"Feature","id":51595,"geometry":{"type":"Polygon","coordinates":[[[114.18908826570879,22.328840683602635],[114.1890841791528,22.328738767360139],[114.18908399101699,22.328734074450782],[114.18910096124918,22.328733663810656],[114.18909725625682,22.328647324392779],[114.18918123689271,22.328644364743784],[114.18918140872604,22.328649074812446],[114.18918533228783,22.328756603935162],[114.18918659934103,22.328788016634586],[114.18918859005063,22.328837370791252],[114.18908826570879,22.328840683602635]]]},"properties":{"OBJECTID":51595,"Shape__Length":63.51707750018867,"Shape__Area":204.67879667240931,"GeoRefNo":"3753121076","DateCreate":1114790400000,"BuildingBlockType":"Tower","BuildingCSUID":"3753121076T20050430","BuildingID":1108228301,"Status":"Active","BuildingNameEN":null,"BuildingNameTC":null,"BaseHeight":7.7999999999999998,"TopHeight":26.300000000000001,"Storeys":6,"StoreysInBasement":null,"DateStamp":1599580800000}},{"type":"Feature","id":51606,"geometry":{"type":"Polygon","coordinates":[[[114.18921875267147,22.330237546853748],[114.18921754903198,22.330208891282449],[114.18923410776711,22.330208331294028],[114.1892353115,22.330236907034855],[114.18921875267147,22.330237546853748]]]},"properties":{"OBJECTID":51606,"Shape__Length":9.7567670115650884,"Shape__Area":5.4138382689279458,"GeoRefNo":"3754021242","DateCreate":1114790400000,"BuildingBlockType":"Tower","BuildingCSUID":"3754021242T20050430","BuildingID":1108227117,"Status":"Active","BuildingNameEN":null,"BuildingNameTC":null,"BaseHeight":9.0999999999999996,"TopHeight":12.300000000000001,"Storeys":null,"StoreysInBasement":null,"DateStamp":1361808000000}},{"type":"Feature","id":51610,"geometry":{"type":"Polygon","coordinates":[[[114.18936548887322,22.328783193300819],[114.1895134933922,22.328777295201718],[114.18954159375393,22.328776175375523],[114.18954346273848,22.328821966520533],[114.1895286927068,22.328822489826624],[114.18945934504546,22.328824946957582],[114.18943847160652,22.328825686471504],[114.18936688802896,22.328828222754417],[114.18936548887322,22.328783193300819]]]},"properties":{"OBJECTID":51610,"Shape__Length":46.426489572227496,"Shape__Area":91.476324401366398,"GeoRefNo":"3756321084","DateCreate":1114790400000,"BuildingBlockType":"Tower","BuildingCSUID":"3756321084T20050430","BuildingID":1108228312,"Status":"Active","BuildingNameEN":null,"BuildingNameTC":null,"BaseHeight":7.4000000000000004,"TopHeight":25.800000000000001,"Storeys":6,"StoreysInBasement":null,"DateStamp":1599580800000}},{"type":"Feature","id":51612,"geometry":{"type":"Polygon","coordinates":[[[114.18897819392542,22.328844575491626],[114.18897069914837,22.328674033023205],[114.18896945488949,22.32865195920818],[114.18899065550373,22.328651091586114],[114.18899086234208,22.328663301100903],[114.189025568042,22.328662285894175],[114.18903397372438,22.328842526235746],[114.18903227710894,22.328842583797986],[114.18897819392542,22.328844575491626]]]},"properties":{"OBJECTID":51612,"Shape__Length":54.192851708476496,"Shape__Area":117.4226647632124,"GeoRefNo":"3751721081","DateCreate":1114790400000,"BuildingBlockType":"Tower","BuildingCSUID":"3751721081T20050430","BuildingID":1108228297,"Status":"Active","BuildingNameEN":null,"BuildingNameTC":null,"BaseHeight":8,"TopHeight":26.300000000000001,"Storeys":6,"StoreysInBasement":null,"DateStamp":1599580800000}},{"type":"Feature","id":51678,"geometry":{"type":"Polygon","coordinates":[[[114.18806212046464,22.328762897161123],[114.1879138304723,22.328768129935696],[114.18790524839096,22.328768432775906],[114.18790256093622,22.328710829302317],[114.18805973980817,22.328704537628365],[114.18806212046464,22.328762897161123]]]},"properties":{"OBJECTID":51678,"Shape__Length":45.232724876289637,"Shape__Area":104.03756343643623,"GeoRefNo":"3740921077","DateCreate":1114790400000,"BuildingBlockType":"Tower","BuildingCSUID":"3740921077T20050430","BuildingID":1108228365,"Status":"Active","BuildingNameEN":null,"BuildingNameTC":null,"BaseHeight":8.8000000000000007,"TopHeight":28.300000000000001,"Storeys":6,"StoreysInBasement":null,"DateStamp":1599580800000}},{"type":"Feature","id":51724,"geometry":{"type":"Polygon","coordinates":[[[114.18558943350664,22.328806502636926],[114.18548648491313,22.328809759719171],[114.18548424639215,22.328748703608657],[114.18558566178524,22.328745514159408],[114.18558874245691,22.328795049816755],[114.18558943350664,22.328806502636926]]]},"properties":{"OBJECTID":51724,"Shape__Length":34.595874357390855,"Shape__Area":71.250811330804638,"GeoRefNo":"3716021082","DateCreate":1114790400000,"BuildingBlockType":"Tower","BuildingCSUID":"3716021082T20050430","BuildingID":1108228330,"Status":"Active","BuildingNameEN":null,"BuildingNameTC":null,"BaseHeight":19.199999999999999,"TopHeight":23.899999999999999,"Storeys":null,"StoreysInBasement":null,"DateStamp":1361808000000}},{"type":"Feature","id":51731,"geometry":{"type":"Polygon","coordinates":[[[114.18841985324445,22.328863880595375],[114.18824297638417,22.328871608785661],[114.18824108710736,22.328820540334622],[114.18823834186529,22.328746333239319],[114.1882378502125,22.32873304449862],[114.18841445128682,22.328727173292535],[114.18841985324445,22.328863880595375]]]},"properties":{"OBJECTID":51731,"Shape__Length":66.949331160452957,"Shape__Area":277.91913417731723,"GeoRefNo":"3744921088","DateCreate":1114790400000,"BuildingBlockType":"Tower","BuildingCSUID":"3744921088T20050430","BuildingID":1108228274,"Status":"Active","BuildingNameEN":"Hing Fat House","BuildingNameTC":"興發樓","BaseHeight":8.8000000000000007,"TopHeight":29.899999999999999,"Storeys":6,"StoreysInBasement":null,"DateStamp":1599580800000}},{"type":"Feature","id":51733,"geometry":{"type":"Polygon","coordinates":[[[114.18558874245691,22.328795049816755],[114.18558566178524,22.328745514159408],[114.18562419024363,22.32874381260822],[114.18562583170603,22.328794537761155],[114.18558874245691,22.328795049816755]]]},"properties":{"OBJECTID":51733,"Shape__Length":18.909296831860047,"Shape__Area":21.652565853263088,"GeoRefNo":"3716821082","DateCreate":1114790400000,"BuildingBlockType":"Tower","BuildingCSUID":"3716821082T20050430","BuildingID":1108228347,"Status":"Active","BuildingNameEN":null,"BuildingNameTC":null,"BaseHeight":19.100000000000001,"TopHeight":23.899999999999999,"Storeys":null,"StoreysInBasement":null,"DateStamp":1361808000000}},{"type":"Feature","id":51783,"geometry":{"type":"Polygon","coordinates":[[[114.19072932407185,22.329254239251963],[114.19069617181623,22.329255546378434],[114.19069256750012,22.329165715499808],[114.19085724344394,22.329158985739735],[114.19086149231099,22.329249028235818],[114.19072932407185,22.329254239251963]]]},"properties":{"OBJECTID":51783,"Shape__Length":53.963378300430499,"Shape__Area":169.58660633649367,"GeoRefNo":"3769921129","DateCreate":1114790400000,"BuildingBlockType":"Tower","BuildingCSUID":"3769921129T20050430","BuildingID":1108228020,"Status":"Active","BuildingNameEN":null,"BuildingNameTC":null,"BaseHeight":6.5,"TopHeight":28.800000000000001,"Storeys":6,"StoreysInBasement":null,"DateStamp":1599580800000}},{"type":"Feature","id":51797,"geometry":{"type":"Polygon","coordinates":[[[114.19059023238538,22.329218139802599],[114.1904985113087,22.32922162180876],[114.19049420506725,22.329221785264149],[114.19049195869864,22.329172364321256],[114.19064549527413,22.32916620464152],[114.19064713273654,22.329215979633084],[114.19059023238538,22.329218139802599]]]},"properties":{"OBJECTID":51797,"Shape__Length":42.592345928485535,"Shape__Area":86.834489513592629,"GeoRefNo":"3767921128","DateCreate":1114790400000,"BuildingBlockType":"Tower","BuildingCSUID":"3767921128T20050430","BuildingID":1108228050,"Status":"Active","BuildingNameEN":null,"BuildingNameTC":"發達樓","BaseHeight":6.7000000000000002,"TopHeight":26.199999999999999,"Storeys":7,"StoreysInBasement":null,"DateStamp":1599580800000}},{"type":"Feature","id":51862,"geometry":{"type":"Polygon","coordinates":[[[114.19072946785809,22.329298640360406],[114.19069794687641,22.329299788228454],[114.19069718350892,22.329280761848008],[114.19073023853055,22.329279663697388],[114.19072932407185,22.329254239251963],[114.19086149231099,22.329249028235818],[114.19086360283663,22.329293755448848],[114.19072946785809,22.329298640360406]]]},"properties":{"OBJECTID":51862,"Shape__Length":43.998272961520719,"Shape__Area":74.546736747975373,"GeoRefNo":"3770121137","DateCreate":1114790400000,"BuildingBlockType":"Tower","BuildingCSUID":"3770121137T20050430","BuildingID":1108227980,"Status":"Active","BuildingNameEN":null,"BuildingNameTC":null,"BaseHeight":6.5999999999999996,"TopHeight":25.899999999999999,"Storeys":6,"StoreysInBasement":null,"DateStamp":1599580800000}},{"type":"Feature","id":51925,"geometry":{"type":"Polygon","coordinates":[[[114.18832078160304,22.329229876073018],[114.18831444860537,22.329039054059855],[114.18837929572446,22.32903668560704],[114.18838266246409,22.32912148001887],[114.18836336287512,22.329121829160936],[114.18836641660566,22.329189376173378],[114.18834938243202,22.32918961109629],[114.18835233669391,22.329235063348204],[114.18832098662818,22.329236054964294],[114.18832078160304,22.329229876073018]]]},"properties":{"OBJECTID":51925,"Shape__Length":57.411329496176009,"Shape__Area":114.48543198686193,"GeoRefNo":"3744921114","DateCreate":1114790400000,"BuildingBlockType":"Tower","BuildingCSUID":"3744921114T20050430","BuildingID":1108228038,"Status":"Active","BuildingNameEN":null,"BuildingNameTC":null,"BaseHeight":8.8000000000000007,"TopHeight":24.699999999999999,"Storeys":null,"StoreysInBasement":null,"DateStamp":1361808000000}},{"type":"Feature","id":51978,"geometry":{"type":"Polygon","coordinates":[[[114.1907966248411,22.329115778909479],[114.19078895059003,22.328945176583957],[114.19085157780916,22.328942753330313],[114.19085424574136,22.329012353885073],[114.19085436875389,22.329015562079583],[114.19085568530099,22.329049909971125],[114.19085857541954,22.329125307688759],[114.1908589795905,22.329135850047273],[114.19081658626621,22.329137296165829],[114.19081516555107,22.32911536109134],[114.1907966248411,22.329115778909479]]]},"properties":{"OBJECTID":51978,"Shape__Length":55.476296374722864,"Shape__Area":131.92759124259499,"GeoRefNo":"3770421107","DateCreate":1114790400000,"BuildingBlockType":"Tower","BuildingCSUID":"3770421107T20050430","BuildingID":1108228106,"Status":"Active","BuildingNameEN":null,"BuildingNameTC":"華麗樓","BaseHeight":6.5,"TopHeight":26.699999999999999,"Storeys":6,"StoreysInBasement":null,"DateStamp":1599580800000}},{"type":"Feature","id":51989,"geometry":{"type":"Polygon","coordinates":[[[114.18831444860537,22.329039054059855],[114.18832078160304,22.329229876073018],[114.18825843668182,22.329231189824778],[114.18825170228499,22.329041345849671],[114.18831444860537,22.329039054059855]]]},"properties":{"OBJECTID":51989,"Shape__Length":55.068300061847268,"Shape__Area":135.94262402589058,"GeoRefNo":"3744421120","DateCreate":1114790400000,"BuildingBlockType":"Tower","BuildingCSUID":"3744421120T20050430","BuildingID":1108228041,"Status":"Active","BuildingNameEN":null,"BuildingNameTC":null,"BaseHeight":8.8000000000000007,"TopHeight":29,"Storeys":5,"StoreysInBasement":null,"DateStamp":1599580800000}},{"type":"Feature","id":52043,"geometry":{"type":"Polygon","coordinates":[[[114.19074343042297,22.329122748682842],[114.19073546581352,22.328947246114179],[114.19078895059003,22.328945176583957],[114.1907966248411,22.329115778909479],[114.19079762188122,22.329137943036244],[114.19074420262375,22.329139765216002],[114.19074343042297,22.329122748682842]]]},"properties":{"OBJECTID":52043,"Shape__Length":53.724163830385102,"Shape__Area":117.66459214183305,"GeoRefNo":"3769921116","DateCreate":1114790400000,"BuildingBlockType":"Tower","BuildingCSUID":"3769921116T20050430","BuildingID":1108228105,"Status":"Active","BuildingNameEN":null,"BuildingNameTC":"廣杏樓","BaseHeight":6.5999999999999996,"TopHeight":26.399999999999999,"Storeys":6,"StoreysInBasement":null,"DateStamp":1599580800000}},{"type":"Feature","id":52046,"geometry":{"type":"Polygon","coordinates":[[[114.18812222217773,22.330271563157684],[114.18793780459157,22.330277871660829],[114.18793686874054,22.330255472358875],[114.18802295559338,22.33025296785577],[114.18802127757135,22.330225928240736],[114.18812024438959,22.33022277133],[114.18812222217773,22.330271563157684]]]},"properties":{"OBJECTID":52046,"Shape__Length":48.974881422996916,"Shape__Area":76.856669662770045,"GeoRefNo":"3742121245","DateCreate":1114790400000,"BuildingBlockType":"Tower","BuildingCSUID":"3742121245T20050430","BuildingID":1108227077,"Status":"Active","BuildingNameEN":null,"BuildingNameTC":null,"BaseHeight":10,"TopHeight":23.699999999999999,"Storeys":4,"StoreysInBasement":null,"DateStamp":1599580800000}},{"type":"Feature","id":52048,"geometry":{"type":"Polygon","coordinates":[[[114.18802127757135,22.330225928240736],[114.18793574830664,22.330228656392279],[114.18793168251915,22.330131347359011],[114.18805102519818,22.330126804795739],[114.18811625380371,22.330124321914138],[114.18812024438959,22.33022277133],[114.18802127757135,22.330225928240736]]]},"properties":{"OBJECTID":52048,"Shape__Length":59.74210583559784,"Shape__Area":206.34929203437099,"GeoRefNo":"3741821239","DateCreate":1114790400000,"BuildingBlockType":"Tower","BuildingCSUID":"3741821239T20050430","BuildingID":1108227125,"Status":"Active","BuildingNameEN":"Ka Fu Mansion","BuildingNameTC":"嘉富樓","BaseHeight":9.8000000000000007,"TopHeight":32.799999999999997,"Storeys":6,"StoreysInBasement":null,"DateStamp":1599580800000}},{"type":"Feature","id":52101,"geometry":{"type":"Polygon","coordinates":[[[114.19108371500741,22.330195962177868],[114.1910816617435,22.330149116483323],[114.19125686661944,22.330142329492251],[114.19125800179026,22.330173194115648],[114.19124752506468,22.330173407988983],[114.19124848437497,22.330189422648079],[114.19121297580274,22.330190831954717],[114.19108371500741,22.330195962177868]]]},"properties":{"OBJECTID":52101,"Shape__Length":46.522998948722979,"Shape__Area":91.666140216562638,"GeoRefNo":"3773921236","DateCreate":1114790400000,"BuildingBlockType":"Tower","BuildingCSUID":"3773921236T20050430","BuildingID":1108227164,"Status":"Active","BuildingNameEN":null,"BuildingNameTC":null,"BaseHeight":6.7000000000000002,"TopHeight":26.399999999999999,"Storeys":6,"StoreysInBasement":null,"DateStamp":1599580800000}},{"type":"Feature","id":52167,"geometry":{"type":"Polygon","coordinates":[[[114.18868309313191,22.330268449736582],[114.18858988404607,22.330271800821187],[114.1885056455893,22.330274829266049],[114.18850166660188,22.330170885201696],[114.18862284570119,22.33016624888953],[114.18867909796255,22.330164096592327],[114.18868309313191,22.330268449736582]]]},"properties":{"OBJECTID":52167,"Shape__Length":59.669612676787409,"Shape__Area":211.12127525645985,"GeoRefNo":"3747521242","DateCreate":1114790400000,"BuildingBlockType":"Tower","BuildingCSUID":"3747521242T20050430","BuildingID":1108227081,"Status":"Active","BuildingNameEN":"Goldfield Mansion","BuildingNameTC":"金利樓","BaseHeight":9,"TopHeight":26.800000000000001,"Storeys":6,"StoreysInBasement":null,"DateStamp":1599580800000}},{"type":"Feature","id":52168,"geometry":{"type":"Polygon","coordinates":[[[114.19133277508766,22.33028263457825],[114.1913323470886,22.33026544481292],[114.1912936167694,22.330267135366867],[114.19129246997421,22.330239409233673],[114.19146673339021,22.330233449301108],[114.19146846385294,22.330276684682907],[114.19133277508766,22.33028263457825]]]},"properties":{"OBJECTID":52168,"Shape__Length":45.721317032008606,"Shape__Area":80.147926331445603,"GeoRefNo":"3776221246","DateCreate":1114790400000,"BuildingBlockType":"Tower","BuildingCSUID":"3776221246T20050430","BuildingID":1108227075,"Status":"Active","BuildingNameEN":null,"BuildingNameTC":null,"BaseHeight":6.5999999999999996,"TopHeight":26.199999999999999,"Storeys":6,"StoreysInBasement":null,"DateStamp":1599580800000}},{"type":"Feature","id":52234,"geometry":{"type":"Polygon","coordinates":[[[114.19129246997421,22.330239409233673],[114.19129159029468,22.330218142019945],[114.19133114925809,22.330217345058774],[114.1913308128829,22.330203834795906],[114.19133066414092,22.330197860446855],[114.19146505460579,22.330191503842766],[114.19146673339021,22.330233449301108],[114.19129246997421,22.330239409233673]]]},"properties":{"OBJECTID":52234,"Shape__Length":45.06736431746458,"Shape__Area":72.659079727694248,"GeoRefNo":"3776221241","DateCreate":1114790400000,"BuildingBlockType":"Tower","BuildingCSUID":"3776221241T20050430","BuildingID":1108227116,"Status":"Active","BuildingNameEN":null,"BuildingNameTC":null,"BaseHeight":6.5,"TopHeight":38.399999999999999,"Storeys":9,"StoreysInBasement":null,"DateStamp":1599580800000}}]}