{"type":"FeatureCollection","features":[{"type":"Feature","id":256439,"geometry":{"type":"Polygon","coordinates":[[[114.20350861946508,22.291686425695474],[114.20345643864572,22.291675725840548],[114.20347033046382,22.291616752317601],[114.20342519052569,22.291607503601671],[114.20344619581543,22.291506579133763],[114.20349397716791,22.29151636708016],[114.20350425429865,22.291472738623508],[114.20355675956199,22.291483504965655],[114.20354641519307,22.291527108873314],[114.20356263477335,22.29153043136882],[114.20356350064823,22.291526771565497],[114.20357295128642,22.291486825116753],[114.20363201519534,22.291498936187665],[114.20362170976047,22.291542532778788],[114.20366753734569,22.291551920398057],[114.20364476085723,22.291652475472816],[114.20359798560366,22.291642896012501],[114.20358404017723,22.291701890867287],[114.20356353315762,22.291697685885232],[114.20352493736938,22.291689771658127],[114.20353889077991,22.291630793423337],[114.20352260859518,22.291627458834792],[114.20350861946508,22.291686425695474]]]},"properties":{"OBJECTID":256439,"Shape__Length":115.81092686496797,"Shape__Area":401.46192167688656,"GeoRefNo":"3901416965","DateCreate":1114790400000,"BuildingBlockType":"Tower","BuildingCSUID":"3901416965T20050430","BuildingID":1103120023,"Status":"Active","BuildingNameEN":"Healthy Gardens Block A","BuildingNameTC":"健威花園Ａ座","BaseHeight":19.399999999999999,"TopHeight":82.299999999999997,"Storeys":23,"StoreysInBasement":null,"DateStamp":1599580800000}},{"type":"Feature","id":256441,"geometry":{"type":"Polygon","coordinates":[[[114.20640740938579,22.291472265843705],[114.20641295284585,22.291536023301013],[114.2064357111646,22.291534224314383],[114.20643132223246,22.291474384312874],[114.20643102277946,22.291470302163916],[114.2064819603841,22.291465891880712],[114.20648232774326,22.291469862308372],[114.2064876746357,22.291527652633192],[114.20656706553115,22.291523938981396],[114.20656710725814,22.291523937077319],[114.20656833914474,22.291543003389943],[114.20657842824241,22.29154253492856],[114.20657916730745,22.291554020663884],[114.2065863035142,22.2915533250812],[114.20658768058516,22.291568308711948],[114.2064964871177,22.291575229590677],[114.20649857755454,22.291598633878195],[114.20658975152686,22.291592605588779],[114.20659044787986,22.291607226584066],[114.20658347786814,22.291607768344907],[114.20658429013523,22.291618950366797],[114.20657468194494,22.291619783848567],[114.20657580308887,22.291638290734021],[114.20649885503178,22.291643407934743],[114.20650445197701,22.291733209698556],[114.20650393252291,22.291733228848148],[114.20648985486068,22.291733748063539],[114.20649059416152,22.291748679704629],[114.2064566356425,22.291750777580543],[114.20644920599783,22.291649819535632],[114.20642562261038,22.291651562594431],[114.20643361512668,22.29175139080662],[114.20639676970201,22.291753279776408],[114.20639573950801,22.291738464592648],[114.2063780220326,22.291739375848643],[114.20637085038723,22.29165277120816],[114.20629084420402,22.291658466194693],[114.20628939688176,22.291640586633687],[114.20628015943896,22.291641224337074],[114.20627982119338,22.291631215125179],[114.20627385534482,22.291631711627701],[114.20627289456644,22.291614201962897],[114.20636410014987,22.291608888026612],[114.20636262205298,22.291587294898296],[114.20627004656539,22.291593545828949],[114.20626825105602,22.291576548713085],[114.20627396670837,22.291575939553976],[114.20627301873573,22.291563969903994],[114.20628152566226,22.291563376403012],[114.20627935690847,22.291546255545068],[114.20635951071166,22.291538655256122],[114.20635433452397,22.291476971342213],[114.20640038418112,22.291472888701755],[114.20640740938579,22.291472265843705]]]},"properties":{"OBJECTID":256441,"Shape__Length":201.48079038459082,"Shape__Area":545.02733720053789,"GeoRefNo":"3931316966","DateCreate":1114790400000,"BuildingBlockType":"Tower","BuildingCSUID":"3931316966T20050430","BuildingID":1103120007,"Status":"Active","BuildingNameEN":"Hong Shing Court","BuildingNameTC":"康勝閣","BaseHeight":14.6,"TopHeight":94.5,"Storeys":27,"StoreysInBasement":null,"DateStamp":1599580800000}},{"type":"Feature","id":256445,"geometry":{"type":"Polygon","coordinates":[[[114.20381630746377,22.291325696004975],[114.20386466466465,22.29133572901852],[114.2038509516929,22.291394712751931],[114.20390182107303,22.291405108005922],[114.20388021816181,22.291500482321126],[114.20382880830613,22.291489958734939],[114.20382678581137,22.291498657730411],[114.20381971081098,22.291529089493761],[114.20381508347519,22.291548993218331],[114.20376576803099,22.29153897985552],[114.2037797630371,22.291479919142532],[114.20376069734581,22.291476016381537],[114.20374691884372,22.291535152553042],[114.20369298294129,22.29152420102028],[114.20370711857053,22.291465048809918],[114.20365749959372,22.291454891696798],[114.20367951102548,22.291359678359068],[114.20372984100915,22.291369963402026],[114.20374400433869,22.291310694868308],[114.20379667067743,22.291321621851512],[114.20378288183076,22.291380802459535],[114.20380230880377,22.291384772436086],[114.20381630746377,22.291325696004975]]]},"properties":{"OBJECTID":256445,"Shape__Length":122.13954537734432,"Shape__Area":397.74405702016884,"GeoRefNo":"3904116947","DateCreate":1114790400000,"BuildingBlockType":"Tower","BuildingCSUID":"3904116947T20050430","BuildingID":1103120080,"Status":"Active","BuildingNameEN":"Healthy Gardens Block E","BuildingNameTC":"健威花園Ｅ座","BaseHeight":19.399999999999999,"TopHeight":82.299999999999997,"Storeys":23,"StoreysInBasement":null,"DateStamp":1599580800000}},{"type":"Feature","id":256446,"geometry":{"type":"Polygon","coordinates":[[[114.2059684792893,22.291373328145301],[114.20594774486787,22.291375148557421],[114.20595006180008,22.291397618864821],[114.20592299715906,22.291399987213822],[114.20592171829325,22.291388874265873],[114.20592037691807,22.291377217053366],[114.20589668155375,22.291358630944945],[114.20588406438829,22.291359643369848],[114.20586738042779,22.291360982075467],[114.20586346703732,22.291317540503194],[114.20591247914436,22.291313192783509],[114.20591035196179,22.291291798349992],[114.20586115034249,22.291296146102937],[114.20585666814077,22.291250993779968],[114.20588308835019,22.291248819535195],[114.2059067364286,22.29122234075874],[114.20588781787154,22.291206452414428],[114.20604046392543,22.291193249420907],[114.20602405441299,22.291211860427872],[114.20605267818657,22.291233885034558],[114.2060792879696,22.291231534445913],[114.20608384597715,22.291275963576656],[114.20603426544497,22.291280399589269],[114.20603639245928,22.291300894480667],[114.20608601094139,22.291296458460565],[114.20609056898991,22.291341063958857],[114.2060641866488,22.291343414598686],[114.20604330436808,22.291363560896642],[114.2060457354829,22.291388130079945],[114.20601381912577,22.291391927962263],[114.20601146423702,22.291369440052893],[114.2059907299284,22.291371330999667],[114.20598731137035,22.291338013575071],[114.20596509867919,22.291340010623102],[114.2059684792893,22.291373328145301]]]},"properties":{"OBJECTID":256446,"Shape__Length":121.51174208588991,"Shape__Area":365.98706738736075,"GeoRefNo":"3927216937","DateCreate":1114790400000,"BuildingBlockType":"Tower","BuildingCSUID":"3927216937T20050430","BuildingID":1103120137,"Status":"Active","BuildingNameEN":"Hong Tat Court","BuildingNameTC":"康達閣","BaseHeight":18.800000000000001,"TopHeight":90.400000000000006,"Storeys":25,"StoreysInBasement":null,"DateStamp":1599580800000}},{"type":"Feature","id":256888,"geometry":{"type":"Polygon","coordinates":[[[114.20444459315172,22.290827406936412],[114.20442194189866,22.290821495187359],[114.20448502280273,22.290550710171068],[114.20448632211362,22.290545517339812],[114.20400370021841,22.290422258574399],[114.20396166828834,22.290200175418708],[114.20395893869646,22.290185762995531],[114.20401944434828,22.290143480509048],[114.20408039659897,22.290102507365635],[114.20416214164109,22.290047551289273],[114.20415516762785,22.289963766311583],[114.20387087313165,22.289568922681926],[114.20386885408149,22.289565608778215],[114.20386706808497,22.289563125653338],[114.2038651171447,22.28956075995406],[114.20386301096457,22.28955851167877],[114.20386073984415,22.289556398890326],[114.20385833289517,22.289554421583862],[114.20385579982499,22.289552597819032],[114.20385180135574,22.289550205368645],[114.20391850121526,22.289525350995358],[114.20392382801793,22.289522026835524],[114.20392868892328,22.289518133823766],[114.2039330257201,22.289513735184297],[114.20393676078933,22.289508894144461],[114.20393840025429,22.289506329172585],[114.20394115512453,22.289500946458727],[114.20394227053329,22.289498146778044],[114.20394365732727,22.289493667355387],[114.20394484066847,22.289490894755193],[114.20394582021378,22.289488049944055],[114.20394658626275,22.289485150984785],[114.2039473519894,22.289480581359594],[114.20394728348717,22.289477601264107],[114.20394676803234,22.289471650167034],[114.20394573828311,22.289465762370241],[114.20394412626511,22.289459694058174],[114.20394189326221,22.289453959983032],[114.20393843730352,22.289446853456784],[114.203916927539,22.289416107762783],[114.20386331620415,22.289379660059446],[114.20385849273681,22.289376373714489],[114.20392222230051,22.289296911631169],[114.20392576326223,22.289291944195099],[114.20392884808878,22.289286705916293],[114.20393345557734,22.289277069467683],[114.20393558934579,22.289271433999946],[114.2039364815513,22.289268571142113],[114.20393791660487,22.289262755178452],[114.20393846916033,22.289259820132312],[114.20393889556004,22.289256858015356],[114.20393973793622,22.28924720413411],[114.20393976589664,22.289241234884788],[114.2039396197636,22.289238254802196],[114.20393899756904,22.289232312753363],[114.20393851180708,22.289229368850005],[114.20393722976597,22.289223517217636],[114.20393453989404,22.289213683313704],[114.20393343311164,22.289210884004067],[114.20393236527369,22.289208752954334],[114.20394810330654,22.28920012607648],[114.20394185200729,22.289189759960649],[114.20393559100506,22.289179393846176],[114.20392933000379,22.28916902773145],[114.20392307870732,22.289158661614856],[114.20391695360394,22.289148512212009],[114.20391694209719,22.289139156483945],[114.20391693028418,22.28912821136548],[114.20391692875629,22.28912028247489],[114.2039247000813,22.289112605144425],[114.20393296620907,22.289104440077107],[114.20394407587763,22.289097863924781],[114.20395474891959,22.289091540702241],[114.20396543166625,22.289085226507979],[114.2039761144102,22.289078903282395],[114.20398678744927,22.289072580057709],[114.20399747019302,22.28906626586134],[114.20400815293409,22.289059942633621],[114.20401882597029,22.289053619406843],[114.20402950870941,22.289047296177724],[114.20404019144934,22.289040981978513],[114.20405086448267,22.289034658749614],[114.20406154721891,22.289028335518353],[114.20407222995594,22.289022021317049],[114.2040829029864,22.289015698086025],[114.20408624073373,22.289013719818108],[114.20408073366858,22.289038130529008],[114.20413335008081,22.289048561091715],[114.20415811531463,22.289053469585138],[114.20420922758186,22.289063611396426],[114.20421786075696,22.289046822003389],[114.20425741545075,22.289055611155199],[114.20426383470075,22.289031462172421],[114.20434113911027,22.289048733708647],[114.20438902981152,22.289059426877607],[114.20457943725434,22.289098786032305],[114.20473158246271,22.289138386341737],[114.20473133232906,22.289149304413193],[114.20472047284576,22.289145052854167],[114.20471398357786,22.289158292868841],[114.20472624057646,22.289163329852684],[114.20473850727981,22.289168366833955],[114.20475076428015,22.289173403815944],[114.20476302128137,22.289178440797009],[114.20477528798735,22.289183477775453],[114.20478754499031,22.28918851475466],[114.20480014165695,22.28919368713381],[114.20479741601815,22.289199476235584],[114.2047923430296,22.289210241617386],[114.20478727974412,22.289221006997316],[114.20478221645789,22.2892317723771],[114.20477735686626,22.2892421042515],[114.20477473905805,22.289253374925028],[114.20477212126022,22.289264699782272],[114.20476949375629,22.289276015610493],[114.2047668759558,22.28928733143697],[114.20476424845101,22.289298647265088],[114.2047616209458,22.289309963093142],[114.20475900314406,22.289321278919456],[114.20475637563801,22.289332594747393],[114.20475375783724,22.289343919604221],[114.20474566201614,22.289378806309408],[114.20474317025665,22.289389589306698],[114.2047419486114,22.289394854372382],[114.20474063001319,22.28940055292481],[114.20473808976752,22.289411507512238],[114.20473553981937,22.28942247113195],[114.2047329995747,22.28943343474991],[114.20473045932964,22.289444398367802],[114.20472791908421,22.289455361985645],[114.2047611757655,22.289462499491815],[114.20475987310128,22.289450714747751],[114.20475857043732,22.289438930003648],[114.20475726777354,22.289427145259538],[114.2047556831803,22.289412759743296],[114.20476915256499,22.289414653856927],[114.20478245698018,22.289416529936563],[114.20476542773874,22.289422050581621],[114.20477570312426,22.289465621588089],[114.20477831566923,22.289476665595025],[114.20484834677754,22.289597383430152],[114.20486143699893,22.289619948074172],[114.20488199050624,22.289626967099721],[114.20490698713493,22.289635390068078],[114.20487227180013,22.289702134839867],[114.20485631176591,22.289733766825531],[114.20483763461905,22.289763874455705],[114.20469671641301,22.289970402049377],[114.2046732718278,22.290083687063103],[114.2046623605147,22.290135604831161],[114.20462021194368,22.290334066023465],[114.20458648814333,22.290493688740291],[114.2045641447541,22.290599444981037],[114.20454547606828,22.290688629662693],[114.20447968171125,22.290678846629664],[114.20444459315172,22.290827406936412]]]},"properties":{"OBJECTID":256888,"Shape__Length":594.73497599570169,"Shape__Area":12301.18497592675,"GeoRefNo":"3910016759","DateCreate":1142092800000,"BuildingBlockType":"Podium","BuildingCSUID":"3910016759P20060312","BuildingID":1103116839,"Status":"Active","BuildingNameEN":null,"BuildingNameTC":null,"BaseHeight":13.6,"TopHeight":38.600000000000001,"Storeys":null,"StoreysInBasement":null,"DateStamp":1517241600000}},{"type":"Feature","id":256889,"geometry":{"type":"Polygon","coordinates":[[[114.20542184074938,22.291851049684418],[114.20542314313379,22.29180002037689],[114.20542727613932,22.29163808980557],[114.20542837471029,22.291595047036378],[114.20543049223288,22.2915120824049],[114.20547783859882,22.291512364208256],[114.20551913293518,22.291512609951905],[114.2055569480775,22.291512834898324],[114.20562010283176,22.291513210759856],[114.20565718027223,22.291513431298462],[114.20569867460971,22.291513678225186],[114.20571829610832,22.291513794931372],[114.20572531483178,22.291614257935873],[114.20572860701218,22.291661380683724],[114.20574539409125,22.291901662289483],[114.20567641499083,22.291904202507403],[114.20567641708526,22.291914407112433],[114.20561528121209,22.291913243986322],[114.20554152994008,22.291911541232057],[114.20548000592487,22.291910468429911],[114.20548000384468,22.291900263824857],[114.2054207090564,22.291895389616911],[114.20542184074938,22.291851049684418]]]},"properties":{"OBJECTID":256889,"Shape__Length":150.90966818578602,"Shape__Area":1381.1774123265102,"GeoRefNo":"3922716970","DateCreate":1130342400000,"BuildingBlockType":"Podium","BuildingCSUID":"3922716970P20051027","BuildingID":1103116781,"Status":"Active","BuildingNameEN":null,"BuildingNameTC":null,"BaseHeight":4.5,"TopHeight":21.399999999999999,"Storeys":6,"StoreysInBasement":null,"DateStamp":1599580800000}},{"type":"Feature","id":257277,"geometry":{"type":"Polygon","coordinates":[[[114.20533488426251,22.28761709928488],[114.20503959072127,22.287820276810596],[114.20504645785057,22.287611198496162],[114.20504661016354,22.287596514666873],[114.20506854064715,22.287596321209783],[114.20506436972531,22.28755646976926],[114.20504662178578,22.287557728112965],[114.20504644352532,22.28753982943708],[114.20504630587628,22.287530880107546],[114.20504613911596,22.287521930783054],[114.20504125661739,22.287417727201493],[114.20504117872636,22.287416426804405],[114.20503952611006,22.287401589767754],[114.20503723310419,22.287387041822491],[114.20503551377089,22.287378228227066],[114.20503345482092,22.28736948693567],[114.20503015323082,22.287357955395688],[114.20502664796572,22.287346938636865],[114.20502370601871,22.287338414233798],[114.20502054090024,22.287329962114473],[114.20501715261035,22.287321582278864],[114.20501099767101,22.28730781163781],[114.20500968711795,22.287305084615269],[114.20500386267405,22.287294140503526],[114.20499353416815,22.287275593383178],[114.20498434156588,22.287259854590843],[114.20497483848014,22.287244287433772],[114.20499458528013,22.287242667525877],[114.20498912418992,22.287204803044016],[114.20494814624873,22.287209650565213],[114.2049373139111,22.287194851239622],[114.20492686967668,22.287179808019069],[114.20491972557352,22.287169053775777],[114.20491536699883,22.287161071453486],[114.20491128010593,22.287152971685892],[114.20490624167167,22.28714199131193],[114.20489715449483,22.287119569830253],[114.2048886494477,22.287096660593381],[114.20488498948832,22.287088389169295],[114.20488078616347,22.28708033457411],[114.20487605888967,22.287072541957617],[114.20487262276247,22.287067503459944],[114.20486896347485,22.287062591429553],[114.20486510043969,22.287057832955007],[114.20486102395148,22.287053219007273],[114.20485840339074,22.287050447056501],[114.20485377388742,22.287046320858064],[114.20484881452406,22.287042528849767],[114.20484355441904,22.287039107149003],[114.20484082735899,22.287037545320711],[114.204835179222,22.28703471067756],[114.20483226785241,22.287033455922327],[114.20482930798217,22.28703229148169],[114.2048232621617,22.28703030578594],[114.20481666329879,22.287028672379865],[114.20481034595929,22.287027616885293],[114.2048039898427,22.287026751040408],[114.20479761435645,22.287026074841798],[114.20479121950412,22.287025606350785],[114.20477986606849,22.287025256111594],[114.20477815736618,22.287021002979227],[114.20477726418669,22.28701880869],[114.20477477880371,22.287012632167173],[114.20477015755399,22.287001191154864],[114.20476559455788,22.286989903653076],[114.20476107039181,22.286978688389485],[114.20474537083039,22.286984082376225],[114.20474149714218,22.286974510574833],[114.20473216727127,22.286951393766667],[114.20479284668119,22.286912705137205],[114.20520484289096,22.286650050011929],[114.20521637198699,22.286655466374185],[114.2052257827104,22.28669424225367],[114.20525511415471,22.286968009695602],[114.20525642744303,22.287080233100617],[114.20529082627385,22.287315384664453],[114.20531713083888,22.287495550134228],[114.20533488426251,22.28761709928488]]]},"properties":{"OBJECTID":257277,"Shape__Length":325.41487350221604,"Shape__Area":3729.5353034964514,"GeoRefNo":"3917716477","DateCreate":1142092800000,"BuildingBlockType":"Podium","BuildingCSUID":"3917716477P20060312","BuildingID":1103116950,"Status":"Active","BuildingNameEN":"WILSHIRE TOWERS","BuildingNameTC":"慧雅閣","BaseHeight":113.59999999999999,"TopHeight":120.2,"Storeys":2,"StoreysInBasement":1,"DateStamp":1599580800000}},{"type":"Feature","id":263826,"geometry":{"type":"Polygon","coordinates":[[[114.20457758149605,22.290333670912695],[114.20456674888666,22.290380971119621],[114.20452173642103,22.290372344443831],[114.20451648990762,22.290394178322138],[114.20456171482863,22.290402951620422],[114.20455348005241,22.290438908464491],[114.20455071030524,22.290451002300305],[114.20449427190984,22.290440053626838],[114.20448089889484,22.290499853820641],[114.2044277934007,22.290489346786043],[114.20443972140669,22.290437384974116],[114.20441724292991,22.290432373457794],[114.20440513714601,22.290484864222066],[114.20435198828471,22.290474348590891],[114.20436574399444,22.29041512007149],[114.20430564398893,22.290403461062674],[114.20431643597057,22.29035536916513],[114.20436381319021,22.290364560091472],[114.20436904385357,22.290342939704679],[114.20432128673164,22.290333752817649],[114.20433191038856,22.290286410579455],[114.2043929112765,22.290298145463613],[114.20440786554204,22.290233756455429],[114.20446064923242,22.290244163402104],[114.20444780633454,22.290299445843363],[114.2044703115065,22.29030411373569],[114.20448306148009,22.290248582153541],[114.20453480885594,22.290258784799249],[114.20452051704055,22.290322693366878],[114.20457758149605,22.290333670912695]]]},"properties":{"OBJECTID":263826,"Shape__Length":150.06411684469532,"Shape__Area":478.10983529830321,"GeoRefNo":"3910916823","DateCreate":1114790400000,"BuildingBlockType":"Tower","BuildingCSUID":"3910916823T20050430","BuildingID":1103120351,"Status":"Active","BuildingNameEN":"King Fook Court","BuildingNameTC":"景福閣","BaseHeight":35.899999999999999,"TopHeight":88.299999999999997,"Storeys":20,"StoreysInBasement":null,"DateStamp":1599580800000}},{"type":"Feature","id":263999,"geometry":{"type":"Polygon","coordinates":[[[114.20385131364186,22.291142276830339],[114.20380951036742,22.291134063658411],[114.20380348484689,22.291162347042828],[114.20375387164455,22.291152431075453],[114.20376009565055,22.29112429811012],[114.20371990002126,22.291116437836067],[114.20372837755338,22.291082001573542],[114.20373958969493,22.291084182687918],[114.20374531771711,22.291060042244606],[114.20377656783137,22.291066112050949],[114.20378655878153,22.291026604657173],[114.20383407534175,22.291036265758155],[114.20382470909863,22.291075513420413],[114.20385513590213,22.291081431092227],[114.20384877180277,22.291105586455465],[114.20385924016375,22.291107914794271],[114.20385131364186,22.291142276830339]]]},"properties":{"OBJECTID":263999,"Shape__Length":56.2744816330367,"Shape__Area":124.90414284516656,"GeoRefNo":"3904116912","DateCreate":1114790400000,"BuildingBlockType":"Tower","BuildingCSUID":"3904116912T20050430","BuildingID":1103120212,"Status":"Active","BuildingNameEN":"Eternal Building","BuildingNameTC":"合偉大廈","BaseHeight":22.699999999999999,"TopHeight":78,"Storeys":23,"StoreysInBasement":null,"DateStamp":1599580800000}},{"type":"Feature","id":264001,"geometry":{"type":"Polygon","coordinates":[[[114.20631995057195,22.291209090700335],[114.20626801985425,22.291213527211401],[114.20626084097059,22.291143805766804],[114.20620959252759,22.291148065767356],[114.20620754123816,22.29112737688634],[114.20619366762014,22.291127926111074],[114.20619085663468,22.291099476628638],[114.20625673654943,22.291093697107666],[114.20625468538782,22.291073184595188],[114.20618872960091,22.291078981738785],[114.20618588060107,22.291050179526749],[114.20619948865686,22.291048448512825],[114.20619743737406,22.291027777241155],[114.20624955756313,22.291023428857191],[114.20624165837515,22.290953266575237],[114.20629328580758,22.290948653669183],[114.20630038960701,22.291022167358097],[114.20632309512816,22.291020258313473],[114.20631591543166,22.290946744729666],[114.20636712589615,22.290942678680249],[114.20637221581677,22.290992434331582],[114.20640463088483,22.291017350876505],[114.20641217254597,22.291009042049293],[114.2064330584876,22.291007239159875],[114.20643488245797,22.291028457274415],[114.20644720177843,22.291027467256971],[114.2064494441003,22.291055176056783],[114.20643519173788,22.291057083577307],[114.20638580079488,22.291061431523865],[114.2063879279721,22.291082473215479],[114.20645236750025,22.291077134752527],[114.20645517836348,22.291104755309416],[114.20644297282679,22.291106027423417],[114.20644510012849,22.291127615918484],[114.20642406247683,22.291129330607905],[114.20641522894242,22.291122559249612],[114.20638843549733,22.29115263683552],[114.20639348749049,22.291202392491794],[114.20634178419833,22.291207093672654],[114.20633399794444,22.291133403743213],[114.20631273296618,22.291135312527668],[114.20631995057195,22.291209090700335]]]},"properties":{"OBJECTID":264001,"Shape__Length":170.17099516063604,"Shape__Area":485.85706197509177,"GeoRefNo":"3930716916","DateCreate":1114790400000,"BuildingBlockType":"Tower","BuildingCSUID":"3930716916T20050430","BuildingID":1103120196,"Status":"Active","BuildingNameEN":"Hong Fai Court","BuildingNameTC":"康輝閣","BaseHeight":18.800000000000001,"TopHeight":90.299999999999997,"Storeys":25,"StoreysInBasement":null,"DateStamp":1599580800000}},{"type":"Feature","id":264002,"geometry":{"type":"Polygon","coordinates":[[[114.20633616371619,22.291338320962801],[114.20629492231085,22.291341750159258],[114.20629036451909,22.291298679150461],[114.20633179537228,22.291294967623426],[114.20633616371619,22.291338320962801]]]},"properties":{"OBJECTID":264002,"Shape__Length":18.170313196057037,"Shape__Area":20.564740435733768,"GeoRefNo":"3930216935","DateCreate":1114790400000,"BuildingBlockType":"Tower","BuildingCSUID":"3930216935T20050430","BuildingID":1103120153,"Status":"Active","BuildingNameEN":null,"BuildingNameTC":null,"BaseHeight":18.800000000000001,"TopHeight":22.899999999999999,"Storeys":null,"StoreysInBasement":null,"DateStamp":1512489600000}},{"type":"Feature","id":264010,"geometry":{"type":"Polygon","coordinates":[[[114.20433132185481,22.290102465041144],[114.20432766630928,22.290118973284173],[114.20426950366416,22.290108970511312],[114.20426038925007,22.290147339299935],[114.20420915284657,22.2901371301589],[114.20421708198343,22.290102484358506],[114.2042176389038,22.290100050871974],[114.20418438557749,22.2900943319659],[114.20421080953719,22.289976894599217],[114.20424153966326,22.289982838427516],[114.20425360203394,22.289927083017751],[114.20425561155548,22.289917794136965],[114.20430863755426,22.289927879060507],[114.20429431777413,22.289993046936445],[114.2043530359946,22.290004404290666],[114.20434313353466,22.290049123825401],[114.20431687308775,22.290043999420977],[114.20431086831128,22.290068926682405],[114.20433756199235,22.290074284817262],[114.20433132185481,22.290102465041144]]]},"properties":{"OBJECTID":264010,"Shape__Length":85.036705621395242,"Shape__Area":252.86083559781434,"GeoRefNo":"3909116781","DateCreate":1114790400000,"BuildingBlockType":"Tower","BuildingCSUID":"3909116781T20050430","BuildingID":1103120426,"Status":"Active","BuildingNameEN":"Pak Tak Court","BuildingNameTC":"百德閣","BaseHeight":35.899999999999999,"TopHeight":88.099999999999994,"Storeys":20,"StoreysInBasement":null,"DateStamp":1599580800000}},{"type":"Feature","id":264183,"geometry":{"type":"Polygon","coordinates":[[[114.20661288525787,22.291183479817093],[114.20656175050128,22.291187545930136],[114.20655681222118,22.291137984236041],[114.20652439705736,22.291112873744133],[114.20651719659043,22.291121182514043],[114.20649596944355,22.291123003086351],[114.20649391799691,22.291101767404605],[114.2064814849244,22.291102686826893],[114.20647905295702,22.291074413648264],[114.20649372251411,22.291073511427143],[114.20654318934335,22.29106916343386],[114.20654106206854,22.291047769008049],[114.20649148151206,22.291052099411765],[114.20647662257181,22.291053636610553],[114.20647388732257,22.29102520472869],[114.20648563800655,22.291023844466267],[114.20648388985406,22.291002802706526],[114.20650515490698,22.291000893989946],[114.20651368516921,22.291007577169697],[114.20654066807906,22.290977499527944],[114.20653658199748,22.290938854166697],[114.20653538854296,22.290927567548444],[114.20654689096533,22.290926550490745],[114.20658656105134,22.290923042861571],[114.20659461267721,22.290996009469247],[114.2066170148055,22.290993924161373],[114.20660915280295,22.290921045568584],[114.20666059067381,22.290916803016746],[114.20666818666515,22.290986242252036],[114.20672038261235,22.290981893702941],[114.20672232033795,22.291003023564127],[114.20673395738426,22.291002121879778],[114.20673657903346,22.291030924214482],[114.20667236696193,22.291036086290038],[114.2066743046814,22.291057674726819],[114.20673863059078,22.291052512629516],[114.20674117616454,22.291079956771956],[114.20672961490392,22.29108087614286],[114.20673147672764,22.291101459213316],[114.20667905344662,22.291106619119105],[114.20668099014922,22.291123410126556],[114.20668702863128,22.291176693225378],[114.20663551487796,22.291181394374625],[114.20662822137595,22.29110833940226],[114.20660559173014,22.291110248475629],[114.20661288525787,22.291183479817093]]]},"properties":{"OBJECTID":264183,"Shape__Length":169.42312233841486,"Shape__Area":483.26979433438629,"GeoRefNo":"3933716913","DateCreate":1114790400000,"BuildingBlockType":"Tower","BuildingCSUID":"3933716913T20050430","BuildingID":1103120203,"Status":"Active","BuildingNameEN":"Hong Wang Court","BuildingNameTC":"康宏閣","BaseHeight":18.800000000000001,"TopHeight":90.5,"Storeys":25,"StoreysInBasement":null,"DateStamp":1599580800000}},{"type":"Feature","id":264184,"geometry":{"type":"Polygon","coordinates":[[[114.20602093904289,22.291178260741745],[114.20604046392543,22.291193249420907],[114.20588781787154,22.291206452414428],[114.20590373480502,22.291188211945702],[114.20587450444772,22.291166099191948],[114.20584793265273,22.291168626108352],[114.20584345049343,22.29112410881784],[114.20589284147542,22.291119761036317],[114.20589071444832,22.291099089774466],[114.20584102021947,22.291103419909533],[114.20583665174085,22.291058638000862],[114.20586314796736,22.291057275147402],[114.20588565949747,22.291034147751439],[114.20588193839913,22.291003634747732],[114.20592272471713,22.290999376726337],[114.20592534509744,22.291022852360221],[114.20593531420755,22.291021862802936],[114.20593930285594,22.291062676359338],[114.20596113656009,22.291061137867683],[114.20595638971508,22.291019777824125],[114.20596491839856,22.291018964891641],[114.20596222233679,22.290996036076322],[114.20600566209309,22.290992147903719],[114.2060088903753,22.291022308256991],[114.20603323015746,22.29104144103826],[114.2060594608658,22.291039090430736],[114.20606413270554,22.291084066346972],[114.20601443839404,22.291088414235162],[114.20601656543917,22.291109085495403],[114.20606614602687,22.291104737627034],[114.20607062821941,22.291149078633623],[114.20604386679641,22.29115151747736],[114.20602093904289,22.291178260741745]]]},"properties":{"OBJECTID":264184,"Shape__Length":125.3553484659891,"Shape__Area":381.79060376714273,"GeoRefNo":"3926916906","DateCreate":1114790400000,"BuildingBlockType":"Tower","BuildingCSUID":"3926916906T20050430","BuildingID":1103120198,"Status":"Active","BuildingNameEN":"Hong Chi Court","BuildingNameTC":"康智閣","BaseHeight":18.800000000000001,"TopHeight":91,"Storeys":25,"StoreysInBasement":null,"DateStamp":1599580800000}},{"type":"Feature","id":264185,"geometry":{"type":"Polygon","coordinates":[[[114.20358907988093,22.291169259537096],[114.20356343164291,22.291163978951772],[114.20354759746333,22.291160718974961],[114.20356341826414,22.291093639685123],[114.20358980963213,22.290981741734051],[114.20363113481339,22.290990381016307],[114.20362292489467,22.291025301271507],[114.20369911953591,22.291041214001972],[114.20368959581141,22.291082768916969],[114.20363887274098,22.291072048288658],[114.20363291274484,22.29109857935364],[114.20368347002054,22.291109497510959],[114.20367375033202,22.291151907747619],[114.20359693105833,22.291135864615981],[114.20358907988093,22.291169259537096]]]},"properties":{"OBJECTID":264185,"Shape__Length":76.154450794559978,"Shape__Area":173.79783768102467,"GeoRefNo":"3902016915","DateCreate":1114790400000,"BuildingBlockType":"Tower","BuildingCSUID":"3902016915T20050430","BuildingID":1103120210,"Status":"Active","BuildingNameEN":"Fu Bong Mansion","BuildingNameTC":"富邦大廈","BaseHeight":12.800000000000001,"TopHeight":76.599999999999994,"Storeys":22,"StoreysInBasement":null,"DateStamp":1599580800000}},{"type":"Feature","id":264187,"geometry":{"type":"Polygon","coordinates":[[[114.20413668173281,22.291212011597292],[114.20417325573534,22.291219169614969],[114.20417067801999,22.291229459362832],[114.2041940449258,22.291234491894592],[114.20418989812183,22.291253018108254],[114.2042023156787,22.291255495643433],[114.20419731640388,22.291276653705754],[114.20417024133059,22.291271320808494],[114.20416577926579,22.291287990919937],[114.20414366504093,22.291283438060731],[114.20414721221604,22.291266784810549],[114.20412489957852,22.29126238992783],[114.20413668173281,22.291212011597292]]]},"properties":{"OBJECTID":264187,"Shape__Length":30.323771740956424,"Shape__Area":40.781828846905377,"GeoRefNo":"3907916927","DateCreate":1114790400000,"BuildingBlockType":"Tower","BuildingCSUID":"3907916927T20050430","BuildingID":1103120171,"Status":"Active","BuildingNameEN":"Wah Fuk Court","BuildingNameTC":"華福閣","BaseHeight":11,"TopHeight":76.099999999999994,"Storeys":24,"StoreysInBasement":null,"DateStamp":1599580800000}},{"type":"Feature","id":264190,"geometry":{"type":"Polygon","coordinates":[[[114.2072002170127,22.290705246507365],[114.20718476483572,22.29071092252736],[114.2072005279754,22.290747230639738],[114.20712957337044,22.290774182438085],[114.20691898333857,22.290854173807013],[114.20686843319443,22.290741601343971],[114.20712954499002,22.290642529559957],[114.20715146196649,22.29063421376933],[114.20716915121982,22.290674958632799],[114.20718469587491,22.290669743429795],[114.2072002170127,22.290705246507365]]]},"properties":{"OBJECTID":264190,"Shape__Length":93.206105996195689,"Shape__Area":431.53484948987546,"GeoRefNo":"3937416868","DateCreate":1114790400000,"BuildingBlockType":"Tower","BuildingCSUID":"3937416868T20050430","BuildingID":1103120285,"Status":"Active","BuildingNameEN":"Chinese Methodist Church North Point","BuildingNameTC":"中華基督教循道公會北角堂","BaseHeight":19.300000000000001,"TopHeight":31.899999999999999,"Storeys":3,"StoreysInBasement":1,"DateStamp":1599580800000}},{"type":"Feature","id":264192,"geometry":{"type":"Polygon","coordinates":[[[114.20383692923903,22.290865297754163],[114.20373578510404,22.290844218560828],[114.20375051974597,22.290782399047245],[114.20368877069249,22.290769516705293],[114.20370451099048,22.290705259753324],[114.20376583827942,22.290718129245604],[114.20378107680543,22.290654194943059],[114.20388274592088,22.290675923323256],[114.20386737945944,22.29073943755176],[114.20393204314455,22.290753007111554],[114.20391655200304,22.290817037194259],[114.20385186996391,22.290803543037189],[114.20383692923903,22.290865297754163]]]},"properties":{"OBJECTID":264192,"Shape__Length":91.140779054172256,"Shape__Area":327.72502445927944,"GeoRefNo":"3904116880","DateCreate":1114790400000,"BuildingBlockType":"Tower","BuildingCSUID":"3904116880T20050430","BuildingID":1103120282,"Status":"Active","BuildingNameEN":"Golden Pine Court","BuildingNameTC":"金松閣","BaseHeight":18.100000000000001,"TopHeight":81.900000000000006,"Storeys":24,"StoreysInBasement":null,"DateStamp":1599580800000}},{"type":"Feature","id":264193,"geometry":{"type":"Polygon","coordinates":[[[114.20654689096533,22.290926550490745],[114.20653538854296,22.290927567548444],[114.20653658199748,22.290938854166697],[114.20652056990627,22.290940216657361],[114.20651794883575,22.290913936572363],[114.20654520300778,22.290912114893757],[114.20654687152211,22.290926383879288],[114.20654689096533,22.290926550490745]]]},"properties":{"OBJECTID":264193,"Shape__Length":11.449804487966947,"Shape__Area":6.7096142704035975,"GeoRefNo":"3932416891","DateCreate":1114790400000,"BuildingBlockType":"Tower","BuildingCSUID":"3932416891T20050430","BuildingID":1103120268,"Status":"Active","BuildingNameEN":null,"BuildingNameTC":null,"BaseHeight":18.800000000000001,"TopHeight":22,"Storeys":null,"StoreysInBasement":null,"DateStamp":1512489600000}},{"type":"Feature","id":264195,"geometry":{"type":"Polygon","coordinates":[[[114.20376884584249,22.290482728417381],[114.20375513432849,22.290542007450071],[114.2037499315808,22.290564500170461],[114.20369419901235,22.290552747014935],[114.20368273505532,22.290599624000915],[114.2035633196008,22.29057490693414],[114.20354817953998,22.290571773181227],[114.2035595136925,22.290524344003167],[114.20349854254788,22.290511486113843],[114.20352257158569,22.290410635357496],[114.2035632899278,22.290418895110051],[114.20358372231989,22.290423039870948],[114.20359364739137,22.290381507198273],[114.20372892730195,22.290410739998308],[114.20371919863283,22.290450521427548],[114.20377373647193,22.290461584471952],[114.20376884584249,22.290482728417381]]]},"properties":{"OBJECTID":264195,"Shape__Length":96.078876412231963,"Shape__Area":448.40767291606551,"GeoRefNo":"3902316850","DateCreate":1114790400000,"BuildingBlockType":"Tower","BuildingCSUID":"3902316850T20050430","BuildingID":1103120329,"Status":"Active","BuildingNameEN":"Golden Cassia Court","BuildingNameTC":"金桂閣","BaseHeight":18.100000000000001,"TopHeight":88,"Storeys":25,"StoreysInBasement":null,"DateStamp":1599580800000}},{"type":"Feature","id":264376,"geometry":{"type":"Polygon","coordinates":[[[114.20400148485602,22.290918484693304],[114.20402718547059,22.290803925007765],[114.20397829081269,22.290793750350925],[114.2039934673234,22.290727226146341],[114.20414696751749,22.290758692431826],[114.20413141357082,22.290825614061458],[114.20409319692374,22.290817661524525],[114.20406786933168,22.290931459334118],[114.20400148485602,22.290918484693304]]]},"properties":{"OBJECTID":264376,"Shape__Length":73.326763542913326,"Shape__Area":212.42068858762531,"GeoRefNo":"3906716888","DateCreate":1114790400000,"BuildingBlockType":"Tower","BuildingCSUID":"3906716888T20050430","BuildingID":1103120269,"Status":"Active","BuildingNameEN":"King's Way Mansion","BuildingNameTC":"金運大廈","BaseHeight":20.899999999999999,"TopHeight":70.099999999999994,"Storeys":16,"StoreysInBasement":null,"DateStamp":1599580800000}},{"type":"Feature","id":264568,"geometry":{"type":"Polygon","coordinates":[[[114.20440999697553,22.290603473441902],[114.20440001505013,22.290643913918657],[114.20430846951089,22.29062493704469],[114.20430318090658,22.290646616769809],[114.20439463914305,22.290665693811164],[114.20438420284091,22.290707974985967],[114.20429283659621,22.290689021191319],[114.20428391384301,22.290725598540885],[114.20425445424229,22.290719411221552],[114.20425078281505,22.290734226221993],[114.20422002870554,22.290727558685834],[114.20423225983703,22.290676454658605],[114.20421258596177,22.290672373336843],[114.20420020825127,22.290723261645695],[114.2041745344948,22.29071769561255],[114.20417769965546,22.290703290689496],[114.2041491165638,22.29069728751838],[114.20415758816445,22.290660964102905],[114.20406712536064,22.290642197595016],[114.20407745464409,22.290599532927494],[114.20416753334273,22.290618322341953],[114.20417256134165,22.290596763946358],[114.2040826379486,22.290578123152674],[114.20409242665922,22.290537691487192],[114.2041820106633,22.290556248167331],[114.20419024033471,22.29052096168677],[114.20421653443528,22.290526550189508],[114.20421941454343,22.290513442833717],[114.2042497297055,22.29051966496359],[114.20423801000615,22.290567847950847],[114.20425729734134,22.290571843182747],[114.20426884652164,22.290523588610107],[114.20430133012795,22.290530255754181],[114.20429795978163,22.290543856176193],[114.20432675558241,22.290549976322097],[114.20431833695245,22.290584486930072],[114.20440999697553,22.290603473441902]]]},"properties":{"OBJECTID":264568,"Shape__Length":174.10916370630096,"Shape__Area":469.86820892483109,"GeoRefNo":"3908516860","DateCreate":1114790400000,"BuildingBlockType":"Tower","BuildingCSUID":"3908516860T20050430","BuildingID":1103120307,"Status":"Active","BuildingNameEN":"Golden Maple Court","BuildingNameTC":"金楓閣","BaseHeight":18.100000000000001,"TopHeight":87.700000000000003,"Storeys":26,"StoreysInBasement":null,"DateStamp":1599580800000}},{"type":"Feature","id":264569,"geometry":{"type":"Polygon","coordinates":[[[114.2041444070756,22.290948215529486],[114.20416738232269,22.290851187253587],[114.20417306712451,22.290852221295932],[114.20418421922527,22.290805236232842],[114.20417860402095,22.290803796613776],[114.20418720953167,22.290767453758832],[114.20418989426248,22.290756115987978],[114.20426735105791,22.290771230022518],[114.20425550285572,22.290821365904041],[114.20433433083369,22.290837293334118],[114.2043183760599,22.290903041248196],[114.20422870625967,22.290885147145453],[114.2042102149002,22.290961347793491],[114.2041444070756,22.290948215529486]]]},"properties":{"OBJECTID":264569,"Shape__Length":77.58717760570164,"Shape__Area":226.24275890267378,"GeoRefNo":"3908416892","DateCreate":1114790400000,"BuildingBlockType":"Tower","BuildingCSUID":"3908416892T20050430","BuildingID":1103120261,"Status":"Active","BuildingNameEN":"Harbour Court","BuildingNameTC":"海港閣","BaseHeight":20.899999999999999,"TopHeight":82.400000000000006,"Storeys":24,"StoreysInBasement":null,"DateStamp":1599580800000}},{"type":"Feature","id":264572,"geometry":{"type":"Polygon","coordinates":[[[114.20389614957105,22.290644797940033],[114.20378870188102,22.290622203858931],[114.20380536824398,22.290552278850541],[114.20375513432849,22.290542007450071],[114.20376884584249,22.290482728417381],[114.20381941323393,22.290493352494487],[114.20383422449891,22.290431210745215],[114.20394182509482,22.290454375597143],[114.20392705161439,22.29051596693305],[114.20400471604988,22.290532283938198],[114.20399052507571,22.290590137857283],[114.20391305982753,22.290574298622655],[114.20389614957105,22.290644797940033]]]},"properties":{"OBJECTID":264572,"Shape__Length":93.005608641825248,"Shape__Area":335.550764015087,"GeoRefNo":"3904616856","DateCreate":1114790400000,"BuildingBlockType":"Tower","BuildingCSUID":"3904616856T20050430","BuildingID":1103120323,"Status":"Active","BuildingNameEN":"Golden Cedar Court","BuildingNameTC":"金柏閣","BaseHeight":18.100000000000001,"TopHeight":85.099999999999994,"Storeys":25,"StoreysInBasement":null,"DateStamp":1599580800000}},{"type":"Feature","id":264577,"geometry":{"type":"Polygon","coordinates":[[[114.20356335595191,22.290766028381739],[114.20355211443901,22.290812866127766],[114.20341989404709,22.290785207351021],[114.20343181307329,22.290735996435103],[114.20338564416963,22.290726503687495],[114.20336194184328,22.290721630303715],[114.20338562445718,22.290622169078866],[114.20338580286888,22.290621419868952],[114.20345599619547,22.290636149600743],[114.20346866055796,22.290583861282908],[114.2035633250411,22.290603510266525],[114.20360050934316,22.290611228392819],[114.20358788555171,22.290663825742037],[114.20363705100165,22.290674142794643],[114.20361254887251,22.290773155549193],[114.20356335541057,22.290763182109242],[114.20356335595191,22.290766028381739]]]},"properties":{"OBJECTID":264577,"Shape__Length":98.793083721236741,"Shape__Area":460.86304535431594,"GeoRefNo":"3900916874","DateCreate":1114790400000,"BuildingBlockType":"Tower","BuildingCSUID":"3900916874T20050430","BuildingID":1103120295,"Status":"Active","BuildingNameEN":"Golden Peach Court","BuildingNameTC":"金桃閣","BaseHeight":18.100000000000001,"TopHeight":84.599999999999994,"Storeys":24,"StoreysInBasement":null,"DateStamp":1599580800000}},{"type":"Feature","id":264749,"geometry":{"type":"Polygon","coordinates":[[[114.20423473520272,22.290267716643186],[114.20429199777594,22.290278732455576],[114.20428143019718,22.29032608578941],[114.20423716033507,22.29031756980508],[114.20423348434079,22.290339277070764],[114.20427661901124,22.290347644965163],[114.20426588417509,22.290395747867823],[114.20420865511511,22.290384645707963],[114.20419526359299,22.290444685735274],[114.2041411706646,22.290434175251335],[114.2041528387019,22.290383192333366],[114.20412944640887,22.290378614039806],[114.20411825844886,22.290429752382764],[114.20406511800645,22.290419397943126],[114.2040782647494,22.290359350652615],[114.20401684092742,22.290347434657093],[114.20402753431064,22.290299323740225],[114.20407680160363,22.290308881348036],[114.20408133582367,22.290287594317359],[114.20403224051391,22.290278150016437],[114.20404276770566,22.290230786952197],[114.20410384016328,22.29024253574995],[114.20411312104477,22.290200145514415],[114.20411805006556,22.290177632237633],[114.20417127628659,22.290187416813346],[114.20416845966599,22.290200136202401],[114.20415848800486,22.290245166480364],[114.20418342984016,22.290249930358982],[114.20419474718261,22.290200131772309],[114.20419657965935,22.290192068288103],[114.20424040145537,22.290200124068313],[114.2042494406215,22.290201785711883],[114.20423473520272,22.290267716643186]]]},"properties":{"OBJECTID":264749,"Shape__Length":151.43920612878944,"Shape__Area":486.54469112633893,"GeoRefNo":"3907916817","DateCreate":1114790400000,"BuildingBlockType":"Tower","BuildingCSUID":"3907916817T20050430","BuildingID":1103120363,"Status":"Active","BuildingNameEN":"Pak Lee Court","BuildingNameTC":"百利閣","BaseHeight":35.899999999999999,"TopHeight":88.299999999999997,"Storeys":20,"StoreysInBasement":null,"DateStamp":1599580800000}},{"type":"Feature","id":264752,"geometry":{"type":"Polygon","coordinates":[[[114.2044708148688,22.290200084990939],[114.20446892614952,22.290208274374717],[114.20441441474524,22.290198181357976],[114.20442728952713,22.29013821707537],[114.20436926610023,22.290127129826704],[114.20437481328081,22.290102457665842],[114.20437926554777,22.290082655636457],[114.20442560408819,22.29009195680478],[114.20443213673119,22.290066491946543],[114.20438496921005,22.290057287638795],[114.20439503302575,22.290012527346022],[114.20445247912477,22.290023638615107],[114.20446750278079,22.289958092944847],[114.20451846460858,22.289967785138369],[114.20450809721359,22.290015082554955],[114.20453377548549,22.290020510185958],[114.20454392393304,22.289972627169028],[114.2045946742176,22.289982279098115],[114.20458005469001,22.290048314351367],[114.20463936656932,22.290059786460255],[114.20462965757068,22.290102414214989],[114.20462908592256,22.290104924285167],[114.20461623459057,22.290102416513584],[114.20458331152754,22.29009599197958],[114.20458180383395,22.290102422404548],[114.20457712658926,22.290122370774029],[114.20462301438963,22.290131581476132],[114.20461313764837,22.290174945796089],[114.2045550009822,22.290163546986378],[114.20454715458528,22.290200071971807],[114.20454235524332,22.290222413025322],[114.20449132420309,22.290212587017599],[114.20449419498472,22.290200081007459],[114.20450204563767,22.290165881048864],[114.20447991397425,22.290160630892732],[114.2044708148688,22.290200084990939]]]},"properties":{"OBJECTID":264752,"Shape__Length":146.63012141966894,"Shape__Area":467.88959298842275,"GeoRefNo":"3911616791","DateCreate":1114790400000,"BuildingBlockType":"Tower","BuildingCSUID":"3911616791T20050430","BuildingID":1103120409,"Status":"Active","BuildingNameEN":"Hung Fook Court","BuildingNameTC":"鴻福閣","BaseHeight":35.899999999999999,"TopHeight":88.200000000000003,"Storeys":20,"StoreysInBasement":null,"DateStamp":1599580800000}},{"type":"Feature","id":269753,"geometry":{"type":"Polygon","coordinates":[[[114.20399180866694,22.289943591769582],[114.204059175612,22.289898057905912],[114.20409210260945,22.289940139342452],[114.20404657609564,22.289971067938666],[114.20406750174632,22.289998549862311],[114.20403467052313,22.290021160200702],[114.20405612823465,22.290048082589156],[114.20401053808794,22.290079361935092],[114.20401367889394,22.290083019083653],[114.20396938270798,22.29011308854874],[114.20396608457183,22.290108774989424],[114.20393800495026,22.290127409141434],[114.20391707958156,22.290101358736358],[114.20389079608358,22.290119116700012],[114.2038888816974,22.290130752619966],[114.20390714715543,22.290133835158102],[114.20390909630035,22.290156051347537],[114.20389864113827,22.290209299108859],[114.20388295042083,22.290206725016425],[114.20387680328962,22.290237647085668],[114.20388478457402,22.290239039181046],[114.20387803974305,22.290268281563083],[114.20387536318346,22.290267701339854],[114.20386266619303,22.290326506196536],[114.20383083850501,22.29032114558693],[114.20382759774053,22.290336144460774],[114.20378526544164,22.290328882475134],[114.20378792503905,22.290315900689002],[114.20377344636344,22.290312962721408],[114.20377805766479,22.290294638363886],[114.20376855742489,22.290292776742245],[114.20378850049877,22.290204163933431],[114.20377117181705,22.290200890680268],[114.20377429823536,22.290187219779881],[114.20376203861335,22.290184985921936],[114.20377633700511,22.290122777885621],[114.20376971783648,22.290121711022579],[114.20378078433411,22.29007475498549],[114.20375893589609,22.290047845900514],[114.20384783580282,22.289987134298908],[114.20386537616444,22.290008890582186],[114.20389336840547,22.289990094989442],[114.20388413694835,22.28997796650075],[114.20391920482946,22.289954769822039],[114.20392214160483,22.289958677335445],[114.20397580678227,22.28992298041625],[114.20399180866694,22.289943591769582]]]},"properties":{"OBJECTID":269753,"Shape__Length":163.94325412376162,"Shape__Area":727.33191473072873,"GeoRefNo":"3905616792","DateCreate":1540742400000,"BuildingBlockType":"Tower","BuildingCSUID":"3905616792T20181029","BuildingID":1810181483,"Status":"Active","BuildingNameEN":"Fleur Pavilia Tower 3","BuildingNameTC":"柏蔚山第３座","BaseHeight":36,"TopHeight":125.8,"Storeys":26,"StoreysInBasement":null,"DateStamp":1599580800000}},{"type":"Feature","id":270419,"geometry":{"type":"Polygon","coordinates":[[[114.20524250019095,22.290097295548065],[114.20524913928944,22.290072577651845],[114.20526826596742,22.290076965443639],[114.20526189215492,22.290101569688861],[114.20524250019095,22.290097295548065]]]},"properties":{"OBJECTID":270419,"Shape__Length":9.7075865963792989,"Shape__Area":5.741405179530064,"GeoRefNo":"3919316798","DateCreate":1536595200000,"BuildingBlockType":"Tower","BuildingCSUID":"3919316798T20180911","BuildingID":1810179540,"Status":"Active","BuildingNameEN":null,"BuildingNameTC":null,"BaseHeight":17.399999999999999,"TopHeight":20.399999999999999,"Storeys":null,"StoreysInBasement":null,"DateStamp":1536595200000}},{"type":"Feature","id":270661,"geometry":{"type":"Polygon","coordinates":[[[114.2034540826,22.289682904907881],[114.20348667490298,22.289675516569218],[114.20348361737435,22.289662621516857],[114.20354758480838,22.289648896186424],[114.20354221173827,22.289626867669337],[114.20369337141582,22.289593400683838],[114.20369281065774,22.289591023102904],[114.20383407031953,22.289560504047177],[114.20384554939641,22.289608648924268],[114.20386492040424,22.289604939077972],[114.20387030247477,22.289628096591873],[114.2038880153097,22.289624539365743],[114.20389192320489,22.289641344620478],[114.20391503478139,22.289636619463245],[114.20392257486878,22.289669607807056],[114.20391896047019,22.289670206418471],[114.20392903141439,22.289715148360674],[114.20388803454567,22.289724466589519],[114.20388940126681,22.289730122243189],[114.20383518703258,22.289741764887449],[114.20383103535528,22.289723826147831],[114.20377107545082,22.289737104902024],[114.20376990807492,22.289731058188117],[114.20369543774997,22.289747660696456],[114.20369793391259,22.289757428712171],[114.2036593772384,22.289765610968264],[114.20365864425402,22.289761296075369],[114.2035925122822,22.289775841877571],[114.20358982536817,22.289763124308383],[114.20355002373906,22.289771653881047],[114.20354510870131,22.289751222445634],[114.20352734968503,22.2897549587192],[114.20352295333498,22.289736109544179],[114.20350587120342,22.289739518976013],[114.20349830055613,22.289710677572216],[114.20351440647039,22.289707268301665],[114.20351318517901,22.289701363646515],[114.20346145077279,22.289712046254177],[114.2034540826,22.289682904907881]]]},"properties":{"OBJECTID":270661,"Shape__Length":139.50020563036114,"Shape__Area":694.33314150287958,"GeoRefNo":"3903216753","DateCreate":1540742400000,"BuildingBlockType":"Tower","BuildingCSUID":"3903216753T20181029","BuildingID":1810181484,"Status":"Active","BuildingNameEN":"Fleur Pavilia Tower 2","BuildingNameTC":"柏蔚山第２座","BaseHeight":36,"TopHeight":125.8,"Storeys":26,"StoreysInBasement":null,"DateStamp":1599580800000}},{"type":"Feature","id":272726,"geometry":{"type":"Polygon","coordinates":[[[114.20555754772731,22.289535042496862],[114.20561214894505,22.289547195994082],[114.20559845702512,22.289598401262953],[114.20559593156879,22.289619196715492],[114.20559319771131,22.2896515668495],[114.20561752309183,22.289653462219409],[114.20558967537795,22.290014350770143],[114.20551222945491,22.290008843511252],[114.20541632934736,22.290001810039936],[114.20544693492698,22.28963309617431],[114.20516504293889,22.289570736143951],[114.20516255456704,22.289580370089858],[114.20509220177628,22.289564725054866],[114.20508639316419,22.289586211282124],[114.20502055373066,22.289572339045403],[114.20505856044088,22.28942495441396],[114.20555754772731,22.289535042496862]]]},"properties":{"OBJECTID":272726,"Shape__Length":236.44145839283524,"Shape__Area":1518.4124104648752,"GeoRefNo":"3919916738","DateCreate":1536076800000,"BuildingBlockType":"Podium","BuildingCSUID":"3919916738P20180905","BuildingID":1810179546,"Status":"Active","BuildingNameEN":null,"BuildingNameTC":null,"BaseHeight":18.199999999999999,"TopHeight":35.600000000000001,"Storeys":null,"StoreysInBasement":null,"DateStamp":1677644170000}},{"type":"Feature","id":273474,"geometry":{"type":"Polygon","coordinates":[[[114.20560446877182,22.289975161551112],[114.20564347082238,22.289977974264218],[114.20563002734363,22.290130778098288],[114.20557792871826,22.290127062923858],[114.2055845405573,22.290050015610035],[114.20559809965069,22.290051299439348],[114.20560446877182,22.289975161551112]]]},"properties":{"OBJECTID":273474,"Shape__Length":44.813058019899067,"Shape__Area":79.935291799954129,"GeoRefNo":"3922916794","DateCreate":1536595200000,"BuildingBlockType":"Tower","BuildingCSUID":"3922916794T20180911","BuildingID":1810179542,"Status":"Active","BuildingNameEN":null,"BuildingNameTC":null,"BaseHeight":18.199999999999999,"TopHeight":24.699999999999999,"Storeys":null,"StoreysInBasement":null,"DateStamp":1536595200000}},{"type":"Feature","id":273986,"geometry":{"type":"Polygon","coordinates":[[[114.20552638444445,22.290076582988188],[114.2054943545191,22.290074074431544],[114.20549581631037,22.290057368959619],[114.20552815227073,22.290059762321395],[114.20552638444445,22.290076582988188]]]},"properties":{"OBJECTID":273986,"Shape__Length":10.382658545905553,"Shape__Area":6.2013716699069352,"GeoRefNo":"3921916796","DateCreate":1536595200000,"BuildingBlockType":"Tower","BuildingCSUID":"3921916796T20180911","BuildingID":1810179541,"Status":"Active","BuildingNameEN":null,"BuildingNameTC":null,"BaseHeight":18.199999999999999,"TopHeight":21.399999999999999,"Storeys":null,"StoreysInBasement":null,"DateStamp":1536595200000}},{"type":"Feature","id":276060,"geometry":{"type":"Polygon","coordinates":[[[114.20721910846584,22.292601591112042],[114.20728154779212,22.292781788656406],[114.20727712649185,22.292783122586549],[114.20728383620686,22.29280232946309],[114.20724531331486,22.292813904915747],[114.20725384865494,22.292838891050064],[114.20721532574458,22.292850439403701],[114.20722095778576,22.292867289491813],[114.20713002625764,22.292894741527721],[114.20668259721535,22.293029850324313],[114.20667559122303,22.293031739013102],[114.20666853663502,22.293033275516247],[114.20666133639072,22.293034369545332],[114.20665405841544,22.293035003026613],[114.20664678036343,22.293035275282659],[114.20663950221562,22.293035096007259],[114.20663233069854,22.293034374874548],[114.20662513000975,22.293033373797581],[114.20661796802469,22.293031839906437],[114.20661106795799,22.293029863466394],[114.20660416781303,22.293027516770522],[114.20659756842026,22.293024808794286],[114.2065910853819,22.293021649265281],[114.2065848739815,22.293018119430663],[114.2065789536331,22.293014246378799],[114.20657323699179,22.293009994003192],[114.20656777260315,22.293005479693111],[114.20656254107608,22.29300078472772],[114.20656081337172,22.292999051164635],[114.20656077454753,22.292999015049233],[114.20655625271461,22.293000424654792],[114.20648811346916,22.292806610690835],[114.20705126288561,22.29262920974509],[114.20705866389137,22.292650256221176],[114.20721910846584,22.292601591112042]]]},"properties":{"OBJECTID":276060,"Shape__Length":213.15957936357213,"Shape__Area":2272.1646248187717,"GeoRefNo":"3936117101","DateCreate":1740585600000,"BuildingBlockType":"Podium","BuildingCSUID":"3936117101P20250227","BuildingID":1103116762,"Status":"Active","BuildingNameEN":null,"BuildingNameTC":null,"BaseHeight":3.8999999999999999,"TopHeight":18.800000000000001,"Storeys":4,"StoreysInBasement":null,"DateStamp":1740585600000}},{"type":"Feature","id":276061,"geometry":{"type":"Polygon","coordinates":[[[114.20705126288561,22.29262920974509],[114.20648811346916,22.292806610690835],[114.20647956166299,22.29278203667667],[114.20647321471229,22.292763798505757],[114.20646413546362,22.292737708887181],[114.20641139541092,22.292586155028562],[114.20652024514891,22.292553703563527],[114.20652407157993,22.292564277723528],[114.2069063447159,22.29244886233505],[114.20692810163673,22.2925087899443],[114.20700108699938,22.292486523490787],[114.20705126288561,22.29262920974509]]]},"properties":{"OBJECTID":276061,"Shape__Length":172.89941404427319,"Shape__Area":1428.224777492384,"GeoRefNo":"3934417079","DateCreate":1740585600000,"BuildingBlockType":"Tower","BuildingCSUID":"3934417079T20250227","BuildingID":1910260823,"Status":"Active","BuildingNameEN":"Kodak House","BuildingNameTC":"柯達大廈","BaseHeight":18.800000000000001,"TopHeight":99.099999999999994,"Storeys":8,"StoreysInBasement":null,"DateStamp":1741017600000}},{"type":"Feature","id":276065,"geometry":{"type":"Polygon","coordinates":[[[114.20705126288561,22.29262920974509],[114.20705866389137,22.292650256221176],[114.20721910846584,22.292601591112042],[114.20728154779212,22.292781788656406],[114.20727712649185,22.292783122586549],[114.20656081143179,22.292999055409371],[114.20655625485044,22.2930004289891],[114.20653711608766,22.292945991653735],[114.20648811346916,22.292806610690835],[114.20705126288561,22.29262920974509]]]},"properties":{"OBJECTID":276065,"Shape__Length":203.22040966804653,"Shape__Area":1771.4798176289019,"GeoRefNo":"3936017098","DateCreate":1740585600000,"BuildingBlockType":"Tower","BuildingCSUID":"3936017098T20250227","BuildingID":1103119833,"Status":"Active","BuildingNameEN":"Kodak House II","BuildingNameTC":null,"BaseHeight":18.800000000000001,"TopHeight":99.099999999999994,"Storeys":23,"StoreysInBasement":null,"DateStamp":1741017600000}},{"type":"Feature","id":276066,"geometry":{"type":"Polygon","coordinates":[[[114.20648811346916,22.292806610690835],[114.20647956166299,22.29278203667667],[114.20641139541092,22.292586155028562],[114.20652024514891,22.292553703563527],[114.20652407157993,22.292564277723528],[114.2069063447159,22.29244886233505],[114.20697793008399,22.292427254483716],[114.20698480465468,22.292446199454794],[114.20707011756983,22.292420256660133],[114.20707990793832,22.292424742603959],[114.20714705931124,22.292455515920683],[114.20717391820149,22.292535793143955],[114.2071941208836,22.292529874306936],[114.20721910846584,22.292601591112042],[114.20705866389137,22.292650256221176],[114.20705126288561,22.29262920974509],[114.20648811346916,22.292806610690835]]]},"properties":{"OBJECTID":276066,"Shape__Length":209.09481993229255,"Shape__Area":1846.6158809163605,"GeoRefNo":"3935217077","DateCreate":1740585600000,"BuildingBlockType":"Podium","BuildingCSUID":"3935217077P20250227","BuildingID":1910260819,"Status":"Active","BuildingNameEN":null,"BuildingNameTC":null,"BaseHeight":3.8999999999999999,"TopHeight":18.800000000000001,"Storeys":2,"StoreysInBasement":1,"DateStamp":1740585600000}},{"type":"Feature","id":280145,"geometry":{"type":"Polygon","coordinates":[[[114.2045548396531,22.291287415415031],[114.20454760204835,22.291318156537443],[114.20453673020019,22.291361777937766],[114.2043511458951,22.291323856777979],[114.20435284147028,22.291315382874423],[114.20435541841594,22.291304196021617],[114.20435810938351,22.291292513729349],[114.20436072297834,22.291281167389371],[114.20436349878311,22.2912691169943],[114.20437592033167,22.291215192301877],[114.20445492507827,22.291231211212967],[114.20444483094555,22.291275122538895],[114.20446666606317,22.291279533533473],[114.20450313368801,22.291286900553818],[114.20451291126001,22.291249403821581],[114.20447558184996,22.291241644298626],[114.20452066489823,22.29105005442894],[114.20455789249232,22.291058445380468],[114.20456719460817,22.291019339828956],[114.20452980860621,22.291011196165094],[114.20452714097685,22.291022533035218],[114.20450458871471,22.291017835358225],[114.20449640165818,22.291053433492145],[114.20446981740446,22.291047892495403],[114.20441714014027,22.291036912902943],[114.20444336442155,22.290920214251074],[114.20463114966493,22.290958607774265],[114.20462086706453,22.291006969617602],[114.20461325454937,22.291039303178337],[114.20460037174139,22.291094021760866],[114.20459272421472,22.291126504150991],[114.20457553942182,22.291199494859683],[114.20456842331569,22.291229720133277],[114.2045548396531,22.291287415415031]]]},"properties":{"OBJECTID":280145,"Shape__Length":188.38307971973995,"Shape__Area":632.10968909819644,"GeoRefNo":"3912016918","DateCreate":1114790400000,"BuildingBlockType":"Tower","BuildingCSUID":"3912016918T20050430","BuildingID":1103120145,"Status":"Active","BuildingNameEN":null,"BuildingNameTC":null,"BaseHeight":7,"TopHeight":28.899999999999999,"Storeys":5,"StoreysInBasement":2,"DateStamp":1631548800000}},{"type":"Feature","id":280147,"geometry":{"type":"Polygon","coordinates":[[[114.20454547606828,22.290688629662693],[114.2045186077425,22.290814579687847],[114.20451260838018,22.290842838712418],[114.20444459315172,22.290827406936412],[114.20447968646614,22.290678846357931],[114.20454547606828,22.290688629662693]]]},"properties":{"OBJECTID":280147,"Shape__Length":48.332410185742773,"Shape__Area":120.44072826571819,"GeoRefNo":"3911416873","DateCreate":1114790400000,"BuildingBlockType":"Tower","BuildingCSUID":"3911416873T20050430","BuildingID":1103120288,"Status":"Active","BuildingNameEN":null,"BuildingNameTC":null,"BaseHeight":13.199999999999999,"TopHeight":43.399999999999999,"Storeys":null,"StoreysInBasement":null,"DateStamp":1631548800000}},{"type":"Feature","id":280148,"geometry":{"type":"Polygon","coordinates":[[[114.20465905217348,22.290844933336196],[114.20465137805871,22.290872871162666],[114.20451260838018,22.290842838712418],[114.2045186077425,22.290814579687847],[114.20465905217348,22.290844933336196]]]},"properties":{"OBJECTID":280148,"Shape__Length":35.922776817322152,"Shape__Area":47.118706553246632,"GeoRefNo":"3912316882","DateCreate":1203264000000,"BuildingBlockType":"Open-sided Structure","BuildingCSUID":"3912316882T20080218","BuildingID":1103120279,"Status":"Active","BuildingNameEN":null,"BuildingNameTC":null,"BaseHeight":null,"TopHeight":null,"Storeys":null,"StoreysInBasement":null,"DateStamp":1631548800000}},{"type":"Feature","id":288808,"geometry":{"type":"Polygon","coordinates":[[[114.21041981389367,22.28858500522901],[114.21035673747114,22.288769254089697],[114.21018865675468,22.288719728908692],[114.21025075416658,22.288536726269289],[114.21041981389367,22.28858500522901]]]},"properties":{"OBJECTID":288808,"Shape__Length":79.056393749226061,"Shape__Area":388.1520854703287,"GeoRefNo":"3971416638","DateCreate":1778256000000,"BuildingBlockType":"Podium","BuildingCSUID":"3971416638P20260509","BuildingID":1910274757,"Status":"Active","BuildingNameEN":null,"BuildingNameTC":null,"BaseHeight":4.4000000000000004,"TopHeight":18.100000000000001,"Storeys":2,"StoreysInBasement":null,"DateStamp":1778774400000}},{"type":"Feature","id":289739,"geometry":{"type":"Polygon","coordinates":[[[114.20499073144423,22.29328981925601],[114.20500247263232,22.293333985993893],[114.20499070200644,22.293336624978668],[114.2049783979984,22.293292548643805],[114.20499073144423,22.29328981925601]]]},"properties":{"OBJECTID":289739,"Shape__Length":12.635009567009012,"Shape__Area":6.4360979983520217,"GeoRefNo":"3916517156","DateCreate":1765382400000,"BuildingBlockType":"Tower","BuildingCSUID":"3916517156T20251211","BuildingID":1910269986,"Status":"Active","BuildingNameEN":null,"BuildingNameTC":null,"BaseHeight":1.7,"TopHeight":3.7000000000000002,"Storeys":null,"StoreysInBasement":null,"DateStamp":1765382400000}},{"type":"Feature","id":292543,"geometry":{"type":"Polygon","coordinates":[[[114.20976490069231,22.292216427264123],[114.20975019977199,22.292198194708433],[114.20980718992098,22.292158400260661],[114.20982189084452,22.292176632901583],[114.20976490069231,22.292216427264123]]]},"properties":{"OBJECTID":292543,"Shape__Length":19.732669999086234,"Shape__Area":18.532689539407187,"GeoRefNo":"3966017031","DateCreate":1767024000000,"BuildingBlockType":"Tower","BuildingCSUID":"3966017031T20251230","BuildingID":1910270723,"Status":"Active","BuildingNameEN":null,"BuildingNameTC":null,"BaseHeight":3.7000000000000002,"TopHeight":5.7000000000000002,"Storeys":null,"StoreysInBasement":null,"DateStamp":1767024000000}},{"type":"Feature","id":292544,"geometry":{"type":"Polygon","coordinates":[[[114.20804674364564,22.293133345758744],[114.20803808261661,22.293108547167062],[114.20818827488782,22.293063120461579],[114.20819693594055,22.293087919045366],[114.20804674364564,22.293133345758744]]]},"properties":{"OBJECTID":292544,"Shape__Length":38.323030750369206,"Shape__Area":46.990604762140777,"GeoRefNo":"3948817132","DateCreate":1767024000000,"BuildingBlockType":"Tower","BuildingCSUID":"3948817132T20251230","BuildingID":1910270724,"Status":"Active","BuildingNameEN":null,"BuildingNameTC":null,"BaseHeight":6.0999999999999996,"TopHeight":8.0999999999999996,"Storeys":null,"StoreysInBasement":null,"DateStamp":1767024000000}},{"type":"Feature","id":292946,"geometry":{"type":"Polygon","coordinates":[[[114.21131625633647,22.287499069685861],[114.21135757252782,22.287536564832852],[114.21137375482206,22.287520777566524],[114.21149771658587,22.287630733539523],[114.21152066257538,22.287630582792417],[114.21152237596304,22.287690319763513],[114.21146345631674,22.287691657500368],[114.21143422845388,22.287665290325137],[114.21140873631329,22.287689620658984],[114.21139260196959,22.287689739958306],[114.2113202859268,22.287625655487247],[114.21131931921013,22.287608934038783],[114.2113433914238,22.287585100073091],[114.21132820473635,22.287571669699481],[114.21132275280367,22.2875769448356],[114.2112782058048,22.287537335753608],[114.21131625633647,22.287499069685861]]]},"properties":{"OBJECTID":292946,"Shape__Length":81.545966576544558,"Shape__Area":260.40927713121607,"GeoRefNo":"3982616525","DateCreate":1415635200000,"BuildingBlockType":"Tower","BuildingCSUID":"3982616525T20141111","BuildingID":1810135522,"Status":"Active","BuildingNameEN":"East Apartments","BuildingNameTC":"東隅服務式公寓","BaseHeight":24,"TopHeight":105.2,"Storeys":24,"StoreysInBasement":null,"DateStamp":1757520000000}},{"type":"Feature","id":294538,"geometry":{"type":"Polygon","coordinates":[[[114.21034346847419,22.288740157348808],[114.21031183248375,22.288744701406937],[114.21030901448844,22.288725970660682],[114.21029415952141,22.28872790618804],[114.21028874610721,22.288691924136558],[114.21024459672068,22.288697676710651],[114.21023588860994,22.28863979552176],[114.21025330705014,22.288637525880471],[114.21024745443944,22.288598624767257],[114.21030617084355,22.288590974111386],[114.21030415021711,22.288577543456217],[114.21033735232456,22.288573217346478],[114.21034209356371,22.288604731000486],[114.21036213292366,22.288602119990465],[114.21036526990935,22.288622970700313],[114.210344261648,22.28862570797833],[114.21034727704375,22.28864575038213],[114.21036874836101,22.288642952683425],[114.21037185764871,22.288663619354583],[114.21035212869657,22.288666190025079],[114.21035667740396,22.28869642471027],[114.21033395441799,22.288699385487938],[114.21033537702397,22.288708841706189],[114.21034865370669,22.28870711176717],[114.2103509580664,22.288725776424357],[114.21034158075246,22.288726998308185],[114.21034346847419,22.288740157348808]]]},"properties":{"OBJECTID":294538,"Shape__Length":70.932673387272089,"Shape__Area":161.16870377449047,"GeoRefNo":"3971416639","DateCreate":1778256000000,"BuildingBlockType":"Tower","BuildingCSUID":"3971416639T20260509","BuildingID":1910274758,"Status":"Active","BuildingNameEN":null,"BuildingNameTC":null,"BaseHeight":18.100000000000001,"TopHeight":98,"Storeys":24,"StoreysInBasement":null,"DateStamp":1779033600000}},{"type":"Feature","id":306110,"geometry":{"type":"Polygon","coordinates":[[[114.20603428498244,22.292406061214717],[114.20602545583171,22.292401535571056],[114.20601739435772,22.292397403433714],[114.20598937349935,22.292383040567898],[114.20597713811028,22.292343398327702],[114.2059686946648,22.292339155450737],[114.20596614213794,22.292330918535271],[114.20596247124239,22.292319072641416],[114.20592965810741,22.292213185252695],[114.20606521660811,22.292176496556529],[114.20607560123997,22.29218254520352],[114.20612877790566,22.292174227438071],[114.20613265858007,22.292169621119243],[114.20614422195493,22.292168619792445],[114.20625025497459,22.292213856041712],[114.20628287400085,22.292211031486872],[114.20628732809709,22.292210645793279],[114.20636137585733,22.292250488994327],[114.20639257232341,22.292351721664168],[114.20635677694816,22.292412413971835],[114.20634610317451,22.292415937856692],[114.20634173816742,22.292424698355429],[114.20620685880618,22.292461477464887],[114.20619802697486,22.292456241301654],[114.20615474907372,22.292467808325718],[114.20603428498244,22.292406061214717]]]},"properties":{"OBJECTID":306110,"Shape__Length":129.18041960507415,"Shape__Area":1109.2302043111524,"GeoRefNo":"3929617042","DateCreate":1114790400000,"BuildingBlockType":"Tower","BuildingCSUID":"3929617042T20050430","BuildingID":1103119879,"Status":"Active","BuildingNameEN":"Foyer","BuildingNameTC":null,"BaseHeight":19.5,"TopHeight":105.59999999999999,"Storeys":22,"StoreysInBasement":null,"DateStamp":1678982400000}},{"type":"Feature","id":308585,"geometry":{"type":"Polygon","coordinates":[[[114.20544606711084,22.291687899418253],[114.20542947498146,22.291687694006477],[114.20542964241886,22.291675980444232],[114.20544623454686,22.291676185855987],[114.20544606711084,22.291687899418253]]]},"properties":{"OBJECTID":308585,"Shape__Length":6.0143473603838533,"Shape__Area":2.2181811801918649,"GeoRefNo":"3921116974","DateCreate":1130428800000,"BuildingBlockType":"Tower","BuildingCSUID":"3921116974T20051028","BuildingID":1103120028,"Status":"Active","BuildingNameEN":null,"BuildingNameTC":null,"BaseHeight":19.600000000000001,"TopHeight":23.399999999999999,"Storeys":null,"StoreysInBasement":null,"DateStamp":1619539200000}},{"type":"Feature","id":308672,"geometry":{"type":"Polygon","coordinates":[[[114.20705586239342,22.28974959165248],[114.20705546395529,22.289739234591391],[114.20705209396829,22.289651630374401],[114.20713049563712,22.289649705508101],[114.20713123346631,22.289674202480342],[114.20714108181659,22.289673945977764],[114.20714209900811,22.289705121316995],[114.20709359793877,22.28970637298211],[114.20709497694023,22.289748634793074],[114.20705586239342,22.28974959165248]]]},"properties":{"OBJECTID":308672,"Shape__Length":39.833785796860091,"Shape__Area":72.186962646467748,"GeoRefNo":"3937816755","DateCreate":1114790400000,"BuildingBlockType":"Tower","BuildingCSUID":"3937816755T20050430","BuildingID":1103120521,"Status":"Active","BuildingNameEN":"Braemar Terrace Flat S","BuildingNameTC":"寶馬臺Ｓ座","BaseHeight":45.799999999999997,"TopHeight":86,"Storeys":14,"StoreysInBasement":null,"DateStamp":1619539200000}},{"type":"Feature","id":308674,"geometry":{"type":"Polygon","coordinates":[[[114.20776375397749,22.28973227272477],[114.20776071623172,22.289634231673958],[114.2078395113722,22.289632296908067],[114.20784108602822,22.289686408392814],[114.2078017857379,22.289688095683911],[114.20780326452922,22.289731306046736],[114.20776375397749,22.28973227272477]]]},"properties":{"OBJECTID":308674,"Shape__Length":37.892533576396978,"Shape__Area":68.607614197685152,"GeoRefNo":"3945116753","DateCreate":1114790400000,"BuildingBlockType":"Tower","BuildingCSUID":"3945116753T20050430","BuildingID":1103120531,"Status":"Active","BuildingNameEN":"Braemar Terrace Flat C","BuildingNameTC":"寶馬臺Ｃ座","BaseHeight":45.399999999999999,"TopHeight":86.099999999999994,"Storeys":14,"StoreysInBasement":null,"DateStamp":1619539200000}},{"type":"Feature","id":308675,"geometry":{"type":"Polygon","coordinates":[[[114.20723251578202,22.289745270013583],[114.2072301100408,22.289647259809342],[114.20730932614967,22.289645314927053],[114.20731001601503,22.289669546045836],[114.20731985893048,22.289669289623717],[114.20732073789081,22.28970051113431],[114.20726820195894,22.289701867010194],[114.20726958863261,22.289744363072685],[114.20723251578202,22.289745270013583]]]},"properties":{"OBJECTID":308675,"Shape__Length":40.125067186903578,"Shape__Area":71.679738831696781,"GeoRefNo":"3939616754","DateCreate":1114790400000,"BuildingBlockType":"Tower","BuildingCSUID":"3939616754T20050430","BuildingID":1103120523,"Status":"Active","BuildingNameEN":"Braemar Terrace Flat O","BuildingNameTC":"寶馬臺Ｏ座","BaseHeight":45.799999999999997,"TopHeight":85.799999999999997,"Storeys":14,"StoreysInBasement":null,"DateStamp":1619539200000}},{"type":"Feature","id":308676,"geometry":{"type":"Polygon","coordinates":[[[114.20926364447807,22.289358455871106],[114.20926791447387,22.289359682821793],[114.20925688567723,22.289390673079794],[114.20925134097571,22.289389019776618],[114.20924579637135,22.289387366382936],[114.2092564611808,22.289356391821396],[114.20926364447807,22.289358455871106]]]},"properties":{"OBJECTID":308676,"Shape__Length":9.6519680415636095,"Shape__Area":4.3932959159538978,"GeoRefNo":"3960416719","DateCreate":1204041600000,"BuildingBlockType":"Open-sided Structure","BuildingCSUID":"3960416719T20080227","BuildingID":1103120628,"Status":"Active","BuildingNameEN":"CASA 880","BuildingNameTC":"CASA 880","BaseHeight":null,"TopHeight":null,"Storeys":null,"StoreysInBasement":null,"DateStamp":1619539200000}},{"type":"Feature","id":308677,"geometry":{"type":"Polygon","coordinates":[[[114.20938007183966,22.289299212963606],[114.20939184757169,22.289302838836566],[114.20938237325856,22.289329576178879],[114.20937099961709,22.289326211300036],[114.20938007183966,22.289299212963606]]]},"properties":{"OBJECTID":308677,"Shape__Length":8.7580563600518282,"Shape__Area":3.9186552614407701,"GeoRefNo":"3961716713","DateCreate":1204041600000,"BuildingBlockType":"Open-sided Structure","BuildingCSUID":"3961716713T20080227","BuildingID":1103120647,"Status":"Active","BuildingNameEN":"CASA 880","BuildingNameTC":"CASA 880","BaseHeight":null,"TopHeight":null,"Storeys":null,"StoreysInBasement":null,"DateStamp":1619539200000}},{"type":"Feature","id":319729,"geometry":{"type":"Polygon","coordinates":[[[114.20613550461989,22.290329964815314],[114.20614227202233,22.290350703148185],[114.20611998741181,22.290357000975831],[114.20611322001234,22.29033626264205],[114.20613550461989,22.290329964815314]]]},"properties":{"OBJECTID":319729,"Shape__Length":9.6000042174464539,"Shape__Area":5.7600050609368552,"GeoRefNo":"3928316827","DateCreate":1401379200000,"BuildingBlockType":"Tower","BuildingCSUID":"3928316827T20140530","BuildingID":1810125759,"Status":"Active","BuildingNameEN":null,"BuildingNameTC":null,"BaseHeight":19.100000000000001,"TopHeight":21.699999999999999,"Storeys":2,"StoreysInBasement":null,"DateStamp":1685289600000}},{"type":"Feature","id":319974,"geometry":{"type":"Polygon","coordinates":[[[114.2062240925943,22.290308355304404],[114.20623045566525,22.290328263792354],[114.20622580502078,22.290329551047396],[114.20620906277755,22.290334185345117],[114.20620269970934,22.29031427685635],[114.2062240925943,22.290308355304404]]]},"properties":{"OBJECTID":319974,"Shape__Length":9.2000164219291616,"Shape__Area":5.2900135218073769,"GeoRefNo":"3929216824","DateCreate":1401379200000,"BuildingBlockType":"Tower","BuildingCSUID":"3929216824T20140530","BuildingID":1810125839,"Status":"Active","BuildingNameEN":null,"BuildingNameTC":null,"BaseHeight":19.100000000000001,"TopHeight":21.699999999999999,"Storeys":null,"StoreysInBasement":null,"DateStamp":1685289600000}},{"type":"Feature","id":335403,"geometry":{"type":"Polygon","coordinates":[[[114.20542120225977,22.290892390450686],[114.20541044031761,22.290778265559503],[114.20546896149114,22.290773486260424],[114.20547972357747,22.290887611147713],[114.20542120225977,22.290892390450686]]]},"properties":{"OBJECTID":335403,"Shape__Length":37.479843012653802,"Shape__Area":76.799324133113203,"GeoRefNo":"3921116885","DateCreate":1114790400000,"BuildingBlockType":"Tower","BuildingCSUID":"3921116885T20050430","BuildingID":1103120277,"Status":"Active","BuildingNameEN":"MTR QUARRY BAY STATION","BuildingNameTC":"港鐵鰂魚涌站","BaseHeight":12.800000000000001,"TopHeight":18.600000000000001,"Storeys":null,"StoreysInBasement":null,"DateStamp":1699804800000}},{"type":"Feature","id":335404,"geometry":{"type":"Polygon","coordinates":[[[114.2057892347693,22.29081902099335],[114.20577384203972,22.290802702057679],[114.20579110496236,22.290788600365634],[114.20580649769239,22.29080491929972],[114.2057892347693,22.29081902099335]]]},"properties":{"OBJECTID":335404,"Shape__Length":9.5431557777107052,"Shape__Area":5.6916389281271531,"GeoRefNo":"3924816878","DateCreate":1114790400000,"BuildingBlockType":"Tower","BuildingCSUID":"3924816878T20050430","BuildingID":1103120291,"Status":"Active","BuildingNameEN":null,"BuildingNameTC":null,"BaseHeight":14.199999999999999,"TopHeight":17,"Storeys":null,"StoreysInBasement":null,"DateStamp":1699804800000}},{"type":"Feature","id":335405,"geometry":{"type":"Polygon","coordinates":[[[114.20573780248935,22.290805579407056],[114.20572341761353,22.290806676841619],[114.20572073333967,22.290776206995737],[114.2057351182124,22.290775109471099],[114.20573780248935,22.290805579407056]]]},"properties":{"OBJECTID":335405,"Shape__Length":9.7454441809880308,"Shape__Area":5.0352143165686165,"GeoRefNo":"3924116877","DateCreate":1114790400000,"BuildingBlockType":"Tower","BuildingCSUID":"3924116877T20050430","BuildingID":1103120294,"Status":"Active","BuildingNameEN":null,"BuildingNameTC":null,"BaseHeight":15,"TopHeight":18.5,"Storeys":null,"StoreysInBasement":null,"DateStamp":1699804800000}},{"type":"Feature","id":336313,"geometry":{"type":"Polygon","coordinates":[[[114.20955137760575,22.290621545843127],[114.20967522499805,22.290252635211722],[114.20984797287252,22.290302313755667],[114.20984253280008,22.290318696417426],[114.21009091312439,22.290391414488173],[114.20997391701418,22.290740056688552],[114.20972368005668,22.290668597687905],[114.20955137760575,22.290621545843127]]]},"properties":{"OBJECTID":336313,"Shape__Length":176.08570780996527,"Shape__Area":1883.0790935715213,"GeoRefNo":"3966316844","DateCreate":1287331200000,"BuildingBlockType":"Tower","BuildingCSUID":"3966316844T20101018","BuildingID":1810014109,"Status":"Active","BuildingNameEN":"Kerry Centre","BuildingNameTC":"嘉里中心","BaseHeight":4.5,"TopHeight":129.80000000000001,"Storeys":26,"StoreysInBasement":null,"DateStamp":1685289600000}},{"type":"Feature","id":337125,"geometry":{"type":"Polygon","coordinates":[[[114.20519432984133,22.291824678552519],[114.20519507654977,22.291780827696748],[114.2051156544464,22.291779854059754],[114.20511639982526,22.291727829586112],[114.20517805921787,22.29172885951677],[114.20517767848852,22.291744061194642],[114.20519568915601,22.291744230442347],[114.20519680757926,22.291669857545504],[114.20517945092263,22.291669431533343],[114.20517909535918,22.291686235781558],[114.20511702032121,22.29168452754319],[114.20511774311593,22.291634084967384],[114.20519755489737,22.291635285384615],[114.2051980543639,22.291605953015917],[114.20519838609492,22.291586472275124],[114.2052717763752,22.291593347719648],[114.20527135907312,22.291636368243424],[114.20526990765245,22.291782226448486],[114.20526947553846,22.291825906390049],[114.20519432984133,22.291824678552519]]]},"properties":{"OBJECTID":337125,"Shape__Length":107.30144683936111,"Shape__Area":286.63685365870981,"GeoRefNo":"3919016977","DateCreate":1114790400000,"BuildingBlockType":"Tower","BuildingCSUID":"3919016977T20050430","BuildingID":1103119994,"Status":"Active","BuildingNameEN":"Elegance House Block C","BuildingNameTC":"怡景大廈Ｃ座","BaseHeight":4.5999999999999996,"TopHeight":44.299999999999997,"Storeys":13,"StoreysInBasement":null,"DateStamp":1684944000000}},{"type":"Feature","id":337126,"geometry":{"type":"Polygon","coordinates":[[[114.20534023595626,22.29182706244729],[114.20534736681654,22.291827178953781],[114.20534535841635,22.291907299547344],[114.20505085956218,22.291902107663859],[114.20505220473758,22.291822356270714],[114.20509865717104,22.291823115337639],[114.20519432984133,22.291824678552519],[114.20526947553846,22.291825906390049],[114.20529377313692,22.291826303361038],[114.20534023595626,22.29182706244729]]]},"properties":{"OBJECTID":337126,"Shape__Length":78.481269244983238,"Shape__Area":269.02818566793786,"GeoRefNo":"3918716998","DateCreate":1114790400000,"BuildingBlockType":"Tower","BuildingCSUID":"3918716998T20050430","BuildingID":1103119963,"Status":"Active","BuildingNameEN":"Elegance House Block A","BuildingNameTC":"怡景大廈Ａ座","BaseHeight":4.5,"TopHeight":44.799999999999997,"Storeys":13,"StoreysInBasement":null,"DateStamp":1684944000000}},{"type":"Feature","id":337127,"geometry":{"type":"Polygon","coordinates":[[[114.2052717763752,22.291593347719648],[114.20519838609492,22.291586472275124],[114.20511080800696,22.291585794549754],[114.20510105503699,22.291585719037137],[114.20509779980956,22.291585693866889],[114.20508696532197,22.291585609962709],[114.20507613685092,22.291585526237377],[114.20505620179746,22.291585371940727],[114.20505746200034,22.291510655222794],[114.20535476509659,22.291511601937835],[114.20535288606641,22.291593189356195],[114.20534826684487,22.291593198385819],[114.20530531121904,22.291593282237091],[114.2052717763752,22.291593347719648]]]},"properties":{"OBJECTID":337127,"Shape__Length":78.560548500197868,"Shape__Area":263.70771133362581,"GeoRefNo":"3918716959","DateCreate":1114790400000,"BuildingBlockType":"Tower","BuildingCSUID":"3918716959T20050430","BuildingID":1103120057,"Status":"Active","BuildingNameEN":"Elegance House Block B","BuildingNameTC":"怡景大廈Ｂ座","BaseHeight":5.0999999999999996,"TopHeight":44.299999999999997,"Storeys":13,"StoreysInBasement":null,"DateStamp":1684944000000}},{"type":"Feature","id":340539,"geometry":{"type":"Polygon","coordinates":[[[114.20432277054424,22.287515056181103],[114.20432221220472,22.287537957951244],[114.20426666740006,22.287535691631163],[114.20427135175996,22.287493250945918],[114.20430999325403,22.287481535384945],[114.20432277054424,22.287515056181103]]]},"properties":{"OBJECTID":340539,"Shape__Length":21.117209477434578,"Shape__Area":28.544194749370419,"GeoRefNo":"3909416513","DateCreate":1420992000000,"BuildingBlockType":"Tower","BuildingCSUID":"3909416513T20150112","BuildingID":1810137665,"Status":"Active","BuildingNameEN":null,"BuildingNameTC":null,"BaseHeight":110.7,"TopHeight":123,"Storeys":null,"StoreysInBasement":null,"DateStamp":1685289600000}}]}