{"type":"FeatureCollection","features":[{"type":"Feature","id":144507,"geometry":{"type":"Polygon","coordinates":[[[114.16190920506533,22.328503586230298],[114.16193487248465,22.328483752371337],[114.16196550226935,22.328518227360956],[114.16193983076847,22.328538087954868],[114.16190920506533,22.328503586230298]]]},"properties":{"OBJECTID":144507,"Shape__Length":16.785025774419218,"Shape__Area":17.034417773337854,"GeoRefNo":"3472921052","DateCreate":1114790400000,"BuildingBlockType":"Tower","BuildingCSUID":"3472921052T20050430","BuildingID":1108228549,"Status":"Active","BuildingNameEN":null,"BuildingNameTC":null,"BaseHeight":4.2000000000000002,"TopHeight":31.699999999999999,"Storeys":8,"StoreysInBasement":null,"DateStamp":1599580800000}},{"type":"Feature","id":144515,"geometry":{"type":"Polygon","coordinates":[[[114.1604469033287,22.32844784254036],[114.16031538212329,22.328303180908218],[114.16033254145896,22.328289668386297],[114.16034958056504,22.328308882868299],[114.16036672339152,22.328295416487375],[114.1604800580358,22.328422109716815],[114.1604469033287,22.32844784254036]]]},"properties":{"OBJECTID":144515,"Shape__Length":51.067627383584529,"Shape__Area":88.795066684729761,"GeoRefNo":"3457021035","DateCreate":1114790400000,"BuildingBlockType":"Tower","BuildingCSUID":"3457021035T20050430","BuildingID":1108228639,"Status":"Active","BuildingNameEN":null,"BuildingNameTC":null,"BaseHeight":4.2000000000000002,"TopHeight":34,"Storeys":9,"StoreysInBasement":null,"DateStamp":1599580800000}},{"type":"Feature","id":144516,"geometry":{"type":"Polygon","coordinates":[[[114.16008921230649,22.328438990154439],[114.15995637277163,22.328291660189393],[114.15998931553706,22.328265951555355],[114.16008446510411,22.328371480177829],[114.16011783786929,22.328408493213701],[114.16010467760451,22.328418833139338],[114.16010891941079,22.328423506181831],[114.16008921230649,22.328438990154439]]]},"properties":{"OBJECTID":144516,"Shape__Length":51.436119895134645,"Shape__Area":93.095921248866972,"GeoRefNo":"3453221034","DateCreate":1114790400000,"BuildingBlockType":"Tower","BuildingCSUID":"3453221034T20050430","BuildingID":1108228646,"Status":"Active","BuildingNameEN":null,"BuildingNameTC":null,"BaseHeight":4.0999999999999996,"TopHeight":33.799999999999997,"Storeys":10,"StoreysInBasement":null,"DateStamp":1599580800000}},{"type":"Feature","id":144519,"geometry":{"type":"Polygon","coordinates":[[[114.16004938326992,22.32846227789889],[114.15992066918156,22.328319523316338],[114.15995637277163,22.328291660189393],[114.16008921230649,22.328438990154439],[114.16006772794761,22.328455870430339],[114.16006348604466,22.328451197386798],[114.16004938326992,22.32846227789889]]]},"properties":{"OBJECTID":144519,"Shape__Length":52.204868849648342,"Shape__Area":100.98472187125924,"GeoRefNo":"3452921037","DateCreate":1114790400000,"BuildingBlockType":"Tower","BuildingCSUID":"3452921037T20050430","BuildingID":1108228630,"Status":"Active","BuildingNameEN":null,"BuildingNameTC":null,"BaseHeight":4.2000000000000002,"TopHeight":33.799999999999997,"Storeys":10,"StoreysInBasement":null,"DateStamp":1599580800000}},{"type":"Feature","id":144521,"geometry":{"type":"Polygon","coordinates":[[[114.16196731788776,22.328458681029893],[114.1618811575881,22.328362108437492],[114.16191471746828,22.328336262023608],[114.16203275109849,22.32846618547196],[114.16201970417384,22.328476282731028],[114.16198915621172,22.328441805952849],[114.1619757470081,22.328452167590715],[114.16196731788776,22.328458681029893]]]},"properties":{"OBJECTID":144521,"Shape__Length":46.844701932750311,"Shape__Area":71.721224469027675,"GeoRefNo":"3472921041","DateCreate":1114790400000,"BuildingBlockType":"Tower","BuildingCSUID":"3472921041T20050430","BuildingID":1108228609,"Status":"Active","BuildingNameEN":null,"BuildingNameTC":null,"BaseHeight":4.2999999999999998,"TopHeight":29.699999999999999,"Storeys":8,"StoreysInBasement":null,"DateStamp":1599580800000}},{"type":"Feature","id":144522,"geometry":{"type":"Polygon","coordinates":[[[114.16202659555903,22.328412875565483],[114.16203527871606,22.328406165821498],[114.16204477865136,22.328398825004019],[114.16207579374142,22.328432898960077],[114.16205762394587,22.32844694880372],[114.16202659555903,22.328412875565483]]]},"properties":{"OBJECTID":144522,"Shape__Length":14.758695424141345,"Shape__Area":12.037926086450808,"GeoRefNo":"3474121043","DateCreate":1114790400000,"BuildingBlockType":"Tower","BuildingCSUID":"3474121043T20050430","BuildingID":1108228641,"Status":"Active","BuildingNameEN":null,"BuildingNameTC":null,"BaseHeight":4.2999999999999998,"TopHeight":31.199999999999999,"Storeys":8,"StoreysInBasement":null,"DateStamp":1599580800000}},{"type":"Feature","id":144524,"geometry":{"type":"Polygon","coordinates":[[[114.16149019964347,22.328482420607106],[114.16140239047172,22.328386179207662],[114.16141280983271,22.328378084460944],[114.16144216166336,22.328355281141889],[114.16153023546148,22.328451369928253],[114.16149019964347,22.328482420607106]]]},"properties":{"OBJECTID":144524,"Shape__Length":38.67075308927501,"Shape__Area":74.85216683035425,"GeoRefNo":"3468121043","DateCreate":1114790400000,"BuildingBlockType":"Tower","BuildingCSUID":"3468121043T20050430","BuildingID":1108228601,"Status":"Active","BuildingNameEN":null,"BuildingNameTC":null,"BaseHeight":4.2000000000000002,"TopHeight":31.199999999999999,"Storeys":9,"StoreysInBasement":null,"DateStamp":1599580800000}},{"type":"Feature","id":144525,"geometry":{"type":"Polygon","coordinates":[[[114.16153023546148,22.328451369928253],[114.16144216166336,22.328355281141889],[114.16147220678781,22.32833193929908],[114.16147923446842,22.328326479531732],[114.16156709324882,22.328422789166154],[114.16153023546148,22.328451369928253]]]},"properties":{"OBJECTID":144525,"Shape__Length":37.891026282134249,"Shape__Area":69.360646461257545,"GeoRefNo":"3468421039","DateCreate":1114790400000,"BuildingBlockType":"Tower","BuildingCSUID":"3468421039T20050430","BuildingID":1108228635,"Status":"Active","BuildingNameEN":null,"BuildingNameTC":null,"BaseHeight":4.2000000000000002,"TopHeight":31.199999999999999,"Storeys":9,"StoreysInBasement":null,"DateStamp":1599580800000}},{"type":"Feature","id":144526,"geometry":{"type":"Polygon","coordinates":[[[114.16041377831506,22.328473545739723],[114.16029989794544,22.328348010491215],[114.1603168898321,22.328334645423418],[114.16029965366833,22.328315561409891],[114.16031538212329,22.328303180908218],[114.1604469033287,22.32844784254036],[114.16041377831506,22.328473545739723]]]},"properties":{"OBJECTID":144526,"Shape__Length":50.790273095759005,"Shape__Area":86.589518825668051,"GeoRefNo":"3456721039","DateCreate":1114790400000,"BuildingBlockType":"Tower","BuildingCSUID":"3456721039T20050430","BuildingID":1108228614,"Status":"Active","BuildingNameEN":null,"BuildingNameTC":null,"BaseHeight":4.2000000000000002,"TopHeight":34,"Storeys":9,"StoreysInBasement":null,"DateStamp":1599580800000}},{"type":"Feature","id":145326,"geometry":{"type":"Polygon","coordinates":[[[114.16504307400832,22.326137275106593],[114.16502779779107,22.32612039655076],[114.16493124655779,22.326013717581112],[114.16496734518073,22.325985738411394],[114.16505192871692,22.326079297305732],[114.1650632893314,22.326091863379641],[114.1650791239076,22.326109378177524],[114.16506639086067,22.326119253194026],[114.16505192675153,22.326102711088733],[114.16505130356133,22.326101998349529],[114.16503840072829,22.326112103179938],[114.16505192468875,22.326127284850529],[114.16505358180916,22.326129145181504],[114.16505192442494,22.326130427494721],[114.16504307400832,22.326137275106593]]]},"properties":{"OBJECTID":145326,"Shape__Length":50.385053851310595,"Shape__Area":82.26374346427626,"GeoRefNo":"3504520781","DateCreate":1114790400000,"BuildingBlockType":"Tower","BuildingCSUID":"3504520781T20050430","BuildingID":1108230227,"Status":"Active","BuildingNameEN":null,"BuildingNameTC":null,"BaseHeight":4.4000000000000004,"TopHeight":36.5,"Storeys":9,"StoreysInBasement":null,"DateStamp":1599580800000}},{"type":"Feature","id":145350,"geometry":{"type":"Polygon","coordinates":[[[114.16254495182594,22.327975432706385],[114.16247165530835,22.328032704067784],[114.16246779644872,22.328035689779014],[114.1624651430764,22.328032703490759],[114.16240882069135,22.327969799744867],[114.16248762588248,22.327908580275771],[114.16252993031104,22.327875716297235],[114.16257888211129,22.327930243576873],[114.16253479066638,22.327964388850347],[114.16254495182594,22.327975432706385]]]},"properties":{"OBJECTID":145350,"Shape__Length":51.514955092477116,"Shape__Area":144.63692583628173,"GeoRefNo":"3478420994","DateCreate":1114790400000,"BuildingBlockType":"Tower","BuildingCSUID":"3478420994T20050430","BuildingID":1108228970,"Status":"Active","BuildingNameEN":null,"BuildingNameTC":"恆達大廈","BaseHeight":4.0999999999999996,"TopHeight":47,"Storeys":14,"StoreysInBasement":null,"DateStamp":1599580800000}},{"type":"Feature","id":145351,"geometry":{"type":"Polygon","coordinates":[[[114.16295499215484,22.327992871797388],[114.16287908259807,22.327908555561965],[114.16284469519999,22.327870359907518],[114.16291361901212,22.327816585456041],[114.16298376792449,22.327894678388883],[114.16302386092765,22.327939311681224],[114.16298376044172,22.327970498365033],[114.16295499215484,22.327992871797388]]]},"properties":{"OBJECTID":145351,"Shape__Length":53.92218371678787,"Shape__Area":163.88926403022285,"GeoRefNo":"3483020985","DateCreate":1114790400000,"BuildingBlockType":"Tower","BuildingCSUID":"3483020985T20050430","BuildingID":1108229009,"Status":"Active","BuildingNameEN":null,"BuildingNameTC":null,"BaseHeight":4.5,"TopHeight":26.899999999999999,"Storeys":6,"StoreysInBasement":null,"DateStamp":1599580800000}},{"type":"Feature","id":145399,"geometry":{"type":"Polygon","coordinates":[[[114.16088991280506,22.327025997190187],[114.16101371443901,22.326930121654918],[114.16102014127638,22.326937220593241],[114.16104214664817,22.326961527205061],[114.16094746742671,22.327034124677656],[114.16093290511107,22.327018263103398],[114.1609036821567,22.327041322273569],[114.16088991280506,22.327025997190187]]]},"properties":{"OBJECTID":145399,"Shape__Length":42.251424667477529,"Shape__Area":65.784002052113848,"GeoRefNo":"3462920884","DateCreate":1114790400000,"BuildingBlockType":"Tower","BuildingCSUID":"3462920884T20050430","BuildingID":1108229663,"Status":"Active","BuildingNameEN":null,"BuildingNameTC":null,"BaseHeight":3.8999999999999999,"TopHeight":25.300000000000001,"Storeys":6,"StoreysInBasement":null,"DateStamp":1599580800000}},{"type":"Feature","id":145400,"geometry":{"type":"Polygon","coordinates":[[[114.16076957775495,22.327140715560859],[114.16064543421143,22.327004215032165],[114.16068508063465,22.326973392810611],[114.16074721313821,22.327042122015335],[114.16074742917743,22.327042360986056],[114.16076817661438,22.32706531129659],[114.16077223196147,22.327069797099963],[114.16081729762394,22.32711964750089],[114.16080504478336,22.327129269914142],[114.16079580487286,22.327119068502444],[114.16078076447269,22.327130777967643],[114.16078974848479,22.327141282330974],[114.16077828232625,22.327150286947347],[114.16077222351201,22.32714362475522],[114.16076957775495,22.327140715560859]]]},"properties":{"OBJECTID":145400,"Shape__Length":55.855705992450517,"Shape__Area":109.02278294645416,"GeoRefNo":"3460320891","DateCreate":1114790400000,"BuildingBlockType":"Tower","BuildingCSUID":"3460320891T20050430","BuildingID":1108229593,"Status":"Active","BuildingNameEN":"Fung Tai Mansion","BuildingNameTC":"豐泰大樓","BaseHeight":3.8999999999999999,"TopHeight":23.600000000000001,"Storeys":6,"StoreysInBasement":null,"DateStamp":1599580800000}},{"type":"Feature","id":145403,"geometry":{"type":"Polygon","coordinates":[[[114.16497516854025,22.325761930421901],[114.16486228587824,22.325639501679849],[114.16487958994227,22.325626071944516],[114.16488945508864,22.325636920574237],[114.1649083723741,22.325622103495192],[114.16491233473744,22.32562647296534],[114.16501037472482,22.325734602191467],[114.16497516854025,22.325761930421901]]]},"properties":{"OBJECTID":145403,"Shape__Length":45.326376483477965,"Shape__Area":81.689997748939248,"GeoRefNo":"3503720739","DateCreate":1114790400000,"BuildingBlockType":"Tower","BuildingCSUID":"3503720739T20050430","BuildingID":1108230462,"Status":"Active","BuildingNameEN":null,"BuildingNameTC":null,"BaseHeight":4.2999999999999998,"TopHeight":24.399999999999999,"Storeys":6,"StoreysInBasement":null,"DateStamp":1599580800000}},{"type":"Feature","id":145474,"geometry":{"type":"Polygon","coordinates":[[[114.16057209044753,22.327261686302897],[114.16046576497578,22.327143894824616],[114.16049179241098,22.327123660359479],[114.16050155900703,22.327116067524198],[114.16063711365234,22.327266252173658],[114.16061842500216,22.327280723534518],[114.16058887798708,22.327248853717823],[114.16057209044753,22.327261686302897]]]},"properties":{"OBJECTID":145474,"Shape__Length":52.959265769547649,"Shape__Area":93.740114970649103,"GeoRefNo":"3458520906","DateCreate":1114790400000,"BuildingBlockType":"Tower","BuildingCSUID":"3458520906T20050430","BuildingID":1108229506,"Status":"Active","BuildingNameEN":null,"BuildingNameTC":null,"BaseHeight":3.8999999999999999,"TopHeight":25.699999999999999,"Storeys":7,"StoreysInBasement":null,"DateStamp":1599580800000}},{"type":"Feature","id":145476,"geometry":{"type":"Polygon","coordinates":[[[114.16201030230354,22.326487345868049],[114.16189885521504,22.326362876550608],[114.16195857474503,22.32636458638309],[114.16196358073451,22.326364729706153],[114.16198266820889,22.326386451009352],[114.16204665585295,22.326459268308454],[114.16201030230354,22.326487345868049]]]},"properties":{"OBJECTID":145476,"Shape__Length":43.000074165176223,"Shape__Area":77.686297100517777,"GeoRefNo":"3473320821","DateCreate":1114790400000,"BuildingBlockType":"Tower","BuildingCSUID":"3473320821T20050430","BuildingID":1108230036,"Status":"Active","BuildingNameEN":null,"BuildingNameTC":null,"BaseHeight":4.2999999999999998,"TopHeight":24.699999999999999,"Storeys":6,"StoreysInBasement":null,"DateStamp":1599580800000}},{"type":"Feature","id":145479,"geometry":{"type":"Polygon","coordinates":[[[114.1616717509508,22.3264349671432],[114.16165464161089,22.326415802005897],[114.1615993556161,22.32635387309621],[114.16161414576993,22.32635432177014],[114.16165464812742,22.326355550475743],[114.16167810349206,22.326356262022482],[114.16170277652705,22.326357010524237],[114.16177341071442,22.326359153285779],[114.16180551721688,22.326360127233492],[114.16168619260419,22.326451144079325],[114.1616717509508,22.3264349671432]]]},"properties":{"OBJECTID":145479,"Shape__Length":51.149727900650234,"Shape__Area":111.29115490592646,"GeoRefNo":"3470320818","DateCreate":1114790400000,"BuildingBlockType":"Tower","BuildingCSUID":"3470320818T20050430","BuildingID":1108230060,"Status":"Active","BuildingNameEN":null,"BuildingNameTC":null,"BaseHeight":4.0999999999999996,"TopHeight":26,"Storeys":6,"StoreysInBasement":null,"DateStamp":1599580800000}},{"type":"Feature","id":145483,"geometry":{"type":"Polygon","coordinates":[[[114.16394953801301,22.326226533482643],[114.16388039344177,22.326150416202044],[114.16391158547671,22.326125993933804],[114.1639938042801,22.326218628186872],[114.16398555156604,22.326225070314909],[114.16397699400913,22.326216271768132],[114.16396484435333,22.32622588278014],[114.16395222820294,22.326212242070525],[114.16394953801301,22.326226533482643]]]},"properties":{"OBJECTID":145483,"Shape__Length":36.20530530760422,"Shape__Area":49.205513197145855,"GeoRefNo":"3493420794","DateCreate":1114790400000,"BuildingBlockType":"Tower","BuildingCSUID":"3493420794T20050430","BuildingID":1108230161,"Status":"Active","BuildingNameEN":null,"BuildingNameTC":null,"BaseHeight":4.2999999999999998,"TopHeight":24.199999999999999,"Storeys":6,"StoreysInBasement":null,"DateStamp":1599580800000}},{"type":"Feature","id":145484,"geometry":{"type":"Polygon","coordinates":[[[114.1639938042801,22.326218628186872],[114.16391158547671,22.326125993933804],[114.16394522602729,22.326099654479908],[114.16400557167961,22.326166692227364],[114.1640256067428,22.326188949060061],[114.16404796432835,22.326213786021693],[114.16403324909065,22.326224248330547],[114.16404413717706,22.326236144549434],[114.16401179346295,22.326239407364827],[114.1639938042801,22.326218628186872]]]},"properties":{"OBJECTID":145484,"Shape__Length":44.262557994511745,"Shape__Area":77.548044446935563,"GeoRefNo":"3494220797","DateCreate":1114790400000,"BuildingBlockType":"Tower","BuildingCSUID":"3494220797T20050430","BuildingID":1108230153,"Status":"Active","BuildingNameEN":null,"BuildingNameTC":null,"BaseHeight":4.4000000000000004,"TopHeight":24.899999999999999,"Storeys":6,"StoreysInBasement":null,"DateStamp":1599580800000}},{"type":"Feature","id":145485,"geometry":{"type":"Polygon","coordinates":[[[114.1652681171343,22.326025121672487],[114.1653581910348,22.326125961528202],[114.16515449497139,22.326283975027678],[114.16505191182895,22.326280482161113],[114.1649134143691,22.32627576629017],[114.16498794058185,22.326217827263356],[114.16500000066577,22.326231333386392],[114.16505191930658,22.326191402196883],[114.1652681171343,22.326025121672487]]]},"properties":{"OBJECTID":145485,"Shape__Length":114.48537756233821,"Shape__Area":535.47636348344474,"GeoRefNo":"3505320800","DateCreate":1114790400000,"BuildingBlockType":"Tower","BuildingCSUID":"3505320800T20050430","BuildingID":1108230137,"Status":"Active","BuildingNameEN":"Po Hing Building","BuildingNameTC":"寶興大樓","BaseHeight":4.5999999999999996,"TopHeight":45.299999999999997,"Storeys":14,"StoreysInBasement":null,"DateStamp":1599580800000}},{"type":"Feature","id":145487,"geometry":{"type":"Polygon","coordinates":[[[114.1647898563197,22.326212008080955],[114.16474267732154,22.326159874062895],[114.16477792965944,22.326132549500031],[114.1648372958078,22.326199049093528],[114.16480253105009,22.326226014016985],[114.1647898563197,22.326212008080955]]]},"properties":{"OBJECTID":145487,"Shape__Length":28.536885368169266,"Shape__Area":44.947377197857755,"GeoRefNo":"3502320794","DateCreate":1114790400000,"BuildingBlockType":"Tower","BuildingCSUID":"3502320794T20050430","BuildingID":1108230162,"Status":"Active","BuildingNameEN":null,"BuildingNameTC":null,"BaseHeight":4.5,"TopHeight":25.300000000000001,"Storeys":6,"StoreysInBasement":null,"DateStamp":1599580800000}},{"type":"Feature","id":145571,"geometry":{"type":"Polygon","coordinates":[[[114.15992892166283,22.32789778603993],[114.1600279368111,22.327821400657662],[114.16013153959459,22.32793550566765],[114.16003508154553,22.328015726846974],[114.15992892166283,22.32789778603993]]]},"properties":{"OBJECTID":145571,"Shape__Length":60.155588404684451,"Shape__Area":223.05674129480383,"GeoRefNo":"3453220986","DateCreate":1114790400000,"BuildingBlockType":"Tower","BuildingCSUID":"3453220986T20050430","BuildingID":1108228992,"Status":"Active","BuildingNameEN":"Ka Po Building","BuildingNameTC":"嘉寶大廈","BaseHeight":4.0999999999999996,"TopHeight":36.700000000000003,"Storeys":11,"StoreysInBasement":null,"DateStamp":1599580800000}},{"type":"Feature","id":145618,"geometry":{"type":"Polygon","coordinates":[[[114.16348620930594,22.325775466140136],[114.16337072910613,22.325646316215472],[114.16342396064992,22.325604741454562],[114.16346297331592,22.325648212053753],[114.16345323184268,22.325655678281592],[114.16348229211661,22.32568947774023],[114.16347538810666,22.325694988629309],[114.16349246436307,22.325714664795019],[114.16348235393563,22.325722243244392],[114.16352392874366,22.325768915292109],[114.16349858676904,22.325789308700706],[114.16348620930594,22.325775466140136]]]},"properties":{"OBJECTID":145618,"Shape__Length":55.361340176882379,"Shape__Area":109.51200100772982,"GeoRefNo":"3488220737","DateCreate":1114790400000,"BuildingBlockType":"Tower","BuildingCSUID":"3488220737T20050430","BuildingID":1108230443,"Status":"Active","BuildingNameEN":null,"BuildingNameTC":null,"BaseHeight":4.4000000000000004,"TopHeight":21.100000000000001,"Storeys":5,"StoreysInBasement":null,"DateStamp":1599580800000}},{"type":"Feature","id":145622,"geometry":{"type":"Polygon","coordinates":[[[114.16484152009485,22.325865666596805],[114.16481716548755,22.325838983653224],[114.16474273043217,22.325757432459607],[114.16475997220742,22.325743998217302],[114.16474661726477,22.325729272669228],[114.16476232589964,22.32571708119206],[114.16477391491367,22.325730042933831],[114.16487139618962,22.325839027668561],[114.16487321936582,22.325841065916293],[114.16484152009485,22.325865666596805]]]},"properties":{"OBJECTID":145622,"Shape__Length":44.395759923103412,"Shape__Area":72.595194623579644,"GeoRefNo":"3502420750","DateCreate":1114790400000,"BuildingBlockType":"Tower","BuildingCSUID":"3502420750T20050430","BuildingID":1108230398,"Status":"Active","BuildingNameEN":null,"BuildingNameTC":null,"BaseHeight":4.4000000000000004,"TopHeight":24.399999999999999,"Storeys":6,"StoreysInBasement":null,"DateStamp":1599580800000}},{"type":"Feature","id":145765,"geometry":{"type":"Polygon","coordinates":[[[114.16140848216214,22.32589381528927],[114.16141019440886,22.325838738624544],[114.1614105675808,22.325826733849162],[114.16141800773201,22.325826811497315],[114.16141825907056,22.325819382147579],[114.1614772242457,22.325820445676225],[114.1614768018587,22.325838744946861],[114.16147515970709,22.325909891096895],[114.16143072388003,22.325908448760678],[114.16143118160998,22.325894523006948],[114.16140848216214,22.32589381528927]]]},"properties":{"OBJECTID":145765,"Shape__Length":33.467497833057998,"Shape__Area":63.565482366351176,"GeoRefNo":"3467820758","DateCreate":1114790400000,"BuildingBlockType":"Tower","BuildingCSUID":"3467820758T20050430","BuildingID":1108230367,"Status":"Active","BuildingNameEN":"FU ON MANSION","BuildingNameTC":"富安大廈","BaseHeight":4.2000000000000002,"TopHeight":37.799999999999997,"Storeys":11,"StoreysInBasement":null,"DateStamp":1599580800000}},{"type":"Feature","id":145766,"geometry":{"type":"Polygon","coordinates":[[[114.16241816674139,22.325771875621015],[114.16240749718091,22.325771721603619],[114.16240434666678,22.325838830144523],[114.1623942006423,22.326054948705956],[114.16221708962351,22.326048841254188],[114.16222737505872,22.325838814298866],[114.16223476442538,22.325687924328868],[114.16240608132067,22.32569416110573],[114.16241071416995,22.325694329757759],[114.16242118132269,22.32569471087621],[114.16241816674139,22.325771875621015]]]},"properties":{"OBJECTID":145766,"Shape__Length":118.52988947392858,"Shape__Area":737.78117842902884,"GeoRefNo":"3476720761","DateCreate":1114790400000,"BuildingBlockType":"Tower","BuildingCSUID":"3476720761T20050430","BuildingID":1108230280,"Status":"Active","BuildingNameEN":"LUNG KONG WORLD FEDERATION SCHOOL LTD LAU WONG FAT SECONDARY SCHOOL","BuildingNameTC":"世界龍岡學校劉皇發中學","BaseHeight":4.5,"TopHeight":17,"Storeys":6,"StoreysInBasement":null,"DateStamp":1599580800000}},{"type":"Feature","id":145769,"geometry":{"type":"Polygon","coordinates":[[[114.16241816674139,22.325771875621015],[114.16242118132269,22.32569471087621],[114.16242205932576,22.325671451051335],[114.16298841667617,22.325694747209639],[114.16298397433827,22.325803028988805],[114.16298244902892,22.325838880560177],[114.1629744681394,22.326026471900082],[114.162940882046,22.326025612203729],[114.16293921792027,22.326059512613256],[114.16286581605161,22.32605665363451],[114.16287490953417,22.325838871337876],[114.16287626360052,22.325806444241714],[114.16278390004463,22.325803163489613],[114.16278556654103,22.325770165958954],[114.16252461529665,22.325760309191892],[114.16250106608742,22.325759419676189],[114.16249939777363,22.32579150068948],[114.16241761272612,22.325788626859328],[114.16241816674139,22.325771875621015]]]},"properties":{"OBJECTID":145769,"Shape__Length":205.17082345474341,"Shape__Area":941.72931742684045,"GeoRefNo":"3480420744","DateCreate":1114790400000,"BuildingBlockType":"Tower","BuildingCSUID":"3480420744T20050430","BuildingID":1108230279,"Status":"Active","BuildingNameEN":"Lung Kong World Federation School Limited Lau Wong Fat Secondary School","BuildingNameTC":"世界龍岡學校劉皇發中學","BaseHeight":4.2999999999999998,"TopHeight":25.399999999999999,"Storeys":null,"StoreysInBasement":null,"DateStamp":1361808000000}},{"type":"Feature","id":145775,"geometry":{"type":"Polygon","coordinates":[[[114.16092706073637,22.327878869444785],[114.1610295081792,22.327993533843973],[114.16099309750271,22.328021910347527],[114.16087879475691,22.327895421376127],[114.16090511744714,22.327875197712281],[114.16088824063914,22.327856591242565],[114.16089944132953,22.327847979784799],[114.16092706073637,22.327878869444785]]]},"properties":{"OBJECTID":145775,"Shape__Length":51.86295749602251,"Shape__Area":94.401672194796689,"GeoRefNo":"3462620988","DateCreate":1114790400000,"BuildingBlockType":"Tower","BuildingCSUID":"3462620988T20050430","BuildingID":1108228984,"Status":"Active","BuildingNameEN":null,"BuildingNameTC":null,"BaseHeight":4.0999999999999996,"TopHeight":24.5,"Storeys":6,"StoreysInBasement":null,"DateStamp":1599580800000}},{"type":"Feature","id":145778,"geometry":{"type":"Polygon","coordinates":[[[114.1633965182648,22.327963564106842],[114.16334404623159,22.327905149475807],[114.16337443340872,22.327881619561502],[114.16340654514904,22.327916826152784],[114.16342729530494,22.327939576093559],[114.1633965182648,22.327963564106842]]]},"properties":{"OBJECTID":145778,"Shape__Length":25.056484210513766,"Shape__Area":34.575534816679891,"GeoRefNo":"3487820987","DateCreate":1114790400000,"BuildingBlockType":"Tower","BuildingCSUID":"3487820987T20050430","BuildingID":1108229039,"Status":"Active","BuildingNameEN":null,"BuildingNameTC":"基發樓","BaseHeight":4.7999999999999998,"TopHeight":36.799999999999997,"Storeys":10,"StoreysInBasement":null,"DateStamp":1599580800000}},{"type":"Feature","id":145779,"geometry":{"type":"Polygon","coordinates":[[[114.16440405326979,22.32792746587905],[114.16431657169062,22.327830148456314],[114.16435499095307,22.327800098985801],[114.16443261541708,22.32788663582539],[114.16446931530847,22.327927549344853],[114.16444977435945,22.327942910955251],[114.16442271137626,22.327912488548272],[114.16440405326979,22.32792746587905]]]},"properties":{"OBJECTID":145779,"Shape__Length":47.148946666943424,"Shape__Area":83.89039420236584,"GeoRefNo":"3498020981","DateCreate":1114790400000,"BuildingBlockType":"Tower","BuildingCSUID":"3498020981T20050430","BuildingID":1108229056,"Status":"Active","BuildingNameEN":null,"BuildingNameTC":null,"BaseHeight":4.9000000000000004,"TopHeight":25.800000000000001,"Storeys":6,"StoreysInBasement":null,"DateStamp":1599580800000}},{"type":"Feature","id":145780,"geometry":{"type":"Polygon","coordinates":[[[114.16437537391103,22.327961055285908],[114.164280985953,22.327857981670277],[114.16431657169062,22.327830148456314],[114.16440405326979,22.32792746587905],[114.16438695569695,22.327941190604754],[114.16441447710619,22.327970658700529],[114.16440540423689,22.327977791173893],[114.16439440888276,22.327965235921447],[114.16439021606307,22.327968221743163],[114.16437957753784,22.327957700295073],[114.16437537391103,22.327961055285908]]]},"properties":{"OBJECTID":145780,"Shape__Length":46.213094865410767,"Shape__Area":73.579193695549492,"GeoRefNo":"3497720984","DateCreate":1114790400000,"BuildingBlockType":"Tower","BuildingCSUID":"3497720984T20050430","BuildingID":1108229023,"Status":"Active","BuildingNameEN":null,"BuildingNameTC":null,"BaseHeight":4.9000000000000004,"TopHeight":35.899999999999999,"Storeys":9,"StoreysInBasement":null,"DateStamp":1599580800000}},{"type":"Feature","id":145786,"geometry":{"type":"Polygon","coordinates":[[[114.15961555379783,22.328019176496415],[114.15950183114064,22.327894705855062],[114.15953455041173,22.327869317151588],[114.15964761409145,22.327993848205459],[114.15961555379783,22.328019176496415]]]},"properties":{"OBJECTID":145786,"Shape__Length":44.863464965116954,"Shape__Area":78.808560374102598,"GeoRefNo":"3448520990","DateCreate":1114790400000,"BuildingBlockType":"Tower","BuildingCSUID":"3448520990T20050430","BuildingID":1108228989,"Status":"Active","BuildingNameEN":null,"BuildingNameTC":null,"BaseHeight":4,"TopHeight":29.199999999999999,"Storeys":8,"StoreysInBasement":null,"DateStamp":1599580800000}},{"type":"Feature","id":145787,"geometry":{"type":"Polygon","coordinates":[[[114.16175129964874,22.327975526889595],[114.16186664269235,22.327884792483939],[114.16189914033612,22.327921284913003],[114.16179578364986,22.328001855988781],[114.16177476441321,22.327978006792307],[114.16175183226399,22.327996149001642],[114.16174094285356,22.327983564861949],[114.16175129964874,22.327975526889595]]]},"properties":{"OBJECTID":145787,"Shape__Length":44.395960763561092,"Shape__Area":77.896377681835844,"GeoRefNo":"3471720990","DateCreate":1114790400000,"BuildingBlockType":"Tower","BuildingCSUID":"3471720990T20050430","BuildingID":1108229002,"Status":"Active","BuildingNameEN":null,"BuildingNameTC":null,"BaseHeight":4.0999999999999996,"TopHeight":33.600000000000001,"Storeys":9,"StoreysInBasement":null,"DateStamp":1599580800000}},{"type":"Feature","id":145789,"geometry":{"type":"Polygon","coordinates":[[[114.16433230162532,22.327983988210867],[114.16424377540396,22.327887085714668],[114.164280985953,22.327857981670277],[114.16437537391103,22.327961055285908],[114.16436404215361,22.327970099719384],[114.16438530967001,22.327993587827535],[114.16437449949279,22.328002085861073],[114.16434774688352,22.327972189768118],[114.16433230162532,22.327983988210867]]]},"properties":{"OBJECTID":145789,"Shape__Length":46.84899339843151,"Shape__Area":78.339920135255625,"GeoRefNo":"3497320988","DateCreate":1114790400000,"BuildingBlockType":"Tower","BuildingCSUID":"3497320988T20050430","BuildingID":1108229001,"Status":"Active","BuildingNameEN":null,"BuildingNameTC":null,"BaseHeight":5,"TopHeight":33.600000000000001,"Storeys":9,"StoreysInBasement":null,"DateStamp":1599580800000}},{"type":"Feature","id":145907,"geometry":{"type":"Polygon","coordinates":[[[114.16120620784059,22.326627370512657],[114.16131409369244,22.326543033304016],[114.16137586488627,22.326612268852777],[114.16126732573379,22.326696081000829],[114.16123687741965,22.326661850166651],[114.16120620784059,22.326627370512657]]]},"properties":{"OBJECTID":145907,"Shape__Length":48.889451955516087,"Shape__Area":144.08374089089492,"GeoRefNo":"3466420842","DateCreate":1114790400000,"BuildingBlockType":"Tower","BuildingCSUID":"3466420842T20050430","BuildingID":1108229913,"Status":"Active","BuildingNameEN":null,"BuildingNameTC":"寶華樓","BaseHeight":4,"TopHeight":23.800000000000001,"Storeys":6,"StoreysInBasement":null,"DateStamp":1599580800000}},{"type":"Feature","id":145917,"geometry":{"type":"Polygon","coordinates":[[[114.16164325516795,22.32646867601602],[114.16160148316384,22.326421924002499],[114.16159601540608,22.326415804273079],[114.16153904653844,22.32635204351082],[114.16159519767729,22.326353753682334],[114.1615993556161,22.32635387309621],[114.16165464161089,22.326415802005897],[114.1616717509508,22.3264349671432],[114.16165463811947,22.326448083552382],[114.16164816978311,22.326453041280438],[114.16165463686676,22.326459666001689],[114.16166331211971,22.326468552549368],[114.16165463519162,22.326475154269861],[114.16165130628201,22.326477687037624],[114.16164325516795,22.32646867601602]]]},"properties":{"OBJECTID":145917,"Shape__Length":43.048228071358722,"Shape__Area":67.360655172129981,"GeoRefNo":"3469520819","DateCreate":1114790400000,"BuildingBlockType":"Tower","BuildingCSUID":"3469520819T20050430","BuildingID":1108230042,"Status":"Active","BuildingNameEN":null,"BuildingNameTC":null,"BaseHeight":4.0999999999999996,"TopHeight":26.899999999999999,"Storeys":6,"StoreysInBasement":null,"DateStamp":1599580800000}},{"type":"Feature","id":145922,"geometry":{"type":"Polygon","coordinates":[[[114.16370451860875,22.326496421352264],[114.16365285015785,22.32653669185952],[114.16357371927647,22.326446448176242],[114.16355634504167,22.326426634009035],[114.16357292884692,22.32642727689905],[114.16362158421475,22.326429163025868],[114.16366661763345,22.326430908689293],[114.1637342098409,22.326433528880152],[114.16378279513276,22.326435412243768],[114.16373083667671,22.326475908878724],[114.16372037721135,22.326465309195118],[114.16369448647195,22.326485289980688],[114.16370451860875,22.326496421352264]]]},"properties":{"OBJECTID":145922,"Shape__Length":59.673234514806154,"Shape__Area":131.72836686699651,"GeoRefNo":"3490620827","DateCreate":1114790400000,"BuildingBlockType":"Tower","BuildingCSUID":"3490620827T20050430","BuildingID":1108230010,"Status":"Active","BuildingNameEN":null,"BuildingNameTC":null,"BaseHeight":4.2999999999999998,"TopHeight":26,"Storeys":6,"StoreysInBasement":null,"DateStamp":1599580800000}},{"type":"Feature","id":146035,"geometry":{"type":"Polygon","coordinates":[[[114.16336700406043,22.328003501586245],[114.16330411655859,22.327935395085706],[114.16334404623159,22.327905149475807],[114.1633965182648,22.327963564106842],[114.16336974120011,22.327984427141679],[114.16337876094342,22.327994371286653],[114.16336700406043,22.328003501586245]]]},"properties":{"OBJECTID":146035,"Shape__Length":30.294084218060334,"Shape__Area":46.698595391080396,"GeoRefNo":"3487420990","DateCreate":1114790400000,"BuildingBlockType":"Tower","BuildingCSUID":"3487420990T20050430","BuildingID":1108229000,"Status":"Active","BuildingNameEN":null,"BuildingNameTC":"基發樓","BaseHeight":4.7999999999999998,"TopHeight":36.799999999999997,"Storeys":10,"StoreysInBasement":null,"DateStamp":1599580800000}},{"type":"Feature","id":146036,"geometry":{"type":"Polygon","coordinates":[[[114.16292196322203,22.328018558812705],[114.16284630908855,22.327934837970552],[114.16287908259807,22.327908555561965],[114.16295499215484,22.327992871797388],[114.16292196322203,22.328018558812705]]]},"properties":{"OBJECTID":146036,"Shape__Length":33.183745205992885,"Shape__Area":54.000710053821436,"GeoRefNo":"3482620990","DateCreate":1114790400000,"BuildingBlockType":"Tower","BuildingCSUID":"3482620990T20050430","BuildingID":1108228990,"Status":"Active","BuildingNameEN":null,"BuildingNameTC":null,"BaseHeight":4.5,"TopHeight":24.300000000000001,"Storeys":6,"StoreysInBasement":null,"DateStamp":1599580800000}},{"type":"Feature","id":146139,"geometry":{"type":"Polygon","coordinates":[[[114.16190580611681,22.326568053105806],[114.1617999042079,22.326450395551792],[114.16181876175024,22.326435567631524],[114.16179192696129,22.326406883008485],[114.16180791927637,22.326394538234823],[114.16194004663211,22.326541607564014],[114.16192952396365,22.326549734666532],[114.16190580611681,22.326568053105806]]]},"properties":{"OBJECTID":146139,"Shape__Length":51.699473058724095,"Shape__Area":86.95367511705922,"GeoRefNo":"3472120828","DateCreate":1114790400000,"BuildingBlockType":"Tower","BuildingCSUID":"3472120828T20050430","BuildingID":1108229987,"Status":"Active","BuildingNameEN":null,"BuildingNameTC":null,"BaseHeight":4.2000000000000002,"TopHeight":29,"Storeys":8,"StoreysInBasement":null,"DateStamp":1599580800000}},{"type":"Feature","id":146141,"geometry":{"type":"Polygon","coordinates":[[[114.16194004663211,22.326541607564014],[114.16180791927637,22.326394538234823],[114.16182165203136,22.326383937688735],[114.16184810307901,22.326413061519197],[114.1618684180665,22.326397029047531],[114.16197418744099,22.326515239036684],[114.16194843127597,22.326535131687841],[114.16194004663211,22.326541607564014]]]},"properties":{"OBJECTID":146141,"Shape__Length":51.63381634116368,"Shape__Area":85.864942294329566,"GeoRefNo":"3472420824","DateCreate":1114790400000,"BuildingBlockType":"Tower","BuildingCSUID":"3472420824T20050430","BuildingID":1108230008,"Status":"Active","BuildingNameEN":null,"BuildingNameTC":null,"BaseHeight":4.2999999999999998,"TopHeight":29,"Storeys":8,"StoreysInBasement":null,"DateStamp":1599580800000}},{"type":"Feature","id":146142,"geometry":{"type":"Polygon","coordinates":[[[114.16285463969417,22.326583733962025],[114.16278791938127,22.326510127834027],[114.1628363837231,22.326472321140756],[114.16286236555463,22.326501837595487],[114.16290773550411,22.32646647040767],[114.16287266838545,22.326464697035867],[114.16287215048634,22.326451636144469],[114.16275164146153,22.32644748799849],[114.16275234645454,22.326428008723614],[114.16279132889149,22.326395465329124],[114.1628019487797,22.326395850138756],[114.16285727594162,22.326397854740769],[114.16287481097336,22.32639849010819],[114.16296223959142,22.32640165777492],[114.1629797646265,22.326402292768936],[114.16298391518801,22.326402443121545],[114.16303829685293,22.326404413445395],[114.16306145986198,22.326405252640178],[114.16306371293309,22.326421977116411],[114.16303561400782,22.326443716857792],[114.16299284740067,22.326476804803157],[114.16298390716724,22.326483721739809],[114.16298238080716,22.326484902629506],[114.16285463969417,22.326583733962025]]]},"properties":{"OBJECTID":146142,"Shape__Length":110.27615882815587,"Shape__Area":325.10146989934339,"GeoRefNo":"3482920822","DateCreate":1114790400000,"BuildingBlockType":"Tower","BuildingCSUID":"3482920822T20050430","BuildingID":1108229977,"Status":"Active","BuildingNameEN":null,"BuildingNameTC":"大安樓","BaseHeight":4.4000000000000004,"TopHeight":34.399999999999999,"Storeys":9,"StoreysInBasement":null,"DateStamp":1599580800000}},{"type":"Feature","id":146143,"geometry":{"type":"Polygon","coordinates":[[[114.1625245437161,22.326462396036064],[114.1624540370229,22.326383371896345],[114.16249253547679,22.326384820922385],[114.1625245515025,22.326386025992999],[114.16254042226687,22.32638662341158],[114.16256265053889,22.326387460066687],[114.16261279776073,22.326389347530643],[114.16263918542664,22.326390340678842],[114.16268411409334,22.326392031790373],[114.16272783741847,22.326393677451051],[114.16261627086446,22.32647999677118],[114.16259956009115,22.326462184279549],[114.16255554755513,22.326497145124243],[114.16252563013281,22.32646361363561],[114.1625245437161,22.326462396036064]]]},"properties":{"OBJECTID":146143,"Shape__Length":68.134373577022998,"Shape__Area":182.90602503377102,"GeoRefNo":"3479520821","DateCreate":1114790400000,"BuildingBlockType":"Tower","BuildingCSUID":"3479520821T20050430","BuildingID":1108230030,"Status":"Active","BuildingNameEN":null,"BuildingNameTC":null,"BaseHeight":4.4000000000000004,"TopHeight":33.5,"Storeys":6,"StoreysInBasement":null,"DateStamp":1599580800000}},{"type":"Feature","id":146240,"geometry":{"type":"Polygon","coordinates":[[[114.16242332236719,22.326172059042705],[114.16242379432924,22.326160372692712],[114.16243390438359,22.326152565203824],[114.16244131355138,22.32615301088898],[114.16244873523895,22.326160101370906],[114.16244777199225,22.326173163396955],[114.16242332236719,22.326172059042705]]]},"properties":{"OBJECTID":146240,"Shape__Length":8.4812151077326678,"Shape__Area":4.8655353167110702,"GeoRefNo":"3478020794","DateCreate":1114790400000,"BuildingBlockType":"Tower","BuildingCSUID":"3478020794T20050430","BuildingID":1108230200,"Status":"Active","BuildingNameEN":null,"BuildingNameTC":null,"BaseHeight":4.5,"TopHeight":6.9000000000000004,"Storeys":null,"StoreysInBasement":null,"DateStamp":1361808000000}},{"type":"Feature","id":146303,"geometry":{"type":"Polygon","coordinates":[[[114.16335726030822,22.325729233135991],[114.16331942167882,22.325686388068121],[114.16337072910613,22.325646316215472],[114.16348620930594,22.325775466140136],[114.16346199296062,22.325793995451559],[114.16341497550947,22.325742062711047],[114.16340116562498,22.325752167788014],[114.16337065778409,22.325718965026407],[114.16335726030822,22.325729233135991]]]},"properties":{"OBJECTID":146303,"Shape__Length":50.829860029417709,"Shape__Area":92.102596738071469,"GeoRefNo":"3487720741","DateCreate":1114790400000,"BuildingBlockType":"Tower","BuildingCSUID":"3487720741T20050430","BuildingID":1108230436,"Status":"Active","BuildingNameEN":null,"BuildingNameTC":null,"BaseHeight":4.4000000000000004,"TopHeight":21.100000000000001,"Storeys":5,"StoreysInBasement":null,"DateStamp":1599580800000}},{"type":"Feature","id":146304,"geometry":{"type":"Polygon","coordinates":[[[114.16480500164371,22.325894012891453],[114.16475605672399,22.325838933960139],[114.16469453074465,22.325769697181986],[114.16471140365324,22.3257566021061],[114.16472520316893,22.325771089192418],[114.16474273043217,22.325757432459607],[114.16481716548755,22.325838983653224],[114.16484152009485,22.325865666596805],[114.16480500164371,22.325894012891453]]]},"properties":{"OBJECTID":146304,"Shape__Length":45.247678914417037,"Shape__Area":80.324364851609687,"GeoRefNo":"3502020754","DateCreate":1114790400000,"BuildingBlockType":"Tower","BuildingCSUID":"3502020754T20050430","BuildingID":1108230376,"Status":"Active","BuildingNameEN":null,"BuildingNameTC":null,"BaseHeight":4.2999999999999998,"TopHeight":24.399999999999999,"Storeys":6,"StoreysInBasement":null,"DateStamp":1599580800000}},{"type":"Feature","id":146310,"geometry":{"type":"Polygon","coordinates":[[[114.16487321936582,22.325841065916293],[114.16487139618962,22.325839027668561],[114.16477391491367,22.325730042933831],[114.16478462474451,22.325721276564995],[114.16477319731358,22.325708643820285],[114.16479698696608,22.325690180565552],[114.16490687974196,22.32581493766931],[114.16487584056217,22.325839031247408],[114.16487321936582,22.325841065916293]]]},"properties":{"OBJECTID":146310,"Shape__Length":44.861737589924481,"Shape__Area":79.16059140893401,"GeoRefNo":"3502720748","DateCreate":1114790400000,"BuildingBlockType":"Tower","BuildingCSUID":"3502720748T20050430","BuildingID":1108230412,"Status":"Active","BuildingNameEN":null,"BuildingNameTC":null,"BaseHeight":4.2999999999999998,"TopHeight":26.5,"Storeys":6,"StoreysInBasement":null,"DateStamp":1599580800000}},{"type":"Feature","id":146312,"geometry":{"type":"Polygon","coordinates":[[[114.16490687974196,22.32581493766931],[114.16479698696608,22.325690180565552],[114.1648303859091,22.32566425947622],[114.16484038750545,22.325675353028544],[114.16494179658602,22.325787834023394],[114.16490687974196,22.32581493766931]]]},"properties":{"OBJECTID":146312,"Shape__Length":44.887869292847654,"Shape__Area":81.854093580941992,"GeoRefNo":"3503120745","DateCreate":1114790400000,"BuildingBlockType":"Tower","BuildingCSUID":"3503120745T20050430","BuildingID":1108230424,"Status":"Active","BuildingNameEN":null,"BuildingNameTC":null,"BaseHeight":4.2999999999999998,"TopHeight":26.800000000000001,"Storeys":6,"StoreysInBasement":null,"DateStamp":1599580800000}},{"type":"Feature","id":146464,"geometry":{"type":"Polygon","coordinates":[[[114.1648372958078,22.326199049093528],[114.16477792965944,22.326132549500031],[114.16482057246608,22.326099498188629],[114.1648781433079,22.326163839504787],[114.16486373840831,22.326174815571775],[114.16486571979203,22.326176990463939],[114.1648372958078,22.326199049093528]]]},"properties":{"OBJECTID":146464,"Shape__Length":30.608395799529408,"Shape__Area":54.188504881449731,"GeoRefNo":"3502720791","DateCreate":1114790400000,"BuildingBlockType":"Tower","BuildingCSUID":"3502720791T20050430","BuildingID":1108230183,"Status":"Active","BuildingNameEN":null,"BuildingNameTC":null,"BaseHeight":4.4000000000000004,"TopHeight":25.300000000000001,"Storeys":6,"StoreysInBasement":null,"DateStamp":1599580800000}},{"type":"Feature","id":146465,"geometry":{"type":"Polygon","coordinates":[[[114.16498942339582,22.326150425781375],[114.16489295324942,22.326043397763062],[114.16493124655779,22.326013717581112],[114.16502779779107,22.32612039655076],[114.16498942339582,22.326150425781375]]]},"properties":{"OBJECTID":146465,"Shape__Length":41.211542142787977,"Shape__Area":79.60096870202733,"GeoRefNo":"3504020783","DateCreate":1114790400000,"BuildingBlockType":"Tower","BuildingCSUID":"3504020783T20050430","BuildingID":1108230215,"Status":"Active","BuildingNameEN":null,"BuildingNameTC":null,"BaseHeight":4.4000000000000004,"TopHeight":36.5,"Storeys":9,"StoreysInBasement":null,"DateStamp":1599580800000}},{"type":"Feature","id":146468,"geometry":{"type":"Polygon","coordinates":[[[114.16452091932044,22.325947471969087],[114.1646088667174,22.326046249945833],[114.16453319937867,22.326104983133714],[114.16442147265334,22.325981617886363],[114.16446308888055,22.325949319560163],[114.16448084603978,22.325968746428963],[114.16451542427657,22.325941343124459],[114.16452091932044,22.325947471969087]]]},"properties":{"OBJECTID":146468,"Shape__Length":56.190357856519753,"Shape__Area":169.52962822487405,"GeoRefNo":"3499720779","DateCreate":1114790400000,"BuildingBlockType":"Tower","BuildingCSUID":"3499720779T20050430","BuildingID":1108230250,"Status":"Active","BuildingNameEN":null,"BuildingNameTC":null,"BaseHeight":4.5,"TopHeight":26.600000000000001,"Storeys":6,"StoreysInBasement":null,"DateStamp":1599580800000}},{"type":"Feature","id":146481,"geometry":{"type":"Polygon","coordinates":[[[114.16186452125082,22.328080218655359],[114.16184393200568,22.328096221928948],[114.16182268518601,22.328072734934661],[114.16183284220762,22.328064831042877],[114.16184320017075,22.328056770217465],[114.16185800560767,22.328073051381736],[114.16186452125082,22.328080218655359]]]},"properties":{"OBJECTID":146481,"Shape__Length":12.319800130329057,"Shape__Area":9.3835810828950166,"GeoRefNo":"3472021005","DateCreate":1114790400000,"BuildingBlockType":"Tower","BuildingCSUID":"3472021005T20050430","BuildingID":1108228927,"Status":"Active","BuildingNameEN":null,"BuildingNameTC":null,"BaseHeight":4.2000000000000002,"TopHeight":29.100000000000001,"Storeys":null,"StoreysInBasement":null,"DateStamp":1361808000000}},{"type":"Feature","id":146482,"geometry":{"type":"Polygon","coordinates":[[[114.15956040204412,22.328017793826767],[114.15947019929074,22.327919250579548],[114.15950183114064,22.327894705855062],[114.15961555379783,22.328019176496415],[114.1595982673028,22.328032424062286],[114.15958403677851,22.328043639166918],[114.15957395342404,22.328032421475637],[114.15956040204412,22.328017793826767]]]},"properties":{"OBJECTID":146482,"Shape__Length":44.652752850891702,"Shape__Area":76.557889666921056,"GeoRefNo":"3448220993","DateCreate":1114790400000,"BuildingBlockType":"Tower","BuildingCSUID":"3448220993T20050430","BuildingID":1108228964,"Status":"Active","BuildingNameEN":null,"BuildingNameTC":null,"BaseHeight":3.8999999999999999,"TopHeight":29.800000000000001,"Storeys":8,"StoreysInBasement":null,"DateStamp":1599580800000}},{"type":"Feature","id":146485,"geometry":{"type":"Polygon","coordinates":[[[114.16189197733634,22.328110420727032],[114.16199194363503,22.328032660862895],[114.16199574522653,22.328029764379941],[114.16199832511951,22.328032661446951],[114.16202724136308,22.328064897317144],[114.16190298740216,22.328161516427162],[114.1618940961576,22.328151695479622],[114.1619099309318,22.328139342195374],[114.16188720907371,22.328114128516429],[114.16189197733634,22.328110420727032]]]},"properties":{"OBJECTID":146485,"Shape__Length":43.514509357105268,"Shape__Area":76.863040986028082,"GeoRefNo":"3473121006","DateCreate":1114790400000,"BuildingBlockType":"Tower","BuildingCSUID":"3473121006T20050430","BuildingID":1108228878,"Status":"Active","BuildingNameEN":null,"BuildingNameTC":null,"BaseHeight":4.0999999999999996,"TopHeight":29.5,"Storeys":7,"StoreysInBasement":null,"DateStamp":1599580800000}},{"type":"Feature","id":146486,"geometry":{"type":"Polygon","coordinates":[[[114.16154592740938,22.328161129061847],[114.16143544462319,22.328039334581632],[114.16144407575983,22.328032609783001],[114.16162420835418,22.327890276140408],[114.16165447847803,22.327924049751957],[114.16173309342257,22.328011763305529],[114.16171681888521,22.328024623508725],[114.1617239098331,22.328032636104396],[114.16172893123534,22.328038031353234],[114.1617111064626,22.32805265743249],[114.16170079436715,22.328041259421013],[114.16161239535232,22.328109768448339],[114.16162300827247,22.3281209802829],[114.16157055536098,22.328161631857302],[114.16156020445817,22.328150091330748],[114.16154592740938,22.328161129061847]]]},"properties":{"OBJECTID":146486,"Shape__Length":93.026739847223283,"Shape__Area":467.1436119120217,"GeoRefNo":"3469620995","DateCreate":1114790400000,"BuildingBlockType":"Tower","BuildingCSUID":"3469620995T20050430","BuildingID":1108228877,"Status":"Active","BuildingNameEN":"Man On Building","BuildingNameTC":"萬安大廈","BaseHeight":4,"TopHeight":49.399999999999999,"Storeys":15,"StoreysInBasement":null,"DateStamp":1599580800000}},{"type":"Feature","id":146546,"geometry":{"type":"Polygon","coordinates":[[[114.16374016040669,22.325897447724241],[114.16368853240155,22.325838939340212],[114.16367596567768,22.325824697807512],[114.1636943098989,22.325810457607652],[114.16362562170319,22.325732010179511],[114.16364365042635,22.325718119714171],[114.16375106209064,22.325838944397439],[114.16377757626861,22.325868769506545],[114.16374016040669,22.325897447724241]]]},"properties":{"OBJECTID":146546,"Shape__Length":53.14359922931736,"Shape__Area":79.410626989538116,"GeoRefNo":"3491220755","DateCreate":1114790400000,"BuildingBlockType":"Tower","BuildingCSUID":"3491220755T20050430","BuildingID":1108230374,"Status":"Active","BuildingNameEN":null,"BuildingNameTC":null,"BaseHeight":4.4000000000000004,"TopHeight":19.300000000000001,"Storeys":null,"StoreysInBasement":null,"DateStamp":1361808000000}},{"type":"Feature","id":146552,"geometry":{"type":"Polygon","coordinates":[[[114.16133736319325,22.32589159772974],[114.16133844023021,22.325838731783065],[114.161338699925,22.325825986579186],[114.16135747501841,22.325826179549878],[114.1614105675808,22.325826733849162],[114.16141019440886,22.325838738624544],[114.16140848216214,22.32589381528927],[114.16133736319325,22.32589159772974]]]},"properties":{"OBJECTID":146552,"Shape__Length":29.433818093599108,"Shape__Area":54.143586810381763,"GeoRefNo":"3467020759","DateCreate":1114790400000,"BuildingBlockType":"Tower","BuildingCSUID":"3467020759T20050430","BuildingID":1108230375,"Status":"Active","BuildingNameEN":"FU ON MANSION","BuildingNameTC":"富安大廈","BaseHeight":4.2999999999999998,"TopHeight":37.799999999999997,"Storeys":11,"StoreysInBasement":null,"DateStamp":1599580800000}},{"type":"Feature","id":146553,"geometry":{"type":"Polygon","coordinates":[[[114.16135747501841,22.325826179549878],[114.161338699925,22.325825986579186],[114.1613281799324,22.325825878470731],[114.16129515395578,22.325788210807513],[114.16127481000997,22.325765347473862],[114.16127600031245,22.325764421591682],[114.16129667344322,22.325748339737128],[114.16135627314728,22.325814066437854],[114.16135947432281,22.325817580815723],[114.16135747501841,22.325826179549878]]]},"properties":{"OBJECTID":146553,"Shape__Length":25.63067951689079,"Shape__Area":29.430307729119104,"GeoRefNo":"3466620752","DateCreate":1114790400000,"BuildingBlockType":"Tower","BuildingCSUID":"3466620752T20050430","BuildingID":1108230416,"Status":"Active","BuildingNameEN":"FU ON MANSION","BuildingNameTC":"富安大廈","BaseHeight":4.0999999999999996,"TopHeight":37.600000000000001,"Storeys":11,"StoreysInBasement":null,"DateStamp":1599580800000}},{"type":"Feature","id":146724,"geometry":{"type":"Polygon","coordinates":[[[114.16409496680943,22.326135537158606],[114.16407424019611,22.326112877606072],[114.16401325572063,22.326046205842879],[114.16404727361989,22.326019855109145],[114.16416193908027,22.326144048586986],[114.16414004524931,22.326161175368988],[114.16411848749865,22.326137049731649],[114.16410553063369,22.326147086031639],[114.16409496680943,22.326135537158606]]]},"properties":{"OBJECTID":146724,"Shape__Length":45.516723952836237,"Shape__Area":77.507129860287364,"GeoRefNo":"3495020784","DateCreate":1114790400000,"BuildingBlockType":"Tower","BuildingCSUID":"3495020784T20050430","BuildingID":1108230208,"Status":"Active","BuildingNameEN":null,"BuildingNameTC":null,"BaseHeight":4.4000000000000004,"TopHeight":34.600000000000001,"Storeys":10,"StoreysInBasement":null,"DateStamp":1599580800000}},{"type":"Feature","id":146725,"geometry":{"type":"Polygon","coordinates":[[[114.1650632893314,22.326091863379641],[114.16505192871692,22.326079297305732],[114.16496734518073,22.325985738411394],[114.16500353387075,22.325957689433672],[114.16505193440747,22.326011506044839],[114.16511499828813,22.326081626710383],[114.16509506697817,22.326097047163117],[114.16507878870468,22.32607972026112],[114.1650632893314,22.326091863379641]]]},"properties":{"OBJECTID":146725,"Shape__Length":45.410001181733939,"Shape__Area":81.047925325684147,"GeoRefNo":"3504820778","DateCreate":1114790400000,"BuildingBlockType":"Tower","BuildingCSUID":"3504820778T20050430","BuildingID":1108230253,"Status":"Active","BuildingNameEN":null,"BuildingNameTC":null,"BaseHeight":4.5,"TopHeight":24.5,"Storeys":6,"StoreysInBasement":null,"DateStamp":1599580800000}},{"type":"Feature","id":146726,"geometry":{"type":"Polygon","coordinates":[[[114.1649672890707,22.326195917459639],[114.16485638370676,22.326071741807201],[114.16489295324942,22.326043397763062],[114.16498942339582,22.326150425781375],[114.16497789439727,22.326159447578664],[114.16496388455907,22.326170409956966],[114.16497871565544,22.326187068139859],[114.1649672890707,22.326195917459639]]]},"properties":{"OBJECTID":146726,"Shape__Length":45.614331671197128,"Shape__Area":80.111247732596411,"GeoRefNo":"3503620786","DateCreate":1114790400000,"BuildingBlockType":"Tower","BuildingCSUID":"3503620786T20050430","BuildingID":1108230184,"Status":"Active","BuildingNameEN":null,"BuildingNameTC":null,"BaseHeight":4.4000000000000004,"TopHeight":33.899999999999999,"Storeys":9,"StoreysInBasement":null,"DateStamp":1599580800000}},{"type":"Feature","id":146737,"geometry":{"type":"Polygon","coordinates":[[[114.16185800560767,22.328073051381736],[114.16184320017075,22.328056770217465],[114.16183284220762,22.328064831042877],[114.16182677340802,22.328058123195152],[114.16181635375841,22.328065731942747],[114.16180316021227,22.328051144971454],[114.1618244496669,22.328034423113863],[114.16182670488635,22.328032645652055],[114.16192760278147,22.327953245868589],[114.16195964342931,22.327989225035097],[114.1619066197203,22.328032653029545],[114.16185800560767,22.328073051381736]]]},"properties":{"OBJECTID":146737,"Shape__Length":44.156045647610874,"Shape__Area":81.870952906745927,"GeoRefNo":"3472420997","DateCreate":1114790400000,"BuildingBlockType":"Tower","BuildingCSUID":"3472420997T20050430","BuildingID":1108228939,"Status":"Active","BuildingNameEN":null,"BuildingNameTC":null,"BaseHeight":4.0999999999999996,"TopHeight":29.600000000000001,"Storeys":7,"StoreysInBasement":null,"DateStamp":1599580800000}},{"type":"Feature","id":146738,"geometry":{"type":"Polygon","coordinates":[[[114.16416049288719,22.328126534481129],[114.16407548678039,22.32803283820801],[114.16406797290789,22.328024521080216],[114.16409912532468,22.328000222949086],[114.16412905498693,22.328032842414455],[114.16419544576388,22.328106107769525],[114.16419157023834,22.328109151587146],[114.16421285803106,22.328132668075131],[114.16419594148759,22.328145887804133],[114.16417081626892,22.328118407400392],[114.16416049288719,22.328126534481129]]]},"properties":{"OBJECTID":146738,"Shape__Length":45.920607439233194,"Shape__Area":71.648862082615508,"GeoRefNo":"3495120999","DateCreate":1114790400000,"BuildingBlockType":"Tower","BuildingCSUID":"3495120999T20050430","BuildingID":1108228897,"Status":"Active","BuildingNameEN":null,"BuildingNameTC":null,"BaseHeight":5,"TopHeight":30.899999999999999,"Storeys":8,"StoreysInBasement":null,"DateStamp":1599580800000}},{"type":"Feature","id":146740,"geometry":{"type":"Polygon","coordinates":[[[114.15947019929074,22.327919250579548],[114.15956040204412,22.328017793826767],[114.15954167734674,22.328032418036273],[114.15952377275511,22.328047027069477],[114.15951047850406,22.328032414705593],[114.15943317841186,22.327947976963802],[114.15947019929074,22.327919250579548]]]},"properties":{"OBJECTID":146740,"Shape__Length":38.673481964230163,"Shape__Area":71.285235015187027,"GeoRefNo":"3447820995","DateCreate":1114790400000,"BuildingBlockType":"Tower","BuildingCSUID":"3447820995T20050430","BuildingID":1108228959,"Status":"Active","BuildingNameEN":null,"BuildingNameTC":null,"BaseHeight":4,"TopHeight":25.899999999999999,"Storeys":6,"StoreysInBasement":null,"DateStamp":1599580800000}},{"type":"Feature","id":146741,"geometry":{"type":"Polygon","coordinates":[[[114.16426784828698,22.328049219088509],[114.16425248823856,22.328032852039655],[114.16417032556652,22.327944534110252],[114.1642060845252,22.327916565475629],[114.16420787647124,22.32791851884037],[114.16429682899417,22.328015485596222],[114.16428641941704,22.328023791484004],[114.16429478556931,22.32803285531633],[114.16431397835126,22.328053646740592],[114.16429234353387,22.328070429674383],[114.16427073211436,22.328046979726977],[114.16426784828698,22.328049219088509]]]},"properties":{"OBJECTID":146741,"Shape__Length":47.034391437875676,"Shape__Area":81.622705911295611,"GeoRefNo":"3496520994","DateCreate":1114790400000,"BuildingBlockType":"Tower","BuildingCSUID":"3496520994T20050430","BuildingID":1108228943,"Status":"Active","BuildingNameEN":null,"BuildingNameTC":null,"BaseHeight":5,"TopHeight":31.100000000000001,"Storeys":8,"StoreysInBasement":null,"DateStamp":1599580800000}},{"type":"Feature","id":146742,"geometry":{"type":"Polygon","coordinates":[[[114.16186452125082,22.328080218655359],[114.16185800560767,22.328073051381736],[114.1619066197203,22.328032653029545],[114.16195964342931,22.327989225035097],[114.16199574522653,22.328029764379941],[114.16199194363503,22.328032660862895],[114.16189197733634,22.328110420727032],[114.16186452125082,22.328080218655359]]]},"properties":{"OBJECTID":146742,"Shape__Length":39.173064759672165,"Shape__Area":78.655129024470554,"GeoRefNo":"3473020997","DateCreate":1114790400000,"BuildingBlockType":"Tower","BuildingCSUID":"3473020997T20050430","BuildingID":1108228921,"Status":"Active","BuildingNameEN":null,"BuildingNameTC":null,"BaseHeight":4.2000000000000002,"TopHeight":29.5,"Storeys":7,"StoreysInBasement":null,"DateStamp":1599580800000}},{"type":"Feature","id":146743,"geometry":{"type":"Polygon","coordinates":[[[114.15979324266868,22.328039055783393],[114.15980172487426,22.328032445564407],[114.15980772788087,22.328027800862277],[114.1597880572066,22.328006460427069],[114.15991183323361,22.327910971349105],[114.16001809677206,22.328028961665499],[114.16001362793446,22.328032467687578],[114.15989225274876,22.328126691004798],[114.15988062629089,22.328135718296831],[114.15979324266868,22.328039055783393]]]},"properties":{"OBJECTID":146743,"Shape__Length":71.103225456715123,"Shape__Area":309.30246273107525,"GeoRefNo":"3451821003","DateCreate":1114790400000,"BuildingBlockType":"Tower","BuildingCSUID":"3451821003T20050430","BuildingID":1108228904,"Status":"Active","BuildingNameEN":"KA PO BUILDING","BuildingNameTC":"嘉寶大廈","BaseHeight":4.0999999999999996,"TopHeight":35.5,"Storeys":11,"StoreysInBasement":null,"DateStamp":1599580800000}},{"type":"Feature","id":146744,"geometry":{"type":"Polygon","coordinates":[[[114.16255636836185,22.328134111920274],[114.16266409482382,22.328051379814038],[114.16267144468212,22.328059583026537],[114.16268788550651,22.328046723735383],[114.16271065127904,22.328071889985946],[114.16265634028268,22.328114443771955],[114.16258763358768,22.328168860657129],[114.16255636836185,22.328134111920274]]]},"properties":{"OBJECTID":146744,"Shape__Length":43.058055919643387,"Shape__Area":78.78156088498163,"GeoRefNo":"3480021009","DateCreate":1114790400000,"BuildingBlockType":"Tower","BuildingCSUID":"3480021009T20050430","BuildingID":1108228871,"Status":"Active","BuildingNameEN":null,"BuildingNameTC":"梅芳樓","BaseHeight":4.2000000000000002,"TopHeight":27,"Storeys":6,"StoreysInBasement":null,"DateStamp":1599580800000}},{"type":"Feature","id":146746,"geometry":{"type":"Polygon","coordinates":[[[114.15958726312836,22.328073779266518],[114.15956479084403,22.328092126751081],[114.15955167079444,22.328077700258635],[114.15957391230411,22.328058961817284],[114.15958726312836,22.328073779266518]]]},"properties":{"OBJECTID":146746,"Shape__Length":10.405186137307739,"Shape__Area":6.5292301953004639,"GeoRefNo":"3448521005","DateCreate":1114790400000,"BuildingBlockType":"Tower","BuildingCSUID":"3448521005T20050430","BuildingID":1108228931,"Status":"Active","BuildingNameEN":null,"BuildingNameTC":null,"BaseHeight":4,"TopHeight":7.2000000000000002,"Storeys":null,"StoreysInBasement":null,"DateStamp":1361808000000}},{"type":"Feature","id":146755,"geometry":{"type":"Polygon","coordinates":[[[114.16494179658602,22.325787834023394],[114.16484038750545,22.325675353028544],[114.16485445515966,22.325664324109088],[114.16484490929926,22.325652987849139],[114.16486228587824,22.325639501679849],[114.16497516854025,22.325761930421901],[114.16494179658602,22.325787834023394]]]},"properties":{"OBJECTID":146755,"Shape__Length":44.417832191241978,"Shape__Area":75.132725125440103,"GeoRefNo":"3503420742","DateCreate":1114790400000,"BuildingBlockType":"Tower","BuildingCSUID":"3503420742T20050430","BuildingID":1108230444,"Status":"Active","BuildingNameEN":null,"BuildingNameTC":null,"BaseHeight":4.2999999999999998,"TopHeight":24.399999999999999,"Storeys":6,"StoreysInBasement":null,"DateStamp":1599580800000}},{"type":"Feature","id":146757,"geometry":{"type":"Polygon","coordinates":[[[114.16377757626861,22.325868769506545],[114.16375106209064,22.325838944397439],[114.16364365042635,22.325718119714171],[114.16366091665267,22.325704816895463],[114.16372908612584,22.325783461856219],[114.16374876661727,22.325768184324264],[114.16376257750072,22.325783579609219],[114.16381202409686,22.325838949304661],[114.16381383531969,22.325840977539347],[114.16377757626861,22.325868769506545]]]},"properties":{"OBJECTID":146757,"Shape__Length":53.110903441545425,"Shape__Area":75.613375862818799,"GeoRefNo":"3491520752","DateCreate":1114790400000,"BuildingBlockType":"Tower","BuildingCSUID":"3491520752T20050430","BuildingID":1108230395,"Status":"Active","BuildingNameEN":null,"BuildingNameTC":null,"BaseHeight":4.4000000000000004,"TopHeight":20.399999999999999,"Storeys":null,"StoreysInBasement":null,"DateStamp":1361808000000}},{"type":"Feature","id":146809,"geometry":{"type":"Polygon","coordinates":[[[114.16133466117988,22.32571878860908],[114.16137408023241,22.325688124046806],[114.16139440975353,22.325710688635027],[114.16140647994273,22.325724085847231],[114.16141113379089,22.325729251334284],[114.16142390625333,22.325743428041907],[114.161433513747,22.325754091820457],[114.16139394937784,22.325784812282443],[114.16136935062602,22.32575741890323],[114.16135611601061,22.325742680805906],[114.16133466117988,22.32571878860908]]]},"properties":{"OBJECTID":146809,"Shape__Length":29.661512250482378,"Shape__Area":50.518959118654109,"GeoRefNo":"3467320747","DateCreate":1114790400000,"BuildingBlockType":"Tower","BuildingCSUID":"3467320747T20050430","BuildingID":1108230448,"Status":"Active","BuildingNameEN":"FU ON MANSION","BuildingNameTC":"富安大廈","BaseHeight":4,"TopHeight":37.799999999999997,"Storeys":11,"StoreysInBasement":null,"DateStamp":1599580800000}},{"type":"Feature","id":146810,"geometry":{"type":"Polygon","coordinates":[[[114.16440795579693,22.32590247143202],[114.16435325846473,22.325839321121986],[114.16435263887087,22.32583860576149],[114.16432476113293,22.325806419774683],[114.16435714816761,22.325781960666973],[114.16440848268138,22.325838651320169],[114.16444312256357,22.325876905370468],[114.16440795579693,22.32590247143202]]]},"properties":{"OBJECTID":146810,"Shape__Length":36.302928791276692,"Shape__Area":60.935843956282007,"GeoRefNo":"3498220758","DateCreate":1114790400000,"BuildingBlockType":"Tower","BuildingCSUID":"3498220758T20050430","BuildingID":1108230371,"Status":"Active","BuildingNameEN":null,"BuildingNameTC":null,"BaseHeight":4.5999999999999996,"TopHeight":24.100000000000001,"Storeys":6,"StoreysInBasement":null,"DateStamp":1599580800000}},{"type":"Feature","id":146813,"geometry":{"type":"Polygon","coordinates":[[[114.16381813951625,22.325707169326865],[114.16383789889493,22.325692998669314],[114.16381612061991,22.325668060490823],[114.16380724320584,22.32567472028752],[114.16376420778028,22.325625235075901],[114.16382669679862,22.325577089640973],[114.16384115784322,22.325593134812802],[114.16390147605986,22.325660067484844],[114.16396231881487,22.325727582196901],[114.16388599878361,22.325785609924878],[114.16383577979529,22.325727560272661],[114.16381813951625,22.325707169326865]]]},"properties":{"OBJECTID":146813,"Shape__Length":65.762793804130553,"Shape__Area":197.08786378895857,"GeoRefNo":"3492620736","DateCreate":1114790400000,"BuildingBlockType":"Tower","BuildingCSUID":"3492620736T20050430","BuildingID":1108230447,"Status":"Active","BuildingNameEN":"Wing Tak Mansion","BuildingNameTC":"榮達樓","BaseHeight":4.4000000000000004,"TopHeight":34.299999999999997,"Storeys":9,"StoreysInBasement":null,"DateStamp":1599580800000}},{"type":"Feature","id":146995,"geometry":{"type":"Polygon","coordinates":[[[114.16337876094342,22.327994371286653],[114.16336974120011,22.327984427141679],[114.1633965182648,22.327963564106842],[114.16342729530494,22.327939576093559],[114.16348898376151,22.328007241664796],[114.16349092263958,22.328009368346439],[114.16346077123725,22.328032788670352],[114.16343352581569,22.328054787002003],[114.16342998047729,22.328050875833654],[114.16341336174973,22.328032784752963],[114.16337876094342,22.327994371286653]]]},"properties":{"OBJECTID":146995,"Shape__Length":35.824309751314836,"Shape__Area":78.675129110808456,"GeoRefNo":"3488220995","DateCreate":1114790400000,"BuildingBlockType":"Tower","BuildingCSUID":"3488220995T20050430","BuildingID":1108228954,"Status":"Active","BuildingNameEN":null,"BuildingNameTC":"基發樓","BaseHeight":4.7000000000000002,"TopHeight":37.399999999999999,"Storeys":10,"StoreysInBasement":null,"DateStamp":1599580800000}},{"type":"Feature","id":146997,"geometry":{"type":"Polygon","coordinates":[[[114.1628236115008,22.328094907458443],[114.16276530434985,22.328032729814559],[114.16273686816723,22.32800299188699],[114.16275016627588,22.327993126677409],[114.16272569066292,22.327966381014743],[114.16274669741259,22.327949900940549],[114.16276160175086,22.327966232421819],[114.16282229276149,22.328032734749602],[114.1628563266345,22.328069438525006],[114.1628236115008,22.328094907458443]]]},"properties":{"OBJECTID":146997,"Shape__Length":43.81308975102931,"Shape__Area":71.239018717268692,"GeoRefNo":"3481921002","DateCreate":1114790400000,"BuildingBlockType":"Tower","BuildingCSUID":"3481921002T20050430","BuildingID":1108228929,"Status":"Active","BuildingNameEN":null,"BuildingNameTC":null,"BaseHeight":4.4000000000000004,"TopHeight":27.800000000000001,"Storeys":6,"StoreysInBasement":null,"DateStamp":1599580800000}},{"type":"Feature","id":147159,"geometry":{"type":"Polygon","coordinates":[[[114.16386658624613,22.327116779303555],[114.16385624097437,22.327105064451626],[114.16387837781521,22.327087197402005],[114.16386923871855,22.327077104901665],[114.16388722372547,22.327063124102224],[114.16389663106783,22.327073675918587],[114.1639286316489,22.327109569628611],[114.1639951196062,22.327184146322569],[114.16395416396351,22.327215951054502],[114.16386658624613,22.327116779303555]]]},"properties":{"OBJECTID":147159,"Shape__Length":45.694445497511005,"Shape__Area":90.496796265512913,"GeoRefNo":"3493420902","DateCreate":1114790400000,"BuildingBlockType":"Tower","BuildingCSUID":"3493420902T20050430","BuildingID":1108229549,"Status":"Active","BuildingNameEN":null,"BuildingNameTC":null,"BaseHeight":4.7999999999999998,"TopHeight":27.600000000000001,"Storeys":6,"StoreysInBasement":null,"DateStamp":1599580800000}},{"type":"Feature","id":147161,"geometry":{"type":"Polygon","coordinates":[[[114.16272807835215,22.327222094123677],[114.16263242907345,22.327116320819886],[114.16266843921116,22.32708858345574],[114.16271752886382,22.32714361362406],[114.16278028863699,22.327213968060168],[114.16277179769367,22.327220553420311],[114.16275879041666,22.327205755045107],[114.16274424367268,22.327217237164547],[114.1627566597968,22.327232293854596],[114.16274528161895,22.327241118367219],[114.1627296592698,22.327223842492263],[114.16272807835215,22.327222094123677]]]},"properties":{"OBJECTID":147161,"Shape__Length":49.76795695897318,"Shape__Area":81.637677047836959,"GeoRefNo":"3480420899","DateCreate":1114790400000,"BuildingBlockType":"Tower","BuildingCSUID":"3480420899T20050430","BuildingID":1108229535,"Status":"Active","BuildingNameEN":null,"BuildingNameTC":null,"BaseHeight":4.2999999999999998,"TopHeight":25,"Storeys":6,"StoreysInBasement":null,"DateStamp":1599580800000}},{"type":"Feature","id":147162,"geometry":{"type":"Polygon","coordinates":[[[114.16107384302073,22.327146332555373],[114.16115364057794,22.327084680718254],[114.16116924233857,22.327101914028642],[114.1611854689307,22.327119837515145],[114.16116923894715,22.327132297885068],[114.16110576071851,22.32718103260931],[114.16106045916325,22.327215812307927],[114.16103840718385,22.327191268912806],[114.16108331123043,22.32715757529018],[114.16107384302073,22.327146332555373]]]},"properties":{"OBJECTID":147162,"Shape__Length":43.541127526064422,"Shape__Area":75.326945205472953,"GeoRefNo":"3464420901","DateCreate":1114790400000,"BuildingBlockType":"Tower","BuildingCSUID":"3464420901T20050430","BuildingID":1108229548,"Status":"Active","BuildingNameEN":null,"BuildingNameTC":null,"BaseHeight":3.8999999999999999,"TopHeight":25.300000000000001,"Storeys":6,"StoreysInBasement":null,"DateStamp":1599580800000}},{"type":"Feature","id":147415,"geometry":{"type":"Polygon","coordinates":[[[114.16381095195975,22.327327164369912],[114.16372409978354,22.327230631158137],[114.16372044265323,22.327226566376449],[114.16373373143345,22.32721632089676],[114.16371687858836,22.327197792113957],[114.16374191883105,22.327178281932085],[114.1638483919092,22.327298089880937],[114.16381095195975,22.327327164369912]]]},"properties":{"OBJECTID":147415,"Shape__Length":44.596707944584956,"Shape__Area":82.613562788723357,"GeoRefNo":"3491820913","DateCreate":1114790400000,"BuildingBlockType":"Tower","BuildingCSUID":"3491820913T20050430","BuildingID":1108229482,"Status":"Active","BuildingNameEN":null,"BuildingNameTC":null,"BaseHeight":4.7999999999999998,"TopHeight":35.700000000000003,"Storeys":9,"StoreysInBasement":null,"DateStamp":1599580800000}},{"type":"Feature","id":147480,"geometry":{"type":"Polygon","coordinates":[[[114.1581537644403,22.328257182592271],[114.15811257443046,22.328213071112984],[114.15812148848381,22.328206389148519],[114.15818151463087,22.328159713182696],[114.15821684978262,22.328199085895879],[114.15818885963755,22.32822076348657],[114.15819448857719,22.328226626969748],[114.1581537644403,22.328257182592271]]]},"properties":{"OBJECTID":147480,"Shape__Length":31.401821893254731,"Shape__Area":56.543543228253085,"GeoRefNo":"3434021020","DateCreate":1114790400000,"BuildingBlockType":"Tower","BuildingCSUID":"3434021020T20050430","BuildingID":1108228793,"Status":"Active","BuildingNameEN":null,"BuildingNameTC":null,"BaseHeight":3.7999999999999998,"TopHeight":21.899999999999999,"Storeys":5,"StoreysInBasement":null,"DateStamp":1599580800000}},{"type":"Feature","id":147482,"geometry":{"type":"Polygon","coordinates":[[[114.16332073825512,22.328142142225158],[114.16321956715718,22.328032768595776],[114.16320234052861,22.32801476160742],[114.1632513366536,22.327976566707445],[114.1632529506854,22.327975308520983],[114.16327301979354,22.327997250819095],[114.16328824196098,22.328013893833624],[114.16330551190447,22.328032775789818],[114.16335597111119,22.328088228684912],[114.1633477864022,22.328094626986246],[114.16336196086641,22.328110210618934],[114.16334561873434,22.328122869417314],[114.16333149910646,22.328107351801364],[114.16332077088694,22.328115748628747],[114.1633350622449,22.328131046636109],[114.16332073825512,22.328142142225158]]]},"properties":{"OBJECTID":147482,"Shape__Length":55.26511931110722,"Shape__Area":119.32420384883937,"GeoRefNo":"3486420998","DateCreate":1114790400000,"BuildingBlockType":"Tower","BuildingCSUID":"3486420998T20050430","BuildingID":1108228899,"Status":"Active","BuildingNameEN":null,"BuildingNameTC":"榮生樓","BaseHeight":4.5999999999999996,"TopHeight":34.5,"Storeys":9,"StoreysInBasement":null,"DateStamp":1599580800000}},{"type":"Feature","id":147483,"geometry":{"type":"Polygon","coordinates":[[[114.16273686816723,22.32800299188699],[114.16276530434985,22.328032729814559],[114.1628236115008,22.328094907458443],[114.16278944792559,22.328121496232814],[114.16270750204268,22.328032724788599],[114.16268005602298,22.328002182041303],[114.16269864857048,22.327987596018094],[114.16272230277019,22.328013797249639],[114.16273686816723,22.32800299188699]]]},"properties":{"OBJECTID":147483,"Shape__Length":43.713555394015685,"Shape__Area":70.979511633399454,"GeoRefNo":"3481521005","DateCreate":1114790400000,"BuildingBlockType":"Tower","BuildingCSUID":"3481521005T20050430","BuildingID":1108228914,"Status":"Active","BuildingNameEN":null,"BuildingNameTC":null,"BaseHeight":4.2999999999999998,"TopHeight":27.800000000000001,"Storeys":6,"StoreysInBasement":null,"DateStamp":1599580800000}},{"type":"Feature","id":147498,"geometry":{"type":"Polygon","coordinates":[[[114.16467348258223,22.325996099466661],[114.1645870906522,22.325901455212446],[114.16460078503027,22.32589053989193],[114.16457493860869,22.325862512957826],[114.16459352901168,22.325848086012606],[114.16470475023893,22.325971829035687],[114.16467348258223,22.325996099466661]]]},"properties":{"OBJECTID":147498,"Shape__Length":44.248580566859367,"Shape__Area":68.575331609932533,"GeoRefNo":"3500620765","DateCreate":1114790400000,"BuildingBlockType":"Tower","BuildingCSUID":"3500620765T20050430","BuildingID":1108230315,"Status":"Active","BuildingNameEN":null,"BuildingNameTC":null,"BaseHeight":4.5,"TopHeight":24.399999999999999,"Storeys":6,"StoreysInBasement":null,"DateStamp":1599580800000}},{"type":"Feature","id":147545,"geometry":{"type":"Polygon","coordinates":[[[114.16109769177437,22.327940393318261],[114.16098093707534,22.327810055976503],[114.1609673378765,22.327794874594336],[114.16098024397087,22.327784782101261],[114.1609883818527,22.327793302169948],[114.16103951401571,22.327754459931128],[114.16116189567185,22.327890355558683],[114.16115232300938,22.327897816063409],[114.16109769177437,22.327940393318261]]]},"properties":{"OBJECTID":147545,"Shape__Length":59.036980094128197,"Shape__Area":171.55177575115087,"GeoRefNo":"3463820978","DateCreate":1114790400000,"BuildingBlockType":"Tower","BuildingCSUID":"3463820978T20050430","BuildingID":1108229057,"Status":"Active","BuildingNameEN":null,"BuildingNameTC":null,"BaseHeight":4,"TopHeight":30.899999999999999,"Storeys":8,"StoreysInBasement":null,"DateStamp":1599580800000}},{"type":"Feature","id":147556,"geometry":{"type":"Polygon","coordinates":[[[114.16106194064687,22.327968256873977],[114.16095736071264,22.327851466034957],[114.1609620268032,22.327847560673568],[114.16093622679291,22.327819222247737],[114.16095475959864,22.327804717874326],[114.16096862601341,22.32781994371415],[114.16098093707534,22.327810055976503],[114.16109769177437,22.327940393318261],[114.16106194064687,22.327968256873977]]]},"properties":{"OBJECTID":147556,"Shape__Length":51.565073446312908,"Shape__Area":94.423195883229255,"GeoRefNo":"3463320982","DateCreate":1114790400000,"BuildingBlockType":"Tower","BuildingCSUID":"3463320982T20050430","BuildingID":1108229032,"Status":"Active","BuildingNameEN":null,"BuildingNameTC":null,"BaseHeight":4.0999999999999996,"TopHeight":32.799999999999997,"Storeys":8,"StoreysInBasement":null,"DateStamp":1599580800000}},{"type":"Feature","id":147652,"geometry":{"type":"Polygon","coordinates":[[[114.16366524555198,22.327173429910708],[114.16357281377348,22.327069879307441],[114.16361050755749,22.327040496950282],[114.16370271123225,22.327144147934046],[114.16368497906245,22.327158006820451],[114.16369812557679,22.327172273140942],[114.16368577858572,22.327181853501209],[114.16367235560367,22.32716787288502],[114.16366524555198,22.327173429910708]]]},"properties":{"OBJECTID":147652,"Shape__Length":44.025873706299791,"Shape__Area":78.793478314388523,"GeoRefNo":"3490520897","DateCreate":1114790400000,"BuildingBlockType":"Tower","BuildingCSUID":"3490520897T20050430","BuildingID":1108229574,"Status":"Active","BuildingNameEN":null,"BuildingNameTC":null,"BaseHeight":4.5999999999999996,"TopHeight":33.399999999999999,"Storeys":10,"StoreysInBasement":null,"DateStamp":1599580800000}},{"type":"Feature","id":147653,"geometry":{"type":"Polygon","coordinates":[[[114.16370271123225,22.327144147934046],[114.16361050755749,22.327040496950282],[114.16364681251574,22.3270121971482],[114.16365077092297,22.327016315146302],[114.16373049193055,22.327104603440798],[114.16370690600303,22.327122270415693],[114.1637294382196,22.327147976807055],[114.16371563864604,22.327158684249913],[114.16370271123225,22.327144147934046]]]},"properties":{"OBJECTID":147653,"Shape__Length":43.891849746521402,"Shape__Area":72.828709988095738,"GeoRefNo":"3490820894","DateCreate":1114790400000,"BuildingBlockType":"Tower","BuildingCSUID":"3490820894T20050430","BuildingID":1108229588,"Status":"Active","BuildingNameEN":null,"BuildingNameTC":null,"BaseHeight":4.7000000000000002,"TopHeight":24.899999999999999,"Storeys":6,"StoreysInBasement":null,"DateStamp":1599580800000}},{"type":"Feature","id":147655,"geometry":{"type":"Polygon","coordinates":[[[114.16071318240584,22.327156586184227],[114.16060372835236,22.327036638341188],[114.16064543421143,22.327004215032165],[114.16076957775495,22.327140715560859],[114.16075561583753,22.327150752124265],[114.16074101615303,22.327134964218885],[114.16071318240584,22.327156586184227]]]},"properties":{"OBJECTID":147655,"Shape__Length":50.682826022358498,"Shape__Area":101.58497709887989,"GeoRefNo":"3459920894","DateCreate":1114790400000,"BuildingBlockType":"Tower","BuildingCSUID":"3459920894T20050430","BuildingID":1108229589,"Status":"Active","BuildingNameEN":null,"BuildingNameTC":null,"BaseHeight":3.8999999999999999,"TopHeight":25.699999999999999,"Storeys":6,"StoreysInBasement":null,"DateStamp":1599580800000}},{"type":"Feature","id":147656,"geometry":{"type":"Polygon","coordinates":[[[114.16454226746409,22.327185094943346],[114.16443014978884,22.327061483966084],[114.16446707223801,22.327032885295761],[114.16454925846642,22.327125353543455],[114.16453567756936,22.327135818149983],[114.16456489622253,22.327167576959866],[114.16454226746409,22.327185094943346]]]},"properties":{"OBJECTID":147656,"Shape__Length":45.625514414761611,"Shape__Area":78.826502385508334,"GeoRefNo":"3499320897","DateCreate":1114790400000,"BuildingBlockType":"Tower","BuildingCSUID":"3499320897T20050430","BuildingID":1108229572,"Status":"Active","BuildingNameEN":null,"BuildingNameTC":null,"BaseHeight":4.7999999999999998,"TopHeight":24.600000000000001,"Storeys":6,"StoreysInBasement":null,"DateStamp":1599580800000}},{"type":"Feature","id":147660,"geometry":{"type":"Polygon","coordinates":[[[114.16420425265046,22.327021900912598],[114.16413494366742,22.327075988527231],[114.16402680081596,22.326954966920688],[114.16408138058758,22.326912484934855],[114.16411000375392,22.326943597010104],[114.16412359749465,22.326932933857428],[114.16420425265046,22.327021900912598]]]},"properties":{"OBJECTID":147660,"Shape__Length":53.333596125349594,"Shape__Area":152.91304496831805,"GeoRefNo":"3495320884","DateCreate":1114790400000,"BuildingBlockType":"Tower","BuildingCSUID":"3495320884T20050430","BuildingID":1108229646,"Status":"Active","BuildingNameEN":null,"BuildingNameTC":null,"BaseHeight":4.7000000000000002,"TopHeight":24.600000000000001,"Storeys":6,"StoreysInBasement":null,"DateStamp":1599580800000}},{"type":"Feature","id":147662,"geometry":{"type":"Polygon","coordinates":[[[114.16495296218041,22.327005372560645],[114.16489170039887,22.327052339117063],[114.16488050074385,22.327039878431364],[114.16492013428081,22.327009381899348],[114.16490543041718,22.32699315393921],[114.16488993720203,22.326976054648647],[114.16485046722991,22.327006463137309],[114.16483841883003,22.326993058147835],[114.16498882439382,22.326876374529022],[114.16504268926403,22.32693658311387],[114.16495296218041,22.327005372560645]]]},"properties":{"OBJECTID":147662,"Shape__Length":68.145298661051214,"Shape__Area":148.22441185475651,"GeoRefNo":"3503920881","DateCreate":1114790400000,"BuildingBlockType":"Tower","BuildingCSUID":"3503920881T20050430","BuildingID":1108229654,"Status":"Active","BuildingNameEN":null,"BuildingNameTC":null,"BaseHeight":4.7999999999999998,"TopHeight":36.600000000000001,"Storeys":9,"StoreysInBasement":null,"DateStamp":1599580800000}},{"type":"Feature","id":147667,"geometry":{"type":"Polygon","coordinates":[[[114.16107546512539,22.333368880869251],[114.16111714083891,22.333415167082535],[114.16110273162246,22.333425942416017],[114.16119119539006,22.333526337958752],[114.16113587156636,22.33356761887978],[114.16106217116119,22.333484811254397],[114.16103203365904,22.333450919086488],[114.16100646404917,22.333422306815788],[114.16107289699086,22.333366028672515],[114.16107546512539,22.333368880869251]]]},"properties":{"OBJECTID":147667,"Shape__Length":60.836387984817897,"Shape__Area":168.59529651255727,"GeoRefNo":"3464521605","DateCreate":1114790400000,"BuildingBlockType":"Tower","BuildingCSUID":"3464521605T20050430","BuildingID":1108225212,"Status":"Active","BuildingNameEN":null,"BuildingNameTC":"九福大廈","BaseHeight":5.7000000000000002,"TopHeight":36.799999999999997,"Storeys":9,"StoreysInBasement":null,"DateStamp":1599580800000}},{"type":"Feature","id":147725,"geometry":{"type":"Polygon","coordinates":[[[114.16043195590623,22.328152570634288],[114.16040817894796,22.328126255993826],[114.16052067061013,22.328038878746902],[114.16055876437004,22.328081130268718],[114.16046122363413,22.328156894456356],[114.1604468580137,22.328140995293236],[114.16043195590623,22.328152570634288]]]},"properties":{"OBJECTID":147725,"Shape__Length":42.40165088000542,"Shape__Area":87.57529490024362,"GeoRefNo":"3458021007","DateCreate":1114790400000,"BuildingBlockType":"Tower","BuildingCSUID":"3458021007T20050430","BuildingID":1108228881,"Status":"Active","BuildingNameEN":null,"BuildingNameTC":null,"BaseHeight":4.0999999999999996,"TopHeight":25.199999999999999,"Storeys":6,"StoreysInBasement":null,"DateStamp":1599580800000}},{"type":"Feature","id":147726,"geometry":{"type":"Polygon","coordinates":[[[114.16175684377157,22.328110805472065],[114.16172654950836,22.328077953720186],[114.1617432679398,22.328065024202552],[114.16177322924733,22.328098075676937],[114.16176384822937,22.328105363751224],[114.16175684377157,22.328110805472065]]]},"properties":{"OBJECTID":147726,"Shape__Length":14.019966361319927,"Shape__Area":10.631819983245245,"GeoRefNo":"3471021006","DateCreate":1114790400000,"BuildingBlockType":"Tower","BuildingCSUID":"3471021006T20050430","BuildingID":1108228920,"Status":"Active","BuildingNameEN":null,"BuildingNameTC":null,"BaseHeight":4.0999999999999996,"TopHeight":33.5,"Storeys":9,"StoreysInBasement":null,"DateStamp":1599580800000}},{"type":"Feature","id":147727,"geometry":{"type":"Polygon","coordinates":[[[114.16052067061013,22.328038878746902],[114.16040817894796,22.328126255993826],[114.16036853566077,22.328082381483458],[114.16038194767205,22.328071963808174],[114.1603707220273,22.328059539925658],[114.16035730991928,22.328069957690357],[114.16030918694889,22.328016698351867],[114.16040017342939,22.327945760798897],[114.1604395478186,22.32794890182975],[114.16052067061013,22.328038878746902]]]},"properties":{"OBJECTID":147727,"Shape__Length":63.852284441329275,"Shape__Area":232.24348714035412,"GeoRefNo":"3457121003","DateCreate":1114790400000,"BuildingBlockType":"Tower","BuildingCSUID":"3457121003T20050430","BuildingID":1108228911,"Status":"Active","BuildingNameEN":"Joyful Garden","BuildingNameTC":"愉翠苑","BaseHeight":4.2000000000000002,"TopHeight":49.899999999999999,"Storeys":18,"StoreysInBasement":null,"DateStamp":1599580800000}},{"type":"Feature","id":147728,"geometry":{"type":"Polygon","coordinates":[[[114.16087391622231,22.328056046730811],[114.16090360215385,22.328032557578062],[114.16094549869959,22.327998270121387],[114.16097576513,22.328032564652609],[114.16097875884171,22.32803588856174],[114.16097003788184,22.328042746076402],[114.16090722237811,22.328091866026757],[114.16087391622231,22.328056046730811]]]},"properties":{"OBJECTID":147728,"Shape__Length":30.032121562292225,"Shape__Area":51.381777804419023,"GeoRefNo":"3462421001","DateCreate":1114790400000,"BuildingBlockType":"Tower","BuildingCSUID":"3462421001T20050430","BuildingID":1108228933,"Status":"Active","BuildingNameEN":null,"BuildingNameTC":null,"BaseHeight":4.0999999999999996,"TopHeight":24.899999999999999,"Storeys":6,"StoreysInBasement":null,"DateStamp":1599580800000}},{"type":"Feature","id":147729,"geometry":{"type":"Polygon","coordinates":[[[114.16419544576388,22.328106107769525],[114.16412905498693,22.328032842414455],[114.16409912532468,22.328000222949086],[114.16413534142612,22.327971896755031],[114.16419141831267,22.328032847289222],[114.16422834575167,22.328073117631689],[114.16421604607635,22.328082800441777],[114.16424104876899,22.328110632841277],[114.16422061189446,22.32812661159452],[114.16419894600669,22.328103358771166],[114.16419544576388,22.328106107769525]]]},"properties":{"OBJECTID":147729,"Shape__Length":47.28744940044831,"Shape__Area":83.798835764721957,"GeoRefNo":"3495620997","DateCreate":1114790400000,"BuildingBlockType":"Tower","BuildingCSUID":"3495620997T20050430","BuildingID":1108228913,"Status":"Active","BuildingNameEN":null,"BuildingNameTC":null,"BaseHeight":4.9000000000000004,"TopHeight":30,"Storeys":8,"StoreysInBasement":null,"DateStamp":1599580800000}},{"type":"Feature","id":147737,"geometry":{"type":"Polygon","coordinates":[[[114.16477260276015,22.325919160850312],[114.16469962819882,22.325838888116241],[114.16466931776337,22.325805546272036],[114.16467414557547,22.325801757580393],[114.16469543852504,22.325784982421819],[114.16468712755734,22.325775442880516],[114.16469453074465,22.325769697181986],[114.16475605672399,22.325838933960139],[114.16480500164371,22.325894012891453],[114.16477260276015,22.325919160850312]]]},"properties":{"OBJECTID":147737,"Shape__Length":44.564504415817147,"Shape__Area":74.572085104983699,"GeoRefNo":"3501620756","DateCreate":1114790400000,"BuildingBlockType":"Tower","BuildingCSUID":"3501620756T20050430","BuildingID":1108230360,"Status":"Active","BuildingNameEN":null,"BuildingNameTC":null,"BaseHeight":4.2999999999999998,"TopHeight":30.300000000000001,"Storeys":8,"StoreysInBasement":null,"DateStamp":1599580800000}}]}