{"type":"FeatureCollection","features":[{"type":"Feature","id":113755,"geometry":{"type":"Polygon","coordinates":[[[114.16276185895994,22.332542644944958],[114.16268946240083,22.332461237721368],[114.1626615646189,22.332429895380209],[114.16265849497991,22.33242640379936],[114.16267688249859,22.332412077939946],[114.16274290382505,22.332484946924925],[114.16275785194236,22.332473166748734],[114.162824647189,22.332547809282669],[114.16279032486364,22.332574654225954],[114.16276185895994,22.332542644944958]]]},"properties":{"OBJECTID":113755,"Shape__Length":51.722756226758506,"Shape__Area":76.082536610365196,"GeoRefNo":"3481421496","DateCreate":1114790400000,"BuildingBlockType":"Tower","BuildingCSUID":"3481421496T20050430","BuildingID":1108225681,"Status":"Active","BuildingNameEN":null,"BuildingNameTC":null,"BaseHeight":6,"TopHeight":20.699999999999999,"Storeys":null,"StoreysInBasement":null,"DateStamp":1361808000000}},{"type":"Feature","id":114999,"geometry":{"type":"Polygon","coordinates":[[[114.16005442134313,22.328752395861844],[114.15992337199422,22.32860776891431],[114.15998799554001,22.328557028727332],[114.16003687549522,22.328518649843669],[114.16007169498471,22.328557037402845],[114.16016855875135,22.328663826999673],[114.16005442134313,22.328752395861844]]]},"properties":{"OBJECTID":114999,"Shape__Length":72.595335056997058,"Shape__Area":321.29934738368962,"GeoRefNo":"3453421066","DateCreate":1114790400000,"BuildingBlockType":"Tower","BuildingCSUID":"3453421066T20050430","BuildingID":1108228380,"Status":"Active","BuildingNameEN":"Hong Kong Nang Yan College of Higher Education","BuildingNameTC":"香港能仁專上學院","BaseHeight":4.0999999999999996,"TopHeight":32.100000000000001,"Storeys":7,"StoreysInBasement":null,"DateStamp":1599580800000}},{"type":"Feature","id":115004,"geometry":{"type":"Polygon","coordinates":[[[114.15999909272119,22.328510005010404],[114.15986588450974,22.328362268106392],[114.15992066918156,22.328319523316338],[114.16004938326992,22.32846227789889],[114.16005362652773,22.328466983994879],[114.16002451369641,22.32848994909552],[114.16001166960095,22.328475664540036],[114.16000254698501,22.328482685323824],[114.1600156720761,22.328497054254814],[114.15999909272119,22.328510005010404]]]},"properties":{"OBJECTID":115004,"Shape__Length":61.565679077404695,"Shape__Area":154.64759613332154,"GeoRefNo":"3452621043","DateCreate":1114790400000,"BuildingBlockType":"Tower","BuildingCSUID":"3452621043T20050430","BuildingID":1108228576,"Status":"Active","BuildingNameEN":"Hong Kong Nang Yan College of Higher Education","BuildingNameTC":"香港能仁專上學院","BaseHeight":4.0999999999999996,"TopHeight":27.5,"Storeys":6,"StoreysInBasement":null,"DateStamp":1599580800000}},{"type":"Feature","id":124760,"geometry":{"type":"Polygon","coordinates":[[[114.16471800647697,22.327985836161464],[114.164657484016,22.328032882960638],[114.16464717065632,22.328041127380519],[114.16463978486993,22.328032881630481],[114.16461577774146,22.328005851734666],[114.16468606894682,22.327950268529474],[114.16471800647697,22.327985836161464]]]},"properties":{"OBJECTID":124760,"Shape__Length":29.233484627845108,"Shape__Area":48.472080796292488,"GeoRefNo":"3500920996","DateCreate":1114790400000,"BuildingBlockType":"Tower","BuildingCSUID":"3500920996T20050430","BuildingID":1108228968,"Status":"Active","BuildingNameEN":null,"BuildingNameTC":null,"BaseHeight":5,"TopHeight":25.5,"Storeys":6,"StoreysInBasement":null,"DateStamp":1599580800000}},{"type":"Feature","id":125075,"geometry":{"type":"Polygon","coordinates":[[[114.15899198992361,22.328673349336864],[114.15901500443573,22.328699000441802],[114.15900009817182,22.328710571044287],[114.15900942839986,22.328720970155423],[114.15896948037995,22.328751978950169],[114.15896009841147,22.328741619926859],[114.15894519194434,22.328753190704813],[114.15893478947073,22.328741704911803],[114.1589220499756,22.328727638551236],[114.15893062127901,22.328720985312422],[114.15891983215208,22.328709072419404],[114.15892616741195,22.328704154792494],[114.15891537828669,22.328692241899176],[114.15895562412969,22.328661002057739],[114.15896635384566,22.328672960997881],[114.15897268900521,22.328668043459405],[114.15898341882021,22.328680002398421],[114.15899198992361,22.328673349336864]]]},"properties":{"OBJECTID":125075,"Shape__Length":36.059864020144637,"Shape__Area":64.268448957365649,"GeoRefNo":"3442421076","DateCreate":1114790400000,"BuildingBlockType":"Tower","BuildingCSUID":"3442421076T20050430","BuildingID":1108228379,"Status":"Active","BuildingNameEN":"Tak Fu Building","BuildingNameTC":"德富大廈","BaseHeight":11.1,"TopHeight":51.100000000000001,"Storeys":13,"StoreysInBasement":null,"DateStamp":1599580800000}},{"type":"Feature","id":127740,"geometry":{"type":"Polygon","coordinates":[[[114.16414662892159,22.332187578136331],[114.16418054196951,22.332161517087986],[114.16419912692562,22.332147235139953],[114.16422475153615,22.33217552605938],[114.16413622511064,22.332273448113732],[114.16410256193579,22.332310684063206],[114.16408072157552,22.332286323982586],[114.16406917284581,22.33227344284774],[114.16406592681329,22.332269822322903],[114.16408072408321,22.332258735109463],[114.16410064255162,22.332243810752029],[114.16409011303631,22.332231008535604],[114.16410195040224,22.332221911969153],[114.16410429448013,22.332220110642822],[114.16414662892159,22.332187578136331]]]},"properties":{"OBJECTID":127740,"Shape__Length":50.489143145713257,"Shape__Area":104.61477305785064,"GeoRefNo":"3495921460","DateCreate":1114790400000,"BuildingBlockType":"Tower","BuildingCSUID":"3495921460T20050430","BuildingID":1108225800,"Status":"Active","BuildingNameEN":null,"BuildingNameTC":null,"BaseHeight":7.7000000000000002,"TopHeight":37.299999999999997,"Storeys":10,"StoreysInBasement":null,"DateStamp":1599580800000}},{"type":"Feature","id":134847,"geometry":{"type":"Polygon","coordinates":[[[114.16143440197739,22.332478109508902],[114.16135628272045,22.33253874223022],[114.16135318654305,22.332541152105939],[114.16134056215012,22.332527234505751],[114.16127561978031,22.332577711663596],[114.16127171620965,22.332580750711038],[114.16121054526192,22.33251217536521],[114.16122123937224,22.332503916395318],[114.16133215056446,22.332418248331596],[114.1613613681084,22.332395681085444],[114.16136183262125,22.332396205354922],[114.16143440197739,22.332478109508902]]]},"properties":{"OBJECTID":134847,"Shape__Length":64.047456410214338,"Shape__Area":220.51633633258348,"GeoRefNo":"3466321492","DateCreate":1114790400000,"BuildingBlockType":"Tower","BuildingCSUID":"3466321492T20050430","BuildingID":1108225680,"Status":"Active","BuildingNameEN":"Tak Po Building","BuildingNameTC":"德寶大廈","BaseHeight":5.0999999999999996,"TopHeight":43.200000000000003,"Storeys":13,"StoreysInBasement":null,"DateStamp":1599580800000}},{"type":"Feature","id":134848,"geometry":{"type":"Polygon","coordinates":[[[114.16339971192069,22.332552323311702],[114.16327799563584,22.332417581083714],[114.16335251868183,22.332359850105899],[114.16346955314818,22.332489710864653],[114.16347377004796,22.332494392755063],[114.16339971192069,22.332552323311702]]]},"properties":{"OBJECTID":134848,"Shape__Length":58.890579305173816,"Shape__Area":194.25726595427398,"GeoRefNo":"3487621488","DateCreate":1114790400000,"BuildingBlockType":"Tower","BuildingCSUID":"3487621488T20050430","BuildingID":1108225688,"Status":"Active","BuildingNameEN":null,"BuildingNameTC":null,"BaseHeight":6.2999999999999998,"TopHeight":36.399999999999999,"Storeys":9,"StoreysInBasement":null,"DateStamp":1599580800000}},{"type":"Feature","id":135613,"geometry":{"type":"Polygon","coordinates":[[[114.15968926050228,22.333471070538049],[114.15967080581694,22.33345078066796],[114.15940609360817,22.333159795305466],[114.15971255681607,22.332923507196718],[114.16007596569571,22.332639392218578],[114.16035791927442,22.332954813471037],[114.16021357864983,22.333066223889162],[114.15971534756888,22.333450785378197],[114.15971249220668,22.333452914125807],[114.15968926050228,22.333471070538049]]]},"properties":{"OBJECTID":135613,"Shape__Length":270.00821143185846,"Shape__Area":4055.7394409921262,"GeoRefNo":"3452121554","DateCreate":1114790400000,"BuildingBlockType":"Tower","BuildingCSUID":"3452121554T20050430","BuildingID":1108225248,"Status":"Active","BuildingNameEN":"CLP Power Hong Kong Ltd Sham Shui Po Centre","BuildingNameTC":"中華電力有限公司深水埗中心","BaseHeight":4.9000000000000004,"TopHeight":44.899999999999999,"Storeys":9,"StoreysInBasement":1,"DateStamp":1599580800000}},{"type":"Feature","id":135614,"geometry":{"type":"Polygon","coordinates":[[[114.15811310392118,22.333371780955297],[114.15808498833681,22.333342950021812],[114.15809190455849,22.333337624947649],[114.15808012788892,22.333324740020256],[114.15810191194991,22.333307599611285],[114.15803107973105,22.333230608526492],[114.15810505096115,22.333172478044059],[114.1581011624569,22.333168181477468],[114.15813875402405,22.333138594597646],[114.15814268378126,22.333142904352741],[114.15818008010028,22.333113516474668],[114.15820226126479,22.333096085493388],[114.1582297945978,22.333074448137932],[114.15824053253419,22.333066009571635],[114.15827589344956,22.333038220933794],[114.15829699108943,22.333021641489211],[114.15833257458496,22.332993677580738],[114.1583284264465,22.332989171480445],[114.15836627892,22.332960446906931],[114.15846170922426,22.333064531290766],[114.15847967133904,22.333050026332835],[114.15849440899868,22.333066038494902],[114.15850217769784,22.333074479172108],[114.15852664419535,22.333101061640104],[114.15850825345679,22.333115295998557],[114.15858086885089,22.333194495866074],[114.15825609672568,22.333450624695097],[114.15824281141519,22.333460906020601],[114.15823352391554,22.333450622106323],[114.15815102831512,22.333360986926422],[114.15812907911466,22.333378293756425],[114.15811897731935,22.333367242413239],[114.15811310392118,22.333371780955297]]]},"properties":{"OBJECTID":135614,"Shape__Length":173.44708484105414,"Shape__Area":1582.2438571568352,"GeoRefNo":"3434921586","DateCreate":1114790400000,"BuildingBlockType":"Tower","BuildingCSUID":"3434921586T20050430","BuildingID":1108225251,"Status":"Active","BuildingNameEN":null,"BuildingNameTC":null,"BaseHeight":5.0999999999999996,"TopHeight":16.199999999999999,"Storeys":null,"StoreysInBasement":null,"DateStamp":1361808000000}},{"type":"Feature","id":135687,"geometry":{"type":"Polygon","coordinates":[[[114.15790978502775,22.329614137176574],[114.15786456478793,22.329564205863356],[114.15790028268826,22.329536372545068],[114.15788151938821,22.32951565455685],[114.1579187258494,22.329486661249362],[114.15793748905402,22.329507379233338],[114.15797023074408,22.329481865148001],[114.15795146744098,22.329461147167716],[114.15799016215739,22.329430994219194],[114.15800892536511,22.329451712195077],[114.15804315521581,22.329425038289219],[114.15808837518327,22.329474969192223],[114.15805414532898,22.329501643107438],[114.15807897471647,22.329529059219077],[114.15804028018617,22.329559212369045],[114.15801545080093,22.329531796251615],[114.15798270920445,22.329557310436247],[114.15800753858784,22.32958472646833],[114.15797033221601,22.32961371988614],[114.15794550283482,22.329586303758191],[114.15790978502775,22.329614137176574]]]},"properties":{"OBJECTID":135687,"Shape__Length":90.339864597149798,"Shape__Area":244.61472204825276,"GeoRefNo":"3431021170","DateCreate":1114790400000,"BuildingBlockType":"Tower","BuildingCSUID":"3431021170T20050430","BuildingID":1108227706,"Status":"Active","BuildingNameEN":"Po Wing Building Block B","BuildingNameTC":"寶榮大樓Ｂ座","BaseHeight":14,"TopHeight":45.200000000000003,"Storeys":10,"StoreysInBasement":null,"DateStamp":1599580800000}},{"type":"Feature","id":136015,"geometry":{"type":"Polygon","coordinates":[[[114.15945460842048,22.33381005174169],[114.15943376971282,22.333786481232313],[114.15950383667457,22.333731783663715],[114.15954656351623,22.333779775364125],[114.15950733733509,22.333810057386799],[114.15947600093716,22.333834248668545],[114.15945460842048,22.33381005174169]]]},"properties":{"OBJECTID":136015,"Shape__Length":32.618247858551548,"Shape__Area":64.857504663764885,"GeoRefNo":"3447721635","DateCreate":1114790400000,"BuildingBlockType":"Tower","BuildingCSUID":"3447721635T20050430","BuildingID":1108225090,"Status":"Active","BuildingNameEN":"KOWLOON TECHNICAL SCHOOL","BuildingNameTC":"九龍工業學校","BaseHeight":5.5,"TopHeight":9.4000000000000004,"Storeys":null,"StoreysInBasement":null,"DateStamp":1361808000000}},{"type":"Feature","id":136354,"geometry":{"type":"Polygon","coordinates":[[[114.15832165072875,22.328481592087645],[114.15827824357862,22.328433346106724],[114.15823132512608,22.328469834674351],[114.15819536462945,22.328429535175157],[114.15823557950098,22.328398258843809],[114.15818473802931,22.328341282118714],[114.15820091126139,22.328328704916476],[114.15819099115143,22.328317587759102],[114.15821876872864,22.32829600586809],[114.15827772874945,22.328362080200286],[114.15829035307668,22.328352262600358],[114.15834918562906,22.328418193937413],[114.15833656139708,22.328428011541849],[114.15835897813895,22.328452736495706],[114.15832165072875,22.328481592087645]]]},"properties":{"OBJECTID":136354,"Shape__Length":71.13761948205098,"Shape__Area":170.79213990538966,"GeoRefNo":"3434921037","DateCreate":1114790400000,"BuildingBlockType":"Tower","BuildingCSUID":"3434921037T20050430","BuildingID":1109261315,"Status":"Active","BuildingNameEN":"Kent Place","BuildingNameTC":"金濤閣","BaseHeight":18.899999999999999,"TopHeight":91.599999999999994,"Storeys":24,"StoreysInBasement":null,"DateStamp":1599580800000}},{"type":"Feature","id":136914,"geometry":{"type":"Polygon","coordinates":[[[114.16491982908259,22.333177668270906],[114.16498681659724,22.333125376013683],[114.16510132446842,22.333250539497101],[114.16503293904687,22.333303923044525],[114.16491982908259,22.333177668270906]]]},"properties":{"OBJECTID":136914,"Shape__Length":54.605719106789458,"Shape__Area":165.66704173988455,"GeoRefNo":"3504521573","DateCreate":1114790400000,"BuildingBlockType":"Tower","BuildingCSUID":"3504521573T20050430","BuildingID":1108225321,"Status":"Active","BuildingNameEN":"Shek Kip Mei Estate Block 24B Substation","BuildingNameTC":"石硤尾邨二十四座Ｂ變電站","BaseHeight":9.3000000000000007,"TopHeight":13.4,"Storeys":null,"StoreysInBasement":null,"DateStamp":1361808000000}},{"type":"Feature","id":136919,"geometry":{"type":"Polygon","coordinates":[[[114.16025708808169,22.333250772377557],[114.16029465018724,22.333221233037378],[114.16042286594075,22.333362343082097],[114.16040489149822,22.333376562435895],[114.16041569835485,22.333389590953271],[114.16039536831259,22.333405578706156],[114.16028780178999,22.333285156825344],[114.16025708808169,22.333250772377557]]]},"properties":{"OBJECTID":136919,"Shape__Length":54.81186032308878,"Shape__Area":110.51183051115365,"GeoRefNo":"3456421584","DateCreate":1114790400000,"BuildingBlockType":"Tower","BuildingCSUID":"3456421584T20050430","BuildingID":1108225283,"Status":"Active","BuildingNameEN":"Chit Tak Building","BuildingNameTC":"捷德樓","BaseHeight":5.4000000000000004,"TopHeight":25,"Storeys":6,"StoreysInBasement":null,"DateStamp":1599580800000}},{"type":"Feature","id":137927,"geometry":{"type":"Polygon","coordinates":[[[114.16327799563584,22.332417581083714],[114.16339971192069,22.332552323311702],[114.16341099176898,22.332564810286737],[114.16338073968147,22.332588257755869],[114.16337066736389,22.332596064397528],[114.16336369148658,22.33258825634012],[114.16335193286507,22.332575094647407],[114.16323852638752,22.332448156675945],[114.16327799563584,22.332417581083714]]]},"properties":{"OBJECTID":137927,"Shape__Length":53.291577511271981,"Shape__Area":113.91746071579855,"GeoRefNo":"3487221495","DateCreate":1114790400000,"BuildingBlockType":"Tower","BuildingCSUID":"3487221495T20050430","BuildingID":1108225673,"Status":"Active","BuildingNameEN":null,"BuildingNameTC":null,"BaseHeight":6.2999999999999998,"TopHeight":27.600000000000001,"Storeys":6,"StoreysInBasement":null,"DateStamp":1599580800000}},{"type":"Feature","id":137932,"geometry":{"type":"Polygon","coordinates":[[[114.16250495326111,22.332428370435039],[114.16241788259003,22.332330592510775],[114.16249197200101,22.332273310980369],[114.16251751441256,22.332253563088969],[114.16253499144129,22.332273314780778],[114.16254392412088,22.332283409950676],[114.16254909333843,22.332279365699861],[114.16265418682997,22.332398055439313],[114.16264285346618,22.332406823682351],[114.16262216336898,22.33238386767113],[114.16259099489722,22.332407907951161],[114.16261228665874,22.332430527991203],[114.16258957070421,22.332448076657474],[114.16256917739427,22.332424671845882],[114.16255304729273,22.332437091085019],[114.16257398917462,22.332460126776784],[114.16256214566531,22.33246928183927],[114.16251706174333,22.332418507763876],[114.16250495326111,22.332428370435039]]]},"properties":{"OBJECTID":137932,"Shape__Length":84.160393260187661,"Shape__Area":262.73775357423727,"GeoRefNo":"3479021478","DateCreate":1114790400000,"BuildingBlockType":"Tower","BuildingCSUID":"3479021478T20050430","BuildingID":1108225712,"Status":"Active","BuildingNameEN":null,"BuildingNameTC":null,"BaseHeight":5.7000000000000002,"TopHeight":36.399999999999999,"Storeys":10,"StoreysInBasement":null,"DateStamp":1599580800000}},{"type":"Feature","id":137934,"geometry":{"type":"Polygon","coordinates":[[[114.16081902297459,22.3324298847409],[114.16090917030904,22.332530603458945],[114.16087192135397,22.332559435338851],[114.16086791010741,22.332554959207989],[114.16078205418606,22.332458559857336],[114.16081902297459,22.3324298847409]]]},"properties":{"OBJECTID":137934,"Shape__Length":38.972156557538781,"Shape__Area":72.208227421859476,"GeoRefNo":"3461621493","DateCreate":1114790400000,"BuildingBlockType":"Tower","BuildingCSUID":"3461621493T20050430","BuildingID":1108225686,"Status":"Active","BuildingNameEN":null,"BuildingNameTC":null,"BaseHeight":5.0999999999999996,"TopHeight":24.399999999999999,"Storeys":6,"StoreysInBasement":null,"DateStamp":1599580800000}},{"type":"Feature","id":137936,"geometry":{"type":"Polygon","coordinates":[[[114.16237463919893,22.33256696191604],[114.16226768138597,22.332446718751221],[114.16230343416967,22.332419076917152],[114.16241121001248,22.332539109177244],[114.16240616495091,22.332542973003623],[114.16243133069823,22.332570519863893],[114.16241310215382,22.332584637464119],[114.16238830522749,22.332556550514969],[114.16237463919893,22.33256696191604]]]},"properties":{"OBJECTID":137936,"Shape__Length":52.355673178656637,"Shape__Area":93.220535021934168,"GeoRefNo":"3477121494","DateCreate":1114790400000,"BuildingBlockType":"Tower","BuildingCSUID":"3477121494T20050430","BuildingID":1108225678,"Status":"Active","BuildingNameEN":null,"BuildingNameTC":null,"BaseHeight":5.5,"TopHeight":33.700000000000003,"Storeys":10,"StoreysInBasement":null,"DateStamp":1599580800000}},{"type":"Feature","id":137991,"geometry":{"type":"Polygon","coordinates":[[[114.15968926050228,22.333471070538049],[114.15951527303164,22.333605933392821],[114.15937640819666,22.333450749227929],[114.1593634701602,22.333436290600222],[114.15926020928313,22.333320894290264],[114.15923446428594,22.333292123595314],[114.15940609360817,22.333159795305466],[114.15967080581694,22.33345078066796],[114.15968926050228,22.333471070538049]]]},"properties":{"OBJECTID":137991,"Shape__Length":136.66558048724082,"Shape__Area":1045.8996114748227,"GeoRefNo":"3448021608","DateCreate":1114790400000,"BuildingBlockType":"Tower","BuildingCSUID":"3448021608T20050430","BuildingID":1108225191,"Status":"Active","BuildingNameEN":null,"BuildingNameTC":null,"BaseHeight":4.9000000000000004,"TopHeight":33.100000000000001,"Storeys":7,"StoreysInBasement":null,"DateStamp":1599580800000}},{"type":"Feature","id":138130,"geometry":{"type":"Polygon","coordinates":[[[114.1642664656932,22.332856875880907],[114.16427581911508,22.332849837178884],[114.16425395274635,22.332825221104265],[114.16427717122156,22.332807174207911],[114.16432621303028,22.332860015648183],[114.16434308896964,22.332846833387272],[114.16436267556703,22.33286848480618],[114.16431225715429,22.332907591274687],[114.16429059950934,22.332883604833274],[114.1642664656932,22.332856875880907]]]},"properties":{"OBJECTID":138130,"Shape__Length":35.123839748792598,"Shape__Area":51.008145868011304,"GeoRefNo":"3497321534","DateCreate":1114790400000,"BuildingBlockType":"Tower","BuildingCSUID":"3497321534T20050430","BuildingID":1108225523,"Status":"Active","BuildingNameEN":null,"BuildingNameTC":null,"BaseHeight":9,"TopHeight":26.5,"Storeys":5,"StoreysInBasement":null,"DateStamp":1599580800000}},{"type":"Feature","id":138131,"geometry":{"type":"Polygon","coordinates":[[[114.16303825089732,22.332819568123707],[114.16292532035622,22.332692445211801],[114.16300787420086,22.332628781541139],[114.16306687144636,22.332694367443498],[114.16312209026421,22.332755752701239],[114.16309263667698,22.332778172232683],[114.16311113557614,22.332799158789179],[114.16309932740836,22.3328082931232],[114.16308089404998,22.332787116025706],[114.16307259956912,22.332793424987582],[114.16309136317189,22.332814436944687],[114.16307964974959,22.332823481882546],[114.1630610112914,22.332802244712081],[114.16303825089732,22.332819568123707]]]},"properties":{"OBJECTID":138131,"Shape__Length":70.93095744829526,"Shape__Area":212.61313659098192,"GeoRefNo":"3484021519","DateCreate":1114790400000,"BuildingBlockType":"Tower","BuildingCSUID":"3484021519T20050430","BuildingID":1108225567,"Status":"Active","BuildingNameEN":null,"BuildingNameTC":null,"BaseHeight":6.2999999999999998,"TopHeight":35.200000000000003,"Storeys":9,"StoreysInBasement":null,"DateStamp":1599580800000}},{"type":"Feature","id":138340,"geometry":{"type":"Polygon","coordinates":[[[114.1626565277142,22.332899728808371],[114.16274563728626,22.332999164066933],[114.16275969151043,22.333014861969499],[114.16271990186308,22.333046243113504],[114.16271081624809,22.333053408628484],[114.16267356611009,22.333082786909458],[114.1625700146669,22.332966442388777],[114.1626565277142,22.332899728808371]]]},"properties":{"OBJECTID":138340,"Shape__Length":56.532773003049243,"Shape__Area":193.35286292545734,"GeoRefNo":"3480421549","DateCreate":1114790400000,"BuildingBlockType":"Tower","BuildingCSUID":"3480421549T20050430","BuildingID":1108225443,"Status":"Active","BuildingNameEN":null,"BuildingNameTC":null,"BaseHeight":6.0999999999999996,"TopHeight":36.299999999999997,"Storeys":10,"StoreysInBasement":null,"DateStamp":1599580800000}},{"type":"Feature","id":138358,"geometry":{"type":"Polygon","coordinates":[[[114.16415741936547,22.332865346291385],[114.16417142731572,22.33285437225225],[114.16417831211356,22.332862068107765],[114.16425222168009,22.332944684065055],[114.16425721994447,22.332950271040161],[114.1642522208314,22.33295414802171],[114.16422158709686,22.332977906088416],[114.16414823725009,22.332894003935873],[114.16416914067672,22.332877860790994],[114.16415741936547,22.332865346291385]]]},"properties":{"OBJECTID":138358,"Shape__Length":37.094524062611811,"Shape__Area":59.837278610399544,"GeoRefNo":"3496221541","DateCreate":1114790400000,"BuildingBlockType":"Tower","BuildingCSUID":"3496221541T20050430","BuildingID":1108225490,"Status":"Active","BuildingNameEN":"Cheung Hing Court","BuildingNameTC":"長興閣","BaseHeight":9.4000000000000004,"TopHeight":27.899999999999999,"Storeys":6,"StoreysInBasement":null,"DateStamp":1599580800000}},{"type":"Feature","id":138790,"geometry":{"type":"Polygon","coordinates":[[[114.16130372227362,22.33272671873884],[114.16136928671045,22.332799612889985],[114.161436289421,22.332873991958472],[114.1614017518465,22.332900772559203],[114.1612691331664,22.332753500480845],[114.16130372227362,22.33272671873884]]]},"properties":{"OBJECTID":138790,"Shape__Length":51.814063459566199,"Shape__Area":98.535232343092488,"GeoRefNo":"3467021530","DateCreate":1114790400000,"BuildingBlockType":"Tower","BuildingCSUID":"3467021530T20050430","BuildingID":1108225528,"Status":"Active","BuildingNameEN":"Wing Pont House","BuildingNameTC":"永邦樓","BaseHeight":5.5,"TopHeight":27.800000000000001,"Storeys":6,"StoreysInBasement":null,"DateStamp":1599580800000}},{"type":"Feature","id":138791,"geometry":{"type":"Polygon","coordinates":[[[114.16292477930308,22.332912660357895],[114.1628082150979,22.332782756087106],[114.16284774431983,22.332752268654311],[114.16296396534969,22.332882655191057],[114.16294286259588,22.332898820649465],[114.16295895584335,22.332916692640975],[114.16294431516037,22.332927997220818],[114.16292821639027,22.332910027335878],[114.16292477930308,22.332912660357895]]]},"properties":{"OBJECTID":138791,"Shape__Length":53.192003086138001,"Shape__Area":103.65595009342447,"GeoRefNo":"3482621530","DateCreate":1114790400000,"BuildingBlockType":"Tower","BuildingCSUID":"3482621530T20050430","BuildingID":1108225510,"Status":"Active","BuildingNameEN":null,"BuildingNameTC":null,"BaseHeight":6.2999999999999998,"TopHeight":40.600000000000001,"Storeys":10,"StoreysInBasement":null,"DateStamp":1599580800000}},{"type":"Feature","id":138792,"geometry":{"type":"Polygon","coordinates":[[[114.16296396534969,22.332882655191057],[114.16284774431983,22.332752268654311],[114.16288489214453,22.332723620445595],[114.1629901822478,22.332841198765145],[114.1629733752966,22.332854366261476],[114.16298782719721,22.332870330038801],[114.16296705083153,22.332886116424529],[114.16296396534969,22.332882655191057]]]},"properties":{"OBJECTID":138792,"Shape__Length":48.510248043404317,"Shape__Area":90.970319040041332,"GeoRefNo":"3483121527","DateCreate":1114790400000,"BuildingBlockType":"Tower","BuildingCSUID":"3483121527T20050430","BuildingID":1108225537,"Status":"Active","BuildingNameEN":"HUNG HING MANSION","BuildingNameTC":"鴻興大廈","BaseHeight":6.2999999999999998,"TopHeight":44.299999999999997,"Storeys":11,"StoreysInBasement":null,"DateStamp":1599580800000}},{"type":"Feature","id":139487,"geometry":{"type":"Polygon","coordinates":[[[114.16193057322239,22.333028659823281],[114.16201357810844,22.333122207254615],[114.16200534903189,22.33312898557703],[114.16203326712881,22.333160913573039],[114.16200086762451,22.333186044518694],[114.16193056488778,22.333107120021552],[114.16188014882654,22.333050520920402],[114.16189941280932,22.333035632626164],[114.16188513227353,22.333019405978121],[114.16190722274663,22.333002343560679],[114.16193057322239,22.333028659823281]]]},"properties":{"OBJECTID":139487,"Shape__Length":54.597418713317914,"Shape__Area":109.3557190751692,"GeoRefNo":"3473021560","DateCreate":1114790400000,"BuildingBlockType":"Tower","BuildingCSUID":"3473021560T20050430","BuildingID":1108225378,"Status":"Active","BuildingNameEN":"Yen Chow Street Public Toilet","BuildingNameTC":"欽州街公廁","BaseHeight":5.7000000000000002,"TopHeight":15.9,"Storeys":3,"StoreysInBasement":null,"DateStamp":1783612800000}},{"type":"Feature","id":140437,"geometry":{"type":"Polygon","coordinates":[[[114.16442769088506,22.332819589569102],[114.16437769228517,22.332858124003145],[114.1643573880294,22.332835679645918],[114.1643739622515,22.332822734320946],[114.16432632958174,22.332768868935887],[114.16435309528154,22.33274803718119],[114.16437713697337,22.332774807744908],[114.16438305829625,22.332770200978825],[114.16442769088506,22.332819589569102]]]},"properties":{"OBJECTID":140437,"Shape__Length":35.288784435934488,"Shape__Area":52.945899577699571,"GeoRefNo":"3498021528","DateCreate":1114790400000,"BuildingBlockType":"Tower","BuildingCSUID":"3498021528T20050430","BuildingID":1108225552,"Status":"Active","BuildingNameEN":null,"BuildingNameTC":null,"BaseHeight":9,"TopHeight":26.399999999999999,"Storeys":6,"StoreysInBasement":null,"DateStamp":1599580800000}},{"type":"Feature","id":140439,"geometry":{"type":"Polygon","coordinates":[[[114.16313900216976,22.332813686923039],[114.16325359407216,22.332724947461077],[114.16338565041364,22.332872604379268],[114.16326470863052,22.332967090823356],[114.16319100670729,22.332884217513694],[114.16320721488157,22.332871445935389],[114.16318942875991,22.332852210659972],[114.16317969746473,22.332859518017461],[114.16313900216976,22.332813686923039]]]},"properties":{"OBJECTID":140439,"Shape__Length":77.679786003332083,"Shape__Area":334.3018456699939,"GeoRefNo":"3486721529","DateCreate":1114790400000,"BuildingBlockType":"Tower","BuildingCSUID":"3486721529T20050430","BuildingID":1108225497,"Status":"Active","BuildingNameEN":"Kin Sun Building","BuildingNameTC":"建新大廈","BaseHeight":8.0999999999999996,"TopHeight":45.399999999999999,"Storeys":12,"StoreysInBasement":null,"DateStamp":1599580800000}},{"type":"Feature","id":140662,"geometry":{"type":"Polygon","coordinates":[[[114.16274563728626,22.332999164066933],[114.1626565277142,22.332899728808371],[114.16277001600109,22.332812212604281],[114.16284791954266,22.33290014350262],[114.16282847123425,22.3329151689782],[114.16286106804158,22.332951658491929],[114.16278311177258,22.333010874652636],[114.16276182403203,22.332986692075838],[114.16274563728626,22.332999164066933]]]},"properties":{"OBJECTID":140662,"Shape__Length":65.992517027486926,"Shape__Area":248.90644658102232,"GeoRefNo":"3481421540","DateCreate":1114790400000,"BuildingBlockType":"Tower","BuildingCSUID":"3481421540T20050430","BuildingID":1108225476,"Status":"Active","BuildingNameEN":null,"BuildingNameTC":null,"BaseHeight":6.2000000000000002,"TopHeight":33.200000000000003,"Storeys":9,"StoreysInBasement":null,"DateStamp":1599580800000}},{"type":"Feature","id":140663,"geometry":{"type":"Polygon","coordinates":[[[114.16049041015131,22.332791046764616],[114.16050834043386,22.332811088149285],[114.16053805332869,22.332787789445131],[114.16055395416677,22.332805580742249],[114.16049542712655,22.33285051300253],[114.16046181981135,22.332813017084888],[114.16049041015131,22.332791046764616]]]},"properties":{"OBJECTID":140663,"Shape__Length":26.496571169239385,"Shape__Area":30.814784097347417,"GeoRefNo":"3458021529","DateCreate":1114790400000,"BuildingBlockType":"Tower","BuildingCSUID":"3458021529T20050430","BuildingID":1108225557,"Status":"Active","BuildingNameEN":null,"BuildingNameTC":null,"BaseHeight":5,"TopHeight":20.5,"Storeys":4,"StoreysInBasement":null,"DateStamp":1599580800000}},{"type":"Feature","id":140894,"geometry":{"type":"Polygon","coordinates":[[[114.16284791954266,22.33290014350262],[114.16277001600109,22.332812212604281],[114.1628082150979,22.332782756087106],[114.16292477930308,22.332912660357895],[114.16292088702417,22.332915645081833],[114.16293719033065,22.332933492349735],[114.16292267186247,22.332944712411816],[114.16290648952418,22.332926668015347],[114.16288560207275,22.332942667863858],[114.16284791954266,22.33290014350262]]]},"properties":{"OBJECTID":140894,"Shape__Length":53.018057315148397,"Shape__Area":101.84935934703589,"GeoRefNo":"3482221534","DateCreate":1114790400000,"BuildingBlockType":"Tower","BuildingCSUID":"3482221534T20050430","BuildingID":1108225502,"Status":"Active","BuildingNameEN":null,"BuildingNameTC":null,"BaseHeight":6.2999999999999998,"TopHeight":40.600000000000001,"Storeys":10,"StoreysInBasement":null,"DateStamp":1599580800000}},{"type":"Feature","id":140896,"geometry":{"type":"Polygon","coordinates":[[[114.161436289421,22.332873991958472],[114.16136928671045,22.332799612889985],[114.16130372227362,22.33272671873884],[114.16134353975067,22.332695888719122],[114.16137236238836,22.33272783199806],[114.16147561114225,22.33284350177075],[114.161436289421,22.332873991958472]]]},"properties":{"OBJECTID":140896,"Shape__Length":53.149331563544074,"Shape__Area":113.08416590812077,"GeoRefNo":"3467021527","DateCreate":1114790400000,"BuildingBlockType":"Tower","BuildingCSUID":"3467021527T20050430","BuildingID":1108225546,"Status":"Active","BuildingNameEN":"Wing Pont House","BuildingNameTC":null,"BaseHeight":5.4000000000000004,"TopHeight":27.800000000000001,"Storeys":6,"StoreysInBasement":null,"DateStamp":1599580800000}},{"type":"Feature","id":141322,"geometry":{"type":"Polygon","coordinates":[[[114.16471655311508,22.332863177733234],[114.1650137340052,22.332633065200771],[114.1650543151049,22.332676825466756],[114.16508494870736,22.332654494163567],[114.16515176221507,22.332727418573953],[114.16478871506591,22.333011499267791],[114.16478566409261,22.333008042315967],[114.16470996089548,22.33306618222279],[114.16470623710303,22.333061992207078],[114.16436890966799,22.333321472406276],[114.16433067706711,22.333279060057492],[114.16430743243977,22.333253274154142],[114.16425790466342,22.333198331528187],[114.16459179068011,22.332938142666656],[114.16461107404278,22.332959162975566],[114.16464980465801,22.332929436411689],[114.16463116711958,22.33290812067537],[114.16466857970863,22.332878449455325],[114.16467994894799,22.332891532547173],[114.16471655311508,22.332863177733234]]]},"properties":{"OBJECTID":141322,"Shape__Length":251.801637465895,"Shape__Area":1797.8597361039394,"GeoRefNo":"3501721543","DateCreate":1114790400000,"BuildingBlockType":"Tower","BuildingCSUID":"3501721543T20050430","BuildingID":1108225314,"Status":"Active","BuildingNameEN":"Shek Kip Mei Estate Block 21","BuildingNameTC":"石硤尾邨第二十一座","BaseHeight":8.6999999999999993,"TopHeight":43.5,"Storeys":13,"StoreysInBasement":null,"DateStamp":1786636800000}},{"type":"Feature","id":141900,"geometry":{"type":"Polygon","coordinates":[[[114.16359510590108,22.328575381675901],[114.16349885736757,22.328469048322919],[114.16350808843897,22.328461875817986],[114.16353185970218,22.328443389274423],[114.16361580952541,22.328535988616082],[114.16360996688913,22.328540525827538],[114.16362203943929,22.328554297459135],[114.16359510590108,22.328575381675901]]]},"properties":{"OBJECTID":141900,"Shape__Length":39.617349436300962,"Shape__Area":66.693264407838214,"GeoRefNo":"3489721052","DateCreate":1114790400000,"BuildingBlockType":"Tower","BuildingCSUID":"3489721052T20050430","BuildingID":1108228519,"Status":"Active","BuildingNameEN":null,"BuildingNameTC":null,"BaseHeight":4.7999999999999998,"TopHeight":30.399999999999999,"Storeys":8,"StoreysInBasement":null,"DateStamp":1599580800000}},{"type":"Feature","id":141902,"geometry":{"type":"Polygon","coordinates":[[[114.16085061094452,22.3284941238588],[114.16089878436827,22.328456792734713],[114.16099088911218,22.328557129834426],[114.16101408678909,22.328582400847615],[114.1609791536338,22.328609558270923],[114.16094943785049,22.328576805136734],[114.16093596364617,22.328586936221509],[114.16085061094452,22.3284941238588]]]},"properties":{"OBJECTID":141902,"Shape__Length":49.497242738693664,"Shape__Area":109.59881515167589,"GeoRefNo":"3462521054","DateCreate":1114790400000,"BuildingBlockType":"Tower","BuildingCSUID":"3462521054T20050430","BuildingID":1108228492,"Status":"Active","BuildingNameEN":null,"BuildingNameTC":null,"BaseHeight":4.2999999999999998,"TopHeight":24,"Storeys":6,"StoreysInBasement":null,"DateStamp":1599580800000}},{"type":"Feature","id":141904,"geometry":{"type":"Polygon","coordinates":[[[114.16015299021434,22.32845078200258],[114.16014059592524,22.328437209745687],[114.160136537836,22.328432766099805],[114.16015046527889,22.32842186165842],[114.16016594693768,22.328438753965056],[114.16017797145997,22.328429808691499],[114.16019624933752,22.328449672705837],[114.16020559465498,22.328442279693277],[114.16021816653671,22.328456230344852],[114.16030784802498,22.328555746703952],[114.16027331915907,22.328582546314951],[114.1602500407856,22.328557055744373],[114.16015299021434,22.32845078200258]]]},"properties":{"OBJECTID":141904,"Shape__Length":52.872015561143847,"Shape__Area":91.533441543200794,"GeoRefNo":"3455321051","DateCreate":1114790400000,"BuildingBlockType":"Tower","BuildingCSUID":"3455321051T20050430","BuildingID":1108228515,"Status":"Active","BuildingNameEN":null,"BuildingNameTC":null,"BaseHeight":4.0999999999999996,"TopHeight":28.899999999999999,"Storeys":7,"StoreysInBasement":null,"DateStamp":1599580800000}},{"type":"Feature","id":142299,"geometry":{"type":"Polygon","coordinates":[[[114.16459544988001,22.328554443484663],[114.16461210472401,22.328541467249782],[114.16464158630687,22.328574813546652],[114.16466296226399,22.328558275367033],[114.1646828609698,22.328542842868853],[114.16465269842983,22.328509912657491],[114.16466965651254,22.328496761065445],[114.16469105959895,22.328521001118936],[114.16478779870687,22.328629204846891],[114.16471337870584,22.328686836641698],[114.16467730060288,22.328646366629499],[114.16459544988001,22.328554443484663]]]},"properties":{"OBJECTID":142299,"Shape__Length":67.692472690415798,"Shape__Area":163.4917502955372,"GeoRefNo":"3501421063","DateCreate":1114790400000,"BuildingBlockType":"Tower","BuildingCSUID":"3501421063T20050430","BuildingID":1108228432,"Status":"Active","BuildingNameEN":"Wing Wah Building","BuildingNameTC":"榮華樓","BaseHeight":5.0999999999999996,"TopHeight":51.600000000000001,"Storeys":15,"StoreysInBasement":null,"DateStamp":1599580800000}},{"type":"Feature","id":142332,"geometry":{"type":"Polygon","coordinates":[[[114.16489995157129,22.328542352016282],[114.16481355353677,22.328445638552797],[114.16484965923286,22.32841745586909],[114.16493578545351,22.328514601678084],[114.16489995157129,22.328542352016282]]]},"properties":{"OBJECTID":142332,"Shape__Length":37.528919181495667,"Shape__Area":67.296856596529381,"GeoRefNo":"3503021048","DateCreate":1114790400000,"BuildingBlockType":"Tower","BuildingCSUID":"3503021048T20050430","BuildingID":1108228546,"Status":"Active","BuildingNameEN":null,"BuildingNameTC":null,"BaseHeight":5.0999999999999996,"TopHeight":24.899999999999999,"Storeys":6,"StoreysInBasement":null,"DateStamp":1599580800000}},{"type":"Feature","id":142336,"geometry":{"type":"Polygon","coordinates":[[[114.16020395579838,22.328636359056535],[114.16013170818565,22.32855704359666],[114.16007177467223,22.328491246807218],[114.16010379449237,22.328466108155908],[114.16018697592607,22.328557049281052],[114.16023645786083,22.328611147100599],[114.16020395579838,22.328636359056535]]]},"properties":{"OBJECTID":142336,"Shape__Length":50.828097402194402,"Shape__Area":91.425789324582254,"GeoRefNo":"3454521057","DateCreate":1114790400000,"BuildingBlockType":"Tower","BuildingCSUID":"3454521057T20050430","BuildingID":1108228469,"Status":"Active","BuildingNameEN":"Yee King House","BuildingNameTC":"怡景樓","BaseHeight":4.0999999999999996,"TopHeight":24,"Storeys":6,"StoreysInBasement":null,"DateStamp":1599580800000}},{"type":"Feature","id":142338,"geometry":{"type":"Polygon","coordinates":[[[114.16030784802498,22.328555746703952],[114.16021816653671,22.328456230344852],[114.16025501705305,22.328428202191045],[114.16034462183028,22.328527208836146],[114.16032082674307,22.328545671520214],[114.16030784802498,22.328555746703952]]]},"properties":{"OBJECTID":142338,"Shape__Length":38.550097506646367,"Shape__Area":70.609336161355188,"GeoRefNo":"3455721049","DateCreate":1114790400000,"BuildingBlockType":"Tower","BuildingCSUID":"3455721049T20050430","BuildingID":1108228535,"Status":"Active","BuildingNameEN":"Ying Tat Building","BuildingNameTC":"盈達樓","BaseHeight":4.0999999999999996,"TopHeight":26.899999999999999,"Storeys":6,"StoreysInBasement":null,"DateStamp":1599580800000}},{"type":"Feature","id":142499,"geometry":{"type":"Polygon","coordinates":[[[114.16169378826282,22.32868995416856],[114.16165575502279,22.328647957313585],[114.1615958198266,22.328581775752784],[114.16164170171891,22.328546451691647],[114.16172859489942,22.328643148015807],[114.16173931757341,22.328655080492876],[114.16169378826282,22.32868995416856]]]},"properties":{"OBJECTID":142499,"Shape__Length":43.554424984441134,"Shape__Area":95.681103881856544,"GeoRefNo":"3470121065","DateCreate":1114790400000,"BuildingBlockType":"Tower","BuildingCSUID":"3470121065T20050430","BuildingID":1108228427,"Status":"Active","BuildingNameEN":null,"BuildingNameTC":null,"BaseHeight":4.0999999999999996,"TopHeight":29.699999999999999,"Storeys":8,"StoreysInBasement":null,"DateStamp":1599580800000}},{"type":"Feature","id":142502,"geometry":{"type":"Polygon","coordinates":[[[114.16079764136697,22.32875059831871],[114.1607827721263,22.328762197715758],[114.16075514474564,22.328731889332339],[114.16073222743904,22.328749574720451],[114.16064501254228,22.328653554583635],[114.1606808831213,22.328625717864803],[114.16079764136697,22.32875059831871]]]},"properties":{"OBJECTID":142502,"Shape__Length":46.528432810681643,"Shape__Area":77.075253321470001,"GeoRefNo":"3460221073","DateCreate":1114790400000,"BuildingBlockType":"Tower","BuildingCSUID":"3460221073T20050430","BuildingID":1108228369,"Status":"Active","BuildingNameEN":null,"BuildingNameTC":"明德大廈","BaseHeight":4.2999999999999998,"TopHeight":44.899999999999999,"Storeys":13,"StoreysInBasement":null,"DateStamp":1599580800000}},{"type":"Feature","id":142503,"geometry":{"type":"Polygon","coordinates":[[[114.16341288972903,22.32869951410596],[114.16336647764435,22.328648108444451],[114.16332610012887,22.328603386536539],[114.16335940549254,22.328577490405724],[114.16342251204945,22.328648113089343],[114.1634457925141,22.328674166261411],[114.16344064093423,22.328678136673993],[114.16346531520418,22.328705970247615],[114.16345261539384,22.328715835112853],[114.16342769806138,22.328688103562804],[114.16341288972903,22.32869951410596]]]},"properties":{"OBJECTID":142503,"Shape__Length":44.667187618497344,"Shape__Area":68.585094618737543,"GeoRefNo":"3487821067","DateCreate":1114790400000,"BuildingBlockType":"Tower","BuildingCSUID":"3487821067T20050430","BuildingID":1108228410,"Status":"Active","BuildingNameEN":null,"BuildingNameTC":null,"BaseHeight":4.5999999999999996,"TopHeight":34.799999999999997,"Storeys":9,"StoreysInBasement":null,"DateStamp":1599580800000}},{"type":"Feature","id":142506,"geometry":{"type":"Polygon","coordinates":[[[114.16183929969,22.328714410141142],[114.16180745704658,22.328679990825083],[114.16182203544079,22.32866876616648],[114.16185306363445,22.328703804360661],[114.16184566522746,22.32870951190894],[114.16183929969,22.328714410141142]]]},"properties":{"OBJECTID":142506,"Shape__Length":13.846660222148312,"Shape__Area":9.5294596995117811,"GeoRefNo":"3471921073","DateCreate":1114790400000,"BuildingBlockType":"Tower","BuildingCSUID":"3471921073T20050430","BuildingID":1108228412,"Status":"Active","BuildingNameEN":null,"BuildingNameTC":null,"BaseHeight":4.2999999999999998,"TopHeight":32.5,"Storeys":9,"StoreysInBasement":null,"DateStamp":1599580800000}},{"type":"Feature","id":142507,"geometry":{"type":"Polygon","coordinates":[[[114.161907448131,22.328661836306654],[114.16187583573503,22.328627308567697],[114.16188873648434,22.32861738279772],[114.16192039246779,22.328651873964361],[114.16191358340308,22.328657124893319],[114.161907448131,22.328661836306654]]]},"properties":{"OBJECTID":142507,"Shape__Length":13.500175672863332,"Shape__Area":8.6769522166204105,"GeoRefNo":"3472521067","DateCreate":1114790400000,"BuildingBlockType":"Tower","BuildingCSUID":"3472521067T20050430","BuildingID":1108228451,"Status":"Active","BuildingNameEN":null,"BuildingNameTC":null,"BaseHeight":4.2999999999999998,"TopHeight":32.5,"Storeys":9,"StoreysInBasement":null,"DateStamp":1599580800000}},{"type":"Feature","id":142530,"geometry":{"type":"Polygon","coordinates":[[[114.16374284851541,22.328574784198455],[114.16372787820671,22.328558246905892],[114.16376047676746,22.328533183797028],[114.16374655786458,22.328517851993261],[114.16386609065751,22.328425391847631],[114.16389483270214,22.328457523878924],[114.16374284851541,22.328574784198455]]]},"properties":{"OBJECTID":142530,"Shape__Length":49.958636651722642,"Shape__Area":84.313182178584114,"GeoRefNo":"3492321050","DateCreate":1114790400000,"BuildingBlockType":"Tower","BuildingCSUID":"3492321050T20050430","BuildingID":1108228521,"Status":"Active","BuildingNameEN":null,"BuildingNameTC":null,"BaseHeight":5,"TopHeight":36.299999999999997,"Storeys":9,"StoreysInBasement":null,"DateStamp":1599580800000}},{"type":"Feature","id":142532,"geometry":{"type":"Polygon","coordinates":[[[114.16119816110309,22.328529872897278],[114.16117152531956,22.328500298053303],[114.16129277682741,22.328405768807517],[114.16131116745558,22.32842563848666],[114.16133463918023,22.328407016777945],[114.16134292178224,22.328416104865799],[114.16133832608857,22.328419716569968],[114.16119816110309,22.328529872897278]]]},"properties":{"OBJECTID":142532,"Shape__Length":47.493799999564899,"Shape__Area":73.390488062817724,"GeoRefNo":"3465721047","DateCreate":1114790400000,"BuildingBlockType":"Tower","BuildingCSUID":"3465721047T20050430","BuildingID":1108228556,"Status":"Active","BuildingNameEN":null,"BuildingNameTC":null,"BaseHeight":4.2000000000000002,"TopHeight":18.899999999999999,"Storeys":4,"StoreysInBasement":null,"DateStamp":1599580800000}},{"type":"Feature","id":142534,"geometry":{"type":"Polygon","coordinates":[[[114.15886283469813,22.328531966789676],[114.15882546481991,22.328490758075016],[114.15878552851581,22.328446719242045],[114.158813679849,22.328424218699993],[114.15882067948576,22.328418780176492],[114.15892150986369,22.328530212861164],[114.15890021507289,22.328546659444665],[114.15890957995377,22.32855691308287],[114.15893159290786,22.328581015163518],[114.15891734210497,22.328592073254995],[114.15888545477765,22.328556910413749],[114.15886283469813,22.328531966789676]]]},"properties":{"OBJECTID":142534,"Shape__Length":51.70724448289495,"Shape__Area":86.052880497340524,"GeoRefNo":"3441121050","DateCreate":1114790400000,"BuildingBlockType":"Tower","BuildingCSUID":"3441121050T20050430","BuildingID":1108228509,"Status":"Active","BuildingNameEN":null,"BuildingNameTC":null,"BaseHeight":3.7999999999999998,"TopHeight":29.100000000000001,"Storeys":8,"StoreysInBasement":null,"DateStamp":1599580800000}},{"type":"Feature","id":142538,"geometry":{"type":"Polygon","coordinates":[[[114.16126132921197,22.328600007421933],[114.1612802623295,22.328585152213019],[114.16135924927575,22.328523177906657],[114.16139183588376,22.328558460706024],[114.16129248532928,22.328634604862859],[114.1612802583532,22.328621027471634],[114.16126132921197,22.328600007421933]]]},"properties":{"OBJECTID":142538,"Shape__Length":36.606965985383539,"Shape__Area":67.126629899000321,"GeoRefNo":"3466621060","DateCreate":1114790400000,"BuildingBlockType":"Tower","BuildingCSUID":"3466621060T20050430","BuildingID":1108228473,"Status":"Active","BuildingNameEN":null,"BuildingNameTC":null,"BaseHeight":4.2999999999999998,"TopHeight":16.300000000000001,"Storeys":null,"StoreysInBasement":null,"DateStamp":1361808000000}},{"type":"Feature","id":142540,"geometry":{"type":"Polygon","coordinates":[[[114.16119816110309,22.328529872897278],[114.16133832608857,22.328419716569968],[114.16135620873516,22.328439103149474],[114.16133044960739,22.328458978719741],[114.16134482062255,22.328474692767838],[114.16123921669842,22.32855715391122],[114.1612295376964,22.328564711669021],[114.16122272954988,22.328557152324485],[114.16119816110309,22.328529872897278]]]},"properties":{"OBJECTID":142540,"Shape__Length":48.002739235659106,"Shape__Area":88.007218014217187,"GeoRefNo":"3466021051","DateCreate":1114790400000,"BuildingBlockType":"Tower","BuildingCSUID":"3466021051T20050430","BuildingID":1108228527,"Status":"Active","BuildingNameEN":null,"BuildingNameTC":null,"BaseHeight":4.2999999999999998,"TopHeight":24.5,"Storeys":6,"StoreysInBasement":null,"DateStamp":1599580800000}},{"type":"Feature","id":142541,"geometry":{"type":"Polygon","coordinates":[[[114.16284970655988,22.32846492463047],[114.16295161043207,22.32838688620285],[114.16297484656472,22.328369076627613],[114.16303552735928,22.328436649898816],[114.16291123733248,22.32853357771733],[114.16284970655988,22.32846492463047]]]},"properties":{"OBJECTID":142541,"Shape__Length":53.05624874123113,"Shape__Area":164.09354044351593,"GeoRefNo":"3483221047","DateCreate":1114790400000,"BuildingBlockType":"Tower","BuildingCSUID":"3483221047T20050430","BuildingID":1108228553,"Status":"Active","BuildingNameEN":null,"BuildingNameTC":null,"BaseHeight":4.2000000000000002,"TopHeight":25.899999999999999,"Storeys":6,"StoreysInBasement":null,"DateStamp":1599580800000}},{"type":"Feature","id":142542,"geometry":{"type":"Polygon","coordinates":[[[114.16135924927575,22.328523177906657],[114.1612802623295,22.328585152213019],[114.16126132921197,22.328600007421933],[114.1612295376964,22.328564711669021],[114.16123921669842,22.32855715391122],[114.16134482062255,22.328474692767838],[114.16135969574079,22.328490957999328],[114.16138554399755,22.328470894055013],[114.16140248319158,22.328489255839035],[114.16137007297309,22.328514685404201],[114.16135924927575,22.328523177906657]]]},"properties":{"OBJECTID":142542,"Shape__Length":48.140474257743975,"Shape__Area":88.219042254594825,"GeoRefNo":"3466321056","DateCreate":1114790400000,"BuildingBlockType":"Tower","BuildingCSUID":"3466321056T20050430","BuildingID":1108228503,"Status":"Active","BuildingNameEN":null,"BuildingNameTC":null,"BaseHeight":4.2999999999999998,"TopHeight":24.5,"Storeys":6,"StoreysInBasement":null,"DateStamp":1599580800000}},{"type":"Feature","id":142544,"geometry":{"type":"Polygon","coordinates":[[[114.16140248319158,22.328489255839035],[114.16140662321831,22.328486007480411],[114.16141591927079,22.328496203984436],[114.16140712338138,22.328502946284846],[114.16141363190151,22.3285104239567],[114.16138573287667,22.328531836427736],[114.16137007297309,22.328514685404201],[114.16140248319158,22.328489255839035]]]},"properties":{"OBJECTID":142544,"Shape__Length":14.863995858999489,"Shape__Area":11.140639146285691,"GeoRefNo":"3467321053","DateCreate":1114790400000,"BuildingBlockType":"Tower","BuildingCSUID":"3467321053T20050430","BuildingID":1108228554,"Status":"Active","BuildingNameEN":null,"BuildingNameTC":null,"BaseHeight":4.2999999999999998,"TopHeight":7.2000000000000002,"Storeys":null,"StoreysInBasement":null,"DateStamp":1361808000000}},{"type":"Feature","id":142725,"geometry":{"type":"Polygon","coordinates":[[[114.16201630429093,22.328577880374144],[114.16204054695118,22.328559180700033],[114.16205134147242,22.328550857743799],[114.1621357744215,22.328646517636823],[114.16210139053092,22.328673124034548],[114.16207894265762,22.328647996380109],[114.16201630429093,22.328577880374144]]]},"properties":{"OBJECTID":142725,"Shape__Length":36.716782744448729,"Shape__Area":63.726276053603229,"GeoRefNo":"3474321063","DateCreate":1114790400000,"BuildingBlockType":"Tower","BuildingCSUID":"3474321063T20050430","BuildingID":1108228443,"Status":"Active","BuildingNameEN":null,"BuildingNameTC":null,"BaseHeight":4.2000000000000002,"TopHeight":31.199999999999999,"Storeys":9,"StoreysInBasement":null,"DateStamp":1599580800000}},{"type":"Feature","id":142763,"geometry":{"type":"Polygon","coordinates":[[[114.16217038758759,22.328619733801506],[114.16208493612427,22.32852493327422],[114.16211122790223,22.328504611702304],[114.16211855901176,22.328498990919584],[114.16220434160888,22.328593460036899],[114.16217038758759,22.328619733801506]]]},"properties":{"OBJECTID":142763,"Shape__Length":36.444789338833708,"Shape__Area":61.98595523405077,"GeoRefNo":"3474921057","DateCreate":1114790400000,"BuildingBlockType":"Tower","BuildingCSUID":"3474921057T20050430","BuildingID":1108228485,"Status":"Active","BuildingNameEN":null,"BuildingNameTC":null,"BaseHeight":4.2000000000000002,"TopHeight":30.800000000000001,"Storeys":9,"StoreysInBasement":null,"DateStamp":1599580800000}},{"type":"Feature","id":142766,"geometry":{"type":"Polygon","coordinates":[[[114.16366214667048,22.328522870316377],[114.16356654595131,22.328416418574253],[114.16357506644161,22.328409793080095],[114.16359945545969,22.328390828317282],[114.16368339094046,22.328483319527262],[114.16367939929727,22.328486419132069],[114.16369167019747,22.328499741683736],[114.16366214667048,22.328522870316377]]]},"properties":{"OBJECTID":142766,"Shape__Length":39.63865052614311,"Shape__Area":67.419398431305481,"GeoRefNo":"3490421047","DateCreate":1114790400000,"BuildingBlockType":"Tower","BuildingCSUID":"3490421047T20050430","BuildingID":1108228560,"Status":"Active","BuildingNameEN":null,"BuildingNameTC":null,"BaseHeight":4.7999999999999998,"TopHeight":30.399999999999999,"Storeys":8,"StoreysInBasement":null,"DateStamp":1599580800000}},{"type":"Feature","id":142767,"geometry":{"type":"Polygon","coordinates":[[[114.16023645786083,22.328611147100599],[114.16018697592607,22.328557049281052],[114.16010379449237,22.328466108155908],[114.16011891781235,22.328454231427383],[114.16013112731359,22.328467582507869],[114.16015299021434,22.32845078200258],[114.1602500407856,22.328557055744373],[114.16027331915907,22.328582546314951],[114.16023645786083,22.328611147100599]]]},"properties":{"OBJECTID":142767,"Shape__Length":52.081331076758346,"Shape__Area":98.80928597553239,"GeoRefNo":"3454921054","DateCreate":1114790400000,"BuildingBlockType":"Tower","BuildingCSUID":"3454921054T20050430","BuildingID":1108228489,"Status":"Active","BuildingNameEN":null,"BuildingNameTC":null,"BaseHeight":4.0999999999999996,"TopHeight":26.100000000000001,"Storeys":6,"StoreysInBasement":null,"DateStamp":1599580800000}},{"type":"Feature","id":142926,"geometry":{"type":"Polygon","coordinates":[[[114.16186611363287,22.328536884071688],[114.16189260046582,22.328516417070581],[114.16192353932595,22.328550699112906],[114.16189712024602,22.328571138943158],[114.16186611363287,22.328536884071688]]]},"properties":{"OBJECTID":142926,"Shape__Length":17.003094350606133,"Shape__Area":17.568625229768379,"GeoRefNo":"3472521057","DateCreate":1114790400000,"BuildingBlockType":"Tower","BuildingCSUID":"3472521057T20050430","BuildingID":1108228524,"Status":"Active","BuildingNameEN":null,"BuildingNameTC":null,"BaseHeight":4.2000000000000002,"TopHeight":31.699999999999999,"Storeys":8,"StoreysInBasement":null,"DateStamp":1599580800000}},{"type":"Feature","id":142927,"geometry":{"type":"Polygon","coordinates":[[[114.16354807186849,22.328588782917748],[114.16346451793424,22.32849575570517],[114.16349061595464,22.328475464055543],[114.16349885736757,22.328469048322919],[114.16359510590108,22.328575381675901],[114.16356867917466,22.328596063346154],[114.16355603798939,22.328582544159211],[114.16354807186849,22.328588782917748]]]},"properties":{"OBJECTID":142927,"Shape__Length":40.043963846302468,"Shape__Area":69.298911299994884,"GeoRefNo":"3489421056","DateCreate":1114790400000,"BuildingBlockType":"Tower","BuildingCSUID":"3489421056T20050430","BuildingID":1108228505,"Status":"Active","BuildingNameEN":null,"BuildingNameTC":null,"BaseHeight":4.7999999999999998,"TopHeight":30.399999999999999,"Storeys":8,"StoreysInBasement":null,"DateStamp":1599580800000}},{"type":"Feature","id":143414,"geometry":{"type":"Polygon","coordinates":[[[114.16460801857205,22.327387831953665],[114.16449367507751,22.327261935575486],[114.1645169715155,22.327243879155855],[114.16453496653408,22.327263583995229],[114.1645494750523,22.327252497342144],[114.16464538983129,22.32735891088582],[114.16460801857205,22.327387831953665]]]},"properties":{"OBJECTID":143414,"Shape__Length":46.559539524675429,"Shape__Area":86.459251309853116,"GeoRefNo":"3500020920","DateCreate":1114790400000,"BuildingBlockType":"Tower","BuildingCSUID":"3500020920T20050430","BuildingID":1108229451,"Status":"Active","BuildingNameEN":null,"BuildingNameTC":null,"BaseHeight":4.7999999999999998,"TopHeight":24.699999999999999,"Storeys":6,"StoreysInBasement":null,"DateStamp":1599580800000}},{"type":"Feature","id":143419,"geometry":{"type":"Polygon","coordinates":[[[114.16126374782908,22.327383760750408],[114.16128976779102,22.327363759146074],[114.16135539660917,22.327313309828646],[114.16138223000078,22.327343105914796],[114.16135555023116,22.327363765439493],[114.16127356911248,22.327427247663962],[114.16125670027266,22.327408606193675],[114.1612740513112,22.327395048616612],[114.16126374782908,22.327383760750408]]]},"properties":{"OBJECTID":143419,"Shape__Length":37.789931695432408,"Shape__Area":59.253836373054575,"GeoRefNo":"3466520926","DateCreate":1114790400000,"BuildingBlockType":"Tower","BuildingCSUID":"3466520926T20050430","BuildingID":1108229424,"Status":"Active","BuildingNameEN":null,"BuildingNameTC":null,"BaseHeight":4,"TopHeight":25.5,"Storeys":6,"StoreysInBasement":null,"DateStamp":1599580800000}},{"type":"Feature","id":143420,"geometry":{"type":"Polygon","coordinates":[[[114.16250877258942,22.327424546309935],[114.16245392530058,22.327363866577375],[114.16239528159373,22.327298986543134],[114.1624304330221,22.327271910736748],[114.16251304528332,22.327363871810036],[114.16252658851481,22.327378947581231],[114.16250900821021,22.327391788334054],[114.16252599710984,22.327411187621731],[114.16250877258942,22.327424546309935]]]},"properties":{"OBJECTID":143420,"Shape__Length":45.699290491563517,"Shape__Area":78.524525390793841,"GeoRefNo":"3478320923","DateCreate":1114790400000,"BuildingBlockType":"Tower","BuildingCSUID":"3478320923T20050430","BuildingID":1108229430,"Status":"Active","BuildingNameEN":null,"BuildingNameTC":null,"BaseHeight":4.2000000000000002,"TopHeight":23.800000000000001,"Storeys":6,"StoreysInBasement":null,"DateStamp":1599580800000}},{"type":"Feature","id":143421,"geometry":{"type":"Polygon","coordinates":[[[114.16048072993325,22.327351696607373],[114.16047549492262,22.327355808698133],[114.16048239951419,22.327363679730322],[114.16049347871491,22.327376309669329],[114.1604654512837,22.32739752772418],[114.16043481039169,22.327363674923784],[114.16033083106758,22.327248795778999],[114.16036388611367,22.327223098003785],[114.16048072993325,22.327351696607373]]]},"properties":{"OBJECTID":143421,"Shape__Length":51.974632442493387,"Shape__Area":93.974432316031354,"GeoRefNo":"3457120918","DateCreate":1114790400000,"BuildingBlockType":"Tower","BuildingCSUID":"3457120918T20050430","BuildingID":1108229445,"Status":"Active","BuildingNameEN":null,"BuildingNameTC":null,"BaseHeight":3.8999999999999999,"TopHeight":24.600000000000001,"Storeys":6,"StoreysInBasement":null,"DateStamp":1599580800000}},{"type":"Feature","id":143422,"geometry":{"type":"Polygon","coordinates":[[[114.16361342279987,22.327480557981335],[114.1635278995405,22.327386536631934],[114.16353573502521,22.327380467728059],[114.16351775109661,22.327360802874789],[114.16352498407501,22.32735496266665],[114.16351874408511,22.327348403962596],[114.1635366672233,22.327334537434385],[114.16364598863491,22.327455268582941],[114.16361342279987,22.327480557981335]]]},"properties":{"OBJECTID":143422,"Shape__Length":43.758002863717792,"Shape__Area":71.772710680798838,"GeoRefNo":"3489720930","DateCreate":1114790400000,"BuildingBlockType":"Tower","BuildingCSUID":"3489720930T20050430","BuildingID":1108229398,"Status":"Active","BuildingNameEN":null,"BuildingNameTC":null,"BaseHeight":4.7000000000000002,"TopHeight":33.600000000000001,"Storeys":9,"StoreysInBasement":null,"DateStamp":1599580800000}},{"type":"Feature","id":143425,"geometry":{"type":"Polygon","coordinates":[[[114.15735374254619,22.32735132539829],[114.15731846305707,22.327378426908361],[114.15720402146853,22.327249822706172],[114.15742127222924,22.327081330826633],[114.15753567311637,22.327209200325477],[114.15735374254619,22.32735132539829]]]},"properties":{"OBJECTID":143425,"Shape__Length":95.237815794392844,"Shape__Area":538.69743554341744,"GeoRefNo":"3425920910","DateCreate":1114790400000,"BuildingBlockType":"Tower","BuildingCSUID":"3425920910T20050430","BuildingID":1108229457,"Status":"Active","BuildingNameEN":"Nam Cheong District Community Centre","BuildingNameTC":"南昌社區中心","BaseHeight":4.5,"TopHeight":19.899999999999999,"Storeys":5,"StoreysInBasement":null,"DateStamp":1786982400000}},{"type":"Feature","id":143426,"geometry":{"type":"Polygon","coordinates":[[[114.16238381554555,22.327480309470559],[114.16238371655042,22.327480198295241],[114.16229266845549,22.327378025337541],[114.16231106678721,22.32736385384408],[114.16232720894655,22.327351420173134],[114.16236083130921,22.327325522194773],[114.16239520978853,22.327363861359181],[114.16245212377014,22.327427332287588],[114.16243721229544,22.327438897066941],[114.16245897533204,22.327463167250944],[114.16245862761664,22.327463436963697],[114.16244021393923,22.327477717923053],[114.16242104891293,22.327492581557163],[114.16242041007541,22.327493077008576],[114.16239872712609,22.327468744696208],[114.16238381554555,22.327480309470559]]]},"properties":{"OBJECTID":143426,"Shape__Length":54.684083554534823,"Shape__Area":152.40845091794964,"GeoRefNo":"3477420931","DateCreate":1114790400000,"BuildingBlockType":"Tower","BuildingCSUID":"3477420931T20050430","BuildingID":1108229389,"Status":"Active","BuildingNameEN":null,"BuildingNameTC":"荔安樓","BaseHeight":4.2000000000000002,"TopHeight":33.700000000000003,"Storeys":9,"StoreysInBasement":null,"DateStamp":1599580800000}},{"type":"Feature","id":143427,"geometry":{"type":"Polygon","coordinates":[[[114.16245212377014,22.327427332287588],[114.16239520978853,22.327363861359181],[114.16236083130921,22.327325522194773],[114.16239528159373,22.327298986543134],[114.16245392530058,22.327363866577375],[114.16250877258942,22.327424546309935],[114.16248968018819,22.327439353788435],[114.16247251722051,22.327420264501594],[114.16245675694117,22.32743249918666],[114.16245293465752,22.327428236682355],[114.16245212377014,22.327427332287588]]]},"properties":{"OBJECTID":143427,"Shape__Length":45.632731128758877,"Shape__Area":78.557656290650272,"GeoRefNo":"3478020926","DateCreate":1114790400000,"BuildingBlockType":"Tower","BuildingCSUID":"3478020926T20050430","BuildingID":1108229414,"Status":"Active","BuildingNameEN":null,"BuildingNameTC":null,"BaseHeight":4.2000000000000002,"TopHeight":24,"Storeys":6,"StoreysInBasement":null,"DateStamp":1599580800000}},{"type":"Feature","id":143655,"geometry":{"type":"Polygon","coordinates":[[[114.15755932040086,22.327190846396753],[114.15732956527557,22.3269335719447],[114.15737674960926,22.326897018462088],[114.15740256955876,22.326925653391818],[114.15741722152599,22.326914268120515],[114.15739130256733,22.326885648352597],[114.15743847214628,22.326848868001708],[114.15766866920086,22.327105936818221],[114.15755932040086,22.327190846396753]]]},"properties":{"OBJECTID":143655,"Shape__Length":111.68030412040872,"Shape__Area":534.46136524342182,"GeoRefNo":"3427220887","DateCreate":1114790400000,"BuildingBlockType":"Tower","BuildingCSUID":"3427220887T20050430","BuildingID":1108229567,"Status":"Active","BuildingNameEN":"NAM CHEONG DISTRICT COMMUNITY CENTRE","BuildingNameTC":"南昌社區中心","BaseHeight":4.5,"TopHeight":26.300000000000001,"Storeys":null,"StoreysInBasement":null,"DateStamp":1361808000000}},{"type":"Feature","id":143656,"geometry":{"type":"Polygon","coordinates":[[[114.16444601925923,22.327217361125239],[114.1643570091006,22.327118135707373],[114.16439351883083,22.327089856795297],[114.16447584068453,22.327181864530104],[114.16448254062139,22.327189352840993],[114.16444601925923,22.327217361125239]]]},"properties":{"OBJECTID":143656,"Shape__Length":38.417308494423843,"Shape__Area":69.972216668556356,"GeoRefNo":"3498520903","DateCreate":1114790400000,"BuildingBlockType":"Tower","BuildingCSUID":"3498520903T20050430","BuildingID":1108229547,"Status":"Active","BuildingNameEN":null,"BuildingNameTC":null,"BaseHeight":4.7999999999999998,"TopHeight":26.899999999999999,"Storeys":6,"StoreysInBasement":null,"DateStamp":1599580800000}},{"type":"Feature","id":143657,"geometry":{"type":"Polygon","coordinates":[[[114.16348194844306,22.327340009897291],[114.1633762173313,22.327223126415529],[114.16341740366524,22.327191021762445],[114.16352299071787,22.327308164383794],[114.16348194844306,22.327340009897291]]]},"properties":{"OBJECTID":143657,"Shape__Length":44.887375701798831,"Shape__Area":93.426754997318142,"GeoRefNo":"3488420914","DateCreate":1114790400000,"BuildingBlockType":"Tower","BuildingCSUID":"3488420914T20050430","BuildingID":1108229478,"Status":"Active","BuildingNameEN":null,"BuildingNameTC":null,"BaseHeight":4.7000000000000002,"TopHeight":33.5,"Storeys":9,"StoreysInBasement":null,"DateStamp":1599580800000}},{"type":"Feature","id":143658,"geometry":{"type":"Polygon","coordinates":[[[114.16063711365234,22.327266252173658],[114.16050155900703,22.327116067524198],[114.16050633251417,22.327112356614915],[114.16053504868694,22.327090031832917],[114.16064179712276,22.327208369027044],[114.16062438505568,22.32722221839915],[114.16065226114415,22.32725452277511],[114.16063711365234,22.327266252173658]]]},"properties":{"OBJECTID":143658,"Shape__Length":52.298036847723402,"Shape__Area":86.505519183790298,"GeoRefNo":"3458920904","DateCreate":1114790400000,"BuildingBlockType":"Tower","BuildingCSUID":"3458920904T20050430","BuildingID":1108229517,"Status":"Active","BuildingNameEN":null,"BuildingNameTC":null,"BaseHeight":4,"TopHeight":25.699999999999999,"Storeys":7,"StoreysInBasement":null,"DateStamp":1599580800000}},{"type":"Feature","id":143659,"geometry":{"type":"Polygon","coordinates":[[[114.16171519720578,22.327198441860507],[114.1618144307169,22.327120465204153],[114.16181813126772,22.327124592163326],[114.16183046666509,22.327138348873859],[114.16185664890148,22.327117335586667],[114.16186947635721,22.327131697208333],[114.16183324615108,22.327159875789434],[114.16174339774759,22.327229756778667],[114.16174313415027,22.327229463982551],[114.16171519720578,22.327198441860507]]]},"properties":{"OBJECTID":143659,"Shape__Length":43.044939203925551,"Shape__Area":68.23079287234836,"GeoRefNo":"3471220904","DateCreate":1114790400000,"BuildingBlockType":"Tower","BuildingCSUID":"3471220904T20050430","BuildingID":1108229540,"Status":"Active","BuildingNameEN":null,"BuildingNameTC":null,"BaseHeight":3.7999999999999998,"TopHeight":33.100000000000001,"Storeys":9,"StoreysInBasement":null,"DateStamp":1599580800000}},{"type":"Feature","id":143662,"geometry":{"type":"Polygon","coordinates":[[[114.16259059475856,22.327326427448998],[114.16252446311285,22.327252944899598],[114.16249604732226,22.327221370559268],[114.1625244685643,22.327199478776674],[114.16253076508798,22.327194628733849],[114.16262518082563,22.327299579753685],[114.16259059475856,22.327326427448998]]]},"properties":{"OBJECTID":143662,"Shape__Length":39.61217024052165,"Shape__Area":70.391449059628002,"GeoRefNo":"3479420914","DateCreate":1114790400000,"BuildingBlockType":"Tower","BuildingCSUID":"3479420914T20050430","BuildingID":1108229483,"Status":"Active","BuildingNameEN":null,"BuildingNameTC":null,"BaseHeight":4.2000000000000002,"TopHeight":26.199999999999999,"Storeys":6,"StoreysInBasement":null,"DateStamp":1599580800000}},{"type":"Feature","id":143881,"geometry":{"type":"Polygon","coordinates":[[[114.16360381472894,22.327245451144478],[114.16349850938701,22.327127799814818],[114.16350917791472,22.327119483612829],[114.16353584209362,22.327098698838572],[114.16361838200011,22.327191528358131],[114.16360488334814,22.327201890034903],[114.16362741249553,22.32722714111782],[114.16360381472894,22.327245451144478]]]},"properties":{"OBJECTID":143881,"Shape__Length":43.914874171682207,"Shape__Area":78.096838500899963,"GeoRefNo":"3489720904","DateCreate":1114790400000,"BuildingBlockType":"Tower","BuildingCSUID":"3489720904T20050430","BuildingID":1108229531,"Status":"Active","BuildingNameEN":null,"BuildingNameTC":null,"BaseHeight":4.7000000000000002,"TopHeight":34.799999999999997,"Storeys":10,"StoreysInBasement":null,"DateStamp":1599580800000}},{"type":"Feature","id":143882,"geometry":{"type":"Polygon","coordinates":[[[114.16428209776385,22.327176158933867],[114.16439711273972,22.327304774262068],[114.16438109193342,22.327316903366363],[114.16431969521591,22.327249335049537],[114.16430063283519,22.327264067790217],[114.16424653473024,22.327203704429852],[114.16428209776385,22.327176158933867]]]},"properties":{"OBJECTID":143882,"Shape__Length":46.475886661493561,"Shape__Area":62.709201281945305,"GeoRefNo":"3497220910","DateCreate":1114790400000,"BuildingBlockType":"Tower","BuildingCSUID":"3497220910T20050430","BuildingID":1108229489,"Status":"Active","BuildingNameEN":null,"BuildingNameTC":null,"BaseHeight":4.5999999999999996,"TopHeight":20.600000000000001,"Storeys":4,"StoreysInBasement":null,"DateStamp":1599580800000}},{"type":"Feature","id":143883,"geometry":{"type":"Polygon","coordinates":[[[114.16388432800242,22.327270183279037],[114.16379636580108,22.327173368262329],[114.16380977904083,22.327162770593514],[114.16378870981725,22.327139704242182],[114.16380425600238,22.327127619407904],[114.16382787511333,22.32715395936852],[114.16383329825075,22.327149594779563],[114.16391803355982,22.327244008647991],[114.16388432800242,22.327270183279037]]]},"properties":{"OBJECTID":143883,"Shape__Length":43.970521795845237,"Shape__Area":70.767230853317997,"GeoRefNo":"3492520906","DateCreate":1114790400000,"BuildingBlockType":"Tower","BuildingCSUID":"3492520906T20050430","BuildingID":1108229513,"Status":"Active","BuildingNameEN":null,"BuildingNameTC":null,"BaseHeight":4.9000000000000004,"TopHeight":33.600000000000001,"Storeys":8,"StoreysInBasement":null,"DateStamp":1599580800000}},{"type":"Feature","id":143884,"geometry":{"type":"Polygon","coordinates":[[[114.16126732573379,22.326696081000829],[114.16137586488627,22.326612268852777],[114.16137597030747,22.326612187497236],[114.16139304368696,22.326599003655545],[114.16140762284772,22.3266153445344],[114.1613798623916,22.32663612515266],[114.16139751869656,22.326656026002059],[114.16129983002673,22.326732623224011],[114.16126732573379,22.326696081000829]]]},"properties":{"OBJECTID":143884,"Shape__Length":44.126108633549087,"Shape__Area":77.014884770117305,"GeoRefNo":"3466720848","DateCreate":1114790400000,"BuildingBlockType":"Tower","BuildingCSUID":"3466720848T20050430","BuildingID":1108229889,"Status":"Active","BuildingNameEN":null,"BuildingNameTC":null,"BaseHeight":4,"TopHeight":22.699999999999999,"Storeys":6,"StoreysInBasement":null,"DateStamp":1599580800000}},{"type":"Feature","id":144090,"geometry":{"type":"Polygon","coordinates":[[[114.16179908109443,22.328588681724103],[114.16171173298838,22.328492537253666],[114.16174539815806,22.328466620356249],[114.16183231818489,22.328562998661376],[114.16182451585838,22.328569027660187],[114.16179908109443,22.328588681724103]]]},"properties":{"OBJECTID":144090,"Shape__Length":36.824621131713634,"Shape__Area":62.38126494655539,"GeoRefNo":"3471321056","DateCreate":1114790400000,"BuildingBlockType":"Tower","BuildingCSUID":"3471321056T20050430","BuildingID":1108228511,"Status":"Active","BuildingNameEN":null,"BuildingNameTC":null,"BaseHeight":4.2000000000000002,"TopHeight":29.699999999999999,"Storeys":8,"StoreysInBasement":null,"DateStamp":1599580800000}},{"type":"Feature","id":144095,"geometry":{"type":"Polygon","coordinates":[[[114.16374284851541,22.328574784198455],[114.16389483270214,22.328457523878924],[114.16392261992313,22.328488588323612],[114.1638532672238,22.328542456812539],[114.16380378745968,22.328580890621563],[114.16378898009592,22.328564580286354],[114.16375665211592,22.328590042303567],[114.16374284851541,22.328574784198455]]]},"properties":{"OBJECTID":144095,"Shape__Length":49.701246228709969,"Shape__Area":81.404389479846401,"GeoRefNo":"3492621053","DateCreate":1114790400000,"BuildingBlockType":"Tower","BuildingCSUID":"3492621053T20050430","BuildingID":1108228510,"Status":"Active","BuildingNameEN":null,"BuildingNameTC":null,"BaseHeight":4.9000000000000004,"TopHeight":36.299999999999997,"Storeys":9,"StoreysInBasement":null,"DateStamp":1599580800000}},{"type":"Feature","id":144096,"geometry":{"type":"Polygon","coordinates":[[[114.16455036111758,22.328490622833208],[114.16446400420425,22.328396298678637],[114.16449929201663,22.328368844146429],[114.16450262247793,22.32836625298329],[114.16460718742704,22.328482762934588],[114.16460611312525,22.328483597550459],[114.1646015302334,22.328487158054429],[114.16461615141375,22.328503469746494],[114.16461607288205,22.328503530787319],[114.16460232197053,22.328514230631512],[114.16458764041334,22.328497945032051],[114.16456948027104,22.328512053405284],[114.16455038761404,22.328490651733087],[114.16455036111758,22.328490622833208]]]},"properties":{"OBJECTID":144096,"Shape__Length":48.558380810292448,"Shape__Area":90.213308169423158,"GeoRefNo":"3499621045","DateCreate":1114790400000,"BuildingBlockType":"Tower","BuildingCSUID":"3499621045T20050430","BuildingID":1108228568,"Status":"Active","BuildingNameEN":null,"BuildingNameTC":null,"BaseHeight":4.7000000000000002,"TopHeight":36.399999999999999,"Storeys":10,"StoreysInBasement":null,"DateStamp":1599580800000}},{"type":"Feature","id":144097,"geometry":{"type":"Polygon","coordinates":[[[114.1631232746398,22.328373424289151],[114.16314849425056,22.328401802502373],[114.16321430571178,22.328475856396302],[114.16318083270475,22.328501832584795],[114.16314647049396,22.328528493751339],[114.16303411330581,22.328402070136317],[114.16306063633921,22.328381639069331],[114.16310215348571,22.328349657796696],[114.1631232746398,22.328373424289151]]]},"properties":{"OBJECTID":144097,"Shape__Length":54.498593781926012,"Shape__Area":165.16263492147075,"GeoRefNo":"3484921044","DateCreate":1114790400000,"BuildingBlockType":"Tower","BuildingCSUID":"3484921044T20050430","BuildingID":1108228557,"Status":"Active","BuildingNameEN":null,"BuildingNameTC":"富裕大廈","BaseHeight":4.5,"TopHeight":17.699999999999999,"Storeys":10,"StoreysInBasement":null,"DateStamp":1599580800000}},{"type":"Feature","id":144107,"geometry":{"type":"Polygon","coordinates":[[[114.15829604831772,22.326677692607735],[114.15829106196857,22.326672099847165],[114.15826028042531,22.326637575463891],[114.15830720717588,22.326600437219859],[114.1583472192978,22.326644430042585],[114.15830399131762,22.32667769351573],[114.15829928077346,22.326681318215726],[114.15829604831772,22.326677692607735]]]},"properties":{"OBJECTID":144107,"Shape__Length":25.431271433352929,"Shape__Area":40.419942224804018,"GeoRefNo":"3435520846","DateCreate":1114790400000,"BuildingBlockType":"Tower","BuildingCSUID":"3435520846T20050430","BuildingID":1108229927,"Status":"Active","BuildingNameEN":null,"BuildingNameTC":null,"BaseHeight":4.5999999999999996,"TopHeight":8.9000000000000004,"Storeys":null,"StoreysInBasement":null,"DateStamp":1361808000000}},{"type":"Feature","id":144109,"geometry":{"type":"Polygon","coordinates":[[[114.16336227119422,22.326667145860569],[114.16333705538086,22.326639415709899],[114.16329796303332,22.326596425235206],[114.16333297938786,22.326569327726514],[114.16340610386561,22.326650973007492],[114.16337160987287,22.326677415767268],[114.16336227119422,22.326667145860569]]]},"properties":{"OBJECTID":144109,"Shape__Length":32.812772580190298,"Shape__Area":54.654687836228469,"GeoRefNo":"3487520844","DateCreate":1114790400000,"BuildingBlockType":"Tower","BuildingCSUID":"3487520844T20050430","BuildingID":1108229928,"Status":"Active","BuildingNameEN":null,"BuildingNameTC":null,"BaseHeight":4.2999999999999998,"TopHeight":29.399999999999999,"Storeys":8,"StoreysInBasement":null,"DateStamp":1599580800000}},{"type":"Feature","id":144306,"geometry":{"type":"Polygon","coordinates":[[[114.16361580952541,22.328535988616082],[114.16353185970218,22.328443389274423],[114.16355743671201,22.32842350223159],[114.16356654595131,22.328416418574253],[114.16366214667048,22.328522870316377],[114.1636363568584,22.328543079117861],[114.16362414373836,22.328529497208411],[114.16361580952541,22.328535988616082]]]},"properties":{"OBJECTID":144306,"Shape__Length":39.98694722138876,"Shape__Area":68.839930836455153,"GeoRefNo":"3490021050","DateCreate":1114790400000,"BuildingBlockType":"Tower","BuildingCSUID":"3490021050T20050430","BuildingID":1108228544,"Status":"Active","BuildingNameEN":null,"BuildingNameTC":null,"BaseHeight":4.7999999999999998,"TopHeight":30.399999999999999,"Storeys":8,"StoreysInBasement":null,"DateStamp":1599580800000}},{"type":"Feature","id":144307,"geometry":{"type":"Polygon","coordinates":[[[114.16197482138429,22.328609868414581],[114.16194349893513,22.328575195051862],[114.16195756776793,22.32856434880588],[114.16198861239191,22.328599241493386],[114.16198191855887,22.328604405922821],[114.16197482138429,22.328609868414581]]]},"properties":{"OBJECTID":144307,"Shape__Length":13.758508382777215,"Shape__Area":9.3475689962501374,"GeoRefNo":"3473121061","DateCreate":1114790400000,"BuildingBlockType":"Tower","BuildingCSUID":"3473121061T20050430","BuildingID":1108228491,"Status":"Active","BuildingNameEN":null,"BuildingNameTC":null,"BaseHeight":4.2999999999999998,"TopHeight":33.600000000000001,"Storeys":9,"StoreysInBasement":null,"DateStamp":1599580800000}},{"type":"Feature","id":144308,"geometry":{"type":"Polygon","coordinates":[[[114.16183231818489,22.328562998661376],[114.16174539815806,22.328466620356249],[114.16177905846143,22.328440708418125],[114.16186611363287,22.328536884071688],[114.1618413654852,22.328556007658914],[114.16183231818489,22.328562998661376]]]},"properties":{"OBJECTID":144308,"Shape__Length":36.881848586503764,"Shape__Area":62.859757152615771,"GeoRefNo":"3471621052","DateCreate":1114790400000,"BuildingBlockType":"Tower","BuildingCSUID":"3471621052T20050430","BuildingID":1108228528,"Status":"Active","BuildingNameEN":null,"BuildingNameTC":null,"BaseHeight":4.2000000000000002,"TopHeight":29.699999999999999,"Storeys":8,"StoreysInBasement":null,"DateStamp":1599580800000}},{"type":"Feature","id":144313,"geometry":{"type":"Polygon","coordinates":[[[114.16186611363287,22.328536884071688],[114.16177905846143,22.328440708418125],[114.16181482050001,22.328413176761433],[114.16190183676314,22.328509279967243],[114.16189260046582,22.328516417070581],[114.16186611363287,22.328536884071688]]]},"properties":{"OBJECTID":144313,"Shape__Length":37.404236883696797,"Shape__Area":66.574408534496726,"GeoRefNo":"3471921049","DateCreate":1114790400000,"BuildingBlockType":"Tower","BuildingCSUID":"3471921049T20050430","BuildingID":1108228551,"Status":"Active","BuildingNameEN":null,"BuildingNameTC":null,"BaseHeight":4.2000000000000002,"TopHeight":29.699999999999999,"Storeys":8,"StoreysInBasement":null,"DateStamp":1599580800000}},{"type":"Feature","id":144314,"geometry":{"type":"Polygon","coordinates":[[[114.16204054695118,22.328559180700033],[114.16200933603102,22.328524459046378],[114.16202667032103,22.328511105299679],[114.16205768777635,22.328545956069789],[114.16205134147242,22.328550857743799],[114.16204054695118,22.328559180700033]]]},"properties":{"OBJECTID":144314,"Shape__Length":14.635341308103854,"Shape__Area":11.558297359666907,"GeoRefNo":"3473921055","DateCreate":1114790400000,"BuildingBlockType":"Tower","BuildingCSUID":"3473921055T20050430","BuildingID":1108228533,"Status":"Active","BuildingNameEN":null,"BuildingNameTC":null,"BaseHeight":4.2999999999999998,"TopHeight":33.600000000000001,"Storeys":9,"StoreysInBasement":null,"DateStamp":1599580800000}},{"type":"Feature","id":144315,"geometry":{"type":"Polygon","coordinates":[[[114.16182451585838,22.328569027660187],[114.16183231818489,22.328562998661376],[114.1618413654852,22.328556007658914],[114.16187254779851,22.328590145876095],[114.16185571370011,22.32860317464166],[114.16182451585838,22.328569027660187]]]},"properties":{"OBJECTID":144315,"Shape__Length":14.436088572422733,"Shape__Area":11.19436443033058,"GeoRefNo":"3472021060","DateCreate":1114790400000,"BuildingBlockType":"Tower","BuildingCSUID":"3472021060T20050430","BuildingID":1108228499,"Status":"Active","BuildingNameEN":null,"BuildingNameTC":null,"BaseHeight":4.2999999999999998,"TopHeight":32.200000000000003,"Storeys":8,"StoreysInBasement":null,"DateStamp":1599580800000}},{"type":"Feature","id":144316,"geometry":{"type":"Polygon","coordinates":[[[114.15892150986369,22.328530212861164],[114.15882067948576,22.328418780176492],[114.15883013872633,22.328411430602724],[114.15885610386195,22.328392468715688],[114.15898682291422,22.328538159934357],[114.15897206324976,22.328549612520916],[114.15894129978442,22.328514928254631],[114.15892150986369,22.328530212861164]]]},"properties":{"OBJECTID":144316,"Shape__Length":51.424665609387219,"Shape__Area":84.405229560770309,"GeoRefNo":"3441521047","DateCreate":1114790400000,"BuildingBlockType":"Tower","BuildingCSUID":"3441521047T20050430","BuildingID":1108228540,"Status":"Active","BuildingNameEN":null,"BuildingNameTC":null,"BaseHeight":3.7999999999999998,"TopHeight":29.100000000000001,"Storeys":8,"StoreysInBasement":null,"DateStamp":1599580800000}},{"type":"Feature","id":144321,"geometry":{"type":"Polygon","coordinates":[[[114.16211855901176,22.328498990919584],[114.16212538728095,22.328493732849473],[114.16215287974934,22.328472520060995],[114.16223772521158,22.328567627538366],[114.16220434160888,22.328593460036899],[114.16211855901176,22.328498990919584]]]},"properties":{"OBJECTID":144321,"Shape__Length":36.447163904762903,"Shape__Area":62.057740737311214,"GeoRefNo":"3475321054","DateCreate":1114790400000,"BuildingBlockType":"Tower","BuildingCSUID":"3475321054T20050430","BuildingID":1108228508,"Status":"Active","BuildingNameEN":null,"BuildingNameTC":null,"BaseHeight":4.2000000000000002,"TopHeight":31.199999999999999,"Storeys":null,"StoreysInBasement":null,"DateStamp":1361808000000}},{"type":"Feature","id":144324,"geometry":{"type":"Polygon","coordinates":[[[114.16340610386561,22.326650973007492],[114.16333297938786,22.326569327726514],[114.16336787458324,22.326542323937602],[114.16348160370289,22.326670353010506],[114.16346952194206,22.326679723505901],[114.16346048858836,22.326668784915132],[114.16344076296589,22.32668440114389],[114.16341601988799,22.326657174138543],[114.16343870611429,22.326640177922574],[114.16343152920466,22.32663148231989],[114.16340610386561,22.326650973007492]]]},"properties":{"OBJECTID":144324,"Shape__Length":52.210308921301461,"Shape__Area":75.336693890643872,"GeoRefNo":"3487920841","DateCreate":1114790400000,"BuildingBlockType":"Tower","BuildingCSUID":"3487920841T20050430","BuildingID":1108229925,"Status":"Active","BuildingNameEN":null,"BuildingNameTC":null,"BaseHeight":4.5,"TopHeight":29.300000000000001,"Storeys":8,"StoreysInBasement":null,"DateStamp":1599580800000}},{"type":"Feature","id":144325,"geometry":{"type":"Polygon","coordinates":[[[114.16372109735227,22.326612633335497],[114.1637583531584,22.326583920434452],[114.16382243048787,22.326655114061616],[114.16378424257655,22.326684729509186],[114.16372327835703,22.32661512342511],[114.16372109735227,22.326612633335497]]]},"properties":{"OBJECTID":144325,"Shape__Length":30.68700667035295,"Shape__Area":51.996363895362585,"GeoRefNo":"3491820844","DateCreate":1114790400000,"BuildingBlockType":"Tower","BuildingCSUID":"3491820844T20050430","BuildingID":1108229924,"Status":"Active","BuildingNameEN":null,"BuildingNameTC":null,"BaseHeight":4.5999999999999996,"TopHeight":34.600000000000001,"Storeys":9,"StoreysInBasement":null,"DateStamp":1599580800000}},{"type":"Feature","id":144472,"geometry":{"type":"Polygon","coordinates":[[[114.1621357744215,22.328646517636823],[114.16205134147242,22.328550857743799],[114.16205768777635,22.328545956069789],[114.16208493612427,22.32852493327422],[114.16217038758759,22.328619733801506],[114.1621357744215,22.328646517636823]]]},"properties":{"OBJECTID":144472,"Shape__Length":36.541934885954738,"Shape__Area":62.58962481777381,"GeoRefNo":"3474621060","DateCreate":1114790400000,"BuildingBlockType":"Tower","BuildingCSUID":"3474621060T20050430","BuildingID":1108228461,"Status":"Active","BuildingNameEN":null,"BuildingNameTC":null,"BaseHeight":4.2000000000000002,"TopHeight":30.800000000000001,"Storeys":9,"StoreysInBasement":null,"DateStamp":1599580800000}},{"type":"Feature","id":144474,"geometry":{"type":"Polygon","coordinates":[[[114.16348326821257,22.32864528394526],[114.16339582291501,22.328549174510023],[114.16346451793424,22.32849575570517],[114.16354807186849,22.328588782917748],[114.16357601909571,22.328619898818463],[114.1635081624819,22.328672644779523],[114.16348326821257,22.32864528394526]]]},"properties":{"OBJECTID":144474,"Shape__Length":54.161188355440387,"Shape__Area":164.20956626858614,"GeoRefNo":"3488821060","DateCreate":1114790400000,"BuildingBlockType":"Tower","BuildingCSUID":"3488821060T20050430","BuildingID":1108228444,"Status":"Active","BuildingNameEN":null,"BuildingNameTC":null,"BaseHeight":4.7000000000000002,"TopHeight":27,"Storeys":4,"StoreysInBasement":null,"DateStamp":1599580800000}},{"type":"Feature","id":144475,"geometry":{"type":"Polygon","coordinates":[[[114.16203567714589,22.328723973331279],[114.16196663623046,22.328647986120259],[114.16194965446333,22.328629295768636],[114.16197482138429,22.328609868414581],[114.16198191855887,22.328604405922821],[114.16202100595183,22.328647991096968],[114.16206724242008,22.328699548028542],[114.16203567714589,22.328723973331279]]]},"properties":{"OBJECTID":144475,"Shape__Length":35.996697766399073,"Shape__Area":58.657669444202767,"GeoRefNo":"3473521068","DateCreate":1114790400000,"BuildingBlockType":"Tower","BuildingCSUID":"3473521068T20050430","BuildingID":1108228401,"Status":"Active","BuildingNameEN":null,"BuildingNameTC":null,"BaseHeight":4.2000000000000002,"TopHeight":31.199999999999999,"Storeys":9,"StoreysInBasement":null,"DateStamp":1599580800000}},{"type":"Feature","id":144476,"geometry":{"type":"Polygon","coordinates":[[[114.16338299358145,22.328728643569573],[114.163311255197,22.328648103847929],[114.1632937977146,22.328628504578774],[114.16332610012887,22.328603386536539],[114.16336647764435,22.328648108444451],[114.16341288972903,22.32869951410596],[114.16343793198422,22.328727250815966],[114.16342150629924,22.328740024392815],[114.16339968353817,22.328716303576844],[114.16338299358145,22.328728643569573]]]},"properties":{"OBJECTID":144476,"Shape__Length":44.510858194680139,"Shape__Area":71.013163132027202,"GeoRefNo":"3487521071","DateCreate":1114790400000,"BuildingBlockType":"Tower","BuildingCSUID":"3487521071T20050430","BuildingID":1108228392,"Status":"Active","BuildingNameEN":null,"BuildingNameTC":null,"BaseHeight":4.5999999999999996,"TopHeight":24.600000000000001,"Storeys":6,"StoreysInBasement":null,"DateStamp":1599580800000}},{"type":"Feature","id":144477,"geometry":{"type":"Polygon","coordinates":[[[114.15969569325395,22.328495089283717],[114.15986588450974,22.328362268106392],[114.15999909272119,22.328510005010404],[114.16000278830822,22.328514103744048],[114.15998528565923,22.328527855595741],[114.15995961713918,22.328499595686928],[114.15993855274552,22.328515790026124],[114.15984496928392,22.328417213408258],[114.15983740664933,22.328423107961481],[114.15992910502162,22.328523040509907],[114.15991118681971,22.328536833941243],[114.15993750360417,22.328565397894618],[114.15990401556326,22.328591709432263],[114.15987727715618,22.328562894650133],[114.15985700584743,22.328578473898176],[114.15976562065045,22.328479131130074],[114.1597563320115,22.328486379272636],[114.15985710657536,22.32859634498276],[114.15987746832863,22.328580961346674],[114.15989435113967,22.328599302692311],[114.15983307168423,22.328647449698988],[114.15969569325395,22.328495089283717]]]},"properties":{"OBJECTID":144477,"Shape__Length":169.62796650283002,"Shape__Area":431.94395239315651,"GeoRefNo":"3451221051","DateCreate":1114790400000,"BuildingBlockType":"Tower","BuildingCSUID":"3451221051T20050430","BuildingID":1108228460,"Status":"Active","BuildingNameEN":"Tin Hau Temple","BuildingNameTC":"天后廟","BaseHeight":4.0999999999999996,"TopHeight":11.4,"Storeys":null,"StoreysInBasement":null,"DateStamp":1361808000000}}]}