{"type":"FeatureCollection","features":[{"type":"Feature","id":147738,"geometry":{"type":"Polygon","coordinates":[[[114.16367596567768,22.325824697807512],[114.16368853240155,22.325838939340212],[114.16374016040669,22.325897447724241],[114.16366515487944,22.325954937681637],[114.163564884336,22.32583892926888],[114.16353382944837,22.325803000068973],[114.16354915940357,22.32579132721478],[114.16356376026745,22.325807799749771],[114.16360765227299,22.325773814102355],[114.16359224438041,22.325757726027721],[114.16360692435057,22.325746415692979],[114.16367596567768,22.325824697807512]]]},"properties":{"OBJECTID":147738,"Shape__Length":67.876410055181438,"Shape__Area":200.12581818275103,"GeoRefNo":"3490420759","DateCreate":1114790400000,"BuildingBlockType":"Tower","BuildingCSUID":"3490420759T20050430","BuildingID":1108230340,"Status":"Active","BuildingNameEN":null,"BuildingNameTC":null,"BaseHeight":4.4000000000000004,"TopHeight":45.700000000000003,"Storeys":12,"StoreysInBasement":null,"DateStamp":1599580800000}},{"type":"Feature","id":147743,"geometry":{"type":"Polygon","coordinates":[[[114.16442225139528,22.325918004504469],[114.16443449865338,22.325931312011452],[114.16440164751607,22.325957065181683],[114.1642937297751,22.325838557779214],[114.1642890339817,22.325833401221676],[114.16432476113293,22.325806419774683],[114.16435263887087,22.32583860576149],[114.16435325846473,22.325839321121986],[114.16440795579693,22.32590247143202],[114.16442225139528,22.325918004504469]]]},"properties":{"OBJECTID":147743,"Shape__Length":44.978838860216264,"Shape__Area":81.202076635917422,"GeoRefNo":"3497920761","DateCreate":1114790400000,"BuildingBlockType":"Tower","BuildingCSUID":"3497920761T20050430","BuildingID":1108230338,"Status":"Active","BuildingNameEN":null,"BuildingNameTC":null,"BaseHeight":4.5,"TopHeight":26.800000000000001,"Storeys":6,"StoreysInBasement":null,"DateStamp":1599580800000}},{"type":"Feature","id":147815,"geometry":{"type":"Polygon","coordinates":[[[114.16179578364986,22.328001855988781],[114.16189914033612,22.327921284913003],[114.16192760278147,22.327953245868589],[114.16182670488635,22.328032645652055],[114.1618244496669,22.328034423113863],[114.16182291951989,22.328032645301629],[114.16179578364986,22.328001855988781]]]},"properties":{"OBJECTID":147815,"Shape__Length":37.068370113954487,"Shape__Area":64.351884296144519,"GeoRefNo":"3472020994","DateCreate":1114790400000,"BuildingBlockType":"Tower","BuildingCSUID":"3472020994T20050430","BuildingID":1108228972,"Status":"Active","BuildingNameEN":null,"BuildingNameTC":null,"BaseHeight":4.0999999999999996,"TopHeight":33.600000000000001,"Storeys":9,"StoreysInBasement":null,"DateStamp":1599580800000}},{"type":"Feature","id":147817,"geometry":{"type":"Polygon","coordinates":[[[114.1610295081792,22.327993533843973],[114.16092706073637,22.327878869444785],[114.16094005861619,22.32786835406176],[114.16091270777123,22.327837620027278],[114.1609286491866,22.32782515721761],[114.16095473445301,22.327853664183287],[114.16095736071264,22.327851466034957],[114.16106194064687,22.327968256873977],[114.1610295081792,22.327993533843973]]]},"properties":{"OBJECTID":147817,"Shape__Length":50.550464051349444,"Shape__Area":81.649571035563795,"GeoRefNo":"3463020986","DateCreate":1114790400000,"BuildingBlockType":"Tower","BuildingCSUID":"3463020986T20050430","BuildingID":1108229008,"Status":"Active","BuildingNameEN":null,"BuildingNameTC":null,"BaseHeight":4.0999999999999996,"TopHeight":33.399999999999999,"Storeys":8,"StoreysInBasement":null,"DateStamp":1599580800000}},{"type":"Feature","id":147818,"geometry":{"type":"Polygon","coordinates":[[[114.15964761409145,22.327993848205459],[114.15953455041173,22.327869317151588],[114.15956440450844,22.327846151375951],[114.15967332731421,22.327965639382967],[114.15967750998969,22.327970228807491],[114.15966086444269,22.327983379278866],[114.15967809855704,22.32800230306794],[114.15966500251169,22.328013000576341],[114.15964761409145,22.327993848205459]]]},"properties":{"OBJECTID":147818,"Shape__Length":49.639564419212235,"Shape__Area":77.496007489582922,"GeoRefNo":"3448920988","DateCreate":1114790400000,"BuildingBlockType":"Tower","BuildingCSUID":"3448920988T20050430","BuildingID":1108228995,"Status":"Active","BuildingNameEN":null,"BuildingNameTC":null,"BaseHeight":4,"TopHeight":29.399999999999999,"Storeys":8,"StoreysInBasement":null,"DateStamp":1599580800000}},{"type":"Feature","id":147883,"geometry":{"type":"Polygon","coordinates":[[[114.16354131808386,22.327250684404593],[114.1634593326802,22.327158338028575],[114.16349850938701,22.327127799814818],[114.16360381472894,22.327245451144478],[114.16357912149599,22.327264611217402],[114.16355707357584,22.327238590129269],[114.16354131808386,22.327250684404593]]]},"properties":{"OBJECTID":147883,"Shape__Length":44.568587007526659,"Shape__Area":82.236765279831218,"GeoRefNo":"3489320907","DateCreate":1114790400000,"BuildingBlockType":"Tower","BuildingCSUID":"3489320907T20050430","BuildingID":1108229520,"Status":"Active","BuildingNameEN":null,"BuildingNameTC":null,"BaseHeight":4.5999999999999996,"TopHeight":34.799999999999997,"Storeys":10,"StoreysInBasement":null,"DateStamp":1599580800000}},{"type":"Feature","id":147904,"geometry":{"type":"Polygon","coordinates":[[[114.16489915309344,22.327162526538089],[114.16486236329989,22.327190997804315],[114.16482384040346,22.327147899736481],[114.16479901519645,22.327120126045276],[114.16475995872692,22.32707643109088],[114.16479639806514,22.327048443319011],[114.16489915309344,22.327162526538089]]]},"properties":{"OBJECTID":147904,"Shape__Length":42.780377696781343,"Shape__Area":80.790612678726845,"GeoRefNo":"3502620899","DateCreate":1114790400000,"BuildingBlockType":"Tower","BuildingCSUID":"3502620899T20050430","BuildingID":1108229568,"Status":"Active","BuildingNameEN":null,"BuildingNameTC":null,"BaseHeight":4.9000000000000004,"TopHeight":24.699999999999999,"Storeys":6,"StoreysInBasement":null,"DateStamp":1599580800000}},{"type":"Feature","id":147909,"geometry":{"type":"Polygon","coordinates":[[[114.16439711273972,22.327304774262068],[114.16428209776385,22.327176158933867],[114.16432336433115,22.327144195565779],[114.16437758891925,22.327204590427414],[114.16435835055958,22.327219459252362],[114.16441997427927,22.327287466097438],[114.16439711273972,22.327304774262068]]]},"properties":{"OBJECTID":147909,"Shape__Length":48.235894947318414,"Shape__Area":77.808829783153627,"GeoRefNo":"3497620907","DateCreate":1114790400000,"BuildingBlockType":"Tower","BuildingCSUID":"3497620907T20050430","BuildingID":1108229498,"Status":"Active","BuildingNameEN":null,"BuildingNameTC":null,"BaseHeight":4.7000000000000002,"TopHeight":20.600000000000001,"Storeys":4,"StoreysInBasement":null,"DateStamp":1599580800000}},{"type":"Feature","id":147910,"geometry":{"type":"Polygon","coordinates":[[[114.16471515650845,22.327304919355036],[114.1646243643787,22.32720344506502],[114.16464537656807,22.32718750630772],[114.16462246666407,22.327162112834749],[114.16463324083466,22.327153762069898],[114.16465605937962,22.327179402069479],[114.16466023316082,22.327176237523869],[114.16475066045422,22.327277443377948],[114.16471515650845,22.327304919355036]]]},"properties":{"OBJECTID":147910,"Shape__Length":46.101567783353055,"Shape__Area":74.7902588488585,"GeoRefNo":"3501220912","DateCreate":1114790400000,"BuildingBlockType":"Tower","BuildingCSUID":"3501220912T20050430","BuildingID":1108229497,"Status":"Active","BuildingNameEN":null,"BuildingNameTC":null,"BaseHeight":5,"TopHeight":35.100000000000001,"Storeys":9,"StoreysInBasement":null,"DateStamp":1599580800000}},{"type":"Feature","id":147911,"geometry":{"type":"Polygon","coordinates":[[[114.16307981984691,22.327153680451712],[114.16312114251383,22.327199991259562],[114.16304894811688,22.32725543600322],[114.16299102836199,22.327190764670988],[114.16298383818527,22.327182736317884],[114.16293685854745,22.327130280218505],[114.16298384697377,22.327093681649977],[114.1629971387177,22.327083328857118],[114.16306828446396,22.327162366444593],[114.16307981984691,22.327153680451712]]]},"properties":{"OBJECTID":147911,"Shape__Length":55.393307015149965,"Shape__Area":156.84779069365331,"GeoRefNo":"3484420906","DateCreate":1114790400000,"BuildingBlockType":"Tower","BuildingCSUID":"3484420906T20050430","BuildingID":1108229525,"Status":"Active","BuildingNameEN":null,"BuildingNameTC":null,"BaseHeight":4.4000000000000004,"TopHeight":36,"Storeys":9,"StoreysInBasement":null,"DateStamp":1599580800000}},{"type":"Feature","id":147922,"geometry":{"type":"Polygon","coordinates":[[[114.15792011685852,22.326226119877798],[114.15767938730515,22.325961028909148],[114.15775362875897,22.325903623449911],[114.15777525519182,22.325927574026011],[114.15779545075742,22.325911116348177],[114.15763471674207,22.32573367237012],[114.15770895479031,22.325675578798535],[114.15795314754011,22.325949397655897],[114.15788087294941,22.3260054188666],[114.15785309129028,22.325974748556892],[114.15783280563271,22.325991309450849],[114.15800003790234,22.326176515590717],[114.15793621964903,22.326226121755489],[114.15792678108846,22.32623345836781],[114.15792011685852,22.326226119877798]]]},"properties":{"OBJECTID":147922,"Shape__Length":184.29129249607004,"Shape__Area":803.57223744184898,"GeoRefNo":"3430220769","DateCreate":1114790400000,"BuildingBlockType":"Tower","BuildingCSUID":"3430220769T20050430","BuildingID":1108230157,"Status":"Active","BuildingNameEN":"Cheong On House","BuildingNameTC":"昌安樓","BaseHeight":4.4000000000000004,"TopHeight":48.200000000000003,"Storeys":14,"StoreysInBasement":null,"DateStamp":1786636800000}},{"type":"Feature","id":147927,"geometry":{"type":"Polygon","coordinates":[[[114.16480253105009,22.326226014016985],[114.1648372958078,22.326199049093528],[114.16486571979203,22.326176990463939],[114.16491782326626,22.326234182839666],[114.16486664427099,22.326274449526871],[114.16484592707187,22.326273967659642],[114.16480253105009,22.326226014016985]]]},"properties":{"OBJECTID":147927,"Shape__Length":32.760419562630702,"Shape__Area":69.596035748126468,"GeoRefNo":"3502920800","DateCreate":1114790400000,"BuildingBlockType":"Tower","BuildingCSUID":"3502920800T20050430","BuildingID":1108230141,"Status":"Active","BuildingNameEN":null,"BuildingNameTC":null,"BaseHeight":4.5999999999999996,"TopHeight":25.300000000000001,"Storeys":6,"StoreysInBasement":null,"DateStamp":1599580800000}},{"type":"Feature","id":147975,"geometry":{"type":"Polygon","coordinates":[[[114.15935785405435,22.328114757707272],[114.1593000992773,22.328050267228416],[114.15932395442465,22.328032394667673],[114.15934123831602,22.328019217659651],[114.15934895363277,22.328013332447217],[114.15940084798913,22.327973042032195],[114.15941304574595,22.327963608188565],[114.15945644092942,22.328011705946263],[114.15943062559917,22.328032406153426],[114.15940734376835,22.328050793625138],[114.15942033316091,22.32806513360228],[114.15935785405435,22.328114757707272]]]},"properties":{"OBJECTID":147975,"Shape__Length":48.529300305767208,"Shape__Area":124.21497833633984,"GeoRefNo":"3446321003","DateCreate":1114790400000,"BuildingBlockType":"Tower","BuildingCSUID":"3446321003T20050430","BuildingID":1108228917,"Status":"Active","BuildingNameEN":null,"BuildingNameTC":null,"BaseHeight":3.8999999999999999,"TopHeight":35.299999999999997,"Storeys":9,"StoreysInBasement":null,"DateStamp":1599580800000}},{"type":"Feature","id":147976,"geometry":{"type":"Polygon","coordinates":[[[114.16429682899417,22.328015485596222],[114.16420787647124,22.32791851884037],[114.1642060845252,22.327916565475629],[114.16424377540396,22.327887085714668],[114.16433230162532,22.327983988210867],[114.16434382549249,22.327996602297311],[114.16431917870644,22.328014856085002],[114.16433519623489,22.32803285843654],[114.16433738116761,22.328035209537063],[114.16432445712543,22.328045468187682],[114.16431276436153,22.328032856705754],[114.16429682899417,22.328015485596222]]]},"properties":{"OBJECTID":147976,"Shape__Length":47.690719433727359,"Shape__Area":85.389935774383829,"GeoRefNo":"3496920991","DateCreate":1114790400000,"BuildingBlockType":"Tower","BuildingCSUID":"3496920991T20050430","BuildingID":1108228961,"Status":"Active","BuildingNameEN":null,"BuildingNameTC":null,"BaseHeight":4.9000000000000004,"TopHeight":27.199999999999999,"Storeys":6,"StoreysInBasement":null,"DateStamp":1599580800000}},{"type":"Feature","id":147979,"geometry":{"type":"Polygon","coordinates":[[[114.16289043193973,22.328042902379625],[114.16288078957348,22.328032739794427],[114.16277992858728,22.327923830449343],[114.16279880019944,22.327909025356693],[114.16281325157924,22.327925879213414],[114.16282755799058,22.327914087499629],[114.16284630908855,22.327934837970552],[114.16292196322203,22.328018558812705],[114.16290372647929,22.328032741766762],[114.16289043193973,22.328042902379625]]]},"properties":{"OBJECTID":147979,"Shape__Length":43.654945755924373,"Shape__Area":71.178254651718419,"GeoRefNo":"3482320993","DateCreate":1114790400000,"BuildingBlockType":"Tower","BuildingCSUID":"3482320993T20050430","BuildingID":1108228967,"Status":"Active","BuildingNameEN":null,"BuildingNameTC":null,"BaseHeight":4.4000000000000004,"TopHeight":33.299999999999997,"Storeys":8,"StoreysInBasement":null,"DateStamp":1599580800000}},{"type":"Feature","id":147981,"geometry":{"type":"Polygon","coordinates":[[[114.16252711936592,22.328101604114106],[114.16260185512185,22.328044014074823],[114.16261815596955,22.328061942028121],[114.16265606695139,22.328032720298907],[114.16266926950121,22.328022435797607],[114.16267896862236,22.32803272229998],[114.16268289459123,22.328037026528996],[114.16268065822037,22.328038733836738],[114.16266409482382,22.328051379814038],[114.16255636836185,22.328134111920274],[114.16252711936592,22.328101604114106]]]},"properties":{"OBJECTID":147981,"Shape__Length":43.175228191773869,"Shape__Area":61.621712524193654,"GeoRefNo":"3479521005","DateCreate":1114790400000,"BuildingBlockType":"Tower","BuildingCSUID":"3479521005T20050430","BuildingID":1108228906,"Status":"Active","BuildingNameEN":null,"BuildingNameTC":null,"BaseHeight":4.0999999999999996,"TopHeight":19,"Storeys":null,"StoreysInBasement":null,"DateStamp":1361808000000}},{"type":"Feature","id":147983,"geometry":{"type":"Polygon","coordinates":[[[114.15935785405435,22.328114757707272],[114.15942033316091,22.32806513360228],[114.15945399836447,22.328038394583633],[114.15948240467446,22.328070219509669],[114.15938615351666,22.328146356873731],[114.15935785405435,22.328114757707272]]]},"properties":{"OBJECTID":147983,"Shape__Length":35.174839526992628,"Shape__Area":59.465755364692335,"GeoRefNo":"3446921007","DateCreate":1114790400000,"BuildingBlockType":"Tower","BuildingCSUID":"3446921007T20050430","BuildingID":1108228896,"Status":"Active","BuildingNameEN":null,"BuildingNameTC":null,"BaseHeight":3.8999999999999999,"TopHeight":23.800000000000001,"Storeys":6,"StoreysInBasement":null,"DateStamp":1599580800000}},{"type":"Feature","id":147984,"geometry":{"type":"Polygon","coordinates":[[[114.16422834575167,22.328073117631689],[114.16419141831267,22.328032847289222],[114.16413534142612,22.327971896755031],[114.16417032556652,22.327944534110252],[114.16425248823856,22.328032852039655],[114.16426784828698,22.328049219088509],[114.16426322870159,22.328052872775867],[114.1642847698308,22.328076484005067],[114.16426634314338,22.328090892049524],[114.16424057417409,22.328063490804762],[114.16422834575167,22.328073117631689]]]},"properties":{"OBJECTID":147984,"Shape__Length":47.010728616170226,"Shape__Area":80.531581595242386,"GeoRefNo":"3496120996","DateCreate":1114790400000,"BuildingBlockType":"Tower","BuildingCSUID":"3496120996T20050430","BuildingID":1108228934,"Status":"Active","BuildingNameEN":null,"BuildingNameTC":null,"BaseHeight":5,"TopHeight":31.100000000000001,"Storeys":8,"StoreysInBasement":null,"DateStamp":1599580800000}},{"type":"Feature","id":147999,"geometry":{"type":"Polygon","coordinates":[[[114.1646088667174,22.326046249945833],[114.16452091932044,22.325947471969087],[114.16453632961718,22.325935357793327],[114.16455443207491,22.325921127321298],[114.16464244409889,22.326020192006197],[114.16463233533842,22.32602803692944],[114.1646088667174,22.326046249945833]]]},"properties":{"OBJECTID":147999,"Shape__Length":37.460621014192697,"Shape__Area":64.155192675782274,"GeoRefNo":"3500020771","DateCreate":1114790400000,"BuildingBlockType":"Tower","BuildingCSUID":"3500020771T20050430","BuildingID":1108230284,"Status":"Active","BuildingNameEN":null,"BuildingNameTC":null,"BaseHeight":4.4000000000000004,"TopHeight":32.399999999999999,"Storeys":8,"StoreysInBasement":null,"DateStamp":1599580800000}},{"type":"Feature","id":148002,"geometry":{"type":"Polygon","coordinates":[[[114.16464244409889,22.326020192006197],[114.16455443207491,22.325921127321298],[114.16458389579797,22.325897965642589],[114.1645870906522,22.325901455212446],[114.16467348258223,22.325996099466661],[114.16465006551617,22.326014276190016],[114.16464244409889,22.326020192006197]]]},"properties":{"OBJECTID":148002,"Shape__Length":36.628127373849736,"Shape__Area":57.969084521714088,"GeoRefNo":"3500320768","DateCreate":1114790400000,"BuildingBlockType":"Tower","BuildingCSUID":"3500320768T20050430","BuildingID":1108230299,"Status":"Active","BuildingNameEN":null,"BuildingNameTC":null,"BaseHeight":4.5,"TopHeight":32.399999999999999,"Storeys":8,"StoreysInBasement":null,"DateStamp":1599580800000}},{"type":"Feature","id":148051,"geometry":{"type":"Polygon","coordinates":[[[114.16291361901212,22.327816585456041],[114.16298378103392,22.32776184489834],[114.16311547591818,22.327659096074704],[114.16322333404869,22.327779890232492],[114.16322559377895,22.327782420972696],[114.16302386092765,22.327939311681224],[114.16298376792449,22.327894678388883],[114.16291361901212,22.327816585456041]]]},"properties":{"OBJECTID":148051,"Shape__Length":89.693643479291012,"Shape__Area":480.80218102001606,"GeoRefNo":"3484420972","DateCreate":1114790400000,"BuildingBlockType":"Tower","BuildingCSUID":"3484420972T20050430","BuildingID":1108229059,"Status":"Active","BuildingNameEN":null,"BuildingNameTC":null,"BaseHeight":4.5999999999999996,"TopHeight":26.800000000000001,"Storeys":6,"StoreysInBasement":null,"DateStamp":1599580800000}},{"type":"Feature","id":148056,"geometry":{"type":"Polygon","coordinates":[[[114.16404653896105,22.327823253935204],[114.16395873891764,22.327727150274665],[114.16397929406865,22.32771242618217],[114.16395108985331,22.327680798383284],[114.16396579817294,22.327669181613288],[114.16397665722013,22.327681360760561],[114.16399576290164,22.327666453500985],[114.16401432005175,22.327685668171167],[114.16402944742062,22.32767486779343],[114.16411588093341,22.327769475663604],[114.16408799487299,22.327791102808455],[114.16408001999261,22.32779728777081],[114.1640725156212,22.327803107753525],[114.16404653896105,22.327823253935204]]]},"properties":{"OBJECTID":148056,"Shape__Length":55.373899372038977,"Shape__Area":145.38507405803784,"GeoRefNo":"3494420966","DateCreate":1114790400000,"BuildingBlockType":"Tower","BuildingCSUID":"3494420966T20050430","BuildingID":1108229152,"Status":"Active","BuildingNameEN":null,"BuildingNameTC":null,"BaseHeight":4.7999999999999998,"TopHeight":27.199999999999999,"Storeys":7,"StoreysInBasement":null,"DateStamp":1599580800000}},{"type":"Feature","id":148121,"geometry":{"type":"Polygon","coordinates":[[[114.16064179712276,22.327208369027044],[114.16053504868694,22.327090031832917],[114.16056303961267,22.32706827093304],[114.16057091598134,22.327062147631636],[114.16070709548792,22.327212062091142],[114.16068864759504,22.327226347092886],[114.16065988889838,22.3271939790597],[114.16064179712276,22.327208369027044]]]},"properties":{"OBJECTID":148121,"Shape__Length":53.233256444194559,"Shape__Area":94.168505979022868,"GeoRefNo":"3459220901","DateCreate":1114790400000,"BuildingBlockType":"Tower","BuildingCSUID":"3459220901T20050430","BuildingID":1108229542,"Status":"Active","BuildingNameEN":null,"BuildingNameTC":null,"BaseHeight":4,"TopHeight":25.699999999999999,"Storeys":7,"StoreysInBasement":null,"DateStamp":1599580800000}},{"type":"Feature","id":148128,"geometry":{"type":"Polygon","coordinates":[[[114.16391803355982,22.327244008647991],[114.16383329825075,22.327149594779563],[114.16383853034959,22.327145384056298],[114.16381509710388,22.327119192033138],[114.16383477117448,22.327103898328058],[114.16385437618065,22.327126895833569],[114.16386658624613,22.327116779303555],[114.16395416396351,22.327215951054502],[114.16391803355982,22.327244008647991]]]},"properties":{"OBJECTID":148128,"Shape__Length":44.744220103435403,"Shape__Area":77.566692705841305,"GeoRefNo":"3492920903","DateCreate":1114790400000,"BuildingBlockType":"Tower","BuildingCSUID":"3492920903T20050430","BuildingID":1108229532,"Status":"Active","BuildingNameEN":null,"BuildingNameTC":null,"BaseHeight":4.7999999999999998,"TopHeight":31.399999999999999,"Storeys":8,"StoreysInBasement":null,"DateStamp":1599580800000}},{"type":"Feature","id":148130,"geometry":{"type":"Polygon","coordinates":[[[114.16447584068453,22.327181864530104],[114.16439351883083,22.327089856795297],[114.16443014978884,22.327061483966084],[114.16454226746409,22.327185094943346],[114.16452157527991,22.327201113812887],[114.16449245546636,22.327169075777167],[114.16447584068453,22.327181864530104]]]},"properties":{"OBJECTID":148130,"Shape__Length":45.718397519844423,"Shape__Area":78.609751220346993,"GeoRefNo":"3498920900","DateCreate":1114790400000,"BuildingBlockType":"Tower","BuildingCSUID":"3498920900T20050430","BuildingID":1108229559,"Status":"Active","BuildingNameEN":null,"BuildingNameTC":null,"BaseHeight":4.7000000000000002,"TopHeight":24.600000000000001,"Storeys":6,"StoreysInBasement":null,"DateStamp":1599580800000}},{"type":"Feature","id":148131,"geometry":{"type":"Polygon","coordinates":[[[114.16168724047478,22.327167397606758],[114.16181341161455,22.327068927015663],[114.16182465146225,22.327081511184318],[114.16179805071843,22.32710219788164],[114.16181040688133,22.327115977713973],[114.1618144307169,22.327120465204153],[114.16171519720578,22.327198441860507],[114.16168724047478,22.327167397606758]]]},"properties":{"OBJECTID":148131,"Shape__Length":42.851239219915684,"Shape__Area":66.198243264523214,"GeoRefNo":"3471020900","DateCreate":1114790400000,"BuildingBlockType":"Tower","BuildingCSUID":"3471020900T20050430","BuildingID":1108229562,"Status":"Active","BuildingNameEN":null,"BuildingNameTC":null,"BaseHeight":3.7999999999999998,"TopHeight":33.100000000000001,"Storeys":9,"StoreysInBasement":null,"DateStamp":1599580800000}},{"type":"Feature","id":148132,"geometry":{"type":"Polygon","coordinates":[[[114.16048072993325,22.327351696607373],[114.16036388611367,22.327223098003785],[114.16038865268501,22.327203843787689],[114.16039611728137,22.327198040677697],[114.16050059604088,22.327316090289539],[114.16051090627664,22.327327993458756],[114.16048072993325,22.327351696607373]]]},"properties":{"OBJECTID":148132,"Shape__Length":45.668770183142669,"Shape__Area":78.383846047450021,"GeoRefNo":"3457420915","DateCreate":1114790400000,"BuildingBlockType":"Tower","BuildingCSUID":"3457420915T20050430","BuildingID":1108229474,"Status":"Active","BuildingNameEN":null,"BuildingNameTC":null,"BaseHeight":4,"TopHeight":24.5,"Storeys":6,"StoreysInBasement":null,"DateStamp":1599580800000}},{"type":"Feature","id":148133,"geometry":{"type":"Polygon","coordinates":[[[114.16361838200011,22.327191528358131],[114.16353584209362,22.327098698838572],[114.16357281377348,22.327069879307441],[114.16366524555198,22.327173429910708],[114.16365883577853,22.327178439649202],[114.16367158848428,22.327192863884729],[114.16365916897671,22.327202500497613],[114.16364642684563,22.327188138031168],[114.16362810650412,22.327202456700853],[114.16361838200011,22.327191528358131]]]},"properties":{"OBJECTID":148133,"Shape__Length":43.910254401612356,"Shape__Area":77.738606943939217,"GeoRefNo":"3490120901","DateCreate":1114790400000,"BuildingBlockType":"Tower","BuildingCSUID":"3490120901T20050430","BuildingID":1108229558,"Status":"Active","BuildingNameEN":null,"BuildingNameTC":null,"BaseHeight":4.7000000000000002,"TopHeight":33.399999999999999,"Storeys":10,"StoreysInBasement":null,"DateStamp":1599580800000}},{"type":"Feature","id":148164,"geometry":{"type":"Polygon","coordinates":[[[114.16408491955832,22.326242656646759],[114.16417987492873,22.326168738979742],[114.16418997476589,22.326179530686634],[114.16422277155257,22.326154728928131],[114.16421199470898,22.326143735427248],[114.16428330809548,22.326088221637505],[114.16429113118245,22.326096971707514],[114.1643215715942,22.326131019371587],[114.16439351835547,22.326211491770053],[114.16433976254777,22.326252826682584],[114.16408491955832,22.326242656646759]]]},"properties":{"OBJECTID":148164,"Shape__Length":81.140746866516992,"Shape__Area":292.79225657350071,"GeoRefNo":"3496620796","DateCreate":1114790400000,"BuildingBlockType":"Tower","BuildingCSUID":"3496620796T20050430","BuildingID":1108230148,"Status":"Active","BuildingNameEN":"Nam Fung Mansion","BuildingNameTC":"南楓樓","BaseHeight":4.5,"TopHeight":42,"Storeys":11,"StoreysInBasement":null,"DateStamp":1599580800000}},{"type":"Feature","id":148222,"geometry":{"type":"Polygon","coordinates":[[[114.15728679836405,22.325978307685585],[114.15714515857074,22.326088829443215],[114.15708145614499,22.326019811938753],[114.15710898891267,22.325998372252936],[114.15709406232236,22.325982167938289],[114.15692203598272,22.326116086486348],[114.15685858191239,22.326047296947429],[114.15689250807915,22.326020881239437],[114.15687643483128,22.32600305225154],[114.15668760974637,22.326153020981277],[114.15662514278885,22.326084456787125],[114.15691496312748,22.325856011764916],[114.15697668425156,22.32592343194387],[114.15695091226368,22.325943900583731],[114.15696767458185,22.325962353842971],[114.1571410382859,22.32582736699748],[114.15720277212775,22.325897539163517],[114.15717075657871,22.325922462683558],[114.15718560568969,22.325938842807403],[114.15728681481978,22.325860159527469],[114.15737473073715,22.325791810727495],[114.15743646221999,22.32586152441203],[114.15728679836405,22.325978307685585]]]},"properties":{"OBJECTID":148222,"Shape__Length":261.62389925539077,"Shape__Area":1211.6123759897866,"GeoRefNo":"3421220772","DateCreate":1114790400000,"BuildingBlockType":"Tower","BuildingCSUID":"3421220772T20050430","BuildingID":1108230211,"Status":"Active","BuildingNameEN":"Cheong Yat House","BuildingNameTC":"昌逸樓","BaseHeight":4.5,"TopHeight":48,"Storeys":14,"StoreysInBasement":null,"DateStamp":1786636800000}},{"type":"Feature","id":148226,"geometry":{"type":"Polygon","coordinates":[[[114.1628563266345,22.328069438525006],[114.16282229276149,22.328032734749602],[114.16276160175086,22.327966232421819],[114.16277823907934,22.327952748944377],[114.16276330829344,22.32793686935279],[114.16277992858728,22.327923830449343],[114.16288078957348,22.328032739794427],[114.16289043193973,22.328042902379625],[114.1628563266345,22.328069438525006]]]},"properties":{"OBJECTID":148226,"Shape__Length":43.878083926126237,"Shape__Area":73.652414643655845,"GeoRefNo":"3482321001","DateCreate":1114790400000,"BuildingBlockType":"Tower","BuildingCSUID":"3482321001T20050430","BuildingID":1108228944,"Status":"Active","BuildingNameEN":null,"BuildingNameTC":null,"BaseHeight":4.4000000000000004,"TopHeight":33.299999999999997,"Storeys":8,"StoreysInBasement":null,"DateStamp":1599580800000}},{"type":"Feature","id":148227,"geometry":{"type":"Polygon","coordinates":[[[114.1632529506854,22.327975308520983],[114.16330411655859,22.327935395085706],[114.16336700406043,22.328003501586245],[114.16339404034544,22.32803278315248],[114.1634191270405,22.328059406219609],[114.16342263812498,22.328063209198966],[114.16341253255005,22.328071015935269],[114.16339761269037,22.328055709032558],[114.16337006960137,22.328077213536456],[114.16338438733129,22.328092838810115],[114.16337017216807,22.328103850066963],[114.16335597111119,22.328088228684912],[114.16330551190447,22.328032775789818],[114.16328824196098,22.328013893833624],[114.16327301979354,22.327997250819095],[114.1632529506854,22.327975308520983]]]},"properties":{"OBJECTID":148227,"Shape__Length":55.763757847532887,"Shape__Area":121.01395807224044,"GeoRefNo":"3487020996","DateCreate":1114790400000,"BuildingBlockType":"Tower","BuildingCSUID":"3487020996T20050430","BuildingID":1108228925,"Status":"Active","BuildingNameEN":null,"BuildingNameTC":"榮生樓","BaseHeight":4.5999999999999996,"TopHeight":34.5,"Storeys":9,"StoreysInBasement":null,"DateStamp":1599580800000}},{"type":"Feature","id":148228,"geometry":{"type":"Polygon","coordinates":[[[114.16249918120319,22.328070560185903],[114.16254651282777,22.328032710681715],[114.16261923451732,22.327975191888342],[114.16262967653275,22.327986823203208],[114.16262349057887,22.327992195136588],[114.16262943037444,22.327999288729796],[114.16260896595045,22.328015363814551],[114.16262098069608,22.328029175973487],[114.16261619791254,22.328032716807584],[114.16260185512185,22.328044014074823],[114.16252711936592,22.328101604114106],[114.16252646046155,22.328100871765859],[114.16249918120319,22.328070560185903]]]},"properties":{"OBJECTID":148228,"Shape__Length":41.582924101410683,"Shape__Area":66.788811236775302,"GeoRefNo":"3479221002","DateCreate":1114790400000,"BuildingBlockType":"Tower","BuildingCSUID":"3479221002T20050430","BuildingID":1108228926,"Status":"Active","BuildingNameEN":null,"BuildingNameTC":null,"BaseHeight":4.0999999999999996,"TopHeight":25.899999999999999,"Storeys":6,"StoreysInBasement":null,"DateStamp":1599580800000}},{"type":"Feature","id":148229,"geometry":{"type":"Polygon","coordinates":[[[114.1616882099384,22.328164127114576],[114.16165841057547,22.328130770315827],[114.16167427690874,22.328118468983384],[114.16170390765828,22.328151931511666],[114.16169582829674,22.328158208368261],[114.1616882099384,22.328164127114576]]]},"properties":{"OBJECTID":148229,"Shape__Length":13.838683381123708,"Shape__Area":10.167423083935116,"GeoRefNo":"3470321012","DateCreate":1114790400000,"BuildingBlockType":"Tower","BuildingCSUID":"3470321012T20050430","BuildingID":1108228876,"Status":"Active","BuildingNameEN":null,"BuildingNameTC":null,"BaseHeight":4.2000000000000002,"TopHeight":33.600000000000001,"Storeys":9,"StoreysInBasement":null,"DateStamp":1599580800000}},{"type":"Feature","id":148230,"geometry":{"type":"Polygon","coordinates":[[[114.16080410906676,22.328094701672622],[114.16086457731826,22.328046000459867],[114.16087391622231,22.328056046730811],[114.16090722237811,22.328091866026757],[114.16084585702565,22.32813984255257],[114.16080410906676,22.328094701672622]]]},"properties":{"OBJECTID":148230,"Shape__Length":29.807338634827332,"Shape__Area":54.891824073910946,"GeoRefNo":"3461821006","DateCreate":1114790400000,"BuildingBlockType":"Tower","BuildingCSUID":"3461821006T20050430","BuildingID":1108228900,"Status":"Active","BuildingNameEN":null,"BuildingNameTC":null,"BaseHeight":4.0999999999999996,"TopHeight":24.899999999999999,"Storeys":6,"StoreysInBasement":null,"DateStamp":1599580800000}},{"type":"Feature","id":148238,"geometry":{"type":"Polygon","coordinates":[[[114.16470475023893,22.325971829035687],[114.16459352901168,22.325848086012606],[114.16460547987211,22.325838811598302],[114.16461563036083,22.325830934440475],[114.16462282465032,22.325838825728827],[114.16464085308178,22.325858600910554],[114.16465216300273,22.325849587789786],[114.16473803103423,22.325945996005718],[114.16470475023893,22.325971829035687]]]},"properties":{"OBJECTID":148238,"Shape__Length":44.709005917868822,"Shape__Area":74.234001290785102,"GeoRefNo":"3501020762","DateCreate":1114790400000,"BuildingBlockType":"Tower","BuildingCSUID":"3501020762T20050430","BuildingID":1108230330,"Status":"Active","BuildingNameEN":null,"BuildingNameTC":null,"BaseHeight":4.4000000000000004,"TopHeight":24.399999999999999,"Storeys":6,"StoreysInBasement":null,"DateStamp":1599580800000}},{"type":"Feature","id":148243,"geometry":{"type":"Polygon","coordinates":[[[114.16473803103423,22.325945996005718],[114.16465216300273,22.325849587789786],[114.16464259146989,22.325838841755438],[114.16462740590893,22.325821792941532],[114.16463729003331,22.325814121840285],[114.1646458841084,22.325823979101454],[114.16466555802022,22.325808496734304],[114.16466931776337,22.325805546272036],[114.16469962819882,22.325838888116241],[114.16477260276015,22.325919160850312],[114.16473803103423,22.325945996005718]]]},"properties":{"OBJECTID":148243,"Shape__Length":44.871383996535954,"Shape__Area":76.858293207447289,"GeoRefNo":"3501320759","DateCreate":1114790400000,"BuildingBlockType":"Tower","BuildingCSUID":"3501320759T20050430","BuildingID":1108230343,"Status":"Active","BuildingNameEN":null,"BuildingNameTC":null,"BaseHeight":4.5,"TopHeight":30.300000000000001,"Storeys":8,"StoreysInBasement":null,"DateStamp":1599580800000}},{"type":"Feature","id":148299,"geometry":{"type":"Polygon","coordinates":[[[114.16372754486173,22.327819491155307],[114.16361424468153,22.327694576233803],[114.16364900925502,22.32766761075753],[114.1637514070009,22.32778158178391],[114.16373693918503,22.327793145092635],[114.1637470683815,22.327804336250153],[114.16372754486173,22.327819491155307]]]},"properties":{"OBJECTID":148299,"Shape__Length":45.415886329735926,"Shape__Area":80.420777183677899,"GeoRefNo":"3490920967","DateCreate":1114790400000,"BuildingBlockType":"Tower","BuildingCSUID":"3490920967T20050430","BuildingID":1108229155,"Status":"Active","BuildingNameEN":null,"BuildingNameTC":null,"BaseHeight":4.7999999999999998,"TopHeight":26.699999999999999,"Storeys":6,"StoreysInBasement":null,"DateStamp":1599580800000}},{"type":"Feature","id":148300,"geometry":{"type":"Polygon","coordinates":[[[114.15973319663172,22.327712125678513],[114.1598479385499,22.327623155233141],[114.15996046560949,22.327747089636535],[114.15994274197747,22.327760504711502],[114.15996105930616,22.327779820330612],[114.15991331522221,22.327816854569207],[114.15989613764577,22.32779747720436],[114.15986925923731,22.327818375592233],[114.15988672571261,22.327837479544005],[114.15986423682219,22.327854923649223],[114.15973319663172,22.327712125678513]]]},"properties":{"OBJECTID":148300,"Shape__Length":77.939383357687404,"Shape__Area":302.21331654953354,"GeoRefNo":"3451320966","DateCreate":1114790400000,"BuildingBlockType":"Tower","BuildingCSUID":"3451320966T20050430","BuildingID":1108229126,"Status":"Active","BuildingNameEN":null,"BuildingNameTC":null,"BaseHeight":3.8999999999999999,"TopHeight":25.800000000000001,"Storeys":6,"StoreysInBasement":null,"DateStamp":1599580800000}},{"type":"Feature","id":148301,"geometry":{"type":"Polygon","coordinates":[[[114.16018498813671,22.327894134109854],[114.16014922802879,22.3279218136007],[114.16009505249455,22.327862670058487],[114.16013038961064,22.327834788160409],[114.16018498813671,22.327894134109854]]]},"properties":{"OBJECTID":148301,"Shape__Length":26.821029995515033,"Shape__Area":41.263387452527802,"GeoRefNo":"3454320982","DateCreate":1114790400000,"BuildingBlockType":"Tower","BuildingCSUID":"3454320982T20050430","BuildingID":1108229073,"Status":"Active","BuildingNameEN":null,"BuildingNameTC":null,"BaseHeight":4.2000000000000002,"TopHeight":27,"Storeys":7,"StoreysInBasement":null,"DateStamp":1599580800000}},{"type":"Feature","id":148373,"geometry":{"type":"Polygon","coordinates":[[[114.16070709548792,22.327212062091142],[114.16057091598134,22.327062147631636],[114.16057651325245,22.327057796173165],[114.16060372835236,22.327036638341188],[114.16071318240584,22.327156586184227],[114.16069490876298,22.32717078162068],[114.16072212007271,22.327200427856141],[114.16070709548792,22.327212062091142]]]},"properties":{"OBJECTID":148373,"Shape__Length":52.347445604218436,"Shape__Area":85.731944772113209,"GeoRefNo":"3459620898","DateCreate":1114790400000,"BuildingBlockType":"Tower","BuildingCSUID":"3459620898T20050430","BuildingID":1108229552,"Status":"Active","BuildingNameEN":null,"BuildingNameTC":null,"BaseHeight":3.8999999999999999,"TopHeight":25.699999999999999,"Storeys":7,"StoreysInBasement":null,"DateStamp":1599580800000}},{"type":"Feature","id":148387,"geometry":{"type":"Polygon","coordinates":[[[114.16056194946218,22.327317020107042],[114.16043047998582,22.327171326267685],[114.16046576497578,22.327143894824616],[114.16057209044753,22.327261686302897],[114.16055583758703,22.327274110305886],[114.16058110497637,22.327301969848737],[114.16056194946218,22.327317020107042]]]},"properties":{"OBJECTID":148387,"Shape__Length":51.622189160763028,"Shape__Area":91.070906552068038,"GeoRefNo":"3458120909","DateCreate":1114790400000,"BuildingBlockType":"Tower","BuildingCSUID":"3458120909T20050430","BuildingID":1108229488,"Status":"Active","BuildingNameEN":null,"BuildingNameTC":null,"BaseHeight":3.8999999999999999,"TopHeight":32.899999999999999,"Storeys":9,"StoreysInBasement":null,"DateStamp":1599580800000}},{"type":"Feature","id":148394,"geometry":{"type":"Polygon","coordinates":[[[114.16475066045422,22.327277443377948],[114.16466023316082,22.327176237523869],[114.16466565130067,22.32717212964625],[114.16464289444193,22.327147025708175],[114.16465317842429,22.327138760063573],[114.164676169671,22.327164148300639],[114.16469814741789,22.327147477679823],[114.16472139029949,22.327173612307163],[114.16472490099656,22.327177557761345],[114.16474966019041,22.327205382571876],[114.16478804068232,22.327248515233617],[114.16475066045422,22.327277443377948]]]},"properties":{"OBJECTID":148394,"Shape__Length":46.461048362589267,"Shape__Area":78.209311037458932,"GeoRefNo":"3501520909","DateCreate":1114790400000,"BuildingBlockType":"Tower","BuildingCSUID":"3501520909T20050430","BuildingID":1108229510,"Status":"Active","BuildingNameEN":null,"BuildingNameTC":null,"BaseHeight":4.9000000000000004,"TopHeight":37.899999999999999,"Storeys":9,"StoreysInBasement":null,"DateStamp":1599580800000}},{"type":"Feature","id":148395,"geometry":{"type":"Polygon","coordinates":[[[114.16352299071787,22.327308164383794],[114.16341740366524,22.327191021762445],[114.1634593326802,22.327158338028575],[114.16354131808386,22.327250684404593],[114.16356405801871,22.327276299355752],[114.16352299071787,22.327308164383794]]]},"properties":{"OBJECTID":148395,"Shape__Length":45.015893504318079,"Shape__Area":94.370531183159329,"GeoRefNo":"3488920911","DateCreate":1114790400000,"BuildingBlockType":"Tower","BuildingCSUID":"3488920911T20050430","BuildingID":1108229496,"Status":"Active","BuildingNameEN":null,"BuildingNameTC":null,"BaseHeight":4.7000000000000002,"TopHeight":33.5,"Storeys":9,"StoreysInBasement":null,"DateStamp":1599580800000}},{"type":"Feature","id":148398,"geometry":{"type":"Polygon","coordinates":[[[114.16377751311681,22.327353131747955],[114.16369031571251,22.327255288875051],[114.16369505244464,22.327251629975397],[114.163674245346,22.327228097923374],[114.16368969039625,22.32721614864111],[114.16371104429483,22.327240383405307],[114.16372409978354,22.327230631158137],[114.16381095195975,22.327327164369912],[114.16377751311681,22.327353131747955]]]},"properties":{"OBJECTID":148398,"Shape__Length":43.775073466745695,"Shape__Area":69.455939229752587,"GeoRefNo":"3491420915","DateCreate":1114790400000,"BuildingBlockType":"Tower","BuildingCSUID":"3491420915T20050430","BuildingID":1108229473,"Status":"Active","BuildingNameEN":null,"BuildingNameTC":null,"BaseHeight":4.7999999999999998,"TopHeight":32.200000000000003,"Storeys":9,"StoreysInBasement":null,"DateStamp":1599580800000}},{"type":"Feature","id":148399,"geometry":{"type":"Polygon","coordinates":[[[114.1638483919092,22.327298089880937],[114.16374191883105,22.327178281932085],[114.16376141809434,22.32716308909356],[114.16377797373164,22.327181577661772],[114.1637928245467,22.327169509298624],[114.16379636580108,22.327173368262329],[114.16388432800242,22.327270183279037],[114.1638483919092,22.327298089880937]]]},"properties":{"OBJECTID":148399,"Shape__Length":43.952971185867838,"Shape__Area":76.068940119988355,"GeoRefNo":"3492120910","DateCreate":1114790400000,"BuildingBlockType":"Tower","BuildingCSUID":"3492120910T20050430","BuildingID":1108229503,"Status":"Active","BuildingNameEN":null,"BuildingNameTC":null,"BaseHeight":4.7999999999999998,"TopHeight":35.700000000000003,"Storeys":9,"StoreysInBasement":null,"DateStamp":1599580800000}},{"type":"Feature","id":148400,"geometry":{"type":"Polygon","coordinates":[[[114.16312114251383,22.327199991259562],[114.16307981984691,22.327153680451712],[114.16303269733811,22.327100869465788],[114.16304839526849,22.327089071076756],[114.16302363308719,22.327062692796012],[114.16303925504837,22.32705052595345],[114.16306318805282,22.327076408833804],[114.16306746258907,22.327073562756162],[114.16315622378048,22.327173049122703],[114.16312114251383,22.327199991259562]]]},"properties":{"OBJECTID":148400,"Shape__Length":45.647876106047747,"Shape__Area":74.926890445233354,"GeoRefNo":"3484720899","DateCreate":1114790400000,"BuildingBlockType":"Tower","BuildingCSUID":"3484720899T20050430","BuildingID":1108229561,"Status":"Active","BuildingNameEN":null,"BuildingNameTC":null,"BaseHeight":4.5,"TopHeight":34.700000000000003,"Storeys":9,"StoreysInBasement":null,"DateStamp":1599580800000}},{"type":"Feature","id":148413,"geometry":{"type":"Polygon","coordinates":[[[114.1647898563197,22.326212008080955],[114.16477852545935,22.326221605307698],[114.16482480992076,22.326272896694963],[114.16480951465194,22.326272328892127],[114.1646791191877,22.326267488618925],[114.16464914650632,22.326232365695375],[114.16471527247108,22.326181113402008],[114.16474267732154,22.326159874062895],[114.1647898563197,22.326212008080955]]]},"properties":{"OBJECTID":148413,"Shape__Length":49.07067919828804,"Shape__Area":122.66926734220952,"GeoRefNo":"3501820801","DateCreate":1114790400000,"BuildingBlockType":"Tower","BuildingCSUID":"3501820801T20050430","BuildingID":1108230142,"Status":"Active","BuildingNameEN":null,"BuildingNameTC":null,"BaseHeight":4.5,"TopHeight":28,"Storeys":6,"StoreysInBasement":null,"DateStamp":1599580800000}},{"type":"Feature","id":148659,"geometry":{"type":"Polygon","coordinates":[[[114.16204665585295,22.326459268308454],[114.16198266820889,22.326386451009352],[114.16200902532381,22.326366030840468],[114.16202456588633,22.326366475752732],[114.16206033871669,22.326406140629352],[114.16208296308427,22.326431226407223],[114.16204665585295,22.326459268308454]]]},"properties":{"OBJECTID":148659,"Shape__Length":29.772013728319642,"Shape__Area":49.321767933909967,"GeoRefNo":"3473820818","DateCreate":1114790400000,"BuildingBlockType":"Tower","BuildingCSUID":"3473820818T20050430","BuildingID":1108230054,"Status":"Active","BuildingNameEN":null,"BuildingNameTC":null,"BaseHeight":4.2999999999999998,"TopHeight":24.100000000000001,"Storeys":6,"StoreysInBasement":null,"DateStamp":1599580800000}},{"type":"Feature","id":148915,"geometry":{"type":"Polygon","coordinates":[[[114.1648781433079,22.326163839504787],[114.16482057246608,22.326099498188629],[114.16485638370676,22.326071741807201],[114.1649672890707,22.326195917459639],[114.16495686415766,22.326203990853674],[114.16494225533731,22.326187359235046],[114.1649256333193,22.32620034336675],[114.16494043173013,22.326216687828101],[114.16493156810091,22.326223547082311],[114.1648781433079,22.326163839504787]]]},"properties":{"OBJECTID":148915,"Shape__Length":50.119693912552037,"Shape__Area":80.433148696608157,"GeoRefNo":"3503320789","DateCreate":1114790400000,"BuildingBlockType":"Tower","BuildingCSUID":"3503320789T20050430","BuildingID":1108230163,"Status":"Active","BuildingNameEN":null,"BuildingNameTC":null,"BaseHeight":4.4000000000000004,"TopHeight":36.5,"Storeys":9,"StoreysInBasement":null,"DateStamp":1599580800000}},{"type":"Feature","id":148924,"geometry":{"type":"Polygon","coordinates":[[[114.15728675344771,22.326300791640968],[114.15728535997704,22.32630228079725],[114.1572835514492,22.326303838535953],[114.15728157269658,22.326305207243916],[114.15727944856998,22.326306370488503],[114.15727720188136,22.326307315358669],[114.15727485942209,22.32630803065976],[114.15727244778903,22.326308507815931],[114.15726999532566,22.326308742134636],[114.15726752998705,22.326308730187677],[114.1572650803101,22.326308472339711],[114.15726267424897,22.326307971664498],[114.15726033985449,22.326307233945016],[114.1572581044977,22.326306267312091],[114.15725599360786,22.326305083779467],[114.15725403096398,22.326303695812257],[114.15725224024747,22.326302120571423],[114.15725064183931,22.326300375759395],[114.15724925349951,22.326298481516513],[114.15724809230842,22.32629645978917],[114.1572471712694,22.326294333245748],[114.15724650018244,22.326292127714879],[114.15724608816807,22.326289867851173],[114.15724593929939,22.326287579572888],[114.15724605493151,22.326285289972006],[114.15724643428432,22.326283024785567],[114.15724707298618,22.32628081074354],[114.15724796297727,22.32627867258882],[114.15724909503284,22.326276636057425],[114.15725045575486,22.326274724085433],[114.15725202854209,22.326272959156992],[114.15725379659973,22.326271360685805],[114.15725573808551,22.326269948175341],[114.15725783203132,22.326268737516841],[114.1572600536838,22.326267742614448],[114.15726237673688,22.326266975024126],[114.15726477546724,22.326266443773363],[114.15726722124003,22.326266154818867],[114.15726968639153,22.326266111137386],[114.15727214209345,22.326266313899438],[114.15727456010039,22.326266760211841],[114.15727691274965,22.326267445646227],[114.15727917247617,22.326268361710547],[114.15728131433585,22.326269497655407],[114.15728331173476,22.326270841105678],[114.15728514293278,22.32627237571343],[114.15728675717186,22.326274053610387],[114.1572882230665,22.326275946868929],[114.15728943657945,22.326277942232984],[114.15729041333704,22.326280046748266],[114.1572911407242,22.326282236933764],[114.15729161146464,22.326284486961079],[114.15729182726275,22.32628780094138],[114.15729165232538,22.326290087645361],[114.15729121405649,22.326292343342697],[114.15729051770103,22.326294542658079],[114.15728957248372,22.326296659945729],[114.15728838792033,22.326298670282355],[114.15728675344771,22.326300791640968]]]},"properties":{"OBJECTID":148924,"Shape__Length":14.841134554677918,"Shape__Area":17.51027178458228,"GeoRefNo":"3424820806","DateCreate":1114790400000,"BuildingBlockType":"Tower","BuildingCSUID":"3424820806T20050430","BuildingID":1108230131,"Status":"Active","BuildingNameEN":null,"BuildingNameTC":null,"BaseHeight":4.2000000000000002,"TopHeight":7.2999999999999998,"Storeys":null,"StoreysInBasement":null,"DateStamp":1361808000000}},{"type":"Feature","id":148926,"geometry":{"type":"Polygon","coordinates":[[[114.15909044086605,22.326307304039787],[114.15909213365795,22.326355005859362],[114.15903737777289,22.326356214201336],[114.15903642292255,22.326308205693159],[114.15909044086605,22.326307304039787]]]},"properties":{"OBJECTID":148926,"Shape__Length":21.811080314398172,"Shape__Area":29.708446139619536,"GeoRefNo":"3443320812","DateCreate":1114790400000,"BuildingBlockType":"Tower","BuildingCSUID":"3443320812T20050430","BuildingID":1108230099,"Status":"Active","BuildingNameEN":"TUNG CHAU ST PARK","BuildingNameTC":"通州街公園","BaseHeight":4.5999999999999996,"TopHeight":8.8000000000000007,"Storeys":null,"StoreysInBasement":null,"DateStamp":1361808000000}},{"type":"Feature","id":148928,"geometry":{"type":"Polygon","coordinates":[[[114.16394953801301,22.326226533482643],[114.16394782738915,22.326235620826072],[114.1639229142514,22.326234595859415],[114.16377947568198,22.326229184986808],[114.16388039344177,22.326150416202044],[114.16394953801301,22.326226533482643]]]},"properties":{"OBJECTID":148928,"Shape__Length":42.987691999760486,"Shape__Area":83.604507475809186,"GeoRefNo":"3492920797","DateCreate":1114790400000,"BuildingBlockType":"Tower","BuildingCSUID":"3492920797T20050430","BuildingID":1108230156,"Status":"Active","BuildingNameEN":null,"BuildingNameTC":null,"BaseHeight":4.4000000000000004,"TopHeight":25.699999999999999,"Storeys":6,"StoreysInBasement":null,"DateStamp":1599580800000}},{"type":"Feature","id":148976,"geometry":{"type":"Polygon","coordinates":[[[114.16416193908027,22.326144048586986],[114.16404727361989,22.326019855109145],[114.1640810321623,22.325993376655273],[114.16411911456088,22.326034967304814],[114.16415656078827,22.326075863082117],[114.16417353876854,22.32609440510646],[114.16416079828291,22.326104274271671],[114.16418196787724,22.326128380728367],[114.16416193908027,22.326144048586986]]]},"properties":{"OBJECTID":148976,"Shape__Length":45.226221490099306,"Shape__Area":75.805974777612789,"GeoRefNo":"3495320781","DateCreate":1114790400000,"BuildingBlockType":"Tower","BuildingCSUID":"3495320781T20050430","BuildingID":1108230222,"Status":"Active","BuildingNameEN":null,"BuildingNameTC":null,"BaseHeight":4.4000000000000004,"TopHeight":34.600000000000001,"Storeys":10,"StoreysInBasement":null,"DateStamp":1599580800000}},{"type":"Feature","id":148981,"geometry":{"type":"Polygon","coordinates":[[[114.15809446861893,22.325694608997569],[114.15807253174557,22.325670015449646],[114.15808648437746,22.325659340019815],[114.15816865548535,22.325596467174023],[114.15822105200603,22.325655518788388],[114.15829906015614,22.325743435522909],[114.15837355099393,22.325686716763244],[114.15837609145996,22.325689599525568],[114.15837965599306,22.325693644370041],[114.15838325012639,22.325697723082509],[114.15838764152225,22.325702705847359],[114.15851636102303,22.32584877140145],[114.15853317470311,22.325835850349641],[114.15851076189527,22.325810721384133],[114.15858672798328,22.325753078954939],[114.15883017312194,22.32602483481298],[114.1587539636252,22.3260833953766],[114.15859745382761,22.325907919056657],[114.15858022300804,22.325921239400607],[114.15860660272146,22.325951174248345],[114.158531377008,22.326009042804547],[114.15838585679674,22.32584676707646],[114.15837307434741,22.325856909679818],[114.15839613123096,22.325882966178717],[114.1583169725823,22.325944061359085],[114.15829584308554,22.325920372708765],[114.15809446861893,22.325694608997569]]]},"properties":{"OBJECTID":148981,"Shape__Length":253.16975122536965,"Shape__Area":1297.5633027058548,"GeoRefNo":"3437020758","DateCreate":1307030400000,"BuildingBlockType":"Tower","BuildingCSUID":"3437020758T20110603","BuildingID":1108230262,"Status":"Active","BuildingNameEN":"Cheong Chung House","BuildingNameTC":"昌頌樓","BaseHeight":4.5,"TopHeight":47.899999999999999,"Storeys":14,"StoreysInBasement":null,"DateStamp":1786636800000}},{"type":"Feature","id":149140,"geometry":{"type":"Polygon","coordinates":[[[114.16437758891925,22.327204590427414],[114.16432336433115,22.327144195565779],[114.1643570091006,22.327118135707373],[114.16444601925923,22.327217361125239],[114.1644617508002,22.327234898098069],[114.16444540956667,22.327247353910987],[114.1644520423271,22.327254942547743],[114.16443478956928,22.327268298729614],[114.16437758891925,22.327204590427414]]]},"properties":{"OBJECTID":149140,"Shape__Length":44.829281842618265,"Shape__Area":78.34790975772097,"GeoRefNo":"3498220906","DateCreate":1114790400000,"BuildingBlockType":"Tower","BuildingCSUID":"3498220906T20050430","BuildingID":1108229515,"Status":"Active","BuildingNameEN":"Kam Peak Building","BuildingNameTC":"金碧樓","BaseHeight":4.7999999999999998,"TopHeight":24.699999999999999,"Storeys":6,"StoreysInBasement":null,"DateStamp":1599580800000}},{"type":"Feature","id":149152,"geometry":{"type":"Polygon","coordinates":[[[114.15801362746909,22.32655744039354],[114.15796646726972,22.326504643641016],[114.15825777771514,22.326278942152168],[114.15832123306183,22.326347731593629],[114.15829686135851,22.326366646352163],[114.15831009996887,22.326381484305784],[114.1584772010501,22.326251927581161],[114.15854189572978,22.326322087739243],[114.15850876870518,22.326348013250158],[114.15852270451063,22.326363156860285],[114.15869791324572,22.326226208746313],[114.15871285859586,22.326214527005806],[114.15872346904159,22.326226211602918],[114.15877532699083,22.326283319681778],[114.15848476351827,22.326510394834717],[114.15842057402882,22.326442985248768],[114.15844668532112,22.326422576016771],[114.15843297889552,22.3264073254138],[114.15826264047233,22.326540631580016],[114.15819769128073,22.326468637351695],[114.15823237679382,22.326441745088427],[114.1582192955356,22.326426847002939],[114.15805102288088,22.326557444730103],[114.15802894022423,22.326574583216079],[114.15801362746909,22.32655744039354]]]},"properties":{"OBJECTID":149152,"Shape__Length":259.88447694170043,"Shape__Area":1216.6389255693041,"GeoRefNo":"3436020819","DateCreate":1114790400000,"BuildingBlockType":"Tower","BuildingCSUID":"3436020819T20050430","BuildingID":1108229985,"Status":"Active","BuildingNameEN":"Cheong Yin House","BuildingNameTC":"昌賢樓","BaseHeight":4.5999999999999996,"TopHeight":47.799999999999997,"Storeys":14,"StoreysInBasement":null,"DateStamp":1786636800000}},{"type":"Feature","id":149153,"geometry":{"type":"Polygon","coordinates":[[[114.16197418744099,22.326515239036684],[114.1618684180665,22.326397029047531],[114.16188040178689,22.326387571426658],[114.16185715099691,22.326361682562787],[114.16189885521504,22.326362876550608],[114.16201030230354,22.326487345868049],[114.16197418744099,22.326515239036684]]]},"properties":{"OBJECTID":149153,"Shape__Length":49.459934256591268,"Shape__Area":89.809898102700203,"GeoRefNo":"3472820821","DateCreate":1114790400000,"BuildingBlockType":"Tower","BuildingCSUID":"3472820821T20050430","BuildingID":1108230021,"Status":"Active","BuildingNameEN":null,"BuildingNameTC":null,"BaseHeight":4.2999999999999998,"TopHeight":26.199999999999999,"Storeys":6,"StoreysInBasement":null,"DateStamp":1599580800000}},{"type":"Feature","id":150270,"geometry":{"type":"Polygon","coordinates":[[[114.16299725512438,22.331884052818211],[114.16306956323118,22.331827934639236],[114.16318584160712,22.331957783084615],[114.16317585862751,22.331965583581511],[114.16316329440194,22.331975401111151],[114.16317893821046,22.331992599815166],[114.16317087130918,22.331998910788599],[114.16315494930581,22.331981682530348],[114.16314278144547,22.331991111596256],[114.16315893273168,22.332008261218672],[114.16315085913091,22.332014571648699],[114.16313499875031,22.331997510820663],[114.16311405969054,22.33201387219032],[114.16310662253514,22.332005606231828],[114.16307060418234,22.33196557467928],[114.16299725512438,22.331884052818211]]]},"properties":{"OBJECTID":150270,"Shape__Length":66.850430191466117,"Shape__Area":186.68624145658359,"GeoRefNo":"3484921430","DateCreate":1114790400000,"BuildingBlockType":"Tower","BuildingCSUID":"3484921430T20050430","BuildingID":1108225945,"Status":"Active","BuildingNameEN":"Kam Ning House","BuildingNameTC":"金陵樓","BaseHeight":5.5,"TopHeight":36.600000000000001,"Storeys":9,"StoreysInBasement":null,"DateStamp":1599580800000}},{"type":"Feature","id":150532,"geometry":{"type":"Polygon","coordinates":[[[114.16318584160712,22.331957783084615],[114.16306956323118,22.331827934639236],[114.16314230326653,22.331771481339235],[114.16327438637489,22.331917932333148],[114.16321346786752,22.331965586745852],[114.16320133097103,22.331975081019582],[114.16319282783009,22.331965585010344],[114.16318584160712,22.331957783084615]]]},"properties":{"OBJECTID":150532,"Shape__Length":61.969609754114622,"Shape__Area":207.56420514414665,"GeoRefNo":"3485721426","DateCreate":1114790400000,"BuildingBlockType":"Tower","BuildingCSUID":"3485721426T20050430","BuildingID":1108225965,"Status":"Active","BuildingNameEN":null,"BuildingNameTC":null,"BaseHeight":5.5,"TopHeight":25.300000000000001,"Storeys":6,"StoreysInBasement":null,"DateStamp":1599580800000}},{"type":"Feature","id":152788,"geometry":{"type":"Polygon","coordinates":[[[114.1616702799253,22.333022762194023],[114.16163512122922,22.332983091811709],[114.1616085710387,22.332953134618233],[114.16162135456321,22.33294315377751],[114.16163831206819,22.332961729282601],[114.16166175253893,22.332987406227488],[114.16168526882025,22.333013166166989],[114.16175497836134,22.333089520974596],[114.16174003183015,22.33310140581218],[114.1617191222702,22.333077872071389],[114.1616702799253,22.333022762194023]]]},"properties":{"OBJECTID":152788,"Shape__Length":46.293309166680032,"Shape__Area":39.867233317492406,"GeoRefNo":"3470221551","DateCreate":1195660800000,"BuildingBlockType":"Temporary Structure","BuildingCSUID":"3470221551T20071122","BuildingID":1108225431,"Status":"Active","BuildingNameEN":"WING LEE MANSION","BuildingNameTC":"榮利大廈","BaseHeight":null,"TopHeight":null,"Storeys":null,"StoreysInBasement":null,"DateStamp":1410969600000}},{"type":"Feature","id":153023,"geometry":{"type":"Polygon","coordinates":[[[114.16084091394458,22.330985298625645],[114.16078289856461,22.330920439139767],[114.160727705602,22.330858736101263],[114.16076707845612,22.330828234613918],[114.1607686464789,22.330829991939883],[114.16082219948863,22.330890010508952],[114.16088003996204,22.330954836731248],[114.16084091394458,22.330985298625645]]]},"properties":{"OBJECTID":153023,"Shape__Length":46.987285924472722,"Shape__Area":96.002311321624731,"GeoRefNo":"3461221317","DateCreate":1195660800000,"BuildingBlockType":"Temporary Structure","BuildingCSUID":"3461221317T20071122","BuildingID":1108226567,"Status":"Active","BuildingNameEN":null,"BuildingNameTC":null,"BaseHeight":null,"TopHeight":null,"Storeys":null,"StoreysInBasement":null,"DateStamp":1410969600000}},{"type":"Feature","id":153025,"geometry":{"type":"Polygon","coordinates":[[[114.15882801325971,22.33052879989248],[114.15877279612194,22.330571541001706],[114.15870708041925,22.330497884576932],[114.15876229754802,22.330455143489715],[114.15882801325971,22.33052879989248]]]},"properties":{"OBJECTID":153025,"Shape__Length":36.00002465051557,"Shape__Area":78.440052423640537,"GeoRefNo":"3440221274","DateCreate":1195574400000,"BuildingBlockType":"Temporary Structure","BuildingCSUID":"3440221274T20071121","BuildingID":1108226821,"Status":"Active","BuildingNameEN":null,"BuildingNameTC":null,"BaseHeight":null,"TopHeight":null,"Storeys":null,"StoreysInBasement":null,"DateStamp":1410969600000}},{"type":"Feature","id":153563,"geometry":{"type":"Polygon","coordinates":[[[114.16247412240767,22.327703715205377],[114.16236383056896,22.327581165236872],[114.1623579253049,22.32757460362842],[114.16236957116436,22.327565574353589],[114.16237823925871,22.327575328790743],[114.16238317130934,22.327571883159113],[114.16239131432987,22.327581167687431],[114.16242350781505,22.327617874010532],[114.16244099996756,22.327604602771537],[114.16250726540584,22.327677971939554],[114.16247412240767,22.327703715205377]]]},"properties":{"OBJECTID":153563,"Shape__Length":46.204283370576476,"Shape__Area":63.541294293088555,"GeoRefNo":"3478120956","DateCreate":1114790400000,"BuildingBlockType":"Tower","BuildingCSUID":"3478120956T20050430","BuildingID":1108229236,"Status":"Active","BuildingNameEN":null,"BuildingNameTC":null,"BaseHeight":4.2999999999999998,"TopHeight":16.600000000000001,"Storeys":4,"StoreysInBasement":null,"DateStamp":1599580800000}},{"type":"Feature","id":153564,"geometry":{"type":"Polygon","coordinates":[[[114.16474515768395,22.327761469062715],[114.16470630698532,22.327718240724419],[114.16478268364475,22.327659014360208],[114.16482144652473,22.327702027565451],[114.16474515768395,22.327761469062715]]]},"properties":{"OBJECTID":153564,"Shape__Length":32.950561235634261,"Shape__Area":63.818807544790779,"GeoRefNo":"3502020964","DateCreate":1114790400000,"BuildingBlockType":"Tower","BuildingCSUID":"3502020964T20050430","BuildingID":1108229194,"Status":"Active","BuildingNameEN":"Wong Chuk Street Substation","BuildingNameTC":"黃竹街變電站","BaseHeight":4.9000000000000004,"TopHeight":9.0999999999999996,"Storeys":null,"StoreysInBasement":null,"DateStamp":1361808000000}},{"type":"Feature","id":153565,"geometry":{"type":"Polygon","coordinates":[[[114.1637514070009,22.32778158178391],[114.16364900925502,22.32766761075753],[114.163682075824,22.327641962246844],[114.16379564666389,22.327766627899358],[114.16377670529836,22.327781330966868],[114.16376653034636,22.327769494481863],[114.1637514070009,22.32778158178391]]]},"properties":{"OBJECTID":153565,"Shape__Length":45.25423797706042,"Shape__Area":77.996507094377407,"GeoRefNo":"3491320964","DateCreate":1114790400000,"BuildingBlockType":"Tower","BuildingCSUID":"3491320964T20050430","BuildingID":1108229176,"Status":"Active","BuildingNameEN":null,"BuildingNameTC":null,"BaseHeight":4.7999999999999998,"TopHeight":26.699999999999999,"Storeys":6,"StoreysInBasement":null,"DateStamp":1599580800000}},{"type":"Feature","id":153567,"geometry":{"type":"Polygon","coordinates":[[[114.15999117031923,22.327728544820673],[114.16014375292184,22.327608632445262],[114.16015064336588,22.327616249459542],[114.16017321509041,22.327641200848717],[114.16009584061723,22.327701951738202],[114.16004764708268,22.327739818770876],[114.16003181788541,22.327721626011336],[114.16000444727983,22.327743441787945],[114.15999117031923,22.327728544820673]]]},"properties":{"OBJECTID":153567,"Shape__Length":50.668425580973135,"Shape__Area":87.465703650500714,"GeoRefNo":"3453920959","DateCreate":1114790400000,"BuildingBlockType":"Tower","BuildingCSUID":"3453920959T20050430","BuildingID":1108229203,"Status":"Active","BuildingNameEN":null,"BuildingNameTC":null,"BaseHeight":4,"TopHeight":28.5,"Storeys":8,"StoreysInBasement":null,"DateStamp":1599580800000}},{"type":"Feature","id":153804,"geometry":{"type":"Polygon","coordinates":[[[114.16119749280035,22.327862611891952],[114.16116916095585,22.327831009425058],[114.16109486814959,22.327748140382852],[114.16111322583774,22.327733508913852],[114.16108507967144,22.32770237838815],[114.16109983345738,22.327690811280092],[114.16116916800324,22.327767874078578],[114.16123094661945,22.327836538669235],[114.16119749280035,22.327862611891952]]]},"properties":{"OBJECTID":153804,"Shape__Length":51.029561506439777,"Shape__Area":82.998038326141668,"GeoRefNo":"3464720971","DateCreate":1114790400000,"BuildingBlockType":"Tower","BuildingCSUID":"3464720971T20050430","BuildingID":1108229120,"Status":"Active","BuildingNameEN":null,"BuildingNameTC":null,"BaseHeight":4.0999999999999996,"TopHeight":33.200000000000003,"Storeys":8,"StoreysInBasement":null,"DateStamp":1599580800000}},{"type":"Feature","id":153806,"geometry":{"type":"Polygon","coordinates":[[[114.16022029280312,22.327787709490636],[114.16027023345632,22.327748447811484],[114.16031264107825,22.327795326292158],[114.16026128718566,22.327835076033082],[114.16023586611665,22.327854752792547],[114.1602045384402,22.327820913335771],[114.16023092007963,22.327799494408804],[114.16022029280312,22.327787709490636]]]},"properties":{"OBJECTID":153806,"Shape__Length":34.06629011358271,"Shape__Area":63.393632375258363,"GeoRefNo":"3455620973","DateCreate":1114790400000,"BuildingBlockType":"Tower","BuildingCSUID":"3455620973T20050430","BuildingID":1108229127,"Status":"Active","BuildingNameEN":null,"BuildingNameTC":null,"BaseHeight":4.0999999999999996,"TopHeight":24.399999999999999,"Storeys":7,"StoreysInBasement":null,"DateStamp":1599580800000}},{"type":"Feature","id":153810,"geometry":{"type":"Polygon","coordinates":[[[114.16358081377443,22.327720507267724],[114.16364234453322,22.327787579008536],[114.16361299779058,22.327809854348754],[114.16362660649541,22.327824036817482],[114.16364411630587,22.327810946694214],[114.16368260433832,22.327854375645728],[114.16362427630914,22.327899652062506],[114.16361518279584,22.327889589714694],[114.16358521567324,22.327856430121923],[114.16356443242805,22.327833432760396],[114.16351118651828,22.327774514302831],[114.16358081377443,22.327720507267724]]]},"properties":{"OBJECTID":153810,"Shape__Length":59.588361697784897,"Shape__Area":152.14762009198355,"GeoRefNo":"3490120978","DateCreate":1114790400000,"BuildingBlockType":"Tower","BuildingCSUID":"3490120978T20050430","BuildingID":1108229091,"Status":"Active","BuildingNameEN":null,"BuildingNameTC":null,"BaseHeight":4.7000000000000002,"TopHeight":24.800000000000001,"Storeys":6,"StoreysInBasement":null,"DateStamp":1599580800000}},{"type":"Feature","id":153814,"geometry":{"type":"Polygon","coordinates":[[[114.15982959243023,22.327881796664911],[114.15971318723243,22.32775700358674],[114.15969897104135,22.327741760444404],[114.1597131905942,22.327729448202327],[114.15973319663172,22.327712125678513],[114.15986423682219,22.327854923649223],[114.15982959243023,22.327881796664911]]]},"properties":{"OBJECTID":153814,"Shape__Length":50.787341671720483,"Shape__Area":97.726814753895155,"GeoRefNo":"3450720974","DateCreate":1114790400000,"BuildingBlockType":"Tower","BuildingCSUID":"3450720974T20050430","BuildingID":1108229108,"Status":"Active","BuildingNameEN":"Kam Ying Mansion","BuildingNameTC":"金英樓","BaseHeight":4,"TopHeight":23.399999999999999,"Storeys":6,"StoreysInBasement":null,"DateStamp":1599580800000}},{"type":"Feature","id":153815,"geometry":{"type":"Polygon","coordinates":[[[114.16123094661945,22.327836538669235],[114.16116916800324,22.327767874078578],[114.16109983345738,22.327690811280092],[114.1611217456669,22.327673631904442],[114.16115021520196,22.327705260221027],[114.1611616364501,22.3276961717708],[114.16116917506726,22.327704589726956],[114.16119285385264,22.327731030495308],[114.16126415948865,22.327810653704066],[114.16123094661945,22.327836538669235]]]},"properties":{"OBJECTID":153815,"Shape__Length":51.077361572084584,"Shape__Area":87.380801064335117,"GeoRefNo":"3465220969","DateCreate":1114790400000,"BuildingBlockType":"Tower","BuildingCSUID":"3465220969T20050430","BuildingID":1108229139,"Status":"Active","BuildingNameEN":null,"BuildingNameTC":null,"BaseHeight":4.2000000000000002,"TopHeight":33.200000000000003,"Storeys":8,"StoreysInBasement":null,"DateStamp":1599580800000}},{"type":"Feature","id":153834,"geometry":{"type":"Polygon","coordinates":[[[114.16016545397675,22.327753635348444],[114.16022979176292,22.327703742369877],[114.16027023345632,22.327748447811484],[114.16022029280312,22.327787709490636],[114.16019784373064,22.327762815104027],[114.16018354219803,22.327774297017879],[114.16016545397675,22.327753635348444]]]},"properties":{"OBJECTID":153834,"Shape__Length":30.330662585373112,"Shape__Area":49.350361473482053,"GeoRefNo":"3455120968","DateCreate":1114790400000,"BuildingBlockType":"Tower","BuildingCSUID":"3455120968T20050430","BuildingID":1108229171,"Status":"Active","BuildingNameEN":null,"BuildingNameTC":null,"BaseHeight":4,"TopHeight":24.399999999999999,"Storeys":7,"StoreysInBasement":null,"DateStamp":1599580800000}},{"type":"Feature","id":154076,"geometry":{"type":"Polygon","coordinates":[[[114.16042018108851,22.327656017595782],[114.16054499777871,22.327560627471588],[114.16057350921665,22.327592864284536],[114.16052736480985,22.327628153253325],[114.16044897470404,22.327688102293461],[114.16042750876544,22.327664182799044],[114.16042018108851,22.327656017595782]]]},"properties":{"OBJECTID":154076,"Shape__Length":42.50072514602877,"Shape__Area":76.899096807256313,"GeoRefNo":"3458020953","DateCreate":1114790400000,"BuildingBlockType":"Tower","BuildingCSUID":"3458020953T20050430","BuildingID":1108229245,"Status":"Active","BuildingNameEN":null,"BuildingNameTC":null,"BaseHeight":4,"TopHeight":25.800000000000001,"Storeys":6,"StoreysInBasement":null,"DateStamp":1599580800000}},{"type":"Feature","id":154079,"geometry":{"type":"Polygon","coordinates":[[[114.16090662499251,22.327751864002906],[114.16080112308529,22.327635469683134],[114.16080764180214,22.327630370395052],[114.1608348241823,22.327609106864752],[114.16090194013768,22.327683379108493],[114.16092847497933,22.327712743306197],[114.16091170092972,22.327725378789339],[114.16094973925634,22.327767998573023],[114.16093672608483,22.32777820808958],[114.16091001685766,22.327749212685436],[114.16090662499251,22.327751864002906]]]},"properties":{"OBJECTID":154079,"Shape__Length":51.185916483718373,"Shape__Area":79.611014012250138,"GeoRefNo":"3461820960","DateCreate":1114790400000,"BuildingBlockType":"Tower","BuildingCSUID":"3461820960T20050430","BuildingID":1108229181,"Status":"Active","BuildingNameEN":null,"BuildingNameTC":null,"BaseHeight":4.2000000000000002,"TopHeight":30,"Storeys":8,"StoreysInBasement":null,"DateStamp":1599580800000}},{"type":"Feature","id":154093,"geometry":{"type":"Polygon","coordinates":[[[114.16423581184394,22.326997272535255],[114.16415537296963,22.326908008496449],[114.16412724076419,22.326876789726001],[114.16414068577585,22.326866324871805],[114.1641649823386,22.326893553446826],[114.16418061135249,22.326881523849735],[114.16418496559551,22.326878177183406],[114.16426816594654,22.326972023812065],[114.16423581184394,22.326997272535255]]]},"properties":{"OBJECTID":154093,"Shape__Length":43.628108522790434,"Shape__Area":66.432681030490784,"GeoRefNo":"3496220876","DateCreate":1114790400000,"BuildingBlockType":"Tower","BuildingCSUID":"3496220876T20050430","BuildingID":1108229694,"Status":"Active","BuildingNameEN":null,"BuildingNameTC":null,"BaseHeight":4.7999999999999998,"TopHeight":35.399999999999999,"Storeys":9,"StoreysInBasement":null,"DateStamp":1599580800000}},{"type":"Feature","id":154094,"geometry":{"type":"Polygon","coordinates":[[[114.16492473115073,22.326872453088448],[114.16487535120424,22.326818307027196],[114.16491499211021,22.326788322440052],[114.16492642372522,22.326800875975195],[114.16496462634097,22.326842827564139],[114.16497383295979,22.326852937707923],[114.16494895650732,22.326872369797819],[114.16493890619689,22.326861166799524],[114.16492473115073,22.326872453088448]]]},"properties":{"OBJECTID":154094,"Shape__Length":29.388994473362757,"Shape__Area":46.457616774219119,"GeoRefNo":"3503620868","DateCreate":1114790400000,"BuildingBlockType":"Tower","BuildingCSUID":"3503620868T20050430","BuildingID":1108229766,"Status":"Active","BuildingNameEN":null,"BuildingNameTC":null,"BaseHeight":4.7999999999999998,"TopHeight":25.100000000000001,"Storeys":6,"StoreysInBasement":null,"DateStamp":1599580800000}},{"type":"Feature","id":154095,"geometry":{"type":"Polygon","coordinates":[[[114.16477066344204,22.326970287285079],[114.16468352106743,22.32687174281768],[114.1646798827587,22.326867568879102],[114.16471364804264,22.326841561603075],[114.16480421133187,22.326944007340963],[114.16479746069274,22.326949306619934],[114.1648192438531,22.326973693978072],[114.16480656593694,22.326983597242894],[114.16478472686249,22.326959272460893],[114.16477066344204,22.326970287285079]]]},"properties":{"OBJECTID":154095,"Shape__Length":45.460484307067503,"Shape__Area":72.464926042397039,"GeoRefNo":"3501920876","DateCreate":1114790400000,"BuildingBlockType":"Tower","BuildingCSUID":"3501920876T20050430","BuildingID":1108229703,"Status":"Active","BuildingNameEN":null,"BuildingNameTC":null,"BaseHeight":4.7999999999999998,"TopHeight":33.600000000000001,"Storeys":9,"StoreysInBasement":null,"DateStamp":1599580800000}},{"type":"Feature","id":154384,"geometry":{"type":"Polygon","coordinates":[[[114.16136024194695,22.33355275020407],[114.16122234251249,22.333660158330101],[114.16115671617275,22.333585843069223],[114.16129523689195,22.333477863331691],[114.16136024194695,22.33355275020407]]]},"properties":{"OBJECTID":154384,"Shape__Length":58.454668427310338,"Shape__Area":197.86504421487544,"GeoRefNo":"3465921613","DateCreate":1114790400000,"BuildingBlockType":"Tower","BuildingCSUID":"3465921613T20050430","BuildingID":1108225160,"Status":"Active","BuildingNameEN":"Hung Cheung House","BuildingNameTC":"鴻祥大廈","BaseHeight":5.7999999999999998,"TopHeight":27.699999999999999,"Storeys":6,"StoreysInBasement":null,"DateStamp":1599580800000}},{"type":"Feature","id":154569,"geometry":{"type":"Polygon","coordinates":[[[114.16250726540584,22.327677971939554],[114.16244099996756,22.327604602771537],[114.16245778309408,22.327592838853072],[114.16244739247335,22.327581172673074],[114.16241621052787,22.327546162659306],[114.16242188070544,22.327541340921265],[114.16241288079887,22.327531995993933],[114.16242234357584,22.327524659304245],[114.16247398721276,22.327581175030716],[114.16253953521952,22.327652906967433],[114.16250726540584,22.327677971939554]]]},"properties":{"OBJECTID":154569,"Shape__Length":45.91020060743066,"Shape__Area":60.953082130168461,"GeoRefNo":"3478420953","DateCreate":1114790400000,"BuildingBlockType":"Tower","BuildingCSUID":"3478420953T20050430","BuildingID":1108229252,"Status":"Active","BuildingNameEN":null,"BuildingNameTC":null,"BaseHeight":4.2999999999999998,"TopHeight":19.199999999999999,"Storeys":3,"StoreysInBasement":null,"DateStamp":1599580800000}},{"type":"Feature","id":154570,"geometry":{"type":"Polygon","coordinates":[[[114.16144844311773,22.327589171908304],[114.1614907726303,22.327635403033014],[114.16146918635694,22.327652249351239],[114.16145712844504,22.327661659612847],[114.16141538213843,22.327615118605301],[114.16144844311773,22.327589171908304]]]},"properties":{"OBJECTID":154570,"Shape__Length":22.417736409277907,"Shape__Area":30.167490518788462,"GeoRefNo":"3467920954","DateCreate":1114790400000,"BuildingBlockType":"Tower","BuildingCSUID":"3467920954T20050430","BuildingID":1108229266,"Status":"Active","BuildingNameEN":null,"BuildingNameTC":null,"BaseHeight":4.0999999999999996,"TopHeight":25.699999999999999,"Storeys":6,"StoreysInBasement":null,"DateStamp":1599580800000}},{"type":"Feature","id":154572,"geometry":{"type":"Polygon","coordinates":[[[114.1590002228631,22.327180232479311],[114.15900027347396,22.327179918039892],[114.15895549813899,22.327128081702028],[114.15901254666696,22.327084414536085],[114.15905794460369,22.327136863471335],[114.1590002228631,22.327180232479311]]]},"properties":{"OBJECTID":154572,"Shape__Length":30.110755122853679,"Shape__Area":56.515234506185891,"GeoRefNo":"3442720900","DateCreate":1120665600000,"BuildingBlockType":"Tower","BuildingCSUID":"3442720900T20050707","BuildingID":1108229575,"Status":"Active","BuildingNameEN":"TUNG CHAU STREET TEMPORARY MARKET","BuildingNameTC":"通州街臨時街市","BaseHeight":4,"TopHeight":7.5999999999999996,"Storeys":null,"StoreysInBasement":null,"DateStamp":1361808000000}},{"type":"Feature","id":154573,"geometry":{"type":"Polygon","coordinates":[[[114.16329954887772,22.327060417056074],[114.16320685731432,22.326957818044932],[114.16322024493643,22.326947389113815],[114.16320065809217,22.3269256092169],[114.16322268455426,22.326908475259827],[114.16325985068602,22.326949732168867],[114.16333513269443,22.327033300089827],[114.16329954887772,22.327060417056074]]]},"properties":{"OBJECTID":154573,"Shape__Length":45.516953482197891,"Shape__Area":79.905719251996445,"GeoRefNo":"3486620883","DateCreate":1114790400000,"BuildingBlockType":"Tower","BuildingCSUID":"3486620883T20050430","BuildingID":1108229651,"Status":"Active","BuildingNameEN":null,"BuildingNameTC":null,"BaseHeight":4.5,"TopHeight":28.199999999999999,"Storeys":6,"StoreysInBasement":null,"DateStamp":1599580800000}},{"type":"Feature","id":154580,"geometry":{"type":"Polygon","coordinates":[[[114.15741147245829,22.326557369376697],[114.1574453535012,22.326531013151161],[114.15746881649623,22.326557376236103],[114.15761048692742,22.326716557173583],[114.15762915135522,22.326702772299701],[114.15760287126747,22.326673058015054],[114.15767391592385,22.326617729704722],[114.1579213049898,22.326889012175226],[114.1578455877344,22.326947570466036],[114.15768358277776,22.326764343041596],[114.15766559522935,22.326778476311368],[114.15768905277518,22.326804833854371],[114.1576172724436,22.326861082660752],[114.15737037551733,22.326589338863698],[114.15741147245829,22.326557369376697]]]},"properties":{"OBJECTID":154580,"Shape__Length":184.10310706906213,"Shape__Area":797.94914521879832,"GeoRefNo":"3428620856","DateCreate":1114790400000,"BuildingBlockType":"Tower","BuildingCSUID":"3428620856T20050430","BuildingID":1108229716,"Status":"Active","BuildingNameEN":"Cheong Him House","BuildingNameTC":"昌謙樓","BaseHeight":4.4000000000000004,"TopHeight":48.200000000000003,"Storeys":14,"StoreysInBasement":null,"DateStamp":1786636800000}},{"type":"Feature","id":154592,"geometry":{"type":"Polygon","coordinates":[[[114.16237644877042,22.326953659515013],[114.16229907024928,22.32686673384006],[114.16231834370973,22.326852922111552],[114.16231017781527,22.326843769965123],[114.16230204100465,22.326849970720023],[114.1622944165149,22.326841051971641],[114.16231477078955,22.326825358998448],[114.16232918711187,22.326841675487167],[114.16241084928292,22.326926934031448],[114.16237644877042,22.326953659515013]]]},"properties":{"OBJECTID":154592,"Shape__Length":40.992506163374173,"Shape__Area":60.231758745660478,"GeoRefNo":"3477020872","DateCreate":1114790400000,"BuildingBlockType":"Tower","BuildingCSUID":"3477020872T20050430","BuildingID":1108229712,"Status":"Active","BuildingNameEN":null,"BuildingNameTC":null,"BaseHeight":4.2000000000000002,"TopHeight":32.700000000000003,"Storeys":9,"StoreysInBasement":null,"DateStamp":1599580800000}},{"type":"Feature","id":154593,"geometry":{"type":"Polygon","coordinates":[[[114.16189121419129,22.326989268454597],[114.16178778340048,22.326874716202987],[114.16182208177906,22.32684815266278],[114.16195520438984,22.326993439968017],[114.16193670617956,22.327007719147424],[114.16191882737176,22.326987877938954],[114.16190199625264,22.327001209869028],[114.16189162026308,22.326989718215216],[114.16189121419129,22.326989268454597]]]},"properties":{"OBJECTID":154593,"Shape__Length":51.652749739831151,"Shape__Area":92.298868431459255,"GeoRefNo":"3472120877","DateCreate":1114790400000,"BuildingBlockType":"Tower","BuildingCSUID":"3472120877T20050430","BuildingID":1108229689,"Status":"Active","BuildingNameEN":null,"BuildingNameTC":null,"BaseHeight":4.0999999999999996,"TopHeight":23.5,"Storeys":6,"StoreysInBasement":null,"DateStamp":1599580800000}},{"type":"Feature","id":154804,"geometry":{"type":"Polygon","coordinates":[[[114.16094746742671,22.327034124677656],[114.16104214664817,22.326961527205061],[114.16106443804244,22.326986149821863],[114.16107053917541,22.326992888947931],[114.16094612089448,22.327088555858886],[114.16093194721181,22.327072780835731],[114.1609621049617,22.327050068165342],[114.16094746742671,22.327034124677656]]]},"properties":{"OBJECTID":154804,"Shape__Length":42.405775787349882,"Shape__Area":66.472860581782186,"GeoRefNo":"3463220887","DateCreate":1114790400000,"BuildingBlockType":"Tower","BuildingCSUID":"3463220887T20050430","BuildingID":1108229636,"Status":"Active","BuildingNameEN":null,"BuildingNameTC":null,"BaseHeight":3.8999999999999999,"TopHeight":25.300000000000001,"Storeys":6,"StoreysInBasement":null,"DateStamp":1599580800000}},{"type":"Feature","id":154812,"geometry":{"type":"Polygon","coordinates":[[[114.16100473413231,22.327096716571958],[114.1610983822016,22.32702364368668],[114.16112193404258,22.32704965848249],[114.16112715995727,22.327055430887679],[114.16100315805957,22.327152037243501],[114.1609861493536,22.327133106842386],[114.16101654670658,22.327110018061575],[114.16100473413231,22.327096716571958]]]},"properties":{"OBJECTID":154812,"Shape__Length":42.542495776196837,"Shape__Area":68.911893038647747,"GeoRefNo":"3463820893","DateCreate":1114790400000,"BuildingBlockType":"Tower","BuildingCSUID":"3463820893T20050430","BuildingID":1108229592,"Status":"Active","BuildingNameEN":null,"BuildingNameTC":null,"BaseHeight":3.8999999999999999,"TopHeight":25.300000000000001,"Storeys":6,"StoreysInBasement":null,"DateStamp":1599580800000}},{"type":"Feature","id":154820,"geometry":{"type":"Polygon","coordinates":[[[114.16461183131348,22.327131242240579],[114.16449969653789,22.327007615776694],[114.1645343371956,22.326980784473818],[114.16463062182557,22.327086780844692],[114.16463259477494,22.327088943637843],[114.16460648467391,22.327109032105316],[114.16462058678115,22.327124464181491],[114.16461183131348,22.327131242240579]]]},"properties":{"OBJECTID":154820,"Shape__Length":45.145481376958671,"Shape__Area":75.498215410672202,"GeoRefNo":"3500020891","DateCreate":1114790400000,"BuildingBlockType":"Tower","BuildingCSUID":"3500020891T20050430","BuildingID":1108229605,"Status":"Active","BuildingNameEN":null,"BuildingNameTC":"幗瑞樓","BaseHeight":4.7000000000000002,"TopHeight":24.100000000000001,"Storeys":6,"StoreysInBasement":null,"DateStamp":1599580800000}},{"type":"Feature","id":154838,"geometry":{"type":"Polygon","coordinates":[[[114.16082433633625,22.326916770941072],[114.16092843788076,22.326835927010457],[114.16095683035718,22.326867288773684],[114.16085212908074,22.326947789771747],[114.16082433633625,22.326916770941072]]]},"properties":{"OBJECTID":154838,"Shape__Length":36.976066195028579,"Shape__Area":63.003761308148469,"GeoRefNo":"3462120873","DateCreate":1114790400000,"BuildingBlockType":"Tower","BuildingCSUID":"3462120873T20050430","BuildingID":1108229717,"Status":"Active","BuildingNameEN":null,"BuildingNameTC":null,"BaseHeight":4.0999999999999996,"TopHeight":24.300000000000001,"Storeys":6,"StoreysInBasement":null,"DateStamp":1599580800000}},{"type":"Feature","id":155052,"geometry":{"type":"Polygon","coordinates":[[[114.16018498813671,22.327894134109854],[114.16013038961064,22.327834788160409],[114.1601220360687,22.327825707046568],[114.16013595739105,22.327815166718125],[114.16015500992775,22.327835298575195],[114.1601648465531,22.327827897035892],[114.16014632722782,22.327807503980047],[114.1601613557895,22.327795187357044],[114.16022364988247,22.327864208550359],[114.16018498813671,22.327894134109854]]]},"properties":{"OBJECTID":155052,"Shape__Length":36.277688319809613,"Shape__Area":48.080764619293923,"GeoRefNo":"3454720979","DateCreate":1114790400000,"BuildingBlockType":"Tower","BuildingCSUID":"3454720979T20050430","BuildingID":1108229095,"Status":"Active","BuildingNameEN":null,"BuildingNameTC":null,"BaseHeight":4.2000000000000002,"TopHeight":24.600000000000001,"Storeys":7,"StoreysInBasement":null,"DateStamp":1599580800000}},{"type":"Feature","id":155059,"geometry":{"type":"Polygon","coordinates":[[[114.16404653896105,22.327823253935204],[114.16399063108162,22.327866613481714],[114.16391203246972,22.327927570547377],[114.16383536411968,22.327843009427671],[114.16386762573705,22.327818353998868],[114.16390232061462,22.327791224919217],[114.16393790754668,22.327763701717963],[114.16389929644315,22.327721705428736],[114.16393093508611,22.327696716798979],[114.16394036452925,22.327707038153218],[114.16395608036798,22.32772424022842],[114.16395873891764,22.327727150274665],[114.16404653896105,22.327823253935204]]]},"properties":{"OBJECTID":155059,"Shape__Length":72.814000037958664,"Shape__Area":246.58356939416211,"GeoRefNo":"3493620977","DateCreate":1114790400000,"BuildingBlockType":"Tower","BuildingCSUID":"3493620977T20050430","BuildingID":1108229071,"Status":"Active","BuildingNameEN":"Sun On Building","BuildingNameTC":"新安樓","BaseHeight":4.7000000000000002,"TopHeight":41.399999999999999,"Storeys":11,"StoreysInBasement":null,"DateStamp":1599580800000}},{"type":"Feature","id":155073,"geometry":{"type":"Polygon","coordinates":[[[114.16318653123797,22.327144519360715],[114.16310074537635,22.327048002789954],[114.16307691437891,22.327021192663185],[114.16307295506269,22.327016616348775],[114.16309061504748,22.327002871940486],[114.16313871162164,22.327056376812394],[114.16315669735744,22.327042608222555],[114.16322203560593,22.327115356082189],[114.16318653123797,22.327144519360715]]]},"properties":{"OBJECTID":155073,"Shape__Length":46.24433502809265,"Shape__Area":69.852149532054938,"GeoRefNo":"3485420894","DateCreate":1114790400000,"BuildingBlockType":"Tower","BuildingCSUID":"3485420894T20050430","BuildingID":1108229596,"Status":"Active","BuildingNameEN":null,"BuildingNameTC":null,"BaseHeight":4.5,"TopHeight":12.4,"Storeys":null,"StoreysInBasement":null,"DateStamp":1361808000000}},{"type":"Feature","id":155076,"geometry":{"type":"Polygon","coordinates":[[[114.16489915309344,22.327162526538089],[114.16479639806514,22.327048443319011],[114.16483345165621,22.327019983736228],[114.16493635591087,22.327133735610975],[114.16489915309344,22.327162526538089]]]},"properties":{"OBJECTID":155076,"Shape__Length":42.881620697185056,"Shape__Area":81.832720163472857,"GeoRefNo":"3502920895","DateCreate":1114790400000,"BuildingBlockType":"Tower","BuildingCSUID":"3502920895T20050430","BuildingID":1108229584,"Status":"Active","BuildingNameEN":null,"BuildingNameTC":null,"BaseHeight":4.9000000000000004,"TopHeight":24.699999999999999,"Storeys":6,"StoreysInBasement":null,"DateStamp":1599580800000}},{"type":"Feature","id":155089,"geometry":{"type":"Polygon","coordinates":[[[114.16236807692756,22.32681329041155],[114.16240170806438,22.326788523594924],[114.16247962532098,22.326873502275081],[114.162445103591,22.326900321951687],[114.16236807692756,22.32681329041155]]]},"properties":{"OBJECTID":155089,"Shape__Length":33.905337732958202,"Shape__Area":56.231677887400132,"GeoRefNo":"3477820866","DateCreate":1114790400000,"BuildingBlockType":"Tower","BuildingCSUID":"3477820866T20050430","BuildingID":1108229751,"Status":"Active","BuildingNameEN":null,"BuildingNameTC":null,"BaseHeight":4.2999999999999998,"TopHeight":25,"Storeys":6,"StoreysInBasement":null,"DateStamp":1599580800000}},{"type":"Feature","id":155091,"geometry":{"type":"Polygon","coordinates":[[[114.1620588233687,22.326854931635463],[114.16195748164776,22.326743287709881],[114.16199508043375,22.326714167966781],[114.16212712602881,22.326860728708507],[114.16211711055257,22.326868459968008],[114.16210500150994,22.326853740638914],[114.16208502977251,22.326869127303009],[114.16209800673849,22.326883206805135],[114.16209005861718,22.326889342094759],[114.1620588233687,22.326854931635463]]]},"properties":{"OBJECTID":155091,"Shape__Length":56.568632309756467,"Shape__Area":100.52085971410902,"GeoRefNo":"3473920863","DateCreate":1114790400000,"BuildingBlockType":"Tower","BuildingCSUID":"3473920863T20050430","BuildingID":1108229758,"Status":"Active","BuildingNameEN":null,"BuildingNameTC":null,"BaseHeight":4.2000000000000002,"TopHeight":25.899999999999999,"Storeys":7,"StoreysInBasement":null,"DateStamp":1599580800000}},{"type":"Feature","id":155092,"geometry":{"type":"Polygon","coordinates":[[[114.16085212908074,22.326947789771747],[114.16095683035718,22.326867288773684],[114.16098579215782,22.326899279296843],[114.16089160372992,22.326971696896063],[114.160880475817,22.326980252733019],[114.16087132410256,22.326969552123344],[114.16085194852235,22.326983743495919],[114.16083291679567,22.32696256146361],[114.16085212908074,22.326947789771747]]]},"properties":{"OBJECTID":155092,"Shape__Length":42.380438833825281,"Shape__Area":72.847992666904787,"GeoRefNo":"3462320877","DateCreate":1114790400000,"BuildingBlockType":"Tower","BuildingCSUID":"3462320877T20050430","BuildingID":1108229702,"Status":"Active","BuildingNameEN":null,"BuildingNameTC":null,"BaseHeight":4.0999999999999996,"TopHeight":24.699999999999999,"Storeys":6,"StoreysInBasement":null,"DateStamp":1599580800000}},{"type":"Feature","id":155093,"geometry":{"type":"Polygon","coordinates":[[[114.16426816594654,22.326972023812065],[114.16418496559551,22.326878177183406],[114.16418994633925,22.326874338579461],[114.16420688115466,22.326861314181976],[114.16418209751747,22.326834092167434],[114.16419565327968,22.326823540984869],[114.16423959321763,22.326872715041443],[114.16427457596482,22.326911864712848],[114.16430361342037,22.326944361084578],[114.16426816594654,22.326972023812065]]]},"properties":{"OBJECTID":155093,"Shape__Length":44.337306827181557,"Shape__Area":70.911198456676203,"GeoRefNo":"3496520874","DateCreate":1114790400000,"BuildingBlockType":"Tower","BuildingCSUID":"3496520874T20050430","BuildingID":1108229706,"Status":"Active","BuildingNameEN":null,"BuildingNameTC":null,"BaseHeight":4.7999999999999998,"TopHeight":34,"Storeys":9,"StoreysInBasement":null,"DateStamp":1599580800000}},{"type":"Feature","id":155094,"geometry":{"type":"Polygon","coordinates":[[[114.16483925731181,22.326916554066312],[114.16474849895867,22.326814721509876],[114.16482086981956,22.326758989026928],[114.16487535120424,22.326818307027196],[114.16492473115073,22.326872453088448],[114.16493476332661,22.326883456690933],[114.16486100610229,22.326941071637439],[114.16483925731181,22.326916554066312]]]},"properties":{"OBJECTID":155094,"Shape__Length":55.870714246060842,"Shape__Area":177.80843018522478,"GeoRefNo":"3502820868","DateCreate":1114790400000,"BuildingBlockType":"Tower","BuildingCSUID":"3502820868T20050430","BuildingID":1108229722,"Status":"Active","BuildingNameEN":null,"BuildingNameTC":null,"BaseHeight":4.7000000000000002,"TopHeight":26.800000000000001,"Storeys":6,"StoreysInBasement":null,"DateStamp":1599580800000}},{"type":"Feature","id":155315,"geometry":{"type":"Polygon","coordinates":[[[114.16116189567185,22.327890355558683],[114.16103951401571,22.327754459931128],[114.16103087811322,22.327744872943139],[114.16104046970615,22.327737353116358],[114.16104929083892,22.32774668067319],[114.16107557870846,22.327726624314593],[114.16109486814959,22.327748140382852],[114.16116916095585,22.327831009425058],[114.16119749280035,22.327862611891952],[114.16116915496291,22.327884697786143],[114.16116821237438,22.327885432513749],[114.16116189567185,22.327890355558683]]]},"properties":{"OBJECTID":155315,"Shape__Length":51.580796586741428,"Shape__Area":96.147966044350653,"GeoRefNo":"3464420974","DateCreate":1114790400000,"BuildingBlockType":"Tower","BuildingCSUID":"3464420974T20050430","BuildingID":1108229097,"Status":"Active","BuildingNameEN":null,"BuildingNameTC":null,"BaseHeight":4.0999999999999996,"TopHeight":30.899999999999999,"Storeys":8,"StoreysInBasement":null,"DateStamp":1599580800000}}]}