{"type":"FeatureCollection","features":[{"type":"Feature","id":298146,"geometry":{"type":"Polygon","coordinates":[[[114.15930336390888,22.32709824515732],[114.15925398028541,22.32704132707309],[114.1594099324189,22.326924207187886],[114.15945931606446,22.326981125225441],[114.15930336390888,22.32709824515732]]]},"properties":{"OBJECTID":298146,"Shape__Length":57.496145266834354,"Shape__Area":167.24938447964399,"GeoRefNo":"3446120888","DateCreate":1120665600000,"BuildingBlockType":"Tower","BuildingCSUID":"3446120888T20050707","BuildingID":1108229631,"Status":"Active","BuildingNameEN":"TUNG CHAU STREET TEMPORARY MARKET","BuildingNameTC":"通州街臨時街市","BaseHeight":3.8999999999999999,"TopHeight":7.5999999999999996,"Storeys":null,"StoreysInBasement":null,"DateStamp":1782662400000}},{"type":"Feature","id":298576,"geometry":{"type":"Polygon","coordinates":[[[114.16136920344519,22.333554991184613],[114.16143641084531,22.333626737491024],[114.16136918979115,22.333678856673483],[114.1613172311642,22.333719295965572],[114.16127153050236,22.333715858880872],[114.16122234251249,22.333660158330101],[114.16136024194695,22.33355275020407],[114.16136491808935,22.333549977540386],[114.16136920344519,22.333554991184613]]]},"properties":{"OBJECTID":298576,"Shape__Length":59.046323619405882,"Shape__Area":211.66319281550111,"GeoRefNo":"3466621621","DateCreate":1114790400000,"BuildingBlockType":"Tower","BuildingCSUID":"3466621621T20050430","BuildingID":1108225134,"Status":"Active","BuildingNameEN":"HKFYG Wellness Plus Complex","BuildingNameTC":"香港青年協會全健綜合大樓","BaseHeight":5.7999999999999998,"TopHeight":26,"Storeys":4,"StoreysInBasement":null,"DateStamp":1783872000000}},{"type":"Feature","id":300924,"geometry":{"type":"Polygon","coordinates":[[[114.16016907382945,22.326870923907894],[114.16000955932854,22.326994523419614],[114.1599747866878,22.326955742472496],[114.15995486668973,22.326933526242659],[114.15995100218116,22.326929216173852],[114.15987690952635,22.32684658228407],[114.16003153508825,22.326726453028837],[114.16006143148718,22.326760004570588],[114.16006974127339,22.326753724025348],[114.16013056280235,22.326823324513118],[114.16011900326423,22.326832219532577],[114.16012573544657,22.326839891889804],[114.16013974849346,22.326855468023464],[114.16014880713126,22.326848419861253],[114.16016907382945,22.326870923907894]]]},"properties":{"OBJECTID":300924,"Shape__Length":88.695948387601476,"Shape__Area":453.26812216837664,"GeoRefNo":"3453220869","DateCreate":1142006400000,"BuildingBlockType":"Podium","BuildingCSUID":"3453220869P20060311","BuildingID":1108245866,"Status":"Active","BuildingNameEN":"OCEANIC VIEW","BuildingNameTC":"悅海軒","BaseHeight":3.8999999999999999,"TopHeight":19.100000000000001,"Storeys":5,"StoreysInBasement":null,"DateStamp":1666281600000}},{"type":"Feature","id":300925,"geometry":{"type":"Polygon","coordinates":[[[114.15995100218116,22.326929216173852],[114.15995486668973,22.326933526242659],[114.1599747866878,22.326955742472496],[114.16000955932854,22.326994523419614],[114.16001325982292,22.326998650420002],[114.15998789080921,22.327018254813066],[114.15992529504567,22.326948418028881],[114.15995100218116,22.326929216173852]]]},"properties":{"OBJECTID":300925,"Shape__Length":26.876235718062667,"Shape__Area":34.106613826947182,"GeoRefNo":"3452620883","DateCreate":1666281600000,"BuildingBlockType":"Tower","BuildingCSUID":"3452620883T20221021","BuildingID":1910226473,"Status":"Active","BuildingNameEN":null,"BuildingNameTC":null,"BaseHeight":4,"TopHeight":8.4000000000000004,"Storeys":null,"StoreysInBasement":null,"DateStamp":1666281600000}},{"type":"Feature","id":304178,"geometry":{"type":"Polygon","coordinates":[[[114.15795845482629,22.330191776737937],[114.15791856722497,22.330147074229252],[114.15812747345082,22.329985258878171],[114.15816847971263,22.330031125145993],[114.15812485498152,22.330063803780938],[114.15814289761167,22.330083485306975],[114.15810720721105,22.330109684505814],[114.15810478324006,22.330106862349481],[114.15809089218803,22.330090687513167],[114.15808279092101,22.330096861868995],[114.15807677865281,22.330101443742358],[114.15807121604473,22.330105683589096],[114.15806567032773,22.330109910343264],[114.15805899511959,22.330114997851815],[114.15795845482629,22.330191776737937]]]},"properties":{"OBJECTID":304178,"Shape__Length":74.703584000374619,"Shape__Area":195.36319544410094,"GeoRefNo":"3432821228","DateCreate":1114790400000,"BuildingBlockType":"Tower","BuildingCSUID":"3432821228T20050430","BuildingID":1108227169,"Status":"Active","BuildingNameEN":"Kiu Kiang Street Substation","BuildingNameTC":"九江街變電站","BaseHeight":4.2999999999999998,"TopHeight":12.9,"Storeys":2,"StoreysInBasement":null,"DateStamp":1695139200000}},{"type":"Feature","id":307893,"geometry":{"type":"Polygon","coordinates":[[[114.16146443772426,22.330333111182235],[114.16147854338479,22.330322082204788],[114.16149809936427,22.330343949984851],[114.16148399127694,22.330354974177521],[114.16146443772426,22.330333111182235]]]},"properties":{"OBJECTID":307893,"Shape__Length":10.095828767810822,"Shape__Area":5.9786703057818809,"GeoRefNo":"3468121254","DateCreate":1114790400000,"BuildingBlockType":"Tower","BuildingCSUID":"3468121254T20050430","BuildingID":1108227008,"Status":"Active","BuildingNameEN":null,"BuildingNameTC":null,"BaseHeight":4.5999999999999996,"TopHeight":7.0999999999999996,"Storeys":null,"StoreysInBasement":null,"DateStamp":1619539200000}},{"type":"Feature","id":307968,"geometry":{"type":"Polygon","coordinates":[[[114.16085241137549,22.327321714650413],[114.16081244570491,22.327352845725997],[114.16081649591557,22.327357346428077],[114.16080905355672,22.327363143689631],[114.16082282439118,22.327378446022355],[114.16080466488488,22.327392591271995],[114.16080042774972,22.327387882847695],[114.16076820213817,22.32741298486529],[114.16075499207774,22.327398305693997],[114.16075127094457,22.327401204323412],[114.1607409895536,22.327389779432224],[114.16070630786376,22.327416794503787],[114.16067851698421,22.327385912914938],[114.16069362508151,22.327374144496655],[114.16069038487689,22.327370543950614],[114.16071494476355,22.327351413112499],[114.16071629684762,22.327350018563312],[114.16071276411844,22.327346157636871],[114.16071087498116,22.327343254296458],[114.16070988101885,22.327338314918947],[114.16071118885279,22.327333439255373],[114.1607145607654,22.327329513543663],[114.16073811668174,22.327311358989018],[114.16074241547179,22.327309095538304],[114.16074782982938,22.327308544126186],[114.16075300516245,22.327310123998668],[114.16075701598727,22.327313552587238],[114.16075864196613,22.327312352583672],[114.16076012716015,22.327311504758956],[114.16076512013335,22.327310320350783],[114.16077016954763,22.3273112752034],[114.16077426924757,22.327314179213655],[114.16077535841535,22.327313334058747],[114.16077643541215,22.327312819783277],[114.16080106400518,22.327293635477698],[114.16080629816129,22.327299451692213],[114.16080941375138,22.327302913784774],[114.16082474500136,22.327290971447106],[114.16085241137549,22.327321714650413]]]},"properties":{"OBJECTID":307968,"Shape__Length":57.484259307484052,"Shape__Area":131.9810107243058,"GeoRefNo":"3460420921","DateCreate":1222185600000,"BuildingBlockType":"Tower","BuildingCSUID":"3460420921T20080924","BuildingID":1108229434,"Status":"Active","BuildingNameEN":"Hey Home","BuildingNameTC":"喜居","BaseHeight":14.4,"TopHeight":84.799999999999997,"Storeys":22,"StoreysInBasement":null,"DateStamp":1619539200000}},{"type":"Feature","id":311428,"geometry":{"type":"Polygon","coordinates":[[[114.16264519086474,22.327966247832613],[114.16261766296796,22.327935510367961],[114.16258726778395,22.327901731145651],[114.16254784386607,22.327857491627938],[114.16260102333399,22.327816548021158],[114.16265117721441,22.32777777743263],[114.16274826588779,22.327886151560154],[114.16270853762434,22.327917119487626],[114.16272026481596,22.327929469923877],[114.16269616950864,22.327948149214599],[114.16268412678821,22.327935492702597],[114.16264519086474,22.327966247832613]]]},"properties":{"OBJECTID":311428,"Shape__Length":62.653648320848625,"Shape__Area":222.30611770551934,"GeoRefNo":"3480220981","DateCreate":1114790400000,"BuildingBlockType":"Tower","BuildingCSUID":"3480220981T20050430","BuildingID":1108229035,"Status":"Active","BuildingNameEN":"Hang Cheong Building","BuildingNameTC":"恆昌樓","BaseHeight":4.2999999999999998,"TopHeight":51.399999999999999,"Storeys":12,"StoreysInBasement":null,"DateStamp":1692547200000}},{"type":"Feature","id":311429,"geometry":{"type":"Polygon","coordinates":[[[114.16299858529773,22.32771425516016],[114.16298378460172,22.327725693390033],[114.16298264991718,22.327726570253215],[114.16295751824762,22.327698777201373],[114.1629385360728,22.327713108829833],[114.16286318785293,22.327629357766263],[114.16285427959815,22.327619439068062],[114.16289075965237,22.327592328058167],[114.16298378738196,22.327697521848233],[114.16299858529773,22.32771425516016]]]},"properties":{"OBJECTID":311429,"Shape__Length":44.494328681702505,"Shape__Area":72.84578592853704,"GeoRefNo":"3483020958","DateCreate":1114790400000,"BuildingBlockType":"Tower","BuildingCSUID":"3483020958T20050430","BuildingID":1108229219,"Status":"Active","BuildingNameEN":null,"BuildingNameTC":null,"BaseHeight":4.7000000000000002,"TopHeight":25,"Storeys":6,"StoreysInBasement":null,"DateStamp":1692547200000}},{"type":"Feature","id":311430,"geometry":{"type":"Polygon","coordinates":[[[114.16273633927214,22.327848234981079],[114.16272076082794,22.327830951885847],[114.16273697873791,22.327818298647877],[114.16271501177074,22.327793927974053],[114.16272926307312,22.327782809223148],[114.16272319453653,22.327776076664964],[114.16274172200254,22.327761621574208],[114.16273627053972,22.327755573588473],[114.16281053674932,22.327697631126465],[114.1628163509064,22.327704081543953],[114.16283472575459,22.327689745452332],[114.16284085737836,22.32769654808919],[114.16285430227579,22.327686058328077],[114.16287450586304,22.327708472535953],[114.16290126625488,22.327687594138478],[114.16291688003336,22.32770491641244],[114.1629010000637,22.327717305914234],[114.16290262961294,22.327719113706472],[114.16285010895292,22.327760090340906],[114.16286678470637,22.327778590660607],[114.16286147500621,22.32778273334517],[114.16286628426407,22.327788068848502],[114.16286514969907,22.327797484038577],[114.16283151378977,22.327823726816284],[114.16282130879785,22.327822847349022],[114.16281645868047,22.327817466507305],[114.16281119945536,22.327821569730901],[114.1627944009299,22.327802933123422],[114.16273633927214,22.327848234981079]]]},"properties":{"OBJECTID":311430,"Shape__Length":72.203258747461319,"Shape__Area":179.25494657319416,"GeoRefNo":"3481920970","DateCreate":1691942400000,"BuildingBlockType":"Tower","BuildingCSUID":"3481920970T20230814","BuildingID":1910234432,"Status":"Active","BuildingNameEN":"AVA 228","BuildingNameTC":null,"BaseHeight":17,"TopHeight":91.299999999999997,"Storeys":20,"StoreysInBasement":null,"DateStamp":1691942400000}},{"type":"Feature","id":311431,"geometry":{"type":"Polygon","coordinates":[[[114.16286318785293,22.327629357766263],[114.1629385360728,22.327713108829833],[114.16296377215812,22.327741159265184],[114.16289260000161,22.32779664240282],[114.16288172880088,22.327784548882349],[114.16286514969907,22.327797484038577],[114.16283151378977,22.327823726816284],[114.16281983822853,22.327832836132462],[114.1628300075252,22.32784417355581],[114.16275952304295,22.327898959713096],[114.16274826588779,22.327886151560154],[114.16266007197176,22.327787706164592],[114.16286318785293,22.327629357766263]]]},"properties":{"OBJECTID":311431,"Shape__Length":90.200207425782708,"Shape__Area":425.45655980720699,"GeoRefNo":"3481920970","DateCreate":1691942400000,"BuildingBlockType":"Podium","BuildingCSUID":"3481920970P20230814","BuildingID":1910234443,"Status":"Active","BuildingNameEN":null,"BuildingNameTC":null,"BaseHeight":4.5999999999999996,"TopHeight":17,"Storeys":2,"StoreysInBasement":null,"DateStamp":1692547200000}},{"type":"Feature","id":312600,"geometry":{"type":"Polygon","coordinates":[[[114.15910002735193,22.327602279157386],[114.159068847933,22.32756767695388],[114.15906203480701,22.327560115891728],[114.15911646029403,22.327517937818463],[114.15912678681921,22.327509935048759],[114.15915115784529,22.327537141894659],[114.15917217642411,22.327560606006898],[114.15916200550876,22.327568487876853],[114.15918298703738,22.327591774984093],[114.15914321673982,22.327622594654777],[114.15915992731411,22.32764113960954],[114.15917472618105,22.327629671476195],[114.15918088285788,22.327636503964801],[114.1591514527645,22.327659349853342],[114.15910002735193,22.327602279157386]]]},"properties":{"OBJECTID":312600,"Shape__Length":49.986593736429668,"Shape__Area":97.060417086325941,"GeoRefNo":"3443620945","DateCreate":1114790400000,"BuildingBlockType":"Tower","BuildingCSUID":"3443620945T20050430","BuildingID":1108229270,"Status":"Active","BuildingNameEN":"Tung Ming Building","BuildingNameTC":"通明大廈","BaseHeight":18.800000000000001,"TopHeight":44.399999999999999,"Storeys":11,"StoreysInBasement":null,"DateStamp":1622995200000}},{"type":"Feature","id":318125,"geometry":{"type":"Polygon","coordinates":[[[114.16453835373432,22.329934498148361],[114.1646048908364,22.33000999388409],[114.16459253470296,22.330019852451233],[114.16465685225646,22.330092940263359],[114.16459428510294,22.330141266596581],[114.16446179182078,22.329993380752516],[114.16453835373432,22.329934498148361]]]},"properties":{"OBJECTID":318125,"Shape__Length":62.87789313445397,"Shape__Area":198.63078638726012,"GeoRefNo":"3499921222","DateCreate":1114790400000,"BuildingBlockType":"Tower","BuildingCSUID":"3499921222T20050430","BuildingID":1108227204,"Status":"Active","BuildingNameEN":null,"BuildingNameTC":null,"BaseHeight":5.2999999999999998,"TopHeight":37.5,"Storeys":10,"StoreysInBasement":null,"DateStamp":1716480000000}},{"type":"Feature","id":318126,"geometry":{"type":"Polygon","coordinates":[[[114.16476395896539,22.329976967689362],[114.16464795334528,22.329849210403186],[114.1646883323192,22.329817680805803],[114.16478857188744,22.329929119172089],[114.16482123337128,22.329965385886471],[114.16480008066614,22.329981929157729],[114.164782534868,22.329962319660257],[114.16476395896539,22.329976967689362]]]},"properties":{"OBJECTID":318126,"Shape__Length":53.461665685654609,"Shape__Area":107.76157325023451,"GeoRefNo":"3501621206","DateCreate":1114790400000,"BuildingBlockType":"Tower","BuildingCSUID":"3501621206T20050430","BuildingID":1108227349,"Status":"Active","BuildingNameEN":"Hoi Sang Building","BuildingNameTC":"海生樓","BaseHeight":5.0999999999999996,"TopHeight":25.100000000000001,"Storeys":6,"StoreysInBasement":null,"DateStamp":1716480000000}},{"type":"Feature","id":318127,"geometry":{"type":"Polygon","coordinates":[[[114.1646048908364,22.33000999388409],[114.16453835373432,22.329934498148361],[114.16461178036388,22.329877359257388],[114.1647278202252,22.330005276051647],[114.16471290350222,22.330017038625371],[114.16472989694888,22.330035953095408],[114.16468616530965,22.330069868692192],[114.16466657056937,22.330048662602486],[114.1646513966884,22.330060627797469],[114.1646048908364,22.33000999388409]]]},"properties":{"OBJECTID":318127,"Shape__Length":62.338768335836278,"Shape__Area":200.01615794301256,"GeoRefNo":"3500821214","DateCreate":1114790400000,"BuildingBlockType":"Tower","BuildingCSUID":"3500821214T20050430","BuildingID":1108227274,"Status":"Active","BuildingNameEN":null,"BuildingNameTC":null,"BaseHeight":5.2000000000000002,"TopHeight":27.399999999999999,"Storeys":3,"StoreysInBasement":null,"DateStamp":1716480000000}},{"type":"Feature","id":318128,"geometry":{"type":"Polygon","coordinates":[[[114.1647278202252,22.330005276051647],[114.16461178036388,22.329877359257388],[114.16464795334528,22.329849210403186],[114.16476395896539,22.329976967689362],[114.16474650290003,22.329990732608834],[114.16476352215153,22.33000983680985],[114.16474501129029,22.330024313802308],[114.1647278202252,22.330005276051647]]]},"properties":{"OBJECTID":318128,"Shape__Length":52.262825694995115,"Shape__Area":96.988389134658149,"GeoRefNo":"3501321210","DateCreate":1114790400000,"BuildingBlockType":"Tower","BuildingCSUID":"3501321210T20050430","BuildingID":1108227315,"Status":"Active","BuildingNameEN":"Hoi Sang Building","BuildingNameTC":"海生樓","BaseHeight":5.2000000000000002,"TopHeight":25.100000000000001,"Storeys":6,"StoreysInBasement":null,"DateStamp":1716480000000}},{"type":"Feature","id":318131,"geometry":{"type":"Polygon","coordinates":[[[114.16484916137419,22.329923519282815],[114.16487339529668,22.32990428087437],[114.16488400398515,22.329916266323451],[114.16483922206103,22.329951289756533],[114.16482873428228,22.329939735614133],[114.16483947440433,22.329931209462092],[114.16484916137419,22.329923519282815]]]},"properties":{"OBJECTID":318131,"Shape__Length":15.469459459158344,"Shape__Area":10.245289084061858,"GeoRefNo":"3503021210","DateCreate":1114790400000,"BuildingBlockType":"Tower","BuildingCSUID":"3503021210T20050430","BuildingID":1108227377,"Status":"Active","BuildingNameEN":"CHI FUK MANSION","BuildingNameTC":"置福大廈","BaseHeight":5.2999999999999998,"TopHeight":8,"Storeys":null,"StoreysInBasement":null,"DateStamp":1716480000000}},{"type":"Feature","id":318132,"geometry":{"type":"Polygon","coordinates":[[[114.16478857188744,22.329929119172089],[114.1646883323192,22.329817680805803],[114.16476236059616,22.329758806935242],[114.16486273284922,22.329870508869046],[114.16482693913404,22.329898797141126],[114.16481719421475,22.329906498512717],[114.16479743936212,22.329922111105212],[114.16478857188744,22.329929119172089]]]},"properties":{"OBJECTID":318132,"Shape__Length":52.271260304622672,"Shape__Area":161.52633417666831,"GeoRefNo":"3502221201","DateCreate":1114790400000,"BuildingBlockType":"Tower","BuildingCSUID":"3502221201T20050430","BuildingID":1108227392,"Status":"Active","BuildingNameEN":"Chi Fuk Mansion","BuildingNameTC":"置福大廈","BaseHeight":5.0999999999999996,"TopHeight":42.600000000000001,"Storeys":12,"StoreysInBasement":null,"DateStamp":1716480000000}},{"type":"Feature","id":318443,"geometry":{"type":"Polygon","coordinates":[[[114.15761162250577,22.328781330706512],[114.15764876247405,22.328823043759332],[114.15754777255907,22.328901478830073],[114.15752796380816,22.328879278756272],[114.15741535531372,22.328753075544423],[114.15751648450799,22.328674477930509],[114.15761162250577,22.328781330706512]]]},"properties":{"OBJECTID":318443,"Shape__Length":69.849199557506964,"Shape__Area":289.73614280552425,"GeoRefNo":"3427521084","DateCreate":1142006400000,"BuildingBlockType":"Podium","BuildingCSUID":"3427521084P20060311","BuildingID":1108245787,"Status":"Active","BuildingNameEN":"YEN KWONG MANSION","BuildingNameTC":"仁光大廈","BaseHeight":3.8999999999999999,"TopHeight":8.9000000000000004,"Storeys":1,"StoreysInBasement":null,"DateStamp":1730908800000}},{"type":"Feature","id":318444,"geometry":{"type":"Polygon","coordinates":[[[114.15775370275126,22.328896807384659],[114.15776268472767,22.32888931414092],[114.15775714468832,22.328882765232382],[114.15777234374114,22.328871809852],[114.15776184619347,22.328861306590557],[114.15777322735553,22.328851650984287],[114.15777926994906,22.328828577469967],[114.15777245378408,22.328821298469837],[114.15781252954162,22.328788815833072],[114.15782982916164,22.328807447594691],[114.15785617298222,22.328786217972521],[114.15788778467305,22.328821059132924],[114.1578803689515,22.328827237262292],[114.15791485788078,22.328865781654088],[114.15789324507364,22.328882617737065],[114.15789885640835,22.3288888527462],[114.15787218335223,22.328911326209088],[114.15786632890334,22.328904821156172],[114.15785353024218,22.328914791047868],[114.15785879995445,22.328920646462951],[114.15784645441884,22.328931169891582],[114.15783953215355,22.328924596170502],[114.15781813752284,22.328940793355123],[114.15778661724582,22.32890604755535],[114.15777341609024,22.328917828747901],[114.15775370275126,22.328896807384659]]]},"properties":{"OBJECTID":318444,"Shape__Length":61.052156852906244,"Shape__Area":168.7819795834657,"GeoRefNo":"3430621092","DateCreate":1730736000000,"BuildingBlockType":"Tower","BuildingCSUID":"3430621092T20241105","BuildingID":1910256114,"Status":"Active","BuildingNameEN":"The Vim","BuildingNameTC":"佳悅","BaseHeight":20.800000000000001,"TopHeight":93.799999999999997,"Storeys":23,"StoreysInBasement":null,"DateStamp":1730736000000}},{"type":"Feature","id":318468,"geometry":{"type":"Polygon","coordinates":[[[114.15769050830734,22.328837351422766],[114.15781569748235,22.328741607474203],[114.15794314894018,22.328882079467171],[114.15782732863282,22.328973036234672],[114.15782507573516,22.328973802846591],[114.15782272704172,22.328974186096964],[114.15782034730903,22.328974175419098],[114.15781800214938,22.328973771107389],[114.15781575622188,22.328972984309235],[114.15781367144963,22.328971836717677],[114.15781180531251,22.328970359973297],[114.15781020926232,22.328968594791856],[114.15769050830734,22.328837351422766]]]},"properties":{"OBJECTID":318468,"Shape__Length":73.718303933881174,"Shape__Area":340.74570711416555,"GeoRefNo":"3430521092","DateCreate":1730736000000,"BuildingBlockType":"Podium","BuildingCSUID":"3430521092P20241105","BuildingID":1910256120,"Status":"Active","BuildingNameEN":"Podium","BuildingNameTC":"平台","BaseHeight":4.4000000000000004,"TopHeight":20.800000000000001,"Storeys":3,"StoreysInBasement":null,"DateStamp":1730736000000}},{"type":"Feature","id":323364,"geometry":{"type":"Polygon","coordinates":[[[114.16423851081159,22.328356998185914],[114.16411883798185,22.328449271301785],[114.1640050637132,22.328322622392164],[114.16408713498791,22.328258985189713],[114.16411428026932,22.328288420705338],[114.16412796808761,22.328277892026875],[114.16411381778549,22.328262334019872],[114.16412501355664,22.328253695789268],[114.16411203401766,22.328239730146485],[114.16412530990436,22.328230050401118],[114.16416624636531,22.328275958142374],[114.16420396913271,22.328318261787444],[114.16422901998615,22.328346354814421],[114.16423851081159,22.328356998185914]]]},"properties":{"OBJECTID":323364,"Shape__Length":77.224560981202956,"Shape__Area":282.61630450197441,"GeoRefNo":"3495821036","DateCreate":1114790400000,"BuildingBlockType":"Tower","BuildingCSUID":"3495821036T20050430","BuildingID":1108228637,"Status":"Active","BuildingNameEN":"Cheong Fok House","BuildingNameTC":"昌福大廈","BaseHeight":5.0999999999999996,"TopHeight":43,"Storeys":12,"StoreysInBasement":null,"DateStamp":1701878400000}},{"type":"Feature","id":323365,"geometry":{"type":"Polygon","coordinates":[[[114.16442083772287,22.328209849663498],[114.16442400632663,22.328213273761843],[114.16442392711549,22.328213335254059],[114.16438744825307,22.328241658601804],[114.16437997832126,22.328233346007355],[114.16429791725045,22.328142026747443],[114.16431024397264,22.3281327252046],[114.16428478198496,22.328105558514988],[114.16430787977455,22.328087780615203],[114.16442083772287,22.328209849663498]]]},"properties":{"OBJECTID":323365,"Shape__Length":46.337814649205058,"Shape__Area":81.21204170509435,"GeoRefNo":"3497721015","DateCreate":1114790400000,"BuildingBlockType":"Tower","BuildingCSUID":"3497721015T20050430","BuildingID":1108228801,"Status":"Active","BuildingNameEN":null,"BuildingNameTC":null,"BaseHeight":5.0999999999999996,"TopHeight":36.700000000000003,"Storeys":9,"StoreysInBasement":null,"DateStamp":1701878400000}},{"type":"Feature","id":323367,"geometry":{"type":"Polygon","coordinates":[[[114.16422901998615,22.328346354814421],[114.16420396913271,22.328318261787444],[114.16416624636531,22.328275958142374],[114.16412530990436,22.328230050401118],[114.16428478198496,22.328105558514988],[114.16431024397264,22.3281327252046],[114.16429791725045,22.328142026747443],[114.16437997832126,22.328233346007355],[114.16422901998615,22.328346354814421]]]},"properties":{"OBJECTID":323367,"Shape__Length":76.949605266061752,"Shape__Area":343.87556659777454,"GeoRefNo":"3496821022","DateCreate":1701878400000,"BuildingBlockType":"Podium","BuildingCSUID":"3496821022P20231207","BuildingID":1910237456,"Status":"Active","BuildingNameEN":null,"BuildingNameTC":null,"BaseHeight":5.4000000000000004,"TopHeight":19.399999999999999,"Storeys":3,"StoreysInBasement":null,"DateStamp":1701878400000}},{"type":"Feature","id":323369,"geometry":{"type":"Polygon","coordinates":[[[114.16416624636531,22.328275958142374],[114.16422250699814,22.32823578988318],[114.16419330811813,22.328201659585758],[114.16423911677501,22.328165771363469],[114.164245690695,22.3281728442666],[114.16425955991801,22.328163288004284],[114.16426993426904,22.328175617814075],[114.1643013523189,22.328151706083826],[114.16434759424892,22.328204009288466],[114.16432304074654,22.328220732760606],[114.16433306146517,22.328233416628187],[114.16432344548947,22.328240572444045],[114.16432972014267,22.328246787866593],[114.16426271180524,22.328298008584675],[114.1642578541029,22.328291981647464],[114.16423222133885,22.328309344658219],[114.16422617308201,22.328302714023256],[114.16420396913271,22.328318261787444],[114.16416624636531,22.328275958142374]]]},"properties":{"OBJECTID":323369,"Shape__Length":64.57392378484829,"Shape__Area":183.00260102491634,"GeoRefNo":"3496821022","DateCreate":1701878400000,"BuildingBlockType":"Tower","BuildingCSUID":"3496821022T20231207","BuildingID":1910237457,"Status":"Active","BuildingNameEN":"J Loft","BuildingNameTC":"喜揚","BaseHeight":5.4000000000000004,"TopHeight":80.200000000000003,"Storeys":18,"StoreysInBasement":null,"DateStamp":1701878400000}},{"type":"Feature","id":323417,"geometry":{"type":"Polygon","coordinates":[[[114.15830521913502,22.328133693999391],[114.15841961839143,22.328046263071958],[114.15840656888358,22.328031478522451],[114.15841282898428,22.328026695913888],[114.15839030671819,22.328001044687156],[114.15874782280763,22.327727906527645],[114.15883112391286,22.327822283242586],[114.15884552809803,22.327811278635675],[114.15887728468554,22.327847257567353],[114.15882535943818,22.32788692795258],[114.15883748592029,22.327900666805096],[114.15840059315968,22.328239660265609],[114.15830521913502,22.328133693999391]]]},"properties":{"OBJECTID":323417,"Shape__Length":172.93569309691122,"Shape__Area":1237.0733357465695,"GeoRefNo":"3438420994","DateCreate":1723996800000,"BuildingBlockType":"Podium","BuildingCSUID":"3438420994P20240819","BuildingID":1910252890,"Status":"Active","BuildingNameEN":null,"BuildingNameTC":null,"BaseHeight":3.7999999999999998,"TopHeight":39.600000000000001,"Storeys":7,"StoreysInBasement":2,"DateStamp":1724169600000}},{"type":"Feature","id":323569,"geometry":{"type":"Polygon","coordinates":[[[114.16221238597831,22.333779764765261],[114.16196735974444,22.33396990459871],[114.1619190362949,22.333915893329266],[114.16193047982422,22.333907866288225],[114.1619376614797,22.33390283231078],[114.16183157695691,22.333784261330607],[114.16196362171766,22.333680207100805],[114.16206096609383,22.333784301182884],[114.1621530422678,22.333712937637408],[114.16221238597831,22.333779764765261]]]},"properties":{"OBJECTID":323569,"Shape__Length":115.18901346513317,"Shape__Area":585.01408474483173,"GeoRefNo":"3473621640","DateCreate":1641139200000,"BuildingBlockType":"Tower","BuildingCSUID":"3473621640T20220103","BuildingID":1910218662,"Status":"Active","BuildingNameEN":"Ying Wa Girls' School","BuildingNameTC":"英華女學校","BaseHeight":5.5999999999999996,"TopHeight":33.100000000000001,"Storeys":null,"StoreysInBasement":null,"DateStamp":1718726400000}},{"type":"Feature","id":328327,"geometry":{"type":"Polygon","coordinates":[[[114.15825714424136,22.328217917660762],[114.15825577581587,22.328216391335207],[114.15823657905398,22.328194887313064],[114.1581951060071,22.328149205583923],[114.15826810933964,22.3280927262104],[114.1583052518414,22.328133730035162],[114.15840059315968,22.328239660265609],[114.15832765431067,22.328297194657946],[114.15825714424136,22.328217917660762]]]},"properties":{"OBJECTID":328327,"Shape__Length":62.202346647877484,"Shape__Area":208.57542947541896,"GeoRefNo":"3435421018","DateCreate":1142006400000,"BuildingBlockType":"Podium","BuildingCSUID":"3435421018P20060311","BuildingID":1108245811,"Status":"Active","BuildingNameEN":"SHINING COURT","BuildingNameTC":"順興閣","BaseHeight":3.7000000000000002,"TopHeight":13.300000000000001,"Storeys":2,"StoreysInBasement":null,"DateStamp":1724342400000}},{"type":"Feature","id":328330,"geometry":{"type":"Polygon","coordinates":[[[114.15846177728933,22.328149475153136],[114.15845009144491,22.328138386889719],[114.15843995948605,22.328146127570161],[114.15840551006156,22.328107097716671],[114.15839131190275,22.328117944904392],[114.15837583461048,22.328100005873836],[114.15839586858507,22.328084477444762],[114.15838934436675,22.328075957339596],[114.15840611366099,22.328063145750313],[114.15841373829781,22.32807178428051],[114.15843054276594,22.328058676399195],[114.15840656888358,22.328031478522451],[114.15842263078264,22.328019207421757],[114.15840900838377,22.328003773688945],[114.15843020702178,22.327987578208205],[114.15845432648284,22.328014904693624],[114.15847587643293,22.327998440767487],[114.15844928672611,22.327968315607563],[114.15847069853149,22.327951957143586],[114.15848872569956,22.327972381219293],[114.15850514220072,22.327959839142622],[114.15852657733031,22.327984124264564],[114.15851575683165,22.327992390903688],[114.15852118762712,22.327998543783526],[114.15854203153829,22.327982619255913],[114.1585319782873,22.327971229289933],[114.15854795095632,22.32795902643787],[114.15856054704871,22.32797329726538],[114.15857749755453,22.327960347330045],[114.15859515419723,22.327980351700912],[114.15858736594596,22.32798630179915],[114.15859987508679,22.328000474270702],[114.15858078037915,22.328015062476165],[114.15856838673007,22.32800102095965],[114.15855092802924,22.32801435924209],[114.15856604105629,22.32803148185025],[114.15856248382859,22.32803419956501],[114.15856877149406,22.328041323237322],[114.15858168775208,22.328031455437134],[114.15859694956448,22.328048746569813],[114.15858225964276,22.32805996957196],[114.15859219139584,22.328071221894927],[114.15857125651758,22.328087215954071],[114.15856480017464,22.328079901085395],[114.15855309181963,22.328088846094669],[114.15854355215592,22.328078038028032],[114.15852843538647,22.328089587071474],[114.15855223859373,22.328116555263033],[114.15853585576357,22.328129071701177],[114.15853796779584,22.328131464592865],[114.15852609508616,22.328140535197001],[114.15851598175036,22.328129077223153],[114.15850863576307,22.328134689442994],[114.1584879704248,22.328111276399476],[114.15846935291326,22.328125499990573],[114.15847894071197,22.328136362521427],[114.15846177728933,22.328149475153136]]]},"properties":{"OBJECTID":328330,"Shape__Length":123.25362529976832,"Shape__Area":284.66737542549936,"GeoRefNo":"3437421002","DateCreate":1723996800000,"BuildingBlockType":"Tower","BuildingCSUID":"3437421002T20240819","BuildingID":1910252874,"Status":"Active","BuildingNameEN":"The Symphonie Tower 2","BuildingNameTC":"映岸第二座","BaseHeight":39.600000000000001,"TopHeight":100.40000000000001,"Storeys":19,"StoreysInBasement":2,"DateStamp":1724169600000}},{"type":"Feature","id":328332,"geometry":{"type":"Polygon","coordinates":[[[114.15869994900477,22.327925154255144],[114.15869404654335,22.3279296636494],[114.15868059833045,22.327914427276976],[114.15866397498307,22.327927127293261],[114.1586761310535,22.327940899664544],[114.15865867130258,22.327954238771337],[114.15864446929344,22.327938148379381],[114.1586361978062,22.327944467776696],[114.15862025227378,22.327926402107725],[114.15863480802052,22.327915281764628],[114.15862202219051,22.327900795903272],[114.15863956396677,22.327887394227577],[114.15864960538022,22.327898770820426],[114.15865877908071,22.327891762309331],[114.15863152115676,22.327860880070059],[114.15864960965429,22.327847060699785],[114.15863298933385,22.327828230426849],[114.15865328405312,22.327812725474217],[114.15867914656899,22.327842026659567],[114.15870347883249,22.327823437034077],[114.1586755012768,22.327791739620903],[114.15869515218428,22.327776726577085],[114.15871035449055,22.327793950234501],[114.15872788333402,22.32778055839097],[114.1587532064482,22.327809248585353],[114.15876329798222,22.327801538765094],[114.15875321085532,22.327790110428818],[114.15877145096292,22.327776175199286],[114.15877978311094,22.327785615165485],[114.15880380432306,22.327767263175136],[114.15882059081117,22.327786281556225],[114.15880790301004,22.327795974930293],[114.15884316692573,22.327835927444994],[114.15883222336602,22.32784428819047],[114.15884133387468,22.327854609895805],[114.15882099432143,22.327870149092867],[114.15882090270487,22.32787004523097],[114.15881322506384,22.327861346841033],[114.15879794408892,22.327873021326546],[114.158816487317,22.327894030063501],[114.15879667302868,22.327909167996619],[114.15880492725397,22.327918519633581],[114.15878934310653,22.327930425718968],[114.15876742714691,22.327905595943456],[114.15874998197035,22.327918923773534],[114.15875987781789,22.327930135354485],[114.15874499318889,22.327941507083576],[114.15874961516583,22.327946743622473],[114.15873133290324,22.327960710993388],[114.15871850600638,22.327946178627609],[114.15870731585966,22.327954727805256],[114.15869823932236,22.327944444476277],[114.15870942956589,22.327935895299255],[114.15869994900477,22.327925154255144]]]},"properties":{"OBJECTID":328332,"Shape__Length":119.31696348736362,"Shape__Area":283.95545862681018,"GeoRefNo":"3439920981","DateCreate":1723996800000,"BuildingBlockType":"Tower","BuildingCSUID":"3439920981T20240819","BuildingID":1910252797,"Status":"Active","BuildingNameEN":"The Symphonie Tower 1","BuildingNameTC":"映岸第一座","BaseHeight":39.600000000000001,"TopHeight":100.40000000000001,"Storeys":19,"StoreysInBasement":2,"DateStamp":1724169600000}},{"type":"Feature","id":328348,"geometry":{"type":"Polygon","coordinates":[[[114.16398683034441,22.330470012889172],[114.16397579544693,22.330478385079619],[114.16392071939357,22.330416578288691],[114.16404750628475,22.330319623998165],[114.16410315461643,22.330381962151137],[114.16398683034441,22.330470012889172]]]},"properties":{"OBJECTID":328348,"Shape__Length":51.687581390814785,"Shape__Area":151.0368596525567,"GeoRefNo":"3494321262","DateCreate":1547568000000,"BuildingBlockType":"Tower","BuildingCSUID":"3494321262T20190116","BuildingID":1810183958,"Status":"Active","BuildingNameEN":null,"BuildingNameTC":null,"BaseHeight":5.4000000000000004,"TopHeight":13.5,"Storeys":null,"StoreysInBasement":null,"DateStamp":1684944000000}},{"type":"Feature","id":329250,"geometry":{"type":"Polygon","coordinates":[[[114.15713140628458,22.328250165091827],[114.15708725431794,22.328202797737465],[114.15706875646798,22.328214695445357],[114.15699769587148,22.328135043605446],[114.15688852364829,22.328013308950968],[114.15691333267951,22.327993995039314],[114.15697979630477,22.327944091061649],[114.15698106842332,22.327942882383379],[114.15709000185575,22.328066933924561],[114.15716162800911,22.328144958933567],[114.15728836448258,22.328046850281012],[114.15730163664823,22.328036468695228],[114.15729116096982,22.328024364282307],[114.15732011002891,22.328000590330802],[114.15733113519646,22.328013394587991],[114.15737959299888,22.327975490377693],[114.15742205588961,22.328024722538153],[114.15731146287503,22.328110576118529],[114.15713140628458,22.328250165091827]]]},"properties":{"OBJECTID":329250,"Shape__Length":158.48295497618162,"Shape__Area":635.40375607884903,"GeoRefNo":"3422321005","DateCreate":1649174400000,"BuildingBlockType":"Tower","BuildingCSUID":"3422321005T20220406","BuildingID":1910220212,"Status":"Active","BuildingNameEN":"1 Cheong San Block A","BuildingNameTC":"昌新一號Ａ座","BaseHeight":5.5,"TopHeight":17.5,"Storeys":null,"StoreysInBasement":null,"DateStamp":1695571200000}},{"type":"Feature","id":329251,"geometry":{"type":"Polygon","coordinates":[[[114.15719936843227,22.327756439497144],[114.15719993248983,22.327757060779366],[114.15732197595084,22.327891478156623],[114.15730212770299,22.327906759398864],[114.15727917282487,22.327924432465807],[114.15728769063512,22.327934085201107],[114.15730639057463,22.327955276727835],[114.15731387460876,22.327963757889812],[114.15730697066603,22.327969031190662],[114.15720123841598,22.328049789503641],[114.15718444726882,22.328062614601759],[114.15717601584129,22.328052997813366],[114.15717401728733,22.328050718251529],[114.15715112772041,22.32802461067347],[114.15715046158383,22.328025124703771],[114.15713806272512,22.328034691282738],[114.15712777998939,22.328023549091466],[114.15712714624715,22.328022862419107],[114.1571404983066,22.32801248690669],[114.15714474510021,22.328009186834183],[114.1572124588466,22.327956569402946],[114.15721382664954,22.32795550657838],[114.15714894823559,22.327882566538968],[114.15710367586529,22.327831668724514],[114.15710290577216,22.327830802958935],[114.15710365811145,22.327830222925744],[114.15719824186604,22.327757307922333],[114.15719936843227,22.327756439497144]]]},"properties":{"OBJECTID":329251,"Shape__Length":99.555917199347292,"Shape__Area":370.07782975802121,"GeoRefNo":"3424220981","DateCreate":1695571200000,"BuildingBlockType":"Tower","BuildingCSUID":"3424220981T20230925","BuildingID":1910235488,"Status":"Active","BuildingNameEN":"1 Cheong San Block C","BuildingNameTC":"昌新一號Ｃ座","BaseHeight":4.2000000000000002,"TopHeight":18.600000000000001,"Storeys":4,"StoreysInBasement":null,"DateStamp":1695571200000}},{"type":"Feature","id":329253,"geometry":{"type":"Polygon","coordinates":[[[114.15704058406739,22.32794651498871],[114.1570643128637,22.327928290281296],[114.15706134671927,22.327924947519612],[114.15708529179473,22.327906556672698],[114.15709765881839,22.32792107285664],[114.15709863833959,22.327922222569288],[114.15709898616413,22.327921948352774],[114.1571307771064,22.327896889638225],[114.15714785039988,22.327883431896897],[114.15714894823559,22.327882566538968],[114.15721382664954,22.32795550657838],[114.1572124588466,22.327956569402946],[114.15714474510021,22.328009186834183],[114.1571404983066,22.32801248690669],[114.15712714624715,22.328022862419107],[114.15712777998939,22.328023549091466],[114.15713806272512,22.328034691282738],[114.15715046158383,22.328025124703771],[114.15715112772041,22.32802461067347],[114.15717401728733,22.328050718251529],[114.15717042955288,22.328053440898838],[114.15715026055719,22.328068746646416],[114.1571478809758,22.328066094706994],[114.15711303189616,22.328027256339784],[114.15704219413253,22.32794830938181],[114.15704058406739,22.32794651498871]]]},"properties":{"OBJECTID":329253,"Shape__Length":65.970882318997539,"Shape__Area":163.65974317162571,"GeoRefNo":"3423420992","DateCreate":1695571200000,"BuildingBlockType":"Tower","BuildingCSUID":"3423420992T20230925","BuildingID":1910235490,"Status":"Active","BuildingNameEN":null,"BuildingNameTC":null,"BaseHeight":4.2000000000000002,"TopHeight":8.1999999999999993,"Storeys":null,"StoreysInBasement":null,"DateStamp":1695571200000}},{"type":"Feature","id":331385,"geometry":{"type":"Polygon","coordinates":[[[114.15930991813389,22.328574276607604],[114.15929949624987,22.328562635509609],[114.15924962362163,22.328506933981377],[114.15922042648158,22.328474321102174],[114.15917790465758,22.328426818133348],[114.15931167375184,22.328323313976874],[114.1593477127511,22.328363822927766],[114.15935389498173,22.328370777144222],[114.1593829912686,22.32840348002388],[114.159419502372,22.32844451892392],[114.15944302787997,22.328470953968715],[114.15933009040917,22.328558610723725],[114.15930991813389,22.328574276607604]]]},"properties":{"OBJECTID":331385,"Shape__Length":78.257868063081617,"Shape__Area":379.96303016679406,"GeoRefNo":"3445821045","DateCreate":1142006400000,"BuildingBlockType":"Podium","BuildingCSUID":"3445821045P20060311","BuildingID":1108245805,"Status":"Active","BuildingNameEN":"FU WA MANSION","BuildingNameTC":"富華大廈","BaseHeight":4,"TopHeight":9.4000000000000004,"Storeys":1,"StoreysInBasement":null,"DateStamp":1689004800000}},{"type":"Feature","id":331386,"geometry":{"type":"Polygon","coordinates":[[[114.15909661024494,22.32858845743511],[114.15914271563079,22.32864014260786],[114.15910990543769,22.328665622789835],[114.15911736964355,22.328673942037668],[114.15907586019705,22.328706178034821],[114.15906839599192,22.328697858785112],[114.15903632577987,22.328722764236442],[114.15901500443573,22.328699000441802],[114.15899198992361,22.328673349336864],[114.15899006285227,22.328671201471334],[114.15902969117637,22.328640426347597],[114.15902222697748,22.328632107095714],[114.15904843516363,22.328611753953368],[114.159055899363,22.328620073294363],[114.15909661024494,22.32858845743511]]]},"properties":{"OBJECTID":331386,"Shape__Length":48.250855215244869,"Shape__Area":117.17201738818608,"GeoRefNo":"3443021073","DateCreate":1114790400000,"BuildingBlockType":"Tower","BuildingCSUID":"3443021073T20050430","BuildingID":1109609117,"Status":"Active","BuildingNameEN":"Kin Ga Court","BuildingNameTC":"健基閣","BaseHeight":9.5,"TopHeight":50.399999999999999,"Storeys":14,"StoreysInBasement":null,"DateStamp":1689004800000}},{"type":"Feature","id":331387,"geometry":{"type":"Polygon","coordinates":[[[114.15922086714572,22.328556417556786],[114.15923651277032,22.328573913573869],[114.15922091371446,22.328585987396103],[114.15919871459046,22.328603169822749],[114.15917734535959,22.328619709900956],[114.1591687585515,22.328610107558454],[114.15914420368517,22.328629113447288],[114.15908551099051,22.328563479160515],[114.15910247115121,22.328550351631016],[114.15911749167383,22.328551554611717],[114.15912223157918,22.328547885913075],[114.15911990969967,22.328545289366506],[114.15912044312573,22.328539523758185],[114.15912116099899,22.328538968094481],[114.15912586653913,22.328535325941871],[114.15912192553617,22.328530918857304],[114.15912276815078,22.328521811695747],[114.15916246211074,22.328491087930125],[114.1591922753244,22.328524427306924],[114.15922724014462,22.328497363919205],[114.15925584089932,22.328529347300741],[114.15922086714572,22.328556417556786]]]},"properties":{"OBJECTID":331387,"Shape__Length":56.529803608257104,"Shape__Area":143.2671125909537,"GeoRefNo":"3444421058","DateCreate":1689177600000,"BuildingBlockType":"Tower","BuildingCSUID":"3444421058T20230713","BuildingID":1910233543,"Status":"Active","BuildingNameEN":"The Concerto","BuildingNameTC":"弦雅","BaseHeight":19.800000000000001,"TopHeight":79.900000000000006,"Storeys":null,"StoreysInBasement":null,"DateStamp":1689177600000}},{"type":"Feature","id":331388,"geometry":{"type":"Polygon","coordinates":[[[114.15924962362163,22.328506933981377],[114.15929949624987,22.328562635509609],[114.15924595943588,22.328604074040015],[114.15924497189319,22.328604732984072],[114.15924388730603,22.328605215807571],[114.15924273679046,22.328605508658651],[114.15924155335397,22.328605603135614],[114.15924037094852,22.328605496527981],[114.15923922349651,22.328605191894255],[114.15923814391753,22.328604697974164],[114.15923716318396,22.328604028937928],[114.15923630943234,22.328603203979736],[114.15922091371446,22.328585987396103],[114.15919871459046,22.328603169822749],[114.15921410826937,22.328620384060258],[114.15921475708885,22.328621153501519],[114.15921526450525,22.328622022716779],[114.15921561551674,22.328622966007565],[114.15921579974561,22.328623955485355],[114.15921581174511,22.328624961896097],[114.15921565116049,22.328625955485123],[114.15921532273943,22.328626906876828],[114.15921483619177,22.328627787943191],[114.15921420590232,22.32862857263536],[114.15921345050572,22.328629237753802],[114.15916585243234,22.328666079432523],[114.15914271563079,22.32864014260786],[114.15909661024494,22.32858845743511],[114.15904470708965,22.328530283138285],[114.15917790465758,22.328426818133348],[114.15922042648158,22.328474321102174],[114.15924962362163,22.328506933981377]]]},"properties":{"OBJECTID":331388,"Shape__Length":80.696521436860749,"Shape__Area":340.25361585964379,"GeoRefNo":"3444421057","DateCreate":1689177600000,"BuildingBlockType":"Podium","BuildingCSUID":"3444421057P20230713","BuildingID":1910233547,"Status":"Active","BuildingNameEN":null,"BuildingNameTC":null,"BaseHeight":3.8999999999999999,"TopHeight":19.800000000000001,"Storeys":null,"StoreysInBasement":null,"DateStamp":1689177600000}},{"type":"Feature","id":332100,"geometry":{"type":"Polygon","coordinates":[[[114.15811774953582,22.328032259905484],[114.1580384960053,22.328091726978499],[114.15798641999778,22.328032244690981],[114.15794959358517,22.327989646208941],[114.15794505006826,22.327984390601909],[114.15790058649002,22.327932957952228],[114.15804260873675,22.327825994467887],[114.15808763085862,22.327877350564503],[114.15809222330074,22.327882589015161],[114.15818132043317,22.327984220729604],[114.15811774953582,22.328032259905484]]]},"properties":{"OBJECTID":332100,"Shape__Length":82.966446071989594,"Shape__Area":427.25433570929727,"GeoRefNo":"3432620989","DateCreate":1198771200000,"BuildingBlockType":"Temporary Structure","BuildingCSUID":"3432620989T20071228","BuildingID":1108228932,"Status":"Active","BuildingNameEN":"Tung Chau Street Temporary Market Market Shed No.1","BuildingNameTC":"通州街臨時街市第一座","BaseHeight":null,"TopHeight":null,"Storeys":null,"StoreysInBasement":null,"DateStamp":1687968000000}},{"type":"Feature","id":332101,"geometry":{"type":"Polygon","coordinates":[[[114.15808128090818,22.327785973768705],[114.15824932671116,22.327659041880391],[114.15830030275933,22.327717690256812],[114.15830488685182,22.327722964281108],[114.15837627699899,22.32780509900066],[114.15820823123279,22.327932031018278],[114.15813642176366,22.327849413854143],[114.15813184990175,22.327844153823992],[114.15808128090818,22.327785973768705]]]},"properties":{"OBJECTID":332101,"Shape__Length":86.200158469496387,"Shape__Area":463.84082829294908,"GeoRefNo":"3434720973","DateCreate":1197993600000,"BuildingBlockType":"Temporary Structure","BuildingCSUID":"3434720973T20071219","BuildingID":1108229065,"Status":"Active","BuildingNameEN":"Tung Chau Street Temporary Market Market Shed No.2","BuildingNameTC":"通州街臨時街市第二座","BaseHeight":null,"TopHeight":null,"Storeys":null,"StoreysInBasement":null,"DateStamp":1687968000000}},{"type":"Feature","id":332102,"geometry":{"type":"Polygon","coordinates":[[[114.15858959366635,22.32764610213313],[114.15842110998607,22.327773391213587],[114.15834851383065,22.327690217948994],[114.15834391488588,22.327684948981364],[114.158292308843,22.327625824092678],[114.15846079246269,22.32749853505344],[114.15851282128321,22.327558144428078],[114.15851743245855,22.327563427389805],[114.15858959366635,22.32764610213313]]]},"properties":{"OBJECTID":332102,"Shape__Length":86.820007670896103,"Shape__Area":470.67796989045041,"GeoRefNo":"3436820956","DateCreate":1197993600000,"BuildingBlockType":"Temporary Structure","BuildingCSUID":"3436820956T20071219","BuildingID":1108229183,"Status":"Active","BuildingNameEN":"Tung Chau Street Temporary Market Market Shed No.3","BuildingNameTC":"通州街臨時街市第三座","BaseHeight":null,"TopHeight":null,"Storeys":null,"StoreysInBasement":null,"DateStamp":1687968000000}},{"type":"Feature","id":332103,"geometry":{"type":"Polygon","coordinates":[[[114.15875329952553,22.327309826992028],[114.15892471720535,22.327181030407008],[114.15896039493332,22.327222131545007],[114.15896502319173,22.32722746344189],[114.15903660639738,22.327309927784249],[114.15886518866262,22.327438724485507],[114.15879353765362,22.327356181766049],[114.15878892172292,22.327350864224364],[114.15875329952553,22.327309826992028]]]},"properties":{"OBJECTID":332103,"Shape__Length":82.093755401010071,"Shape__Area":416.47403266371117,"GeoRefNo":"3441520918","DateCreate":1197993600000,"BuildingBlockType":"Temporary Structure","BuildingCSUID":"3441520918T20071219","BuildingID":1108229415,"Status":"Active","BuildingNameEN":"Tung Chau Street Temporary Market Market Shed No.4","BuildingNameTC":"通州街臨時街市第四座","BaseHeight":null,"TopHeight":null,"Storeys":null,"StoreysInBasement":null,"DateStamp":1687968000000}},{"type":"Feature","id":332105,"geometry":{"type":"Polygon","coordinates":[[[114.15953201230505,22.326913053400521],[114.15947349409254,22.326845799081926],[114.15946882224988,22.326840429808041],[114.15942354737903,22.326788395864224],[114.15959479639203,22.326659420279743],[114.15964028683531,22.326711701908369],[114.15964497110275,22.326717085447065],[114.15970326137065,22.326784077703437],[114.15953201230505,22.326913053400521]]]},"properties":{"OBJECTID":332105,"Shape__Length":80.918003151223147,"Shape__Area":403.1342428863278,"GeoRefNo":"3448420862","DateCreate":1197993600000,"BuildingBlockType":"Temporary Structure","BuildingCSUID":"3448420862T20071219","BuildingID":1108229743,"Status":"Active","BuildingNameEN":"Tung Chau Street Temporary Market Market Shed No.5","BuildingNameTC":"通州街臨時街市第五座","BaseHeight":null,"TopHeight":null,"Storeys":null,"StoreysInBasement":null,"DateStamp":1687968000000}},{"type":"Feature","id":332106,"geometry":{"type":"Polygon","coordinates":[[[114.15971331725527,22.326691214270088],[114.15969993914955,22.326675825460725],[114.15969525342618,22.32667043542143],[114.15964968262318,22.326618015360538],[114.15971333202783,22.326570120162792],[114.15982099847855,22.326489102574698],[114.15986621584354,22.326541116174909],[114.15987112488385,22.326546762972285],[114.15992983473444,22.326614296756773],[114.15975851882601,22.326743209655593],[114.15971331725527,22.326691214270088]]]},"properties":{"OBJECTID":332106,"Shape__Length":81.060543938427813,"Shape__Area":404.74704271631879,"GeoRefNo":"3450920844","DateCreate":1199894400000,"BuildingBlockType":"Temporary Structure","BuildingCSUID":"3450920844T20080110","BuildingID":1108229883,"Status":"Active","BuildingNameEN":"Tung Chau Street Temporary Market Market Shed No.6","BuildingNameTC":"通州街臨時街市第六座","BaseHeight":3.7999999999999998,"TopHeight":8.0999999999999996,"Storeys":null,"StoreysInBasement":null,"DateStamp":1687968000000}},{"type":"Feature","id":332107,"geometry":{"type":"Polygon","coordinates":[[[114.16003945163705,22.326324575423968],[114.16005723131092,22.326344993614434],[114.16008426181342,22.326376035527904],[114.16008950519928,22.326382057122665],[114.16014821141145,22.326449475508468],[114.15997700761082,22.326578516977232],[114.15991834510004,22.326511148745112],[114.15991335996985,22.326505423826642],[114.15986824788897,22.326453616870161],[114.16003945163705,22.326324575423968]]]},"properties":{"OBJECTID":332107,"Shape__Length":81.000010022367078,"Shape__Area":404.06014829839393,"GeoRefNo":"3452920826","DateCreate":1197475200000,"BuildingBlockType":"Temporary Structure","BuildingCSUID":"3452920826T20071213","BuildingID":1108229982,"Status":"Active","BuildingNameEN":"Tung Chau Street Temporary Market Market Shed No.7","BuildingNameTC":"通州街臨時街市第七座","BaseHeight":3.7999999999999998,"TopHeight":8.0999999999999996,"Storeys":null,"StoreysInBasement":null,"DateStamp":1687968000000}},{"type":"Feature","id":334193,"geometry":{"type":"Polygon","coordinates":[[[114.15924962362163,22.328506933981377],[114.15922042648158,22.328474321102174],[114.15926218200748,22.328441909448816],[114.15925596978298,22.328434970487347],[114.15930595339341,22.328396171930795],[114.15931214261182,22.328403128678175],[114.15935388052472,22.328370730544858],[114.15938297001775,22.328403427102373],[114.1593598650296,22.328421361791939],[114.15939638166293,22.328462406386954],[114.15936135154273,22.328489597587033],[114.15933845135632,22.328463857772284],[114.1593213834698,22.328477106324812],[114.1593442837523,22.328502846141923],[114.15930925361189,22.328530037420911],[114.15927273708354,22.328488992806623],[114.15924962362163,22.328506933981377]]]},"properties":{"OBJECTID":334193,"Shape__Length":66.40031385090353,"Shape__Area":151.32627464531706,"GeoRefNo":"3445921046","DateCreate":1114790400000,"BuildingBlockType":"Tower","BuildingCSUID":"3445921046T20050430","BuildingID":1108228555,"Status":"Active","BuildingNameEN":"Fu Wa Mansion","BuildingNameTC":"富華大廈","BaseHeight":9.4000000000000004,"TopHeight":51.399999999999999,"Storeys":15,"StoreysInBasement":null,"DateStamp":1689004800000}},{"type":"Feature","id":334194,"geometry":{"type":"Polygon","coordinates":[[[114.15907005595145,22.328760482272319],[114.15903628374453,22.328722809294426],[114.15899022657342,22.3286714324014],[114.15893761472087,22.328612743610826],[114.15904470708965,22.328530283138285],[114.15909661024494,22.32858845743511],[114.15914271563079,22.32864014260786],[114.15916585243234,22.328666079432523],[114.15917671667638,22.328678228015626],[114.15914182777453,22.328704756067097],[114.15910497786108,22.328733360930762],[114.15907679679196,22.328755238950851],[114.15907180710126,22.328759112524644],[114.15907040620206,22.328760198389148],[114.15907005595145,22.328760482272319]]]},"properties":{"OBJECTID":334194,"Shape__Length":71.189300144493785,"Shape__Area":304.2401220672092,"GeoRefNo":"3443221068","DateCreate":1142006400000,"BuildingBlockType":"Podium","BuildingCSUID":"3443221068P20060311","BuildingID":1108245799,"Status":"Active","BuildingNameEN":"KINGA COURT","BuildingNameTC":"健基閣","BaseHeight":3.8999999999999999,"TopHeight":9.5,"Storeys":2,"StoreysInBasement":null,"DateStamp":1689004800000}},{"type":"Feature","id":334659,"geometry":{"type":"Polygon","coordinates":[[[114.16464273073942,22.328319776027048],[114.16467355703855,22.328354186313266],[114.16463319859584,22.328385480396744],[114.16465429848468,22.328409033385725],[114.16464634602127,22.32841516166507],[114.16463574998367,22.328423327315875],[114.1646229600106,22.328433183687356],[114.16457099550288,22.328375057209183],[114.16464273073942,22.328319776027048]]]},"properties":{"OBJECTID":334659,"Shape__Length":35.928899396089989,"Shape__Area":61.955060969699439,"GeoRefNo":"3500621039","DateCreate":1390492800000,"BuildingBlockType":"Tower","BuildingCSUID":"3500621039T20140124","BuildingID":1810110999,"Status":"Active","BuildingNameEN":"Joseph's House","BuildingNameTC":"仲學舍","BaseHeight":19.699999999999999,"TopHeight":78.900000000000006,"Storeys":21,"StoreysInBasement":null,"DateStamp":1709222400000}},{"type":"Feature","id":335819,"geometry":{"type":"Polygon","coordinates":[[[114.15830731746061,22.329143434337038],[114.15838923106294,22.329079747451683],[114.1585001037358,22.329203382481797],[114.15846220229122,22.329233029027186],[114.15844149277531,22.32924926673784],[114.15839836596584,22.329283028182832],[114.15838590736041,22.329292781691723],[114.15831329725629,22.329210951543459],[114.15834398613882,22.329186954555968],[114.15836228048434,22.329207321148374],[114.15837163364876,22.329200425557463],[114.15833801156951,22.329162895949239],[114.15832127587865,22.329175995609116],[114.15829781970038,22.329150818552627],[114.15830731746061,22.329143434337038]]]},"properties":{"OBJECTID":335819,"Shape__Length":76.880114218109327,"Shape__Area":245.7432827970423,"GeoRefNo":"3436521130","DateCreate":1114790400000,"BuildingBlockType":"Tower","BuildingCSUID":"3436521130T20050430","BuildingID":1108227987,"Status":"Active","BuildingNameEN":"Yen Chow House","BuildingNameTC":"欽州大廈","BaseHeight":3.7999999999999998,"TopHeight":29.800000000000001,"Storeys":8,"StoreysInBasement":null,"DateStamp":1727625600000}},{"type":"Feature","id":336126,"geometry":{"type":"Polygon","coordinates":[[[114.1583284264465,22.332989171480445],[114.15832558680617,22.332986086761984],[114.15830399302384,22.333002901490545],[114.15827877179603,22.332975437427454],[114.15825634479332,22.332951016082692],[114.15824695316378,22.332940788958961],[114.15823315559153,22.33295164348678],[114.15821199980188,22.332968286401492],[114.15818516700774,22.332989395455634],[114.15816566377519,22.332968352774326],[114.15815663210753,22.332975441641452],[114.15812434432777,22.332940387441237],[114.15813325377347,22.332933383991076],[114.15811345356803,22.332912020864132],[114.15814086835123,22.332890428933407],[114.1581620880184,22.332873715416063],[114.15817559076071,22.332863080483936],[114.15812021453449,22.332802780174266],[114.15814145195665,22.332786050045225],[114.15813454815104,22.332778550526868],[114.15817318889356,22.332748444951843],[114.15818015487496,22.332755560495485],[114.15820176875552,22.332738533295668],[114.15825716469674,22.332798831412884],[114.15832236793256,22.332747476008318],[114.15834230780064,22.332769053060506],[114.15835174562541,22.332761634703324],[114.15838413182385,22.332796878963912],[114.15837479447654,22.332804207931645],[114.15839406205943,22.332825058751904],[114.1583285836996,22.332876570292118],[114.15833771124453,22.332886505332141],[114.15836033905946,22.332911135385402],[114.15838595161956,22.332939014074437],[114.15836302204106,22.332956894718784],[114.15836627892,22.332960446906931],[114.1583284264465,22.332989171480445]]]},"properties":{"OBJECTID":336126,"Shape__Length":122.77844664349195,"Shape__Area":536.50856520320326,"GeoRefNo":"3434321542","DateCreate":1114790400000,"BuildingBlockType":"Tower","BuildingCSUID":"3434321542T20050430","BuildingID":1108225481,"Status":"Active","BuildingNameEN":"Yee Tai House","BuildingNameTC":"怡泰閣","BaseHeight":4.7999999999999998,"TopHeight":41,"Storeys":null,"StoreysInBasement":null,"DateStamp":1684944000000}},{"type":"Feature","id":336128,"geometry":{"type":"Polygon","coordinates":[[[114.15878146468437,22.332947488290277],[114.15879115421006,22.332939976107973],[114.15877248593908,22.332919238374497],[114.15879293722367,22.332903360559342],[114.15882078268935,22.332881796556251],[114.15883649468655,22.332869543083234],[114.15882577747007,22.332857615477987],[114.15880218812823,22.332831362587477],[114.15878458553962,22.332811772399054],[114.15880530980064,22.332795617644649],[114.15879738690592,22.332786789372065],[114.1588364887992,22.332755778374551],[114.15884468917456,22.332764919495329],[114.15886523324396,22.332748904145291],[114.15891714770768,22.332806925403254],[114.15896673883276,22.332768424126158],[114.15898470039787,22.332754479278417],[114.15900340582992,22.332775420179996],[114.15901333569816,22.332767721890434],[114.15904424042265,22.332802051871379],[114.15903416406344,22.332809853727454],[114.15904764638758,22.332824947291968],[114.15905318726901,22.332831150372566],[114.15904764505773,22.332835436941664],[114.15898559750872,22.332883426565871],[114.15903915405342,22.332943283158912],[114.15901884831013,22.332959060691351],[114.15902713149741,22.332968294646122],[114.15898750472307,22.332998631407978],[114.15897945932169,22.332989666227448],[114.15896670939459,22.332999572722272],[114.15895883058414,22.333005694405553],[114.15890498896648,22.332945772283175],[114.15884095625421,22.332995297552575],[114.15882194099592,22.332974175264351],[114.15881259862429,22.33298140898399],[114.15878146468437,22.332947488290277]]]},"properties":{"OBJECTID":336128,"Shape__Length":123.35415879738862,"Shape__Area":523.69738959710253,"GeoRefNo":"3441521533","DateCreate":1114790400000,"BuildingBlockType":"Tower","BuildingCSUID":"3441521533T20050430","BuildingID":1108225479,"Status":"Active","BuildingNameEN":"Yee Yan House","BuildingNameTC":"怡欣閣","BaseHeight":5.0999999999999996,"TopHeight":40.899999999999999,"Storeys":null,"StoreysInBasement":null,"DateStamp":1684944000000}},{"type":"Feature","id":336133,"geometry":{"type":"Polygon","coordinates":[[[114.15879738690592,22.332786789372065],[114.15878790327028,22.332776222087301],[114.15876715639327,22.33279237548242],[114.15871220210725,22.332731214445964],[114.15869652971477,22.332743499247655],[114.15868581794747,22.332751895764982],[114.15866961520895,22.33276459636286],[114.15864719748257,22.332782168620597],[114.15862767437206,22.332760650261189],[114.1586185604214,22.332767779511713],[114.15858889453588,22.332736198136061],[114.15859861308957,22.332728619142063],[114.15857846660975,22.332706414653348],[114.1586440221063,22.33265533486194],[114.15858855295491,22.332593601998834],[114.15860937371269,22.332577292856993],[114.15860156216446,22.332568588215761],[114.15864094133751,22.332537793939384],[114.15864872367256,22.332546469226084],[114.15866952568018,22.332530174523225],[114.15868584426939,22.332548412793592],[114.15872503314509,22.332592211603632],[114.15879259194391,22.332539570949148],[114.15881252022146,22.332561788030269],[114.15882197032911,22.332554416786483],[114.15885065007708,22.332586229554828],[114.15884112589509,22.332593680080524],[114.15886033568997,22.332615097147119],[114.15879284518277,22.332668000897709],[114.15884788786333,22.33272951799286],[114.15882730622793,22.332745542638044],[114.1588364887992,22.332755778374551],[114.15879738690592,22.332786789372065]]]},"properties":{"OBJECTID":336133,"Shape__Length":125.48992199030951,"Shape__Area":533.88415100377154,"GeoRefNo":"3439421517","DateCreate":1114790400000,"BuildingBlockType":"Tower","BuildingCSUID":"3439421517T20050430","BuildingID":1108225585,"Status":"Active","BuildingNameEN":"Yee Hong House","BuildingNameTC":"怡康閣","BaseHeight":5.0999999999999996,"TopHeight":41.200000000000003,"Storeys":null,"StoreysInBasement":null,"DateStamp":1684944000000}},{"type":"Feature","id":336135,"geometry":{"type":"Polygon","coordinates":[[[114.15651992324747,22.332260866268431],[114.15659153413054,22.332207086565635],[114.15663610577323,22.332256978402683],[114.15695755984474,22.332009477392386],[114.15693117443315,22.331979957071908],[114.15700451875486,22.33192204328812],[114.15718542866458,22.332124824686275],[114.15711109521554,22.332181817311],[114.15706584993391,22.332130778728505],[114.15688153900658,22.332272717492675],[114.15674267280302,22.332379658705786],[114.15678643396708,22.332428636866645],[114.15676659805688,22.332443700669796],[114.15671663775953,22.33248164160408],[114.15668282242567,22.332443690276587],[114.15653044396691,22.33227267389557],[114.15651992324747,22.332260866268431]]]},"properties":{"OBJECTID":336135,"Shape__Length":211.55407043462557,"Shape__Area":1338.7472405664726,"GeoRefNo":"3420121459","DateCreate":1114790400000,"BuildingBlockType":"Tower","BuildingCSUID":"3420121459T20050430","BuildingID":1108225708,"Status":"Active","BuildingNameEN":"Lai Mei House","BuildingNameTC":"麗薇樓","BaseHeight":4.5999999999999996,"TopHeight":41,"Storeys":13,"StoreysInBasement":null,"DateStamp":1786636800000}},{"type":"Feature","id":336407,"geometry":{"type":"Polygon","coordinates":[[[114.1567560624672,22.331784039887783],[114.15683027242378,22.33172673061507],[114.15687943604124,22.331781837843895],[114.15720020313849,22.331534057749199],[114.15715059223184,22.331479359917861],[114.15722593176254,22.331421177793178],[114.15742446338373,22.331643640056779],[114.15735086884557,22.331700172775466],[114.15730686225913,22.331651653847796],[114.15698491861943,22.331900073461281],[114.15700451875486,22.33192204328812],[114.15693117443315,22.331979957071908],[114.15686386385877,22.331904649288091],[114.1567560624672,22.331784039887783]]]},"properties":{"OBJECTID":336407,"Shape__Length":212.0884019385629,"Shape__Area":1330.6967670949114,"GeoRefNo":"3421621418","DateCreate":1114790400000,"BuildingBlockType":"Tower","BuildingCSUID":"3421621418T20050430","BuildingID":1108225960,"Status":"Active","BuildingNameEN":"Lai Lo House","BuildingNameTC":"麗蘿樓","BaseHeight":4.5999999999999996,"TopHeight":40.700000000000003,"Storeys":13,"StoreysInBasement":null,"DateStamp":1786636800000}},{"type":"Feature","id":337974,"geometry":{"type":"Polygon","coordinates":[[[114.16486201270678,22.333934245431692],[114.16484363073833,22.333948643329862],[114.16483933113408,22.333952010875567],[114.16489170296842,22.334010354082974],[114.16482533631681,22.334061777599398],[114.16476635722267,22.334107476884149],[114.1645857196758,22.333905665948134],[114.1644121914068,22.333711931848708],[114.16443177591813,22.333696077097549],[114.16441709714586,22.333679715455542],[114.16438995898436,22.333649465993858],[114.16438974231025,22.333649633765354],[114.16438176274249,22.333655811061611],[114.16419686086377,22.333449086448088],[114.16408388355481,22.333322774843417],[114.16420670799316,22.333227759378907],[114.16425219172423,22.333278728071146],[114.16440611513414,22.333451212891802],[114.16450323045137,22.333558386094335],[114.16448504755397,22.333573135798989],[114.16452429358772,22.333616684956041],[114.1645331471252,22.333610914546622],[114.16471233127396,22.333810530196409],[114.16475920288156,22.333862746330755],[114.1648174643757,22.333927651167937],[114.16483964849205,22.333909567994521],[114.16486201270678,22.333934245431692]]]},"properties":{"OBJECTID":337974,"Shape__Length":270.09429885383423,"Shape__Area":1843.6590653769561,"GeoRefNo":"3500021634","DateCreate":1114790400000,"BuildingBlockType":"Tower","BuildingCSUID":"3500021634T20050430","BuildingID":1108224953,"Status":"Active","BuildingNameEN":"Shek Kip Mei Estate Block 22","BuildingNameTC":"石硤尾邨第二十二座","BaseHeight":10.1,"TopHeight":44.299999999999997,"Storeys":13,"StoreysInBasement":null,"DateStamp":1786636800000}},{"type":"Feature","id":337976,"geometry":{"type":"Polygon","coordinates":[[[114.16486201270678,22.333934245431692],[114.16483964849205,22.333909567994521],[114.1648479819258,22.33390277508758],[114.1648620949033,22.333891270993291],[114.16482626965984,22.333851764530593],[114.1648790926704,22.333810542580867],[114.16515681854924,22.333593810791953],[114.16515408007518,22.333589701862042],[114.16523075396076,22.333529308781966],[114.16522131501787,22.33351882044359],[114.16530799922076,22.333451279527424],[114.16548801765636,22.333311834534399],[114.16546988411962,22.333291693267221],[114.16549989404227,22.333267922911137],[114.16551740594906,22.333286853943765],[114.16558314455733,22.333235022364558],[114.1656900615483,22.333354072465969],[114.16564372281537,22.333390151402874],[114.16562389681442,22.333405587717142],[114.16557106641675,22.333446720960104],[114.16556488962006,22.333451297589338],[114.16553283660306,22.333475638095535],[114.16550455209124,22.333497705952375],[114.16548467858723,22.333513210968771],[114.16545823781735,22.333533839111059],[114.16542009709515,22.333563596521142],[114.16539371814346,22.333584176524134],[114.16536310978962,22.333608056899994],[114.16532727049893,22.333636018268724],[114.16532713917564,22.33363587449259],[114.16532240144328,22.333630685276109],[114.16528701746907,22.33365774514554],[114.16526186943342,22.333676977039438],[114.16524842891528,22.333687255948053],[114.16525534438613,22.333694998718265],[114.16526322959042,22.33370382658137],[114.16527087505591,22.333712386670371],[114.16522919690568,22.333744806900022],[114.16517761883819,22.333784928045638],[114.16516379008226,22.333795684817375],[114.16514466447236,22.333810561949203],[114.16511141440107,22.333836426104348],[114.16509727605961,22.33384742405471],[114.1650448839339,22.333888178322738],[114.16503177633574,22.333898374246303],[114.16497983004264,22.33393878157068],[114.16496684523634,22.333948882044695],[114.16493605578627,22.33397283204156],[114.16488484639217,22.333916360521233],[114.16487932906588,22.333920682149135],[114.16486201270678,22.333934245431692]]]},"properties":{"OBJECTID":337976,"Shape__Length":259.96643043379669,"Shape__Area":1785.2635581840991,"GeoRefNo":"3506021626","DateCreate":1114790400000,"BuildingBlockType":"Tower","BuildingCSUID":"3506021626T20050430","BuildingID":1108225018,"Status":"Active","BuildingNameEN":"Shek Kip Mei Estate Block 23","BuildingNameTC":"石硤尾邨第二十三座","BaseHeight":9.5,"TopHeight":44.299999999999997,"Storeys":13,"StoreysInBasement":null,"DateStamp":1786636800000}},{"type":"Feature","id":337978,"geometry":{"type":"Polygon","coordinates":[[[114.15787412678472,22.333352160073417],[114.15791012988397,22.333323483614791],[114.15791910776149,22.333333313995958],[114.15794100015857,22.333316279640258],[114.15799324053457,22.333373361867221],[114.15800206060332,22.333366433909905],[114.15802946529159,22.333344906657079],[114.15805676677579,22.333323461385241],[114.15807879652056,22.33334771736066],[114.15808498833681,22.333342950021812],[114.15811310392118,22.333371780955297],[114.1581057866612,22.333377435148599],[114.15812468833636,22.333398247306267],[114.15809743600423,22.333419399552749],[114.15806957070399,22.333441028176956],[114.15806170950047,22.333447118120947],[114.15806494833727,22.333450602673789],[114.15811754399346,22.333506937530288],[114.15809544827529,22.333524340875371],[114.15810323716902,22.333533487855078],[114.15806613523995,22.333562806302773],[114.15805803182104,22.333553815423567],[114.15803690164286,22.33357046048442],[114.15798294616707,22.333511104534967],[114.15791386355725,22.333565325289413],[114.15789403882245,22.33354333324499],[114.15788558498319,22.333550239926911],[114.15785735424296,22.333518853197123],[114.15786533221217,22.333511488159107],[114.15784641146153,22.333490498969901],[114.1578948995369,22.333450582893789],[114.15791358931496,22.333435928718615],[114.15786099459034,22.333378532792938],[114.15788288797243,22.333361496729491],[114.15787412678472,22.333352160073417]]]},"properties":{"OBJECTID":337978,"Shape__Length":122.26567059723605,"Shape__Area":516.05047273209505,"GeoRefNo":"3432521604","DateCreate":1114790400000,"BuildingBlockType":"Tower","BuildingCSUID":"3432521604T20050430","BuildingID":1108225210,"Status":"Active","BuildingNameEN":"Yee Lok House","BuildingNameTC":"怡樂閣","BaseHeight":5,"TopHeight":40.899999999999999,"Storeys":null,"StoreysInBasement":null,"DateStamp":1684944000000}},{"type":"Feature","id":338095,"geometry":{"type":"Polygon","coordinates":[[[114.15787412678472,22.333352160073417],[114.15786652929178,22.333344063541791],[114.15784487908982,22.333360946563257],[114.15778957988887,22.333300599555496],[114.15772511401505,22.333351314470555],[114.15770524550636,22.333329729315178],[114.15769549035412,22.333337385733035],[114.15766384490887,22.333302369085697],[114.15767325465232,22.33329497261925],[114.15765391336161,22.333273960148759],[114.15771853203697,22.333223066112886],[114.15766326400214,22.333162753561574],[114.15768231423209,22.333147746449828],[114.15767529288017,22.333140263695238],[114.157714672417,22.333109469556057],[114.15772146411017,22.333116905503484],[114.15774300684569,22.333099934437207],[114.15779824013386,22.33316028723409],[114.15786256115591,22.333109626726131],[114.15788192386616,22.33313094567248],[114.15789357554019,22.3331217865959],[114.15792571946872,22.33315668251846],[114.15791379713812,22.333166040509386],[114.15793331175458,22.333187527977817],[114.15790569214393,22.333209256210388],[114.1578788911968,22.333230339840924],[114.15786927400866,22.333237905437869],[114.15792482438708,22.333298604731073],[114.15790297140009,22.333315645591259],[114.15791012988397,22.333323483614791],[114.15787412678472,22.333352160073417]]]},"properties":{"OBJECTID":338095,"Shape__Length":124.25633038564938,"Shape__Area":532.59538993935109,"GeoRefNo":"3430521572","DateCreate":1114790400000,"BuildingBlockType":"Tower","BuildingCSUID":"3430521572T20050430","BuildingID":1108225296,"Status":"Active","BuildingNameEN":"Yee Mei House","BuildingNameTC":"怡美閣","BaseHeight":5,"TopHeight":40.899999999999999,"Storeys":null,"StoreysInBasement":null,"DateStamp":1684944000000}},{"type":"Feature","id":338096,"geometry":{"type":"Polygon","coordinates":[[[114.15878146468437,22.332947488290277],[114.15881259862429,22.33298140898399],[114.1588026002906,22.332989150780808],[114.15882156671952,22.333010294107073],[114.15875571352652,22.333061227187898],[114.15876004335111,22.333066068331977],[114.15876759239879,22.333074508971976],[114.1588096898016,22.333121578055565],[114.15878869678524,22.333137889370164],[114.15879676023691,22.333146861515573],[114.15876082672443,22.333175127830206],[114.15875258129505,22.333165951029827],[114.15872977832539,22.333183668828042],[114.15871444175602,22.333166545046691],[114.15869203297322,22.333141525579233],[114.15868576845007,22.333134531055872],[114.15867560619253,22.333123184440371],[114.15866130219861,22.33313424719281],[114.15863677996508,22.333153213894903],[114.1586116390408,22.33317265833162],[114.15859276220219,22.333151624983739],[114.15858448078309,22.33315803738801],[114.15855357632429,22.333124165893743],[114.1585621506311,22.333117518638677],[114.15854364814859,22.333096902991439],[114.15856859462923,22.333077535032174],[114.15857252050226,22.333074487112302],[114.15858338975261,22.333066048538065],[114.158593484603,22.333058211312498],[114.15860759987866,22.333047252486676],[114.15859759360117,22.333036080354475],[114.15857497648311,22.333010827316247],[114.15855349472216,22.332986841844573],[114.15857594470795,22.332969361715801],[114.15856773230152,22.332960221122157],[114.15860341781608,22.33293172616743],[114.15861200737939,22.332941283653231],[114.15863348374673,22.332924562607698],[114.15865447615627,22.332948033993496],[114.15867739899736,22.332973663720541],[114.15868578804645,22.332983043999963],[114.15868763810971,22.33298511266122],[114.15875327017125,22.332934157277382],[114.15877188854559,22.332954912526777],[114.15878146468437,22.332947488290277]]]},"properties":{"OBJECTID":338096,"Shape__Length":123.2060133057078,"Shape__Area":520.06233641541223,"GeoRefNo":"3439321560","DateCreate":1114790400000,"BuildingBlockType":"Tower","BuildingCSUID":"3439321560T20050430","BuildingID":1108225379,"Status":"Active","BuildingNameEN":"Yee Sau House","BuildingNameTC":"怡秀閣","BaseHeight":5,"TopHeight":41,"Storeys":null,"StoreysInBasement":null,"DateStamp":1684944000000}},{"type":"Feature","id":338103,"geometry":{"type":"Polygon","coordinates":[[[114.1581011624569,22.333168181477468],[114.15809739798904,22.333164021919018],[114.1580769570627,22.333179963493212],[114.15805281637647,22.333153563774292],[114.1580309859955,22.333129690353246],[114.15802087946945,22.333118638641853],[114.15795381426545,22.333171398683202],[114.15793416645016,22.333150052349609],[114.15792571946872,22.33315668251846],[114.15789357554019,22.3331217865959],[114.15790203125951,22.333115139813469],[114.15788250128458,22.333093921811763],[114.15790727383022,22.333074410799327],[114.157917987907,22.333065972251624],[114.15794980491357,22.33304091294444],[114.15789458461897,22.33298052606423],[114.15791604372723,22.33296362115901],[114.15790786833308,22.332954587097099],[114.15794478649693,22.332925860887336],[114.15795280797205,22.332934658689549],[114.15797505758307,22.332917131300356],[114.15803040836025,22.332977428766032],[114.15804529673551,22.332965702479566],[114.15806785796394,22.332947933274905],[114.15809278306672,22.332928301331972],[114.15811253813374,22.332949667978081],[114.15812434432777,22.332940387441237],[114.15815663210753,22.332975441641452],[114.15814488901603,22.332984658702898],[114.15816438476757,22.333005745184117],[114.15813866254614,22.333025980740157],[114.15811630120315,22.333043572165479],[114.15810168222254,22.33305507272501],[114.15811170820027,22.333065994743013],[114.1581194563948,22.333074435436181],[114.15813361963835,22.333089864369903],[114.15815817981445,22.333116619659204],[114.15813511688783,22.333134605913269],[114.15813875402405,22.333138594597646],[114.1581011624569,22.333168181477468]]]},"properties":{"OBJECTID":338103,"Shape__Length":124.05657040597048,"Shape__Area":537.26134637740802,"GeoRefNo":"3432821552","DateCreate":1114790400000,"BuildingBlockType":"Tower","BuildingCSUID":"3432821552T20050430","BuildingID":1108225384,"Status":"Active","BuildingNameEN":"Yee Kin House","BuildingNameTC":"怡建閣","BaseHeight":4.9000000000000004,"TopHeight":41.299999999999997,"Storeys":null,"StoreysInBasement":null,"DateStamp":1684944000000}},{"type":"Feature","id":338416,"geometry":{"type":"Polygon","coordinates":[[[114.16105467289893,22.32635786336429],[114.16099876725958,22.326399004877853],[114.160928627023,22.326320657946109],[114.16099797317159,22.326323331917656],[114.1610456505491,22.326325170318157],[114.16104545709429,22.326339022677114],[114.16104102029702,22.326343154821981],[114.16105467289893,22.32635786336429]]]},"properties":{"OBJECTID":338416,"Shape__Length":35.034041093448678,"Shape__Area":61.593083746833436,"GeoRefNo":"3463320813","DateCreate":1114790400000,"BuildingBlockType":"Tower","BuildingCSUID":"3463320813T20050430","BuildingID":1108230081,"Status":"Active","BuildingNameEN":"Mia Casa Apartment","BuildingNameTC":"輝豪居","BaseHeight":3.8999999999999999,"TopHeight":25.100000000000001,"Storeys":6,"StoreysInBasement":null,"DateStamp":1726761600000}},{"type":"Feature","id":339841,"geometry":{"type":"Polygon","coordinates":[[[114.15947444893457,22.328781451656624],[114.15941175882023,22.328711273593711],[114.15943116798545,22.328696266306288],[114.1594454374428,22.328712240140607],[114.15944054958867,22.328716093508202],[114.15948891337518,22.328770234059146],[114.15947444893457,22.328781451656624]]]},"properties":{"OBJECTID":339841,"Shape__Length":25.400071583369815,"Shape__Area":21.12021222377485,"GeoRefNo":"3447321078","DateCreate":1427299200000,"BuildingBlockType":"Tower","BuildingCSUID":"3447321078T20150326","BuildingID":1810140401,"Status":"Active","BuildingNameEN":null,"BuildingNameTC":null,"BaseHeight":4,"TopHeight":8.8000000000000007,"Storeys":null,"StoreysInBasement":null,"DateStamp":1684944000000}}]}