{"type":"FeatureCollection","features":[{"type":"Feature","id":50264,"geometry":{"type":"Polygon","coordinates":[[[114.16157185802676,22.328948412220196],[114.16163117983183,22.32890241419485],[114.16164343578657,22.32891604294587],[114.16170956727387,22.328864292505902],[114.16171720536994,22.32887282666832],[114.16173609416785,22.328858399181229],[114.1617877676255,22.328915806257946],[114.16164380570945,22.3290272037748],[114.16157185802676,22.328948412220196]]]},"properties":{"OBJECTID":50264,"Shape__Length":61.604459392733787,"Shape__Area":196.18926284640401,"GeoRefNo":"3469921103","DateCreate":1114790400000,"BuildingBlockType":"Tower","BuildingCSUID":"3469921103T20050430","BuildingID":1108228167,"Status":"Active","BuildingNameEN":null,"BuildingNameTC":null,"BaseHeight":4.2999999999999998,"TopHeight":33.399999999999999,"Storeys":9,"StoreysInBasement":null,"DateStamp":1599580800000}},{"type":"Feature","id":50330,"geometry":{"type":"Polygon","coordinates":[[[114.16226369916376,22.328943861605971],[114.16223212063672,22.328908882682391],[114.16214672921136,22.328814296221204],[114.16218363074857,22.328785685613514],[114.16226811736021,22.32888091495186],[114.16224047600124,22.328902371390559],[114.16227166913977,22.328937697232934],[114.16226369916376,22.328943861605971]]]},"properties":{"OBJECTID":50330,"Shape__Length":47.197847244173687,"Shape__Area":72.415283394644703,"GeoRefNo":"3475821090","DateCreate":1114790400000,"BuildingBlockType":"Tower","BuildingCSUID":"3475821090T20050430","BuildingID":1108228225,"Status":"Active","BuildingNameEN":null,"BuildingNameTC":null,"BaseHeight":4.2999999999999998,"TopHeight":32.899999999999999,"Storeys":9,"StoreysInBasement":null,"DateStamp":1599580800000}},{"type":"Feature","id":50333,"geometry":{"type":"Polygon","coordinates":[[[114.16212534439289,22.328991818940676],[114.16204030023812,22.328896824634739],[114.16207638930862,22.328868838713397],[114.16216145405559,22.3289637695176],[114.16219272352677,22.328998665706653],[114.16218677899724,22.329003254783185],[114.16215538740387,22.328968484829495],[114.16212534439289,22.328991818940676]]]},"properties":{"OBJECTID":50333,"Shape__Length":47.102988301597819,"Shape__Area":70.344067419854781,"GeoRefNo":"3474721100","DateCreate":1114790400000,"BuildingBlockType":"Tower","BuildingCSUID":"3474721100T20050430","BuildingID":1108228184,"Status":"Active","BuildingNameEN":null,"BuildingNameTC":null,"BaseHeight":4.2999999999999998,"TopHeight":33.100000000000001,"Storeys":9,"StoreysInBasement":null,"DateStamp":1599580800000}},{"type":"Feature","id":50396,"geometry":{"type":"Polygon","coordinates":[[[114.16056359048457,22.328883911566781],[114.16057612254804,22.328897855051736],[114.16054299883288,22.328923367008393],[114.16044098735361,22.328811780704136],[114.16047503232268,22.328785379167797],[114.16056359048457,22.328883911566781]]]},"properties":{"OBJECTID":50396,"Shape__Length":41.45300265136963,"Shape__Area":72.994257084049025,"GeoRefNo":"3458521095","DateCreate":1114790400000,"BuildingBlockType":"Tower","BuildingCSUID":"3458521095T20050430","BuildingID":1108228239,"Status":"Active","BuildingNameEN":"Lai Chi Court","BuildingNameTC":null,"BaseHeight":4.2999999999999998,"TopHeight":44.5,"Storeys":9,"StoreysInBasement":null,"DateStamp":1599580800000}},{"type":"Feature","id":50397,"geometry":{"type":"Polygon","coordinates":[[[114.16399955343493,22.328886679188361],[114.16393636961348,22.328815950796411],[114.16396560224491,22.328792873656202],[114.16397261675483,22.328787336116953],[114.16409067753847,22.328919191781686],[114.1640720806523,22.328933687566433],[114.16401783191439,22.328872519414702],[114.16399955343493,22.328886679188361]]]},"properties":{"OBJECTID":50397,"Shape__Length":47.816125057979328,"Shape__Area":71.801800967422508,"GeoRefNo":"3494121089","DateCreate":1114790400000,"BuildingBlockType":"Tower","BuildingCSUID":"3494121089T20050430","BuildingID":1108228230,"Status":"Active","BuildingNameEN":null,"BuildingNameTC":null,"BaseHeight":5,"TopHeight":25.800000000000001,"Storeys":6,"StoreysInBasement":null,"DateStamp":1599580800000}},{"type":"Feature","id":50399,"geometry":{"type":"Polygon","coordinates":[[[114.16273903715421,22.329315796147256],[114.16260199459425,22.329164895048596],[114.16261138476555,22.329157589950057],[114.16263523353638,22.329139036900788],[114.16273687753936,22.329254737115814],[114.16272451097447,22.329264403460037],[114.16274803929502,22.329290700938898],[114.16273796348592,22.329298554232292],[114.16274767131701,22.329309061617806],[114.16273903715421,22.329315796147256]]]},"properties":{"OBJECTID":50399,"Shape__Length":52.38871712890257,"Shape__Area":82.943131187212131,"GeoRefNo":"3480521131","DateCreate":1114790400000,"BuildingBlockType":"Tower","BuildingCSUID":"3480521131T20050430","BuildingID":1108227964,"Status":"Active","BuildingNameEN":null,"BuildingNameTC":"金海大廈","BaseHeight":4.5,"TopHeight":28.600000000000001,"Storeys":8,"StoreysInBasement":null,"DateStamp":1599580800000}},{"type":"Feature","id":50400,"geometry":{"type":"Polygon","coordinates":[[[114.16157288079262,22.329372562470617],[114.16152331149067,22.329317574369004],[114.16160912923367,22.32925095426619],[114.16163949432141,22.329284410639573],[114.16168043744685,22.329329531536199],[114.16171382670849,22.329366306556068],[114.16172170427926,22.329374990376859],[114.16170593565859,22.329387222004989],[114.16166103208919,22.329422053463464],[114.16165312803267,22.329413255671348],[114.16163911905294,22.329424336780782],[114.16160564888143,22.329387212615853],[114.16158448547921,22.329363738786466],[114.16157288079262,22.329372562470617]]]},"properties":{"OBJECTID":50400,"Shape__Length":59.042984912222558,"Shape__Area":189.64864681130371,"GeoRefNo":"3469921146","DateCreate":1114790400000,"BuildingBlockType":"Tower","BuildingCSUID":"3469921146T20050430","BuildingID":1108227880,"Status":"Active","BuildingNameEN":null,"BuildingNameTC":null,"BaseHeight":4.2000000000000002,"TopHeight":36,"Storeys":9,"StoreysInBasement":null,"DateStamp":1599580800000}},{"type":"Feature","id":50459,"geometry":{"type":"Polygon","coordinates":[[[114.16282039008755,22.32928949178266],[114.16282806088539,22.329283471123532],[114.16284200315582,22.329272528163564],[114.16285176064733,22.329283473169216],[114.16286286207054,22.329295925765383],[114.16287593406553,22.329285712308305],[114.16294347563587,22.329361573021394],[114.16290867893642,22.32938877837061],[114.16282039008755,22.32928949178266]]]},"properties":{"OBJECTID":50459,"Shape__Length":37.897713282787699,"Shape__Area":60.846995367981307,"GeoRefNo":"3482621143","DateCreate":1114790400000,"BuildingBlockType":"Tower","BuildingCSUID":"3482621143T20050430","BuildingID":1108227912,"Status":"Active","BuildingNameEN":null,"BuildingNameTC":null,"BaseHeight":4.5,"TopHeight":27.800000000000001,"Storeys":6,"StoreysInBasement":null,"DateStamp":1599580800000}},{"type":"Feature","id":50462,"geometry":{"type":"Polygon","coordinates":[[[114.16192013206847,22.329341159056096],[114.16198721958986,22.329289177681538],[114.161999889905,22.329303610616368],[114.16206522045206,22.329253693981656],[114.16207403094096,22.329263334299505],[114.16208621677539,22.329254023071023],[114.16213394951568,22.32930779658227],[114.16212138002508,22.329317562379039],[114.16207948044854,22.329350115810261],[114.16203168221479,22.329387252074206],[114.16202953686719,22.329388918923954],[114.16198995451573,22.329419671935369],[114.16196111732532,22.329387245616008],[114.16192013206847,22.329341159056096]]]},"properties":{"OBJECTID":50462,"Shape__Length":61.127214780629934,"Shape__Area":193.88394912967439,"GeoRefNo":"3474321140","DateCreate":1114790400000,"BuildingBlockType":"Tower","BuildingCSUID":"3474321140T20050430","BuildingID":1108227884,"Status":"Active","BuildingNameEN":null,"BuildingNameTC":null,"BaseHeight":4.2999999999999998,"TopHeight":33.700000000000003,"Storeys":9,"StoreysInBasement":null,"DateStamp":1599580800000}},{"type":"Feature","id":50463,"geometry":{"type":"Polygon","coordinates":[[[114.16189150095798,22.329308963925943],[114.16201220604906,22.329215826617084],[114.16201758541764,22.329221867936869],[114.16204155993546,22.329203727503689],[114.16205324273162,22.329216883058692],[114.16202941709805,22.329235165738869],[114.16204064403112,22.329247782759438],[114.16198721958986,22.329289177681538],[114.16192013206847,22.329341159056096],[114.16189150095798,22.329308963925943]]]},"properties":{"OBJECTID":50463,"Shape__Length":47.877674819547977,"Shape__Area":80.540516726640178,"GeoRefNo":"3473021139","DateCreate":1114790400000,"BuildingBlockType":"Tower","BuildingCSUID":"3473021139T20050430","BuildingID":1108227949,"Status":"Active","BuildingNameEN":null,"BuildingNameTC":null,"BaseHeight":4.2999999999999998,"TopHeight":33.700000000000003,"Storeys":9,"StoreysInBasement":null,"DateStamp":1599580800000}},{"type":"Feature","id":50526,"geometry":{"type":"Polygon","coordinates":[[[114.1599524827144,22.330111472485264],[114.1600613024805,22.330232616397513],[114.15994886557046,22.330319879521262],[114.15991327486606,22.330347501624885],[114.15987079582419,22.330300794085819],[114.15984969320895,22.330277590595252],[114.15981355146262,22.330237850708404],[114.15980356060319,22.330226865220322],[114.15991624486198,22.330139552373371],[114.15993757083254,22.330162642816063],[114.1599638801799,22.330141807216737],[114.15994295789382,22.330118853090998],[114.1599524827144,22.330111472485264]]]},"properties":{"OBJECTID":50526,"Shape__Length":81.489303006985907,"Shape__Area":336.32055192806706,"GeoRefNo":"3452621244","DateCreate":1114790400000,"BuildingBlockType":"Tower","BuildingCSUID":"3452621244T20050430","BuildingID":1108227016,"Status":"Active","BuildingNameEN":null,"BuildingNameTC":"興隆大廈","BaseHeight":4.2000000000000002,"TopHeight":46.5,"Storeys":13,"StoreysInBasement":null,"DateStamp":1599580800000}},{"type":"Feature","id":50527,"geometry":{"type":"Polygon","coordinates":[[[114.16383265546564,22.330200786031895],[114.16389896008123,22.330149387635768],[114.16393511149778,22.330190257242315],[114.16389561186539,22.330220785229105],[114.16385944649942,22.330248937165639],[114.16379792746504,22.330296830889953],[114.16378528432075,22.330306669685459],[114.16375795130874,22.330275898754575],[114.16384146777879,22.330210500213244],[114.16383265546564,22.330200786031895]]]},"properties":{"OBJECTID":50527,"Shape__Length":51.936786365082668,"Shape__Area":101.86036182885009,"GeoRefNo":"3492921239","DateCreate":1114790400000,"BuildingBlockType":"Tower","BuildingCSUID":"3492921239T20050430","BuildingID":1108227053,"Status":"Active","BuildingNameEN":null,"BuildingNameTC":null,"BaseHeight":5.2000000000000002,"TopHeight":25.699999999999999,"Storeys":6,"StoreysInBasement":null,"DateStamp":1599580800000}},{"type":"Feature","id":50528,"geometry":{"type":"Polygon","coordinates":[[[114.16071744731393,22.330237496617958],[114.16073978347598,22.330220285012256],[114.1607153980779,22.330193153727347],[114.1607299306978,22.330182008814379],[114.16084230969172,22.330307262914907],[114.16081673836962,22.33032706635322],[114.16080556212613,22.330335722325717],[114.16071744731393,22.330237496617958]]]},"properties":{"OBJECTID":50528,"Shape__Length":46.004605720398963,"Shape__Area":77.335382918318473,"GeoRefNo":"3460821246","DateCreate":1114790400000,"BuildingBlockType":"Tower","BuildingCSUID":"3460821246T20050430","BuildingID":1108227029,"Status":"Active","BuildingNameEN":null,"BuildingNameTC":null,"BaseHeight":4.4000000000000004,"TopHeight":32.299999999999997,"Storeys":9,"StoreysInBasement":null,"DateStamp":1599580800000}},{"type":"Feature","id":50621,"geometry":{"type":"Polygon","coordinates":[[[114.16237898201587,22.330325839807873],[114.16237598763938,22.330322519537646],[114.16233982783821,22.330350916495998],[114.16232526826171,22.330334693197862],[114.16236134254703,22.330306280612174],[114.16234898196478,22.330292574877447],[114.16246629480692,22.330203267169964],[114.16249614133206,22.330236281557106],[114.16237898201587,22.330325839807873]]]},"properties":{"OBJECTID":50621,"Shape__Length":50.560617643417551,"Shape__Area":86.271014754832251,"GeoRefNo":"3477821247","DateCreate":1114790400000,"BuildingBlockType":"Tower","BuildingCSUID":"3477821247T20050430","BuildingID":1108227013,"Status":"Active","BuildingNameEN":null,"BuildingNameTC":null,"BaseHeight":4.5999999999999996,"TopHeight":31,"Storeys":8,"StoreysInBasement":null,"DateStamp":1599580800000}},{"type":"Feature","id":50626,"geometry":{"type":"Polygon","coordinates":[[[114.16052066128822,22.329217051164594],[114.16041975952216,22.32910585372915],[114.16043442940669,22.329094666591903],[114.16042159129594,22.329080667527272],[114.16044087615165,22.329065726572097],[114.16046046540704,22.329087356889257],[114.16055439393583,22.329191037716004],[114.16052066128822,22.329217051164594]]]},"properties":{"OBJECTID":50626,"Shape__Length":45.352990775495449,"Shape__Area":78.064627504174013,"GeoRefNo":"3457721123","DateCreate":1114790400000,"BuildingBlockType":"Tower","BuildingCSUID":"3457721123T20050430","BuildingID":1108228055,"Status":"Active","BuildingNameEN":"LAP KEE BUILDING","BuildingNameTC":"立基樓","BaseHeight":4.2999999999999998,"TopHeight":23.899999999999999,"Storeys":6,"StoreysInBasement":null,"DateStamp":1599580800000}},{"type":"Feature","id":50629,"geometry":{"type":"Polygon","coordinates":[[[114.16446386032555,22.33026638291031],[114.16456653957093,22.330185273778184],[114.16457249612037,22.330180556110761],[114.1645888302517,22.330198771487961],[114.16460383427909,22.330186878711501],[114.16461759074815,22.330202307505132],[114.164556511521,22.330250111786949],[114.16449348339648,22.330299441343048],[114.16446386032555,22.33026638291031]]]},"properties":{"OBJECTID":50629,"Shape__Length":43.034350063034907,"Shape__Area":74.957811956797769,"GeoRefNo":"3499621243","DateCreate":1114790400000,"BuildingBlockType":"Tower","BuildingCSUID":"3499621243T20050430","BuildingID":1108227056,"Status":"Active","BuildingNameEN":null,"BuildingNameTC":null,"BaseHeight":5.4000000000000004,"TopHeight":25.199999999999999,"Storeys":6,"StoreysInBasement":null,"DateStamp":1599580800000}},{"type":"Feature","id":50630,"geometry":{"type":"Polygon","coordinates":[[[114.16051347475263,22.330318880497195],[114.16039631958667,22.33018762215379],[114.16040326915406,22.330182264381765],[114.1604307681296,22.330161096140611],[114.16049530485137,22.330233698153151],[114.16048011827132,22.33024562872998],[114.16049685407205,22.330264299700993],[114.16048791843514,22.330271126281517],[114.16050626765134,22.330290974189332],[114.16051488701224,22.330284417680673],[114.1605251060885,22.330295816296971],[114.16053115547896,22.330291087409012],[114.16053866682003,22.330299544943085],[114.16051347475263,22.330318880497195]]]},"properties":{"OBJECTID":50630,"Shape__Length":50.946213921495485,"Shape__Area":67.120515380215863,"GeoRefNo":"3457621242","DateCreate":1114790400000,"BuildingBlockType":"Tower","BuildingCSUID":"3457621242T20050430","BuildingID":1108227040,"Status":"Active","BuildingNameEN":null,"BuildingNameTC":null,"BaseHeight":4.4000000000000004,"TopHeight":22.699999999999999,"Storeys":5,"StoreysInBasement":null,"DateStamp":1599580800000}},{"type":"Feature","id":50632,"geometry":{"type":"Polygon","coordinates":[[[114.1608476774412,22.330192844433856],[114.16092785213134,22.330130853761109],[114.16098566539188,22.330196223589997],[114.16090836876688,22.330256198676757],[114.16087114283314,22.330285077345575],[114.16085800333317,22.330295276274274],[114.16081310292844,22.33024529190606],[114.16085109993105,22.330215860474212],[114.16083729432056,22.330200872500221],[114.1608476774412,22.330192844433856]]]},"properties":{"OBJECTID":50632,"Shape__Length":53.12308295143977,"Shape__Area":150.00764128396617,"GeoRefNo":"3462221239","DateCreate":1114790400000,"BuildingBlockType":"Tower","BuildingCSUID":"3462221239T20050430","BuildingID":1108227065,"Status":"Active","BuildingNameEN":null,"BuildingNameTC":null,"BaseHeight":4.4000000000000004,"TopHeight":34,"Storeys":9,"StoreysInBasement":null,"DateStamp":1599580800000}},{"type":"Feature","id":50681,"geometry":{"type":"Polygon","coordinates":[[[114.16042501879218,22.330281891244098],[114.16036343026508,22.330212942193423],[114.16038941389748,22.330192942633651],[114.16039631958667,22.33018762215379],[114.16051347475263,22.330318880497195],[114.16051718087614,22.330323060223623],[114.16048432019113,22.33034827968957],[114.16045075192629,22.330310699777971],[114.16045798641463,22.33030513107806],[114.1604699293387,22.330318736133432],[114.16048666473372,22.330305959728921],[114.16046844872602,22.330285841908303],[114.16045946172937,22.330292740636395],[114.16044318527949,22.330274667442254],[114.16042872462451,22.330286039907332],[114.16042501879218,22.330281891244098]]]},"properties":{"OBJECTID":50681,"Shape__Length":58.03232881406845,"Shape__Area":73.195698008530798,"GeoRefNo":"3457321245","DateCreate":1114790400000,"BuildingBlockType":"Tower","BuildingCSUID":"3457321245T20050430","BuildingID":1108227015,"Status":"Active","BuildingNameEN":null,"BuildingNameTC":null,"BaseHeight":4.5,"TopHeight":22.699999999999999,"Storeys":6,"StoreysInBasement":null,"DateStamp":1599580800000}},{"type":"Feature","id":50683,"geometry":{"type":"Polygon","coordinates":[[[114.16042323222095,22.330342897792235],[114.16041899912177,22.330346184314898],[114.16044705505988,22.330376882011137],[114.16043343617254,22.330387334977402],[114.16037383135371,22.330321734039895],[114.16036033437588,22.33033224553062],[114.16029815909782,22.330263206902885],[114.16032984246884,22.330238809679386],[114.16042323222095,22.330342897792235]]]},"properties":{"OBJECTID":50683,"Shape__Length":47.398932913384058,"Shape__Area":62.290475450137819,"GeoRefNo":"3456621250","DateCreate":1114790400000,"BuildingBlockType":"Tower","BuildingCSUID":"3456621250T20050430","BuildingID":1108226975,"Status":"Active","BuildingNameEN":null,"BuildingNameTC":null,"BaseHeight":4.4000000000000004,"TopHeight":22.5,"Storeys":5,"StoreysInBasement":null,"DateStamp":1599580800000}},{"type":"Feature","id":50684,"geometry":{"type":"Polygon","coordinates":[[[114.16073470158987,22.330390606432378],[114.16064700493131,22.330291774776466],[114.16066789312741,22.330275680751328],[114.16064321265229,22.33024852414071],[114.16065948818174,22.330236043965719],[114.1606838835535,22.330263356593957],[114.16077184496299,22.330361836695925],[114.16074453343845,22.330382987222809],[114.16073470158987,22.330390606432378]]]},"properties":{"OBJECTID":50684,"Shape__Length":46.186895271447227,"Shape__Area":78.787675225732613,"GeoRefNo":"3460121252","DateCreate":1114790400000,"BuildingBlockType":"Tower","BuildingCSUID":"3460121252T20050430","BuildingID":1108226972,"Status":"Active","BuildingNameEN":null,"BuildingNameTC":null,"BaseHeight":4.4000000000000004,"TopHeight":34.299999999999997,"Storeys":9,"StoreysInBasement":null,"DateStamp":1599580800000}},{"type":"Feature","id":50688,"geometry":{"type":"Polygon","coordinates":[[[114.16163041301188,22.330380594552025],[114.1615167274884,22.330252846628433],[114.16153636282232,22.330237712865578],[114.16156395693753,22.330269357272272],[114.16157998833837,22.330257081795445],[114.16166574339472,22.330353397567961],[114.16163041301188,22.330380594552025]]]},"properties":{"OBJECTID":50688,"Shape__Length":46.216982097014395,"Shape__Area":77.173320115457983,"GeoRefNo":"3469321251","DateCreate":1114790400000,"BuildingBlockType":"Tower","BuildingCSUID":"3469321251T20050430","BuildingID":1108226981,"Status":"Active","BuildingNameEN":null,"BuildingNameTC":null,"BaseHeight":4.5,"TopHeight":24.699999999999999,"Storeys":6,"StoreysInBasement":null,"DateStamp":1599580800000}},{"type":"Feature","id":50689,"geometry":{"type":"Polygon","coordinates":[[[114.16042323222095,22.330342897792235],[114.16032984246884,22.330238809679386],[114.16036343026508,22.330212942193423],[114.16042501879218,22.330281891244098],[114.16040853294624,22.330294736299962],[114.16046768486819,22.330361047886015],[114.16045485647358,22.330370894169128],[114.16042713157296,22.330339865898104],[114.16042323222095,22.330342897792235]]]},"properties":{"OBJECTID":50689,"Shape__Length":47.895927590741337,"Shape__Area":63.594976895171733,"GeoRefNo":"3456921247","DateCreate":1114790400000,"BuildingBlockType":"Tower","BuildingCSUID":"3456921247T20050430","BuildingID":1108226991,"Status":"Active","BuildingNameEN":null,"BuildingNameTC":null,"BaseHeight":4.2999999999999998,"TopHeight":22.300000000000001,"Storeys":5,"StoreysInBasement":null,"DateStamp":1599580800000}},{"type":"Feature","id":50746,"geometry":{"type":"Polygon","coordinates":[[[114.16264263982895,22.330297242388173],[114.16256817976551,22.330215990053311],[114.16258793944539,22.330200616321623],[114.16266233016532,22.330281311364288],[114.16264263982895,22.330297242388173]]]},"properties":{"OBJECTID":50746,"Shape__Length":28.937741304962557,"Shape__Area":31.510670502899291,"GeoRefNo":"3479821244","DateCreate":1114790400000,"BuildingBlockType":"Tower","BuildingCSUID":"3479821244T20050430","BuildingID":1108227061,"Status":"Active","BuildingNameEN":"MTR SHAM SHUI PO STATION","BuildingNameTC":"港鐵深水埗站","BaseHeight":4.7000000000000002,"TopHeight":8.1999999999999993,"Storeys":null,"StoreysInBasement":null,"DateStamp":1361808000000}},{"type":"Feature","id":50747,"geometry":{"type":"Polygon","coordinates":[[[114.16077184496299,22.330361836695925],[114.1606838835535,22.330263356593957],[114.16065948818174,22.330236043965719],[114.16067611162724,22.330223301665942],[114.16070003395704,22.330250914782415],[114.16071744731393,22.330237496617958],[114.16080556212613,22.330335722325717],[114.16079620741239,22.330342968171678],[114.16077184496299,22.330361836695925]]]},"properties":{"OBJECTID":50747,"Shape__Length":45.274051109792843,"Shape__Area":72.449388388854615,"GeoRefNo":"3460421249","DateCreate":1114790400000,"BuildingBlockType":"Tower","BuildingCSUID":"3460421249T20050430","BuildingID":1108227002,"Status":"Active","BuildingNameEN":null,"BuildingNameTC":null,"BaseHeight":4.4000000000000004,"TopHeight":34.299999999999997,"Storeys":9,"StoreysInBasement":null,"DateStamp":1599580800000}},{"type":"Feature","id":50749,"geometry":{"type":"Polygon","coordinates":[[[114.16166574339472,22.330353397567961],[114.16157998833837,22.330257081795445],[114.16159313592091,22.330247021157412],[114.16156511459177,22.330215552721398],[114.1615875535466,22.330198258107693],[114.16170140508193,22.330325945402759],[114.16166574339472,22.330353397567961]]]},"properties":{"OBJECTID":50749,"Shape__Length":46.26969875272394,"Shape__Area":79.545808782366734,"GeoRefNo":"3469721248","DateCreate":1114790400000,"BuildingBlockType":"Tower","BuildingCSUID":"3469721248T20050430","BuildingID":1108227010,"Status":"Active","BuildingNameEN":null,"BuildingNameTC":null,"BaseHeight":4.5,"TopHeight":24.699999999999999,"Storeys":6,"StoreysInBasement":null,"DateStamp":1599580800000}},{"type":"Feature","id":50753,"geometry":{"type":"Polygon","coordinates":[[[114.16146443772426,22.330333111182235],[114.16139220716721,22.330389585099923],[114.16136971189225,22.330364299222509],[114.16145628247334,22.330297244007326],[114.16147854338479,22.330322082204788],[114.16146443772426,22.330333111182235]]]},"properties":{"OBJECTID":50753,"Shape__Length":30.439226685289505,"Shape__Area":41.893661408363272,"GeoRefNo":"3467721256","DateCreate":1114790400000,"BuildingBlockType":"Tower","BuildingCSUID":"3467721256T20050430","BuildingID":1108226973,"Status":"Active","BuildingNameEN":null,"BuildingNameTC":null,"BaseHeight":4.5,"TopHeight":7.0999999999999996,"Storeys":null,"StoreysInBasement":null,"DateStamp":1361808000000}},{"type":"Feature","id":50856,"geometry":{"type":"Polygon","coordinates":[[[114.16173727915582,22.330298329795866],[114.16164389499066,22.330193074875638],[114.16165832671955,22.330181601969482],[114.16163853980164,22.33015896080763],[114.16165857224397,22.33014352102056],[114.16177179804544,22.330271757358187],[114.16173727915582,22.330298329795866]]]},"properties":{"OBJECTID":50856,"Shape__Length":45.972574404961719,"Shape__Area":78.829503384552567,"GeoRefNo":"3470421241","DateCreate":1114790400000,"BuildingBlockType":"Tower","BuildingCSUID":"3470421241T20050430","BuildingID":1108227058,"Status":"Active","BuildingNameEN":null,"BuildingNameTC":null,"BaseHeight":4.5,"TopHeight":25.699999999999999,"Storeys":6,"StoreysInBasement":null,"DateStamp":1599580800000}},{"type":"Feature","id":50857,"geometry":{"type":"Polygon","coordinates":[[[114.16361087785009,22.330218615776175],[114.16363755474752,22.330197715132044],[114.16362314498778,22.330181680159658],[114.16363374684663,22.330173518821752],[114.16376753574251,22.33032366209569],[114.16373055660367,22.330351876248496],[114.16361087785009,22.330218615776175]]]},"properties":{"OBJECTID":50857,"Shape__Length":53.077802370838711,"Shape__Area":98.874329241289743,"GeoRefNo":"3491321251","DateCreate":1114790400000,"BuildingBlockType":"Tower","BuildingCSUID":"3491321251T20050430","BuildingID":1108227012,"Status":"Active","BuildingNameEN":null,"BuildingNameTC":null,"BaseHeight":5.0999999999999996,"TopHeight":27.199999999999999,"Storeys":6,"StoreysInBasement":null,"DateStamp":1599580800000}},{"type":"Feature","id":50858,"geometry":{"type":"Polygon","coordinates":[[[114.16217171112099,22.33034262232113],[114.16213955689319,22.330306664508534],[114.16208469269306,22.330245310176341],[114.16210613240013,22.330228740284777],[114.16211851606948,22.330219168721307],[114.16213956358635,22.330242750744784],[114.16221982907419,22.33033268137623],[114.1622290371585,22.330342998201164],[114.16221399623919,22.330354723417425],[114.16220464255693,22.330344381834724],[114.16218607617434,22.330358686677219],[114.16217171112099,22.33034262232113]]]},"properties":{"OBJECTID":50858,"Shape__Length":44.686395876832293,"Shape__Area":76.894612762666682,"GeoRefNo":"3475121250","DateCreate":1114790400000,"BuildingBlockType":"Tower","BuildingCSUID":"3475121250T20050430","BuildingID":1108227005,"Status":"Active","BuildingNameEN":null,"BuildingNameTC":null,"BaseHeight":4.5,"TopHeight":31,"Storeys":9,"StoreysInBasement":null,"DateStamp":1599580800000}},{"type":"Feature","id":50910,"geometry":{"type":"Polygon","coordinates":[[[114.16230594066097,22.330295851655872],[114.16218867081305,22.330164949227424],[114.16222549609559,22.330136488244989],[114.16233074737661,22.330254316630867],[114.16230426791979,22.330275051817715],[114.16231612023476,22.330287987743539],[114.16230594066097,22.330295851655872]]]},"properties":{"OBJECTID":50910,"Shape__Length":47.578258996659009,"Shape__Area":86.085929441200477,"GeoRefNo":"3476321241","DateCreate":1114790400000,"BuildingBlockType":"Tower","BuildingCSUID":"3476321241T20050430","BuildingID":1108227064,"Status":"Active","BuildingNameEN":null,"BuildingNameTC":null,"BaseHeight":4.5999999999999996,"TopHeight":35,"Storeys":9,"StoreysInBasement":null,"DateStamp":1599580800000}},{"type":"Feature","id":50919,"geometry":{"type":"Polygon","coordinates":[[[114.16225017119189,22.330301277730875],[114.16215321281693,22.330192353476182],[114.16218867081305,22.330164949227424],[114.16230594066097,22.330295851655872],[114.16228982126084,22.330308304015393],[114.16226964213693,22.330285968490568],[114.16225017119189,22.330301277730875]]]},"properties":{"OBJECTID":50919,"Shape__Length":47.295556726934016,"Shape__Area":81.676889747946291,"GeoRefNo":"3475821244","DateCreate":1114790400000,"BuildingBlockType":"Tower","BuildingCSUID":"3475821244T20050430","BuildingID":1108227050,"Status":"Active","BuildingNameEN":null,"BuildingNameTC":null,"BaseHeight":4.5,"TopHeight":24.199999999999999,"Storeys":6,"StoreysInBasement":null,"DateStamp":1599580800000}},{"type":"Feature","id":50920,"geometry":{"type":"Polygon","coordinates":[[[114.16237898201587,22.330325839807873],[114.16249614133206,22.330236281557106],[114.16252478136467,22.330267964001912],[114.16251886619894,22.330272597974442],[114.16244103272871,22.330333488181228],[114.16240869615361,22.330358787733743],[114.16239221290672,22.330340510625792],[114.16235567011167,22.330368569087248],[114.16234609717667,22.330357902121303],[114.16238288571166,22.330330168423561],[114.16237898201587,22.330325839807873]]]},"properties":{"OBJECTID":50920,"Shape__Length":50.397547108828604,"Shape__Area":80.417899691353469,"GeoRefNo":"3478221250","DateCreate":1114790400000,"BuildingBlockType":"Tower","BuildingCSUID":"3478221250T20050430","BuildingID":1108226996,"Status":"Active","BuildingNameEN":null,"BuildingNameTC":null,"BaseHeight":4.7999999999999998,"TopHeight":31.100000000000001,"Storeys":8,"StoreysInBasement":null,"DateStamp":1599580800000}},{"type":"Feature","id":50921,"geometry":{"type":"Polygon","coordinates":[[[114.16135978815814,22.330220508471232],[114.16133869888479,22.330236100104873],[114.16135227009073,22.330251489874627],[114.16135898557371,22.330246332427926],[114.16140884160386,22.330300261674871],[114.16135435994916,22.33034210130921],[114.16134520170293,22.330331982389723],[114.1612800766825,22.330260025714249],[114.16124060109709,22.330216409177112],[114.16128008486763,22.330186184812124],[114.16130880985746,22.330164196201473],[114.16135978815814,22.330220508471232]]]},"properties":{"OBJECTID":50921,"Shape__Length":56.479290243109617,"Shape__Area":144.75988858085023,"GeoRefNo":"3466321242","DateCreate":1114790400000,"BuildingBlockType":"Tower","BuildingCSUID":"3466321242T20050430","BuildingID":1108227021,"Status":"Active","BuildingNameEN":null,"BuildingNameTC":null,"BaseHeight":4.4000000000000004,"TopHeight":24.600000000000001,"Storeys":6,"StoreysInBasement":null,"DateStamp":1599580800000}},{"type":"Feature","id":50923,"geometry":{"type":"Polygon","coordinates":[[[114.16221982907419,22.33033268137623],[114.16213956358635,22.330242750744784],[114.16211851606948,22.330219168721307],[114.16212675288598,22.330212803359856],[114.16213956775965,22.330202899237538],[114.16215321281693,22.330192353476182],[114.16225017119189,22.330301277730875],[114.16225440913765,22.330306038673719],[114.16223557279943,22.330320552555644],[114.16224465217749,22.330330825479486],[114.16223545023271,22.330337998906714],[114.16222640047215,22.330327612922154],[114.16221982907419,22.33033268137623]]]},"properties":{"OBJECTID":50923,"Shape__Length":44.9197097569633,"Shape__Area":77.582738386334938,"GeoRefNo":"3475521247","DateCreate":1114790400000,"BuildingBlockType":"Tower","BuildingCSUID":"3475521247T20050430","BuildingID":1108227027,"Status":"Active","BuildingNameEN":null,"BuildingNameTC":null,"BaseHeight":4.5,"TopHeight":31,"Storeys":9,"StoreysInBasement":null,"DateStamp":1599580800000}},{"type":"Feature","id":50924,"geometry":{"type":"Polygon","coordinates":[[[114.16480227034971,22.330091206682859],[114.16489759797389,22.330197518493776],[114.16475026092985,22.330312185407582],[114.16465587751394,22.330205848387148],[114.16467455780268,22.330191231082669],[114.16463761168754,22.330150228651],[114.16467343583054,22.330122592702914],[114.1647098353634,22.330163600504033],[114.16472287090444,22.330153390237694],[114.16473318595317,22.330145318750976],[114.16475604330776,22.33012739890351],[114.16471939434091,22.330087138735873],[114.16474576669512,22.33006679417004],[114.16478251460887,22.330106667017485],[114.16480227034971,22.330091206682859]]]},"properties":{"OBJECTID":50924,"Shape__Length":93.58531277804785,"Shape__Area":351.07366995379391,"GeoRefNo":"3502221239","DateCreate":1114790400000,"BuildingBlockType":"Tower","BuildingCSUID":"3502221239T20050430","BuildingID":1108227045,"Status":"Active","BuildingNameEN":"Fuk Sing House","BuildingNameTC":"福星樓","BaseHeight":5.2999999999999998,"TopHeight":37.100000000000001,"Storeys":10,"StoreysInBasement":null,"DateStamp":1599580800000}},{"type":"Feature","id":50941,"geometry":{"type":"Polygon","coordinates":[[[114.1605646269366,22.328822978981609],[114.16059687910666,22.328858360971395],[114.16056359048457,22.328883911566781],[114.16047503232268,22.328785379167797],[114.16050743564486,22.328760251854888],[114.1605646269366,22.328822978981609]]]},"properties":{"OBJECTID":50941,"Shape__Length":37.260206397697225,"Shape__Area":62.572206297875596,"GeoRefNo":"3458421087","DateCreate":1114790400000,"BuildingBlockType":"Tower","BuildingCSUID":"3458421087T20050430","BuildingID":1108228267,"Status":"Active","BuildingNameEN":null,"BuildingNameTC":null,"BaseHeight":4.2999999999999998,"TopHeight":26.699999999999999,"Storeys":6,"StoreysInBasement":null,"DateStamp":1599580800000}},{"type":"Feature","id":50980,"geometry":{"type":"Polygon","coordinates":[[[114.16170140508193,22.330325945402759],[114.1615875535466,22.330198258107693],[114.16160812185558,22.330182405228221],[114.16162862103472,22.330205193749347],[114.16164389499066,22.330193074875638],[114.16173727915582,22.330298329795866],[114.16170637067765,22.330322122949916],[114.16170140508193,22.330325945402759]]]},"properties":{"OBJECTID":50980,"Shape__Length":46.391339287030746,"Shape__Area":81.733376586212287,"GeoRefNo":"3470121245","DateCreate":1114790400000,"BuildingBlockType":"Tower","BuildingCSUID":"3470121245T20050430","BuildingID":1108227037,"Status":"Active","BuildingNameEN":null,"BuildingNameTC":null,"BaseHeight":4.5,"TopHeight":25.699999999999999,"Storeys":6,"StoreysInBasement":null,"DateStamp":1599580800000}},{"type":"Feature","id":50990,"geometry":{"type":"Polygon","coordinates":[[[114.16042725841069,22.328929646944307],[114.1604107628274,22.328942455969617],[114.16046387867408,22.329000611797465],[114.16045452760984,22.329007972494331],[114.1604626261596,22.329016999741722],[114.1604565088725,22.329021753364849],[114.16033830962391,22.328891395835051],[114.16037025674187,22.328866625572786],[114.16042725841069,22.328929646944307]]]},"properties":{"OBJECTID":50990,"Shape__Length":46.339943692076162,"Shape__Area":57.651134721374234,"GeoRefNo":"3457021098","DateCreate":1114790400000,"BuildingBlockType":"Tower","BuildingCSUID":"3457021098T20050430","BuildingID":1108228174,"Status":"Active","BuildingNameEN":null,"BuildingNameTC":null,"BaseHeight":4.2000000000000002,"TopHeight":18.100000000000001,"Storeys":4,"StoreysInBasement":null,"DateStamp":1599580800000}},{"type":"Feature","id":50991,"geometry":{"type":"Polygon","coordinates":[[[114.1621974477,22.328935812729689],[114.16211247021036,22.3288408607301],[114.16214672921136,22.328814296221204],[114.16223212063672,22.328908882682391],[114.16226369916376,22.328943861605971],[114.16225711404725,22.32894894288464],[114.16222529059917,22.328914188438056],[114.1621974477,22.328935812729689]]]},"properties":{"OBJECTID":50991,"Shape__Length":46.686889622605896,"Shape__Area":67.802091105156478,"GeoRefNo":"3475421093","DateCreate":1114790400000,"BuildingBlockType":"Tower","BuildingCSUID":"3475421093T20050430","BuildingID":1108228222,"Status":"Active","BuildingNameEN":null,"BuildingNameTC":null,"BaseHeight":4.2999999999999998,"TopHeight":35.100000000000001,"Storeys":9,"StoreysInBasement":null,"DateStamp":1599580800000}},{"type":"Feature","id":50992,"geometry":{"type":"Polygon","coordinates":[[[114.16050690257246,22.328951168273033],[114.16050490195394,22.328952709140612],[114.16047143757662,22.328978483386617],[114.16042725841069,22.328929646944307],[114.16037025674187,22.328866625572786],[114.16040394090903,22.328840509291073],[114.16050690257246,22.328951168273033]]]},"properties":{"OBJECTID":50992,"Shape__Length":41.656723019328552,"Shape__Area":74.995602578027359,"GeoRefNo":"3457321095","DateCreate":1114790400000,"BuildingBlockType":"Tower","BuildingCSUID":"3457321095T20050430","BuildingID":1108228201,"Status":"Active","BuildingNameEN":"Lai Chi Court","BuildingNameTC":null,"BaseHeight":4.2000000000000002,"TopHeight":44.5,"Storeys":9,"StoreysInBasement":null,"DateStamp":1599580800000}},{"type":"Feature","id":50994,"geometry":{"type":"Polygon","coordinates":[[[114.16148693519463,22.328855404273124],[114.16160902411114,22.328759784431238],[114.16161512146006,22.328766566430314],[114.16163748422012,22.328748846097614],[114.16164958953489,22.328762294764466],[114.16162790586263,22.328780786464655],[114.16163787442575,22.328791874427612],[114.1615158040922,22.328887021631864],[114.16148693519463,22.328855404273124]]]},"properties":{"OBJECTID":50994,"Shape__Length":48.020379252900696,"Shape__Area":81.812810060342741,"GeoRefNo":"3469021087","DateCreate":1114790400000,"BuildingBlockType":"Tower","BuildingCSUID":"3469021087T20050430","BuildingID":1108228265,"Status":"Active","BuildingNameEN":null,"BuildingNameTC":null,"BaseHeight":4.2999999999999998,"TopHeight":33.100000000000001,"Storeys":9,"StoreysInBasement":null,"DateStamp":1599580800000}},{"type":"Feature","id":51053,"geometry":{"type":"Polygon","coordinates":[[[114.16243940919476,22.32887613862308],[114.16242390861197,22.328858907163323],[114.16246459119336,22.328827727717066],[114.16258275107705,22.328958426947363],[114.16254195971533,22.328990140391618],[114.16243940919476,22.32887613862308]]]},"properties":{"OBJECTID":51053,"Shape__Length":48.76821973862512,"Shape__Area":103.23438676607408,"GeoRefNo":"3478621097","DateCreate":1114790400000,"BuildingBlockType":"Tower","BuildingCSUID":"3478621097T20050430","BuildingID":1108228194,"Status":"Active","BuildingNameEN":"Koon Ming Building","BuildingNameTC":"冠明樓","BaseHeight":4.4000000000000004,"TopHeight":24.199999999999999,"Storeys":6,"StoreysInBasement":null,"DateStamp":1599580800000}},{"type":"Feature","id":51056,"geometry":{"type":"Polygon","coordinates":[[[114.15731501673183,22.328830800293378],[114.15744963260678,22.328977700240046],[114.1573995577004,22.329016591405601],[114.15726548422248,22.328869169335196],[114.15731501673183,22.328830800293378]]]},"properties":{"OBJECTID":51056,"Shape__Length":56.12090438934662,"Shape__Area":142.81783956547392,"GeoRefNo":"3425821099","DateCreate":1114790400000,"BuildingBlockType":"Tower","BuildingCSUID":"3425821099T20050430","BuildingID":1108228176,"Status":"Active","BuildingNameEN":null,"BuildingNameTC":null,"BaseHeight":3.8999999999999999,"TopHeight":24.600000000000001,"Storeys":6,"StoreysInBasement":null,"DateStamp":1599580800000}},{"type":"Feature","id":51060,"geometry":{"type":"Polygon","coordinates":[[[114.15748221591804,22.328952394026377],[114.15744963260678,22.328977700240046],[114.15731501673183,22.328830800293378],[114.15736531631349,22.328791837025655],[114.15748839686219,22.328928768861395],[114.1574722731025,22.328941313126077],[114.15748221591804,22.328952394026377]]]},"properties":{"OBJECTID":51060,"Shape__Length":56.022134810619015,"Shape__Area":138.46450545434135,"GeoRefNo":"3426221093","DateCreate":1114790400000,"BuildingBlockType":"Tower","BuildingCSUID":"3426221093T20050430","BuildingID":1108228198,"Status":"Active","BuildingNameEN":null,"BuildingNameTC":null,"BaseHeight":3.8999999999999999,"TopHeight":26,"Storeys":6,"StoreysInBasement":null,"DateStamp":1599580800000}},{"type":"Feature","id":51061,"geometry":{"type":"Polygon","coordinates":[[[114.15748839686219,22.328928768861395],[114.15736531631349,22.328791837025655],[114.15741535531372,22.328753075544423],[114.15748054389324,22.328826134078355],[114.15751051738795,22.328859726096514],[114.15752796380816,22.328879278756272],[114.15750266554193,22.32889892692339],[114.15752253991542,22.328921076075574],[114.15749836122616,22.328939854639795],[114.15748839686219,22.328928768861395]]]},"properties":{"OBJECTID":51061,"Shape__Length":56.072392333130864,"Shape__Area":131.64399136300469,"GeoRefNo":"3426721090","DateCreate":1114790400000,"BuildingBlockType":"Tower","BuildingCSUID":"3426721090T20050430","BuildingID":1108228227,"Status":"Active","BuildingNameEN":null,"BuildingNameTC":null,"BaseHeight":3.8999999999999999,"TopHeight":26,"Storeys":6,"StoreysInBasement":null,"DateStamp":1599580800000}},{"type":"Feature","id":51119,"geometry":{"type":"Polygon","coordinates":[[[114.16361987576499,22.328838552972883],[114.16350657889036,22.328714109026947],[114.16351354642617,22.3287086586488],[114.16352264157383,22.328718346412845],[114.16355279619819,22.328695150038218],[114.16356745818962,22.328710969389999],[114.16365825930343,22.32880893831048],[114.16362759891382,22.328832594139314],[114.16361987576499,22.328838552972883]]]},"properties":{"OBJECTID":51119,"Shape__Length":46.227487202737947,"Shape__Area":85.601340700979179,"GeoRefNo":"3489821081","DateCreate":1114790400000,"BuildingBlockType":"Tower","BuildingCSUID":"3489821081T20050430","BuildingID":1108228303,"Status":"Active","BuildingNameEN":null,"BuildingNameTC":null,"BaseHeight":4.7000000000000002,"TopHeight":31,"Storeys":8,"StoreysInBasement":null,"DateStamp":1599580800000}},{"type":"Feature","id":51120,"geometry":{"type":"Polygon","coordinates":[[[114.16358471853879,22.328865678338424],[114.16348005127121,22.328751130883465],[114.1635109548299,22.328727355176149],[114.16350190073678,22.32871771663153],[114.16350657889036,22.328714109026947],[114.16361987576499,22.328838552972883],[114.16361242577972,22.328844300964207],[114.16358471853879,22.328865678338424]]]},"properties":{"OBJECTID":51120,"Shape__Length":45.587829070987958,"Shape__Area":79.437010166534691,"GeoRefNo":"3489421084","DateCreate":1114790400000,"BuildingBlockType":"Tower","BuildingCSUID":"3489421084T20050430","BuildingID":1108228277,"Status":"Active","BuildingNameEN":null,"BuildingNameTC":null,"BaseHeight":4.5999999999999996,"TopHeight":31.699999999999999,"Storeys":8,"StoreysInBasement":null,"DateStamp":1599580800000}},{"type":"Feature","id":51174,"geometry":{"type":"Polygon","coordinates":[[[114.16186395105362,22.329277968874361],[114.16198390036706,22.329184006933872],[114.16199163195469,22.32919270680279],[114.16201549205171,22.329174356492143],[114.16202771864161,22.329188125365668],[114.16200379701506,22.329206368569707],[114.16201220604906,22.329215826617084],[114.16189150095798,22.329308963925943],[114.16186395105362,22.329277968874361]]]},"properties":{"OBJECTID":51174,"Shape__Length":47.726725251695854,"Shape__Area":79.201909099660512,"GeoRefNo":"3472821134","DateCreate":1114790400000,"BuildingBlockType":"Tower","BuildingCSUID":"3472821134T20050430","BuildingID":1108227971,"Status":"Active","BuildingNameEN":null,"BuildingNameTC":null,"BaseHeight":4.4000000000000004,"TopHeight":33.700000000000003,"Storeys":9,"StoreysInBasement":null,"DateStamp":1599580800000}},{"type":"Feature","id":51176,"geometry":{"type":"Polygon","coordinates":[[[114.16285344784599,22.329133548202446],[114.16292855790584,22.329074118793375],[114.16296984900721,22.329119941974902],[114.16284169112924,22.329219536222389],[114.16282331644356,22.329199133464098],[114.16287597147054,22.329158503270605],[114.16285344784599,22.329133548202446]]]},"properties":{"OBJECTID":51176,"Shape__Length":47.58626082234364,"Shape__Area":87.475145964779045,"GeoRefNo":"3482921121","DateCreate":1114790400000,"BuildingBlockType":"Tower","BuildingCSUID":"3482921121T20050430","BuildingID":1108228052,"Status":"Active","BuildingNameEN":null,"BuildingNameTC":null,"BaseHeight":4.5,"TopHeight":20.899999999999999,"Storeys":null,"StoreysInBasement":null,"DateStamp":1361808000000}},{"type":"Feature","id":51177,"geometry":{"type":"Polygon","coordinates":[[[114.16376959718929,22.329160830331894],[114.16373629633038,22.32918666739517],[114.16361941640768,22.329055445429599],[114.16365185903605,22.329030218606999],[114.16376959718929,22.329160830331894]]]},"properties":{"OBJECTID":51177,"Shape__Length":46.571031488307725,"Shape__Area":83.263446859488312,"GeoRefNo":"3491021119","DateCreate":1114790400000,"BuildingBlockType":"Tower","BuildingCSUID":"3491021119T20050430","BuildingID":1108228068,"Status":"Active","BuildingNameEN":null,"BuildingNameTC":null,"BaseHeight":4.5999999999999996,"TopHeight":25,"Storeys":6,"StoreysInBasement":null,"DateStamp":1599580800000}},{"type":"Feature","id":51179,"geometry":{"type":"Polygon","coordinates":[[[114.16180550861286,22.329212262994066],[114.1617359555045,22.329134054027982],[114.16188014642245,22.32902187900897],[114.16191478408591,22.329060903261094],[114.16190210357887,22.329070475415215],[114.16192361795065,22.329094245439368],[114.1618570912342,22.329145481636957],[114.16187126576425,22.329161710001017],[114.16180550861286,22.329212262994066]]]},"properties":{"OBJECTID":51179,"Shape__Length":61.333195626546278,"Shape__Area":188.48174206385943,"GeoRefNo":"3471721122","DateCreate":1114790400000,"BuildingBlockType":"Tower","BuildingCSUID":"3471721122T20050430","BuildingID":1108228057,"Status":"Active","BuildingNameEN":null,"BuildingNameTC":null,"BaseHeight":4.2000000000000002,"TopHeight":33.700000000000003,"Storeys":9,"StoreysInBasement":null,"DateStamp":1599580800000}},{"type":"Feature","id":51180,"geometry":{"type":"Polygon","coordinates":[[[114.16280471080212,22.329264571254583],[114.1626677281026,22.329113757722059],[114.16267578476128,22.329107490026971],[114.16269965021179,22.329088923965497],[114.16280319827085,22.329202848712345],[114.16279063193615,22.329212676511229],[114.16281431313116,22.329239063938481],[114.16280425558008,22.329246896106074],[114.16281376325077,22.32925751039248],[114.16280471080212,22.329264571254583]]]},"properties":{"OBJECTID":51180,"Shape__Length":52.268721326854717,"Shape__Area":82.616879144141421,"GeoRefNo":"3481221125","DateCreate":1114790400000,"BuildingBlockType":"Tower","BuildingCSUID":"3481221125T20050430","BuildingID":1108228009,"Status":"Active","BuildingNameEN":null,"BuildingNameTC":"金海大廈","BaseHeight":4.5,"TopHeight":28.600000000000001,"Storeys":8,"StoreysInBasement":null,"DateStamp":1599580800000}},{"type":"Feature","id":51182,"geometry":{"type":"Polygon","coordinates":[[[114.16284169112924,22.329219536222389],[114.16296984900721,22.329119941974902],[114.16300829678796,22.329162609707662],[114.16294052877511,22.329215660397708],[114.16293293593654,22.329221616771139],[114.16290974493606,22.329195922410225],[114.16285724654462,22.329236808464429],[114.16284169112924,22.329219536222389]]]},"properties":{"OBJECTID":51182,"Shape__Length":46.780210235858362,"Shape__Area":80.335880365743421,"GeoRefNo":"3483321126","DateCreate":1114790400000,"BuildingBlockType":"Tower","BuildingCSUID":"3483321126T20050430","BuildingID":1108228036,"Status":"Active","BuildingNameEN":null,"BuildingNameTC":null,"BaseHeight":4.5,"TopHeight":20.899999999999999,"Storeys":null,"StoreysInBasement":null,"DateStamp":1361808000000}},{"type":"Feature","id":51224,"geometry":{"type":"Polygon","coordinates":[[[114.16258039743677,22.328884613097756],[114.16268429323188,22.328802146690197],[114.16268879542336,22.328798588220298],[114.16273025515723,22.328844473880363],[114.16265021550635,22.328907012088298],[114.16261299085977,22.328936006392677],[114.16258498607721,22.328904414591001],[114.16259265735633,22.328898325761855],[114.16258039743677,22.328884613097756]]]},"properties":{"OBJECTID":51224,"Shape__Length":44.634460652956037,"Shape__Area":101.47000398209093,"GeoRefNo":"3479921094","DateCreate":1114790400000,"BuildingBlockType":"Tower","BuildingCSUID":"3479921094T20050430","BuildingID":1108228229,"Status":"Active","BuildingNameEN":null,"BuildingNameTC":null,"BaseHeight":4.2999999999999998,"TopHeight":28,"Storeys":6,"StoreysInBasement":null,"DateStamp":1599580800000}},{"type":"Feature","id":51225,"geometry":{"type":"Polygon","coordinates":[[[114.1623369454027,22.328887307278848],[114.16230509548618,22.32885220074284],[114.16221950474383,22.328757858398131],[114.16225559713966,22.328729877674419],[114.16234097297293,22.328824333224706],[114.16231486268605,22.328844616740266],[114.16234671483303,22.328879750366337],[114.1623369454027,22.328887307278848]]]},"properties":{"OBJECTID":51225,"Shape__Length":47.167223784955056,"Shape__Area":72.649813726343638,"GeoRefNo":"3476521084","DateCreate":1114790400000,"BuildingBlockType":"Tower","BuildingCSUID":"3476521084T20050430","BuildingID":1108228264,"Status":"Active","BuildingNameEN":null,"BuildingNameTC":null,"BaseHeight":4.2999999999999998,"TopHeight":33.100000000000001,"Storeys":9,"StoreysInBasement":null,"DateStamp":1599580800000}},{"type":"Feature","id":51226,"geometry":{"type":"Polygon","coordinates":[[[114.16219272352677,22.328998665706653],[114.16216145405559,22.3289637695176],[114.16207638930862,22.328868838713397],[114.16211247021036,22.3288408607301],[114.1621974477,22.328935812729689],[114.16216977049694,22.328957317376229],[114.16220125828573,22.328992071351713],[114.16219272352677,22.328998665706653]]]},"properties":{"OBJECTID":51226,"Shape__Length":47.129039812118954,"Shape__Area":71.842851178932989,"GeoRefNo":"3475021097","DateCreate":1114790400000,"BuildingBlockType":"Tower","BuildingCSUID":"3475021097T20050430","BuildingID":1108228190,"Status":"Active","BuildingNameEN":null,"BuildingNameTC":null,"BaseHeight":4.2999999999999998,"TopHeight":35.100000000000001,"Storeys":9,"StoreysInBasement":null,"DateStamp":1599580800000}},{"type":"Feature","id":51227,"geometry":{"type":"Polygon","coordinates":[[[114.1615158040922,22.328887021631864],[114.16163787442575,22.328791874427612],[114.16164677325567,22.328801772600652],[114.16166917455253,22.32878405326062],[114.1616824135675,22.328798761436222],[114.1616592494195,22.328815649712318],[114.16166484936878,22.328821878449364],[114.16154367586292,22.328917547003446],[114.1615158040922,22.328887021631864]]]},"properties":{"OBJECTID":51227,"Shape__Length":47.727893218856856,"Shape__Area":78.093091860885664,"GeoRefNo":"3469221091","DateCreate":1114790400000,"BuildingBlockType":"Tower","BuildingCSUID":"3469221091T20050430","BuildingID":1108228245,"Status":"Active","BuildingNameEN":null,"BuildingNameTC":null,"BaseHeight":4.2999999999999998,"TopHeight":33.399999999999999,"Storeys":9,"StoreysInBasement":null,"DateStamp":1599580800000}},{"type":"Feature","id":51228,"geometry":{"type":"Polygon","coordinates":[[[114.1635443235125,22.328896844904722],[114.16343126427671,22.328772392166861],[114.16343799301161,22.328767192732204],[114.16344676765898,22.328776737700412],[114.16348005127121,22.328751130883465],[114.16358471853879,22.328865678338424],[114.16355278694901,22.328890314951035],[114.1635443235125,22.328896844904722]]]},"properties":{"OBJECTID":51228,"Shape__Length":46.840427145685226,"Shape__Area":90.882917426009982,"GeoRefNo":"3489121087","DateCreate":1114790400000,"BuildingBlockType":"Tower","BuildingCSUID":"3489121087T20050430","BuildingID":1108228259,"Status":"Active","BuildingNameEN":null,"BuildingNameTC":null,"BaseHeight":4.5999999999999996,"TopHeight":28.399999999999999,"Storeys":8,"StoreysInBasement":null,"DateStamp":1599580800000}},{"type":"Feature","id":51273,"geometry":{"type":"Polygon","coordinates":[[[114.16082889115859,22.328979326674681],[114.16071456603166,22.328853744180098],[114.16072775471632,22.328843547613985],[114.16073827061038,22.328855122344681],[114.16074548921131,22.32884937157278],[114.16076625964159,22.328872207011855],[114.16078029958588,22.328861242294092],[114.16080988470924,22.328893403490508],[114.16086404642046,22.328952215182312],[114.16083552962124,22.328974213581375],[114.16082889115859,22.328979326674681]]]},"properties":{"OBJECTID":51273,"Shape__Length":45.816722790993637,"Shape__Area":73.863725708303491,"GeoRefNo":"3461121096","DateCreate":1114790400000,"BuildingBlockType":"Tower","BuildingCSUID":"3461121096T20050430","BuildingID":1108228199,"Status":"Active","BuildingNameEN":null,"BuildingNameTC":null,"BaseHeight":4.4000000000000004,"TopHeight":28.399999999999999,"Storeys":8,"StoreysInBasement":null,"DateStamp":1599580800000}},{"type":"Feature","id":51276,"geometry":{"type":"Polygon","coordinates":[[[114.16326293019496,22.32892786440668],[114.16338762875378,22.328831241861756],[114.16339255532661,22.328827424590987],[114.16340860954638,22.328845149525471],[114.16335608404744,22.328885143880456],[114.16337136811347,22.328902190828575],[114.16329361672487,22.328962097128763],[114.16326293019496,22.32892786440668]]]},"properties":{"OBJECTID":51276,"Shape__Length":44.733213919465385,"Shape__Area":69.205870675612914,"GeoRefNo":"3487221096","DateCreate":1114790400000,"BuildingBlockType":"Tower","BuildingCSUID":"3487221096T20050430","BuildingID":1108228206,"Status":"Active","BuildingNameEN":null,"BuildingNameTC":"富順樓","BaseHeight":4.4000000000000004,"TopHeight":16.5,"Storeys":null,"StoreysInBasement":null,"DateStamp":1361808000000}},{"type":"Feature","id":51277,"geometry":{"type":"Polygon","coordinates":[[[114.1625442561233,22.328858467911711],[114.16265538330892,22.328769683279514],[114.16268429323188,22.328802146690197],[114.16258039743677,22.328884613097756],[114.16257278537341,22.328890651179655],[114.1625442561233,22.328858467911711]]]},"properties":{"OBJECTID":51277,"Shape__Length":39.478859892236187,"Shape__Area":70.094018175106996,"GeoRefNo":"3479821089","DateCreate":1114790400000,"BuildingBlockType":"Tower","BuildingCSUID":"3479821089T20050430","BuildingID":1108228262,"Status":"Active","BuildingNameEN":null,"BuildingNameTC":null,"BaseHeight":4.4000000000000004,"TopHeight":24,"Storeys":6,"StoreysInBasement":null,"DateStamp":1599580800000}},{"type":"Feature","id":51281,"geometry":{"type":"Polygon","coordinates":[[[114.16323393138263,22.328895514425987],[114.16333162067941,22.328819111661538],[114.1633444827099,22.328833433251315],[114.16337116459077,22.328812890168596],[114.16338762875378,22.328831241861756],[114.16326293019496,22.32892786440668],[114.16323393138263,22.328895514425987]]]},"properties":{"OBJECTID":51281,"Shape__Length":42.812910985059702,"Shape__Area":71.197686943592558,"GeoRefNo":"3486921092","DateCreate":1114790400000,"BuildingBlockType":"Tower","BuildingCSUID":"3486921092T20050430","BuildingID":1108228233,"Status":"Active","BuildingNameEN":null,"BuildingNameTC":null,"BaseHeight":4.4000000000000004,"TopHeight":26.600000000000001,"Storeys":6,"StoreysInBasement":null,"DateStamp":1599580800000}},{"type":"Feature","id":51282,"geometry":{"type":"Polygon","coordinates":[[[114.164012592194,22.328972253037527],[114.16389592899411,22.328840445561337],[114.16393270059753,22.328811843665886],[114.16393636961348,22.328815950796411],[114.16399955343493,22.328886679188361],[114.16405004535169,22.328943200182476],[114.164012592194,22.328972253037527]]]},"properties":{"OBJECTID":51282,"Shape__Length":47.782641186671327,"Shape__Area":94.18858422156741,"GeoRefNo":"3493821094","DateCreate":1114790400000,"BuildingBlockType":"Tower","BuildingCSUID":"3493821094T20050430","BuildingID":1108228202,"Status":"Active","BuildingNameEN":null,"BuildingNameTC":null,"BaseHeight":4.9000000000000004,"TopHeight":26.800000000000001,"Storeys":6,"StoreysInBasement":null,"DateStamp":1599580800000}},{"type":"Feature","id":51285,"geometry":{"type":"Polygon","coordinates":[[[114.16079402836813,22.329006227143541],[114.16070823027081,22.328911653883296],[114.16072206753773,22.32890078929967],[114.16069402780168,22.328869670641399],[114.16071456603166,22.328853744180098],[114.16082889115859,22.328979326674681],[114.16081753475859,22.328988092263018],[114.16079402836813,22.329006227143541]]]},"properties":{"OBJECTID":51285,"Shape__Length":45.710672740915278,"Shape__Area":76.289869142722225,"GeoRefNo":"3460721099","DateCreate":1114790400000,"BuildingBlockType":"Tower","BuildingCSUID":"3460721099T20050430","BuildingID":1108228183,"Status":"Active","BuildingNameEN":null,"BuildingNameTC":null,"BaseHeight":4.4000000000000004,"TopHeight":28.399999999999999,"Storeys":8,"StoreysInBasement":null,"DateStamp":1599580800000}},{"type":"Feature","id":51286,"geometry":{"type":"Polygon","coordinates":[[[114.16409067753847,22.328919191781686],[114.16397261675483,22.328787336116953],[114.16398160641248,22.328780239332772],[114.16400691319673,22.328760255119654],[114.16407074615906,22.328831516520765],[114.16405551015369,22.328843326421151],[114.16411021059429,22.328903962513937],[114.16409067753847,22.328919191781686]]]},"properties":{"OBJECTID":51286,"Shape__Length":47.344351180066724,"Shape__Area":70.398783049947056,"GeoRefNo":"3494421086","DateCreate":1114790400000,"BuildingBlockType":"Tower","BuildingCSUID":"3494421086T20050430","BuildingID":1108228241,"Status":"Active","BuildingNameEN":null,"BuildingNameTC":null,"BaseHeight":5,"TopHeight":25.800000000000001,"Storeys":6,"StoreysInBasement":null,"DateStamp":1599580800000}},{"type":"Feature","id":51333,"geometry":{"type":"Polygon","coordinates":[[[114.1639320167165,22.329019317298215],[114.16382249485522,22.328897536633956],[114.16385706263496,22.32887065255726],[114.16397435757982,22.329001928299963],[114.16395888730864,22.329013935851926],[114.16395076040482,22.32900469023668],[114.1639320167165,22.329019317298215]]]},"properties":{"OBJECTID":51333,"Shape__Length":47.046808503588366,"Shape__Area":83.845885173350311,"GeoRefNo":"3493121101","DateCreate":1114790400000,"BuildingBlockType":"Tower","BuildingCSUID":"3493121101T20050430","BuildingID":1108228175,"Status":"Active","BuildingNameEN":null,"BuildingNameTC":null,"BaseHeight":4.7999999999999998,"TopHeight":26.800000000000001,"Storeys":6,"StoreysInBasement":null,"DateStamp":1599580800000}},{"type":"Feature","id":51335,"geometry":{"type":"Polygon","coordinates":[[[114.16154367586292,22.328917547003446],[114.16166484936878,22.328821878449364],[114.1616714682942,22.328829240619758],[114.1616935259256,22.328811107101732],[114.16170546295848,22.328824368725204],[114.16168363612056,22.328842774809413],[114.16169368000683,22.328853946489417],[114.16163117983183,22.32890241419485],[114.16157185802676,22.328948412220196],[114.16154367586292,22.328917547003446]]]},"properties":{"OBJECTID":51335,"Shape__Length":47.854105833186253,"Shape__Area":80.398770160831575,"GeoRefNo":"3469521095","DateCreate":1114790400000,"BuildingBlockType":"Tower","BuildingCSUID":"3469521095T20050430","BuildingID":1108228223,"Status":"Active","BuildingNameEN":null,"BuildingNameTC":null,"BaseHeight":4.2000000000000002,"TopHeight":33.399999999999999,"Storeys":9,"StoreysInBasement":null,"DateStamp":1599580800000}},{"type":"Feature","id":51336,"geometry":{"type":"Polygon","coordinates":[[[114.16397435757982,22.329001928299963],[114.16385706263496,22.32887065255726],[114.16389592899411,22.328840445561337],[114.164012592194,22.328972253037527],[114.16397435757982,22.329001928299963]]]},"properties":{"OBJECTID":51336,"Shape__Length":48.158020734695995,"Shape__Area":97.807666570384555,"GeoRefNo":"3493421098","DateCreate":1114790400000,"BuildingBlockType":"Tower","BuildingCSUID":"3493421098T20050430","BuildingID":1108228188,"Status":"Active","BuildingNameEN":null,"BuildingNameTC":null,"BaseHeight":4.9000000000000004,"TopHeight":24.5,"Storeys":6,"StoreysInBasement":null,"DateStamp":1599580800000}},{"type":"Feature","id":51337,"geometry":{"type":"Polygon","coordinates":[[[114.16093125526614,22.328900404209968],[114.16087715114801,22.328841231593472],[114.16082097778234,22.328779826845384],[114.16083574484627,22.328768769721329],[114.16083101103713,22.328763568811873],[114.16086997352446,22.328733417727786],[114.16087360800252,22.328737416286295],[114.16088933942083,22.328725408873598],[114.16099992892269,22.328847430484203],[114.16093125526614,22.328900404209968]]]},"properties":{"OBJECTID":51337,"Shape__Length":55.001051333828372,"Shape__Area":165.88558133630065,"GeoRefNo":"3462421088","DateCreate":1114790400000,"BuildingBlockType":"Tower","BuildingCSUID":"3462421088T20050430","BuildingID":1108228256,"Status":"Active","BuildingNameEN":"Nam Fu Building ","BuildingNameTC":"南富樓","BaseHeight":4.2999999999999998,"TopHeight":23.800000000000001,"Storeys":6,"StoreysInBasement":null,"DateStamp":1599580800000}},{"type":"Feature","id":51345,"geometry":{"type":"Polygon","coordinates":[[[114.16233074737661,22.330254316630867],[114.16222549609559,22.330136488244989],[114.16226084456302,22.330109168586912],[114.16236577864967,22.330226881059563],[114.16237778156007,22.330240345644686],[114.16236884212447,22.330247259383441],[114.16235665418058,22.330234024880387],[114.16233958703164,22.330247381934335],[114.162351306218,22.330260806129328],[114.16234257151167,22.33026755381248],[114.16233074737661,22.330254316630867]]]},"properties":{"OBJECTID":51345,"Shape__Length":50.986641685652913,"Shape__Area":84.700230585850235,"GeoRefNo":"3476621238","DateCreate":1114790400000,"BuildingBlockType":"Tower","BuildingCSUID":"3476621238T20050430","BuildingID":1108227087,"Status":"Active","BuildingNameEN":null,"BuildingNameTC":null,"BaseHeight":4.5999999999999996,"TopHeight":35.100000000000001,"Storeys":9,"StoreysInBasement":null,"DateStamp":1599580800000}},{"type":"Feature","id":51387,"geometry":{"type":"Polygon","coordinates":[[[114.16343126427671,22.328772392166861],[114.1635443235125,22.328896844904722],[114.16353646445391,22.328902908477886],[114.16350746271623,22.32892528469571],[114.1634028611056,22.328810512155012],[114.16343500567652,22.328785772369727],[114.16342624344863,22.328776282307871],[114.16343126427671,22.328772392166861]]]},"properties":{"OBJECTID":51387,"Shape__Length":45.996973654997049,"Shape__Area":83.332090634008097,"GeoRefNo":"3488721090","DateCreate":1114790400000,"BuildingBlockType":"Tower","BuildingCSUID":"3488721090T20050430","BuildingID":1108228237,"Status":"Active","BuildingNameEN":null,"BuildingNameTC":null,"BaseHeight":4.5,"TopHeight":28.399999999999999,"Storeys":8,"StoreysInBasement":null,"DateStamp":1599580800000}},{"type":"Feature","id":51392,"geometry":{"type":"Polygon","coordinates":[[[114.16226811736021,22.32888091495186],[114.16218363074857,22.328785685613514],[114.16221950474383,22.328757858398131],[114.16230509548618,22.32885220074284],[114.1623369454027,22.328887307278848],[114.16232771094829,22.328894430590008],[114.16229586889119,22.328859359091577],[114.16226811736021,22.32888091495186]]]},"properties":{"OBJECTID":51392,"Shape__Length":47.28733484154516,"Shape__Area":73.10311648225732,"GeoRefNo":"3476121088","DateCreate":1114790400000,"BuildingBlockType":"Tower","BuildingCSUID":"3476121088T20050430","BuildingID":1108228261,"Status":"Active","BuildingNameEN":null,"BuildingNameTC":null,"BaseHeight":4.2999999999999998,"TopHeight":33.100000000000001,"Storeys":9,"StoreysInBasement":null,"DateStamp":1599580800000}},{"type":"Feature","id":51393,"geometry":{"type":"Polygon","coordinates":[[[114.16181182032707,22.328735629740205],[114.16189742096586,22.328830956363923],[114.16180800247442,22.328900148470474],[114.16171148596162,22.328792424229295],[114.16175007829958,22.328762730298219],[114.16172969064804,22.328739924279574],[114.16174418236892,22.328728753081055],[114.16176439868431,22.328751699778476],[114.16180098719357,22.328723565772499],[114.16181182032707,22.328735629740205]]]},"properties":{"OBJECTID":51393,"Shape__Length":61.566072998641992,"Shape__Area":192.07594292049154,"GeoRefNo":"3471421085","DateCreate":1114790400000,"BuildingBlockType":"Tower","BuildingCSUID":"3471421085T20050430","BuildingID":1108228257,"Status":"Active","BuildingNameEN":null,"BuildingNameTC":null,"BaseHeight":4.2000000000000002,"TopHeight":33.799999999999997,"Storeys":9,"StoreysInBasement":null,"DateStamp":1599580800000}},{"type":"Feature","id":51394,"geometry":{"type":"Polygon","coordinates":[[[114.16508612489567,22.328979059273749],[114.16497220161007,22.328852165498265],[114.16501099035222,22.328822078877742],[114.165098855097,22.328920403935776],[114.16508123061465,22.328933897060409],[114.16510710751312,22.328962955017719],[114.16508612489567,22.328979059273749]]]},"properties":{"OBJECTID":51394,"Shape__Length":47.002870084283416,"Shape__Area":85.102046904396957,"GeoRefNo":"3504921096","DateCreate":1114790400000,"BuildingBlockType":"Tower","BuildingCSUID":"3504921096T20050430","BuildingID":1108228200,"Status":"Active","BuildingNameEN":null,"BuildingNameTC":null,"BaseHeight":5.0999999999999996,"TopHeight":24.800000000000001,"Storeys":6,"StoreysInBasement":null,"DateStamp":1599580800000}},{"type":"Feature","id":51395,"geometry":{"type":"Polygon","coordinates":[[[114.16089654939034,22.328927160949654],[114.16077925397629,22.328796869300273],[114.16079733278553,22.328782945658588],[114.1608612096241,22.328853592892674],[114.16087715114801,22.328841231593472],[114.16093125526614,22.328900404209968],[114.16090341228586,22.328921866451179],[114.16089654939034,22.328927160949654]]]},"properties":{"OBJECTID":51395,"Shape__Length":46.844723219124624,"Shape__Area":64.468363437393251,"GeoRefNo":"3462021093","DateCreate":1114790400000,"BuildingBlockType":"Tower","BuildingCSUID":"3462021093T20050430","BuildingID":1108228234,"Status":"Active","BuildingNameEN":null,"BuildingNameTC":null,"BaseHeight":4.4000000000000004,"TopHeight":25.100000000000001,"Storeys":6,"StoreysInBasement":null,"DateStamp":1599580800000}},{"type":"Feature","id":51396,"geometry":{"type":"Polygon","coordinates":[[[114.16320315743464,22.328861184335299],[114.16332705458068,22.328763723369384],[114.16334481442681,22.328783519165295],[114.16331797793484,22.328803920902221],[114.16333162067941,22.328819111661538],[114.16323393138263,22.328895514425987],[114.16320315743464,22.328861184335299]]]},"properties":{"OBJECTID":51396,"Shape__Length":43.43096863956292,"Shape__Area":75.406074141039838,"GeoRefNo":"3486721088","DateCreate":1114790400000,"BuildingBlockType":"Tower","BuildingCSUID":"3486721088T20050430","BuildingID":1108228260,"Status":"Active","BuildingNameEN":null,"BuildingNameTC":null,"BaseHeight":4.4000000000000004,"TopHeight":26.600000000000001,"Storeys":6,"StoreysInBasement":null,"DateStamp":1599580800000}},{"type":"Feature","id":51397,"geometry":{"type":"Polygon","coordinates":[[[114.16502117795119,22.32897987697006],[114.16493389792321,22.32888187584059],[114.16497220161007,22.328852165498265],[114.16508612489567,22.328979059273749],[114.16506606698651,22.328994455957627],[114.16503892912505,22.328966283441165],[114.16502117795119,22.32897987697006]]]},"properties":{"OBJECTID":51397,"Shape__Length":46.776056812755471,"Shape__Area":84.397667923808186,"GeoRefNo":"3504621099","DateCreate":1114790400000,"BuildingBlockType":"Tower","BuildingCSUID":"3504621099T20050430","BuildingID":1108228193,"Status":"Active","BuildingNameEN":null,"BuildingNameTC":null,"BaseHeight":5.2000000000000002,"TopHeight":24.800000000000001,"Storeys":6,"StoreysInBasement":null,"DateStamp":1599580800000}},{"type":"Feature","id":51403,"geometry":{"type":"Polygon","coordinates":[[[114.16077099064766,22.330198418385393],[114.16089930360307,22.330098584687086],[114.16092785213134,22.330130853761109],[114.1608476774412,22.330192844433856],[114.16083634886559,22.330180622229467],[114.16078827688391,22.330217661919889],[114.16077099064766,22.330198418385393]]]},"properties":{"OBJECTID":51403,"Shape__Length":43.594925314654262,"Shape__Area":67.664344370256089,"GeoRefNo":"3461821234","DateCreate":1114790400000,"BuildingBlockType":"Tower","BuildingCSUID":"3461821234T20050430","BuildingID":1108227140,"Status":"Active","BuildingNameEN":null,"BuildingNameTC":null,"BaseHeight":4.4000000000000004,"TopHeight":34.100000000000001,"Storeys":8,"StoreysInBasement":null,"DateStamp":1599580800000}},{"type":"Feature","id":51409,"geometry":{"type":"Polygon","coordinates":[[[114.16489759797389,22.330197518493776],[114.16480227034971,22.330091206682859],[114.16477948535554,22.33006579627272],[114.16480055246228,22.33004925706172],[114.16478739093564,22.330034683704291],[114.16482611586497,22.330004809978618],[114.16483898369643,22.330019050985793],[114.1648535162854,22.330007633159685],[114.16497254835841,22.330139185439478],[114.16489759797389,22.330197518493776]]]},"properties":{"OBJECTID":51409,"Shape__Length":62.254186494762244,"Shape__Area":201.45223315590997,"GeoRefNo":"3503221228","DateCreate":1114790400000,"BuildingBlockType":"Tower","BuildingCSUID":"3503221228T20050430","BuildingID":1108227163,"Status":"Active","BuildingNameEN":null,"BuildingNameTC":null,"BaseHeight":5.2999999999999998,"TopHeight":25,"Storeys":6,"StoreysInBasement":null,"DateStamp":1599580800000}},{"type":"Feature","id":51410,"geometry":{"type":"Polygon","coordinates":[[[114.16137981588871,22.330109838429252],[114.16147403571871,22.330210879099369],[114.16146670856338,22.330216566497779],[114.16147736650346,22.33022841572182],[114.1614614709316,22.330240347045937],[114.16147175635253,22.330251983022944],[114.16146202620067,22.330259431337474],[114.16134812294295,22.330134077641787],[114.16137981588871,22.330109838429252]]]},"properties":{"OBJECTID":51410,"Shape__Length":44.979960676355276,"Shape__Area":72.022104202421801,"GeoRefNo":"3467421236","DateCreate":1114790400000,"BuildingBlockType":"Tower","BuildingCSUID":"3467421236T20050430","BuildingID":1108227097,"Status":"Active","BuildingNameEN":null,"BuildingNameTC":null,"BaseHeight":4.5,"TopHeight":36,"Storeys":9,"StoreysInBasement":null,"DateStamp":1599580800000}},{"type":"Feature","id":51411,"geometry":{"type":"Polygon","coordinates":[[[114.16440768259947,22.330203736174354],[114.16453126576411,22.330105488529174],[114.16454941931349,22.330125848902181],[114.16452794431466,22.330142102592667],[114.16453849661156,22.330153906003197],[114.16443534275265,22.330234582516692],[114.16440768259947,22.330203736174354]]]},"properties":{"OBJECTID":51411,"Shape__Length":42.559922429839133,"Shape__Area":70.810861528905406,"GeoRefNo":"3499121236","DateCreate":1114790400000,"BuildingBlockType":"Tower","BuildingCSUID":"3499121236T20050430","BuildingID":1108227122,"Status":"Active","BuildingNameEN":null,"BuildingNameTC":null,"BaseHeight":5.5,"TopHeight":32.100000000000001,"Storeys":9,"StoreysInBasement":null,"DateStamp":1599580800000}},{"type":"Feature","id":51416,"geometry":{"type":"Polygon","coordinates":[[[114.1600613024805,22.330232616397513],[114.1599524827144,22.330111472485264],[114.1599845891873,22.330086593952505],[114.16009484549946,22.330206583341688],[114.1600613024805,22.330232616397513]]]},"properties":{"OBJECTID":51416,"Shape__Length":43.767881083322109,"Shape__Area":76.958223076589547,"GeoRefNo":"3453121234","DateCreate":1114790400000,"BuildingBlockType":"Tower","BuildingCSUID":"3453121234T20050430","BuildingID":1108227124,"Status":"Active","BuildingNameEN":"Ki Fat Mansion","BuildingNameTC":"基發樓","BaseHeight":4.2999999999999998,"TopHeight":23.899999999999999,"Storeys":6,"StoreysInBasement":null,"DateStamp":1599580800000}},{"type":"Feature","id":51459,"geometry":{"type":"Polygon","coordinates":[[[114.16086404642046,22.328952215182312],[114.16080988470924,22.328893403490508],[114.16082163397189,22.328884262991576],[114.1608086055179,22.328870062014587],[114.16081420487066,22.328865899378606],[114.16076336875962,22.328809121957608],[114.16077925397629,22.328796869300273],[114.16089654939034,22.328927160949654],[114.16088849402787,22.328933372928148],[114.16086404642046,22.328952215182312]]]},"properties":{"OBJECTID":51459,"Shape__Length":46.43675014827754,"Shape__Area":61.125395903480118,"GeoRefNo":"3461721095","DateCreate":1114790400000,"BuildingBlockType":"Tower","BuildingCSUID":"3461721095T20050430","BuildingID":1108228219,"Status":"Active","BuildingNameEN":null,"BuildingNameTC":null,"BaseHeight":4.4000000000000004,"TopHeight":25.100000000000001,"Storeys":6,"StoreysInBasement":null,"DateStamp":1599580800000}},{"type":"Feature","id":51462,"geometry":{"type":"Polygon","coordinates":[[[114.16365560051845,22.329364471415197],[114.16361898969336,22.329323553662142],[114.16373019284502,22.329238070698203],[114.16376624053053,22.32927866382202],[114.16365560051845,22.329364471415197]]]},"properties":{"OBJECTID":51462,"Shape__Length":41.426693306007486,"Shape__Area":87.067882187883271,"GeoRefNo":"3490821142","DateCreate":1114790400000,"BuildingBlockType":"Tower","BuildingCSUID":"3490821142T20050430","BuildingID":1108227933,"Status":"Active","BuildingNameEN":null,"BuildingNameTC":"南灣大廈","BaseHeight":4.5999999999999996,"TopHeight":36.299999999999997,"Storeys":10,"StoreysInBasement":null,"DateStamp":1599580800000}},{"type":"Feature","id":51464,"geometry":{"type":"Polygon","coordinates":[[[114.16448819447496,22.329389434091368],[114.16440055126479,22.329294494290703],[114.16441422579697,22.329283600391602],[114.16450777837791,22.329211085896453],[114.16454075951904,22.329185691781184],[114.16458066589155,22.329229894450641],[114.1646018625832,22.329253373219974],[114.1646291665072,22.329283616714456],[114.16466263493523,22.329320688329901],[114.164671585359,22.329330602414664],[114.16456535100751,22.329412266734039],[114.1645556878325,22.329401168409177],[114.16454853460768,22.329406694764796],[114.16453485267276,22.329391282946965],[114.1645276171174,22.329397011670803],[114.16450725257897,22.329374516837465],[114.16448819447496,22.329389434091368]]]},"properties":{"OBJECTID":51464,"Shape__Length":79.375628131091688,"Shape__Area":368.35074384088773,"GeoRefNo":"3500221139","DateCreate":1114790400000,"BuildingBlockType":"Tower","BuildingCSUID":"3500221139T20050430","BuildingID":1108227891,"Status":"Active","BuildingNameEN":"Cheung Sha Mansion","BuildingNameTC":"長沙大樓","BaseHeight":4.9000000000000004,"TopHeight":44.899999999999999,"Storeys":13,"StoreysInBasement":null,"DateStamp":1599580800000}},{"type":"Feature","id":51520,"geometry":{"type":"Polygon","coordinates":[[[114.16388512872477,22.329156060344697],[114.16397853498577,22.329258760411292],[114.16396290179664,22.32927090268662],[114.16394660209842,22.329283563895046],[114.16387337879051,22.329340441701909],[114.16382262485351,22.329283553992767],[114.16378086225933,22.329236744309767],[114.16382035999266,22.329206180766484],[114.16382900916626,22.32921594424355],[114.16383996294687,22.329207310529576],[114.16383120144231,22.329197815342692],[114.16388512872477,22.329156060344697]]]},"properties":{"OBJECTID":51520,"Shape__Length":60.720076849154339,"Shape__Area":207.3215603116351,"GeoRefNo":"3492821134","DateCreate":1114790400000,"BuildingBlockType":"Tower","BuildingCSUID":"3492821134T20050430","BuildingID":1108227951,"Status":"Active","BuildingNameEN":null,"BuildingNameTC":"大安樓","BaseHeight":4.7000000000000002,"TopHeight":42.399999999999999,"Storeys":13,"StoreysInBasement":null,"DateStamp":1599580800000}},{"type":"Feature","id":51522,"geometry":{"type":"Polygon","coordinates":[[[114.16267543434901,22.329302810496404],[114.16257288187298,22.3291875432704],[114.16260199459425,22.329164895048596],[114.16273903715421,22.329315796147256],[114.16273155564916,22.329321631691663],[114.16272186199443,22.32931108141117],[114.16271274954534,22.329318194188723],[114.16268918413155,22.329292053653127],[114.16267543434901,22.329302810496404]]]},"properties":{"OBJECTID":51522,"Shape__Length":51.751877982982222,"Shape__Area":76.137107681404842,"GeoRefNo":"3480221134","DateCreate":1114790400000,"BuildingBlockType":"Tower","BuildingCSUID":"3480221134T20050430","BuildingID":1108227959,"Status":"Active","BuildingNameEN":null,"BuildingNameTC":"金海大廈","BaseHeight":4.5,"TopHeight":28.600000000000001,"Storeys":8,"StoreysInBasement":null,"DateStamp":1599580800000}},{"type":"Feature","id":51542,"geometry":{"type":"Polygon","coordinates":[[[114.16083194392475,22.32867262315872],[114.16081623122774,22.328684748778119],[114.16084397912041,22.328714627217106],[114.16082669108344,22.32872804152699],[114.16079903047029,22.328698022668167],[114.16071093696721,22.328602418518287],[114.16074337388943,22.328577268313566],[114.16083194392475,22.32867262315872]]]},"properties":{"OBJECTID":51542,"Shape__Length":45.423200396930426,"Shape__Area":71.170195073552037,"GeoRefNo":"3461021067","DateCreate":1114790400000,"BuildingBlockType":"Tower","BuildingCSUID":"3461021067T20050430","BuildingID":1108228400,"Status":"Active","BuildingNameEN":null,"BuildingNameTC":null,"BaseHeight":4.2000000000000002,"TopHeight":27.899999999999999,"Storeys":6,"StoreysInBasement":null,"DateStamp":1599580800000}},{"type":"Feature","id":51548,"geometry":{"type":"Polygon","coordinates":[[[114.16091450600915,22.328629074613403],[114.160904648412,22.328636377762024],[114.16091526322302,22.328647886297077],[114.1609213490035,22.328654484368183],[114.1608933767469,22.328676224737638],[114.16077805021511,22.328550377317779],[114.16081524823387,22.328521532887105],[114.16091450600915,22.328629074613403]]]},"properties":{"OBJECTID":51548,"Shape__Length":46.693705368750344,"Shape__Area":88.522896330050088,"GeoRefNo":"3461721062","DateCreate":1114790400000,"BuildingBlockType":"Tower","BuildingCSUID":"3461721062T20050430","BuildingID":1108228437,"Status":"Active","BuildingNameEN":null,"BuildingNameTC":"樂豐樓","BaseHeight":4.2000000000000002,"TopHeight":24,"Storeys":6,"StoreysInBasement":null,"DateStamp":1599580800000}},{"type":"Feature","id":51550,"geometry":{"type":"Polygon","coordinates":[[[114.16239107635933,22.32870507249137],[114.16235337006462,22.328661693607998],[114.1624038251996,22.328625014429754],[114.16240361167849,22.328624778893118],[114.16247542884837,22.328567609391122],[114.16251287408659,22.32860965738638],[114.16246389013979,22.328648030956899],[114.16239107635933,22.32870507249137]]]},"properties":{"OBJECTID":51550,"Shape__Length":44.996543923095011,"Shape__Area":98.655988421797247,"GeoRefNo":"3478121065","DateCreate":1114790400000,"BuildingBlockType":"Tower","BuildingCSUID":"3478121065T20050430","BuildingID":1108228418,"Status":"Active","BuildingNameEN":"Yau Nam Building","BuildingNameTC":"有男樓","BaseHeight":4.2999999999999998,"TopHeight":45.799999999999997,"Storeys":11,"StoreysInBasement":null,"DateStamp":1599580800000}},{"type":"Feature","id":51551,"geometry":{"type":"Polygon","coordinates":[[[114.16365825930343,22.32880893831048],[114.16356745818962,22.328710969389999],[114.16358585171136,22.328696828186885],[114.16356211788727,22.32867110262745],[114.16358468623702,22.328653663164676],[114.16369882367179,22.328777640966297],[114.16365825930343,22.32880893831048]]]},"properties":{"OBJECTID":51551,"Shape__Length":47.064829435016733,"Shape__Area":89.420800698437574,"GeoRefNo":"3490221077","DateCreate":1114790400000,"BuildingBlockType":"Tower","BuildingCSUID":"3490221077T20050430","BuildingID":1108228332,"Status":"Active","BuildingNameEN":null,"BuildingNameTC":null,"BaseHeight":4.7999999999999998,"TopHeight":30.100000000000001,"Storeys":8,"StoreysInBasement":null,"DateStamp":1599580800000}},{"type":"Feature","id":51552,"geometry":{"type":"Polygon","coordinates":[[[114.16189742096586,22.328830956363923],[114.16181182032707,22.328735629740205],[114.16183929969,22.328714410141142],[114.16184566522746,22.32870951190894],[114.16193146400929,22.328804613852377],[114.16189742096586,22.328830956363923]]]},"properties":{"OBJECTID":51552,"Shape__Length":36.595903229781584,"Shape__Area":62.518026002620786,"GeoRefNo":"3472121081","DateCreate":1114790400000,"BuildingBlockType":"Tower","BuildingCSUID":"3472121081T20050430","BuildingID":1108228306,"Status":"Active","BuildingNameEN":null,"BuildingNameTC":null,"BaseHeight":4.2000000000000002,"TopHeight":31.199999999999999,"Storeys":9,"StoreysInBasement":null,"DateStamp":1599580800000}},{"type":"Feature","id":51553,"geometry":{"type":"Polygon","coordinates":[[[114.15990686269454,22.328656971050069],[114.16001927342904,22.328779675148841],[114.15998055361807,22.328809724369023],[114.15984934733738,22.328665887612743],[114.15988755335933,22.32863589354654],[114.15990686269454,22.328656971050069]]]},"properties":{"OBJECTID":51553,"Shape__Length":52.155218345045597,"Shape__Area":108.12744786915006,"GeoRefNo":"3452321075","DateCreate":1114790400000,"BuildingBlockType":"Tower","BuildingCSUID":"3452321075T20050430","BuildingID":1108228328,"Status":"Active","BuildingNameEN":null,"BuildingNameTC":null,"BaseHeight":4.0999999999999996,"TopHeight":23.899999999999999,"Storeys":3,"StoreysInBasement":null,"DateStamp":1599580800000}},{"type":"Feature","id":51554,"geometry":{"type":"Polygon","coordinates":[[[114.16106776788834,22.32871899889593],[114.16100300795129,22.328647894888867],[114.1609993088329,22.328643833474029],[114.16099400313094,22.328647894009308],[114.16098612000427,22.328653927113844],[114.16098070643676,22.32864789270965],[114.16098057483171,22.328647745949777],[114.16103513528714,22.328605509184371],[114.16107401664293,22.32864790180713],[114.16115050811048,22.328731300977317],[114.16110848095636,22.328763700266375],[114.16106776788834,22.32871899889593]]]},"properties":{"OBJECTID":51554,"Shape__Length":51.295551997471975,"Shape__Area":103.91886775111422,"GeoRefNo":"3463721069","DateCreate":1114790400000,"BuildingBlockType":"Tower","BuildingCSUID":"3463721069T20050430","BuildingID":1108228367,"Status":"Active","BuildingNameEN":null,"BuildingNameTC":null,"BaseHeight":4.2000000000000002,"TopHeight":25.300000000000001,"Storeys":6,"StoreysInBasement":null,"DateStamp":1599580800000}},{"type":"Feature","id":51557,"geometry":{"type":"Polygon","coordinates":[[[114.16193146400929,22.328804613852377],[114.16184566522746,22.32870951190894],[114.16185306363445,22.328703804360661],[114.1618813470466,22.328681992332072],[114.16196664309851,22.328777392129812],[114.16193146400929,22.328804613852377]]]},"properties":{"OBJECTID":51557,"Shape__Length":36.979031768043271,"Shape__Area":65.21255126204683,"GeoRefNo":"3472521078","DateCreate":1114790400000,"BuildingBlockType":"Tower","BuildingCSUID":"3472521078T20050430","BuildingID":1108228340,"Status":"Active","BuildingNameEN":null,"BuildingNameTC":null,"BaseHeight":4.2999999999999998,"TopHeight":31.199999999999999,"Storeys":9,"StoreysInBasement":null,"DateStamp":1599580800000}},{"type":"Feature","id":51558,"geometry":{"type":"Polygon","coordinates":[[[114.16413480628673,22.328877415700141],[114.16401750461958,22.32874590509519],[114.1640528734668,22.328718412558782],[114.1640907712456,22.328688948204707],[114.16409519748146,22.328685506906691],[114.16409669108391,22.328687136502605],[114.16420666114089,22.328807124990625],[114.16421444227109,22.328815616602888],[114.16413480628673,22.328877415700141]]]},"properties":{"OBJECTID":51558,"Shape__Length":58.972334665546519,"Shape__Area":199.83034461399603,"GeoRefNo":"3495721083","DateCreate":1114790400000,"BuildingBlockType":"Tower","BuildingCSUID":"3495721083T20050430","BuildingID":1108228271,"Status":"Active","BuildingNameEN":null,"BuildingNameTC":null,"BaseHeight":5,"TopHeight":26,"Storeys":7,"StoreysInBasement":null,"DateStamp":1599580800000}},{"type":"Feature","id":51604,"geometry":{"type":"Polygon","coordinates":[[[114.16236577864967,22.330226881059563],[114.16226084456302,22.330109168586912],[114.16229530808235,22.330082532908293],[114.16241213539388,22.330213804120842],[114.16240256643184,22.330221196426347],[114.16239050685526,22.330207520251452],[114.16236577864967,22.330226881059563]]]},"properties":{"OBJECTID":51604,"Shape__Length":46.992272806099095,"Shape__Area":80.487934138907306,"GeoRefNo":"3477021235","DateCreate":1114790400000,"BuildingBlockType":"Tower","BuildingCSUID":"3477021235T20050430","BuildingID":1108227128,"Status":"Active","BuildingNameEN":null,"BuildingNameTC":null,"BaseHeight":4.5999999999999996,"TopHeight":35.100000000000001,"Storeys":9,"StoreysInBasement":null,"DateStamp":1599580800000}},{"type":"Feature","id":51605,"geometry":{"type":"Polygon","coordinates":[[[114.16443534275265,22.330234582516692],[114.16453849661156,22.330153906003197],[114.16456653957093,22.330185273778184],[114.16446386032555,22.33026638291031],[114.16443534275265,22.330234582516692]]]},"properties":{"OBJECTID":51605,"Shape__Length":36.864090267285498,"Shape__Area":63.180084000303552,"GeoRefNo":"3499321240","DateCreate":1114790400000,"BuildingBlockType":"Tower","BuildingCSUID":"3499321240T20050430","BuildingID":1108227088,"Status":"Active","BuildingNameEN":null,"BuildingNameTC":null,"BaseHeight":5.5,"TopHeight":25.199999999999999,"Storeys":6,"StoreysInBasement":null,"DateStamp":1599580800000}},{"type":"Feature","id":51608,"geometry":{"type":"Polygon","coordinates":[[[114.16151728358979,22.328775732109101],[114.16145728210927,22.328822928026256],[114.16138541693888,22.328744220740518],[114.16142601830357,22.328712819033257],[114.16150986683785,22.328647943589825],[114.16153155585137,22.328631162298215],[114.16154666400691,22.328647947063732],[114.16158360765372,22.328688990573358],[114.16156522917674,22.328703076283439],[114.16157336621082,22.328712174911256],[114.16150669408415,22.328763947280152],[114.16151728358979,22.328775732109101]]]},"properties":{"OBJECTID":51608,"Shape__Length":61.875397233999031,"Shape__Area":199.70386073347112,"GeoRefNo":"3468621071","DateCreate":1114790400000,"BuildingBlockType":"Tower","BuildingCSUID":"3468621071T20050430","BuildingID":1108228319,"Status":"Active","BuildingNameEN":null,"BuildingNameTC":null,"BaseHeight":4.2000000000000002,"TopHeight":33.399999999999999,"Storeys":9,"StoreysInBasement":null,"DateStamp":1599580800000}}]}