{"type":"FeatureCollection","features":[{"type":"Feature","id":51609,"geometry":{"type":"Polygon","coordinates":[[[114.16103421316426,22.32882099589224],[114.16093560597984,22.328713543076081],[114.1609599476932,22.328695061210784],[114.16094253032595,22.328677218141184],[114.16095467737162,22.328667786886534],[114.1609693654481,22.328683791963986],[114.1610699640954,22.328793408500896],[114.16103421316426,22.32882099589224]]]},"properties":{"OBJECTID":51609,"Shape__Length":46.257869510114539,"Shape__Area":79.015217666722307,"GeoRefNo":"3463221078","DateCreate":1114790400000,"BuildingBlockType":"Tower","BuildingCSUID":"3463221078T20050430","BuildingID":1108228321,"Status":"Active","BuildingNameEN":null,"BuildingNameTC":null,"BaseHeight":4.2999999999999998,"TopHeight":32.899999999999999,"Storeys":9,"StoreysInBasement":null,"DateStamp":1599580800000}},{"type":"Feature","id":51611,"geometry":{"type":"Polygon","coordinates":[[[114.16234097297293,22.328824333224706],[114.16225559713966,22.328729877674419],[114.16229323988998,22.328700681835947],[114.16237869834595,22.328795023227535],[114.16241069365105,22.328830344148354],[114.16240365113229,22.328835784538672],[114.16237130500022,22.328800757621007],[114.16234097297293,22.328824333224706]]]},"properties":{"OBJECTID":51611,"Shape__Length":47.620644106098709,"Shape__Area":74.033014573539234,"GeoRefNo":"3476921082","DateCreate":1114790400000,"BuildingBlockType":"Tower","BuildingCSUID":"3476921082T20050430","BuildingID":1108228304,"Status":"Active","BuildingNameEN":null,"BuildingNameTC":null,"BaseHeight":4.2999999999999998,"TopHeight":33.100000000000001,"Storeys":9,"StoreysInBasement":null,"DateStamp":1599580800000}},{"type":"Feature","id":51668,"geometry":{"type":"Polygon","coordinates":[[[114.16369882367179,22.328777640966297],[114.16358468623702,22.328653663164676],[114.16360620027196,22.328637015053108],[114.16362970159317,22.328663079505052],[114.16364738404154,22.328649489192884],[114.16373667016826,22.328748440655104],[114.16369882367179,22.328777640966297]]]},"properties":{"OBJECTID":51668,"Shape__Length":46.46103720073144,"Shape__Area":84.280358144379917,"GeoRefNo":"3490721074","DateCreate":1114790400000,"BuildingBlockType":"Tower","BuildingCSUID":"3490721074T20050430","BuildingID":1108228359,"Status":"Active","BuildingNameEN":null,"BuildingNameTC":null,"BaseHeight":4.7999999999999998,"TopHeight":31.300000000000001,"Storeys":8,"StoreysInBasement":null,"DateStamp":1599580800000}},{"type":"Feature","id":51672,"geometry":{"type":"Polygon","coordinates":[[[114.16073222743904,22.328749574720451],[114.16070964163703,22.328767004211539],[114.16073762719249,22.328797282205077],[114.16072209647784,22.328809360964474],[114.16060691243351,22.328683106159776],[114.16064501254228,22.328653554583635],[114.16073222743904,22.328749574720451]]]},"properties":{"OBJECTID":51672,"Shape__Length":46.89953898505766,"Shape__Area":80.061191264703581,"GeoRefNo":"3459821075","DateCreate":1114790400000,"BuildingBlockType":"Tower","BuildingCSUID":"3459821075T20050430","BuildingID":1108228329,"Status":"Active","BuildingNameEN":null,"BuildingNameTC":"明德大廈","BaseHeight":4.2999999999999998,"TopHeight":44.5,"Storeys":13,"StoreysInBasement":null,"DateStamp":1599580800000}},{"type":"Feature","id":51673,"geometry":{"type":"Polygon","coordinates":[[[114.16327265891822,22.328753459362879],[114.16317535709329,22.328830171241947],[114.16311917751088,22.328767499395234],[114.1631173758681,22.328765489576682],[114.16312406831182,22.328760287442812],[114.16317288104469,22.328722347036525],[114.16319028466778,22.328708818249112],[114.16323160776361,22.32867669072315],[114.16324184172743,22.328668741506863],[114.1632784280184,22.328709522171643],[114.16325198925766,22.328730444183037],[114.16327265891822,22.328753459362879]]]},"properties":{"OBJECTID":51673,"Shape__Length":51.954313513906172,"Shape__Area":142.99811903655765,"GeoRefNo":"3485921076","DateCreate":1114790400000,"BuildingBlockType":"Tower","BuildingCSUID":"3485921076T20050430","BuildingID":1108228308,"Status":"Active","BuildingNameEN":null,"BuildingNameTC":null,"BaseHeight":4.4000000000000004,"TopHeight":26.5,"Storeys":7,"StoreysInBasement":null,"DateStamp":1599580800000}},{"type":"Feature","id":51727,"geometry":{"type":"Polygon","coordinates":[[[114.16447522160007,22.328768040998849],[114.16452962959521,22.328829133875985],[114.1644878226604,22.32886150949474],[114.16437018545244,22.328729510564479],[114.16437906033369,22.328722644119562],[114.16441264329947,22.328759654931755],[114.16443104675027,22.328745400570629],[114.16446106537312,22.32877905226464],[114.16447522160007,22.328768040998849]]]},"properties":{"OBJECTID":51727,"Shape__Length":49.140261665984973,"Shape__Area":73.67289290192997,"GeoRefNo":"3498921085","DateCreate":1114790400000,"BuildingBlockType":"Tower","BuildingCSUID":"3498921085T20050430","BuildingID":1108228282,"Status":"Active","BuildingNameEN":null,"BuildingNameTC":null,"BaseHeight":5.0999999999999996,"TopHeight":25.399999999999999,"Storeys":6,"StoreysInBasement":null,"DateStamp":1599580800000}},{"type":"Feature","id":51732,"geometry":{"type":"Polygon","coordinates":[[[114.16317535709329,22.328830171241947],[114.16327265891822,22.328753459362879],[114.1632794812558,22.328761055828384],[114.16330619943854,22.328740477269001],[114.16332705458068,22.328763723369384],[114.16320315743464,22.328861184335299],[114.16317535709329,22.328830171241947]]]},"properties":{"OBJECTID":51732,"Shape__Length":42.349069717469135,"Shape__Area":70.904415882314439,"GeoRefNo":"3486421084","DateCreate":1114790400000,"BuildingBlockType":"Tower","BuildingCSUID":"3486421084T20050430","BuildingID":1108228283,"Status":"Active","BuildingNameEN":null,"BuildingNameTC":null,"BaseHeight":4.5,"TopHeight":26.5,"Storeys":7,"StoreysInBasement":null,"DateStamp":1599580800000}},{"type":"Feature","id":51734,"geometry":{"type":"Polygon","coordinates":[[[114.1610699640954,22.328793408500896],[114.1609693654481,22.328683791963986],[114.16099666047718,22.328662797622119],[114.16105604729573,22.328728089115323],[114.16106776788834,22.32871899889593],[114.16110848095636,22.328763700266375],[114.1610699640954,22.328793408500896]]]},"properties":{"OBJECTID":51734,"Shape__Length":42.295340689468375,"Shape__Area":67.866200738103245,"GeoRefNo":"3463421076","DateCreate":1114790400000,"BuildingBlockType":"Tower","BuildingCSUID":"3463421076T20050430","BuildingID":1108228348,"Status":"Active","BuildingNameEN":null,"BuildingNameTC":null,"BaseHeight":4.2000000000000002,"TopHeight":25.199999999999999,"Storeys":6,"StoreysInBasement":null,"DateStamp":1599580800000}},{"type":"Feature","id":51793,"geometry":{"type":"Polygon","coordinates":[[[114.16241069365105,22.328830344148354],[114.16237869834595,22.328795023227535],[114.16229323988998,22.328700681835947],[114.16232908568915,22.32867288809696],[114.16241400423168,22.328767605545764],[114.16239164451511,22.328784971083923],[114.162423459257,22.328820497070719],[114.16241069365105,22.328830344148354]]]},"properties":{"OBJECTID":51793,"Shape__Length":47.07199452696635,"Shape__Area":74.010824751564229,"GeoRefNo":"3477321079","DateCreate":1114790400000,"BuildingBlockType":"Tower","BuildingCSUID":"3477321079T20050430","BuildingID":1108228307,"Status":"Active","BuildingNameEN":null,"BuildingNameTC":null,"BaseHeight":4.2999999999999998,"TopHeight":33.100000000000001,"Storeys":9,"StoreysInBasement":null,"DateStamp":1599580800000}},{"type":"Feature","id":51796,"geometry":{"type":"Polygon","coordinates":[[[114.16063368786877,22.328769352357622],[114.16062026144273,22.328779778178937],[114.16067261946691,22.328838384580198],[114.16065627048495,22.328851209268187],[114.16063589337067,22.328828523400727],[114.16063163673944,22.328831772359987],[114.16054258685466,22.328732989078521],[114.16054855055204,22.328728369901945],[114.16057662596096,22.328706592486807],[114.16063368786877,22.328769352357622]]]},"properties":{"OBJECTID":51796,"Shape__Length":44.229075235851091,"Shape__Area":63.391438228127761,"GeoRefNo":"3459121080","DateCreate":1114790400000,"BuildingBlockType":"Tower","BuildingCSUID":"3459121080T20050430","BuildingID":1108228290,"Status":"Active","BuildingNameEN":null,"BuildingNameTC":null,"BaseHeight":4.2999999999999998,"TopHeight":43.899999999999999,"Storeys":7,"StoreysInBasement":null,"DateStamp":1599580800000}},{"type":"Feature","id":51860,"geometry":{"type":"Polygon","coordinates":[[[114.16273687753936,22.329254737115814],[114.16263523353638,22.329139036900788],[114.16266031358798,22.329119525901014],[114.1626677281026,22.329113757722059],[114.16280471080212,22.329264571254583],[114.16279638068085,22.32927106867033],[114.16278676438715,22.329260514336593],[114.16277759030291,22.329267671994501],[114.16275402442039,22.329241330176433],[114.16273687753936,22.329254737115814]]]},"properties":{"OBJECTID":51860,"Shape__Length":52.763420839869738,"Shape__Area":85.02664418656363,"GeoRefNo":"3480821128","DateCreate":1114790400000,"BuildingBlockType":"Tower","BuildingCSUID":"3480821128T20050430","BuildingID":1108228002,"Status":"Active","BuildingNameEN":null,"BuildingNameTC":"金海大廈","BaseHeight":4.4000000000000004,"TopHeight":28.600000000000001,"Storeys":8,"StoreysInBasement":null,"DateStamp":1599580800000}},{"type":"Feature","id":51861,"geometry":{"type":"Polygon","coordinates":[[[114.1618357858315,22.329246303240236],[114.16195506603799,22.329151612671343],[114.16196050276028,22.329157726152683],[114.16198443740311,22.329139369351374],[114.16199824268152,22.329154916222713],[114.16197421351035,22.329173129431105],[114.16198390036706,22.329184006933872],[114.16186395105362,22.329277968874361],[114.1618357858315,22.329246303240236]]]},"properties":{"OBJECTID":51861,"Shape__Length":47.924626704338614,"Shape__Area":81.478142143736108,"GeoRefNo":"3472621130","DateCreate":1114790400000,"BuildingBlockType":"Tower","BuildingCSUID":"3472621130T20050430","BuildingID":1108227995,"Status":"Active","BuildingNameEN":null,"BuildingNameTC":null,"BaseHeight":4.2999999999999998,"TopHeight":33.700000000000003,"Storeys":9,"StoreysInBasement":null,"DateStamp":1599580800000}},{"type":"Feature","id":51863,"geometry":{"type":"Polygon","coordinates":[[[114.16388512872477,22.329156060344697],[114.16385974086168,22.32912814631684],[114.16400876388417,22.329012772963356],[114.1640308906991,22.329037667515795],[114.1641257586372,22.329144401756697],[114.16397853498577,22.329258760411292],[114.16388512872477,22.329156060344697]]]},"properties":{"OBJECTID":51863,"Shape__Length":77.592396419090207,"Shape__Area":376.06061789983625,"GeoRefNo":"3494221120","DateCreate":1114790400000,"BuildingBlockType":"Tower","BuildingCSUID":"3494221120T20050430","BuildingID":1108228017,"Status":"Active","BuildingNameEN":"Cheung Lee Commercial Building","BuildingNameTC":"長利商業大廈","BaseHeight":4.7999999999999998,"TopHeight":44.5,"Storeys":12,"StoreysInBasement":null,"DateStamp":1599580800000}},{"type":"Feature","id":51924,"geometry":{"type":"Polygon","coordinates":[[[114.16048773367287,22.329242443834648],[114.1603835672957,22.329127799435405],[114.1603741351142,22.329117416196969],[114.16039282704321,22.329102946674158],[114.16040537037638,22.329116826778375],[114.16041975952216,22.32910585372915],[114.16052066128822,22.329217051164594],[114.16048773367287,22.329242443834648]]]},"properties":{"OBJECTID":51924,"Shape__Length":45.079220062232338,"Shape__Area":76.139899245783738,"GeoRefNo":"3457721126","DateCreate":1114790400000,"BuildingBlockType":"Tower","BuildingCSUID":"3457721126T20050430","BuildingID":1108228030,"Status":"Active","BuildingNameEN":"Lap Kee Building","BuildingNameTC":"立基樓","BaseHeight":4.2000000000000002,"TopHeight":23.899999999999999,"Storeys":6,"StoreysInBasement":null,"DateStamp":1599580800000}},{"type":"Feature","id":51926,"geometry":{"type":"Polygon","coordinates":[[[114.1608804256015,22.329149257623513],[114.16096975706709,22.329079985018275],[114.16102824466265,22.329145004880786],[114.16102862094202,22.329145423214097],[114.16098639703316,22.329178202547833],[114.16100302910299,22.329196909761812],[114.16100350243607,22.329197442160897],[114.16095672691269,22.329234080803758],[114.16095662519982,22.329233967640597],[114.16090405014197,22.329175520702258],[114.1608804256015,22.329149257623513]]]},"properties":{"OBJECTID":51926,"Shape__Length":48.407806316673003,"Shape__Area":130.77238724250734,"GeoRefNo":"3462821122","DateCreate":1114790400000,"BuildingBlockType":"Tower","BuildingCSUID":"3462821122T20050430","BuildingID":1108228039,"Status":"Active","BuildingNameEN":"Tai Nan Street Substation","BuildingNameTC":"大南街變電站","BaseHeight":4.2000000000000002,"TopHeight":24.600000000000001,"Storeys":6,"StoreysInBasement":null,"DateStamp":1599580800000}},{"type":"Feature","id":51982,"geometry":{"type":"Polygon","coordinates":[[[114.16038991063621,22.329073529614224],[114.16038086147474,22.32908059124447],[114.16037200928852,22.329070862240176],[114.16036407068002,22.32907695003383],[114.16030976909204,22.329017073004376],[114.16029366044332,22.329029465205341],[114.16023873245524,22.328968620460834],[114.16027146824827,22.328943228091816],[114.16038991063621,22.329073529614224]]]},"properties":{"OBJECTID":51982,"Shape__Length":46.603211248589062,"Shape__Area":60.233825668940511,"GeoRefNo":"3456021106","DateCreate":1114790400000,"BuildingBlockType":"Tower","BuildingCSUID":"3456021106T20050430","BuildingID":1108228143,"Status":"Active","BuildingNameEN":null,"BuildingNameTC":null,"BaseHeight":4.2000000000000002,"TopHeight":18.100000000000001,"Storeys":4,"StoreysInBasement":null,"DateStamp":1599580800000}},{"type":"Feature","id":51987,"geometry":{"type":"Polygon","coordinates":[[[114.1603835672957,22.329127799435405],[114.16048773367287,22.329242443834648],[114.16041999990341,22.329294670425959],[114.16037019868881,22.329240637925484],[114.1603675901648,22.329237807837004],[114.16035521275529,22.329224378734253],[114.16030555387179,22.329170500650921],[114.16034580806975,22.329139387346611],[114.16035551302066,22.329149656738725],[114.1603835672957,22.329127799435405]]]},"properties":{"OBJECTID":51987,"Shape__Length":54.474709541658882,"Shape__Area":159.64311849437746,"GeoRefNo":"3457021129","DateCreate":1114790400000,"BuildingBlockType":"Tower","BuildingCSUID":"3457021129T20050430","BuildingID":1108227985,"Status":"Active","BuildingNameEN":null,"BuildingNameTC":null,"BaseHeight":4.2000000000000002,"TopHeight":33.200000000000003,"Storeys":9,"StoreysInBasement":null,"DateStamp":1599580800000}},{"type":"Feature","id":51988,"geometry":{"type":"Polygon","coordinates":[[[114.16180550861286,22.329212262994066],[114.16187126576425,22.329161710001017],[114.16192635672904,22.329119356944229],[114.16193702111396,22.329131339702531],[114.16196097284435,22.32911293278643],[114.1619718449254,22.329125184221372],[114.16194782943366,22.329143478341212],[114.16195506603799,22.329151612671343],[114.1618357858315,22.329246303240236],[114.16180550861286,22.329212262994066]]]},"properties":{"OBJECTID":51988,"Shape__Length":48.246932449765552,"Shape__Area":82.569091008936581,"GeoRefNo":"3472321127","DateCreate":1114790400000,"BuildingBlockType":"Tower","BuildingCSUID":"3472321127T20050430","BuildingID":1108228025,"Status":"Active","BuildingNameEN":null,"BuildingNameTC":null,"BaseHeight":4.4000000000000004,"TopHeight":33.700000000000003,"Storeys":9,"StoreysInBasement":null,"DateStamp":1599580800000}},{"type":"Feature","id":52045,"geometry":{"type":"Polygon","coordinates":[[[114.16376959718929,22.329160830331894],[114.16365185903605,22.329030218606999],[114.16368581551292,22.329003809526263],[114.16378834327128,22.329116663619025],[114.16380412776203,22.329134037924813],[114.16376959718929,22.329160830331894]]]},"properties":{"OBJECTID":52045,"Shape__Length":46.950041013282714,"Shape__Area":86.765894973885494,"GeoRefNo":"3491321116","DateCreate":1114790400000,"BuildingBlockType":"Tower","BuildingCSUID":"3491321116T20050430","BuildingID":1108228088,"Status":"Active","BuildingNameEN":null,"BuildingNameTC":null,"BaseHeight":4.5999999999999996,"TopHeight":26.800000000000001,"Storeys":6,"StoreysInBasement":null,"DateStamp":1599580800000}},{"type":"Feature","id":52100,"geometry":{"type":"Polygon","coordinates":[[[114.16290712342062,22.330010066167912],[114.16295090694567,22.330058268850731],[114.16283782128366,22.330146003516202],[114.16280448089839,22.330171869008215],[114.16272451385885,22.330233907405844],[114.16268326086285,22.330187972282417],[114.16261599917065,22.330113076501021],[114.16260555127151,22.330101442659181],[114.16273098429194,22.330004696437744],[114.16273550042328,22.330009615879099],[114.16275489306463,22.329994050014228],[114.16275065382568,22.329989525504836],[114.16280450328179,22.329947991842328],[114.16282061016734,22.329935568689034],[114.16289622211863,22.330018816949117],[114.16290712342062,22.330010066167912]]]},"properties":{"OBJECTID":52100,"Shape__Length":100.19083085159723,"Shape__Area":558.45223551988011,"GeoRefNo":"3481621225","DateCreate":1114790400000,"BuildingBlockType":"Tower","BuildingCSUID":"3481621225T20050430","BuildingID":1108227123,"Status":"Active","BuildingNameEN":"Cheong Lok Building","BuildingNameTC":"長樂大廈","BaseHeight":4.7000000000000002,"TopHeight":45.399999999999999,"Storeys":14,"StoreysInBasement":null,"DateStamp":1599580800000}},{"type":"Feature","id":52102,"geometry":{"type":"Polygon","coordinates":[[[114.16177179804544,22.330271757358187],[114.16165857224397,22.33014352102056],[114.16167766421746,22.330128805937626],[114.1617022536055,22.330156178394251],[114.16171851638704,22.330143924146999],[114.16180899998312,22.330243119506395],[114.16177179804544,22.330271757358187]]]},"properties":{"OBJECTID":52102,"Shape__Length":46.418525416952079,"Shape__Area":80.234022177044068,"GeoRefNo":"3470821238","DateCreate":1114790400000,"BuildingBlockType":"Tower","BuildingCSUID":"3470821238T20050430","BuildingID":1108227085,"Status":"Active","BuildingNameEN":null,"BuildingNameTC":null,"BaseHeight":4.5,"TopHeight":27.199999999999999,"Storeys":6,"StoreysInBasement":null,"DateStamp":1599580800000}},{"type":"Feature","id":52162,"geometry":{"type":"Polygon","coordinates":[[[114.16438076883125,22.330173717898631],[114.16448422492969,22.330093199567774],[114.16449345558667,22.330103524664583],[114.16451476462429,22.330086981535796],[114.16453126576411,22.330105488529174],[114.16440768259947,22.330203736174354],[114.16438076883125,22.330173717898631]]]},"properties":{"OBJECTID":52162,"Shape__Length":41.980476022188256,"Shape__Area":66.783220158331488,"GeoRefNo":"3498821232","DateCreate":1114790400000,"BuildingBlockType":"Tower","BuildingCSUID":"3498821232T20050430","BuildingID":1108227158,"Status":"Active","BuildingNameEN":null,"BuildingNameTC":null,"BaseHeight":5.4000000000000004,"TopHeight":34.899999999999999,"Storeys":9,"StoreysInBasement":null,"DateStamp":1599580800000}},{"type":"Feature","id":52169,"geometry":{"type":"Polygon","coordinates":[[[114.16009484549946,22.330206583341688],[114.1599845891873,22.330086593952505],[114.16001918205832,22.330059788725592],[114.16012982581485,22.330179434879156],[114.16009484549946,22.330206583341688]]]},"properties":{"OBJECTID":52169,"Shape__Length":44.289105478600106,"Shape__Area":81.540836494285458,"GeoRefNo":"3453521231","DateCreate":1114790400000,"BuildingBlockType":"Tower","BuildingCSUID":"3453521231T20050430","BuildingID":1108227153,"Status":"Active","BuildingNameEN":"Ki Fat Mansion","BuildingNameTC":"基發樓","BaseHeight":4.2999999999999998,"TopHeight":34.799999999999997,"Storeys":6,"StoreysInBasement":null,"DateStamp":1599580800000}},{"type":"Feature","id":52170,"geometry":{"type":"Polygon","coordinates":[[[114.16058363740399,22.330265024097113],[114.16046576737202,22.330134134901545],[114.16047194197644,22.33012938552892],[114.16049854443698,22.33010890188438],[114.16056305569222,22.330180226582304],[114.16054789417424,22.330192095308622],[114.16056580892783,22.330211841120629],[114.1605561598904,22.330219189871926],[114.16057387599557,22.330239398119168],[114.16058388596207,22.330231765662116],[114.16059349390167,22.330242355524312],[114.16059916595306,22.330237923069983],[114.16060724692311,22.330246896123583],[114.16058363740399,22.330265024097113]]]},"properties":{"OBJECTID":52170,"Shape__Length":50.769752502334399,"Shape__Area":63.009156397876005,"GeoRefNo":"3458321236","DateCreate":1114790400000,"BuildingBlockType":"Tower","BuildingCSUID":"3458321236T20050430","BuildingID":1108227091,"Status":"Active","BuildingNameEN":null,"BuildingNameTC":null,"BaseHeight":4.5,"TopHeight":22.600000000000001,"Storeys":5,"StoreysInBasement":null,"DateStamp":1599580800000}},{"type":"Feature","id":52171,"geometry":{"type":"Polygon","coordinates":[[[114.16077099064766,22.330198418385393],[114.16074156209004,22.330165661003413],[114.16087035163285,22.330065852028412],[114.16089930360307,22.330098584687086],[114.16077099064766,22.330198418385393]]]},"properties":{"OBJECTID":52171,"Shape__Length":43.922397035187878,"Shape__Area":81.262239043607224,"GeoRefNo":"3461421232","DateCreate":1114790400000,"BuildingBlockType":"Tower","BuildingCSUID":"3461421232T20050430","BuildingID":1108227161,"Status":"Active","BuildingNameEN":null,"BuildingNameTC":null,"BaseHeight":4.4000000000000004,"TopHeight":33.600000000000001,"Storeys":8,"StoreysInBasement":null,"DateStamp":1599580800000}},{"type":"Feature","id":52173,"geometry":{"type":"Polygon","coordinates":[[[114.16147403571871,22.330210879099369],[114.16137981588871,22.330109838429252],[114.16141639840879,22.330081834103314],[114.16150596164395,22.330181100073826],[114.16152974264516,22.330207465028245],[114.16151534191926,22.330218464091178],[114.16150536364827,22.330207436445956],[114.16148923539453,22.330219520096751],[114.16147848817894,22.330207427671443],[114.16147403571871,22.330210879099369]]]},"properties":{"OBJECTID":52173,"Shape__Length":45.839405239752708,"Shape__Area":80.637248610165088,"GeoRefNo":"3467821233","DateCreate":1114790400000,"BuildingBlockType":"Tower","BuildingCSUID":"3467821233T20050430","BuildingID":1108227135,"Status":"Active","BuildingNameEN":null,"BuildingNameTC":null,"BaseHeight":4.4000000000000004,"TopHeight":33.200000000000003,"Storeys":9,"StoreysInBasement":null,"DateStamp":1599580800000}},{"type":"Feature","id":52174,"geometry":{"type":"Polygon","coordinates":[[[114.15972975777989,22.330144296797958],[114.15979155979655,22.330095829037944],[114.15984653328842,22.330156478960202],[114.15978409703133,22.33020491253852],[114.15972975777989,22.330144296797958]]]},"properties":{"OBJECTID":52174,"Shape__Length":34.227723921286461,"Shape__Area":73.178158959182753,"GeoRefNo":"3450721232","DateCreate":1114790400000,"BuildingBlockType":"Tower","BuildingCSUID":"3450721232T20050430","BuildingID":1108227157,"Status":"Active","BuildingNameEN":null,"BuildingNameTC":null,"BaseHeight":4.2000000000000002,"TopHeight":25.100000000000001,"Storeys":6,"StoreysInBasement":null,"DateStamp":1599580800000}},{"type":"Feature","id":52235,"geometry":{"type":"Polygon","coordinates":[[[114.16171851638704,22.330143924146999],[114.16175077634452,22.330119615650229],[114.1617254352935,22.330091986842863],[114.16175956719674,22.330065679870124],[114.16178465540352,22.330094087175276],[114.16180059665858,22.330082075090072],[114.16181115481659,22.330074119313018],[114.16178547954689,22.330045708074245],[114.16180019467076,22.330034366395914],[114.16182596698908,22.330062958072403],[114.1618587250004,22.330038274288988],[114.16194705001784,22.330136849333428],[114.16180899998312,22.330243119506395],[114.16171851638704,22.330143924146999]]]},"properties":{"OBJECTID":52235,"Shape__Length":82.080302136286093,"Shape__Area":291.44884200070425,"GeoRefNo":"3471821232","DateCreate":1114790400000,"BuildingBlockType":"Tower","BuildingCSUID":"3471821232T20050430","BuildingID":1108227112,"Status":"Active","BuildingNameEN":"Ming Chu Building","BuildingNameTC":"明珠大樓","BaseHeight":4.5,"TopHeight":37.100000000000001,"Storeys":11,"StoreysInBasement":null,"DateStamp":1599580800000}},{"type":"Feature","id":52429,"geometry":{"type":"Polygon","coordinates":[[[114.16036184404628,22.328980441768447],[114.16040283673995,22.329025718410595],[114.16038358359923,22.32904089117962],[114.16039479456082,22.32905338910907],[114.16038904325025,22.329057799514242],[114.16039775615727,22.329067437294604],[114.16038991063621,22.329073529614224],[114.16027146824827,22.328943228091816],[114.1603047703647,22.328917406279274],[114.16036184404628,22.328980441768447]]]},"properties":{"OBJECTID":52429,"Shape__Length":46.66220242589791,"Shape__Area":74.628753699553101,"GeoRefNo":"3456321103","DateCreate":1114790400000,"BuildingBlockType":"Tower","BuildingCSUID":"3456321103T20050430","BuildingID":1108228147,"Status":"Active","BuildingNameEN":null,"BuildingNameTC":null,"BaseHeight":4.0999999999999996,"TopHeight":18.100000000000001,"Storeys":4,"StoreysInBasement":null,"DateStamp":1599580800000}},{"type":"Feature","id":52430,"geometry":{"type":"Polygon","coordinates":[[[114.16416291866075,22.329115527749064],[114.16405764703225,22.328997230402315],[114.16407615992371,22.328983199597509],[114.16408618012211,22.328994483828957],[114.16410440629404,22.328980258931129],[114.1641996204833,22.329087013204653],[114.16416291866075,22.329115527749064]]]},"properties":{"OBJECTID":52430,"Shape__Length":43.825565467993044,"Shape__Area":79.542526040429294,"GeoRefNo":"3495421111","DateCreate":1114790400000,"BuildingBlockType":"Tower","BuildingCSUID":"3495421111T20050430","BuildingID":1108228117,"Status":"Active","BuildingNameEN":null,"BuildingNameTC":null,"BaseHeight":4.9000000000000004,"TopHeight":24.600000000000001,"Storeys":6,"StoreysInBasement":null,"DateStamp":1599580800000}},{"type":"Feature","id":52564,"geometry":{"type":"Polygon","coordinates":[[[114.16100196719115,22.330859914788387],[114.16088987231782,22.330736311895926],[114.16091819920129,22.330714430600246],[114.16094156812071,22.330740883195407],[114.16095283438239,22.33073211524356],[114.16095475792015,22.330734266787456],[114.16104063523025,22.330829813401117],[114.16100196719115,22.330859914788387]]]},"properties":{"OBJECTID":52564,"Shape__Length":46.301908207985427,"Shape__Area":88.003474114072361,"GeoRefNo":"3462821303","DateCreate":1114790400000,"BuildingBlockType":"Tower","BuildingCSUID":"3462821303T20050430","BuildingID":1108226652,"Status":"Active","BuildingNameEN":null,"BuildingNameTC":null,"BaseHeight":4.4000000000000004,"TopHeight":34.5,"Storeys":10,"StoreysInBasement":null,"DateStamp":1599580800000}},{"type":"Feature","id":52569,"geometry":{"type":"Polygon","coordinates":[[[114.16497254835841,22.330139185439478],[114.1648535162854,22.330007633159685],[114.16484074958633,22.329993520937247],[114.16486010058706,22.329978592827938],[114.16487265248801,22.329992580411009],[114.16489176664844,22.329977573353165],[114.16501067610371,22.330109510479815],[114.16497254835841,22.330139185439478]]]},"properties":{"OBJECTID":52569,"Shape__Length":52.455941242938891,"Shape__Area":103.18560028508054,"GeoRefNo":"3503721223","DateCreate":1114790400000,"BuildingBlockType":"Tower","BuildingCSUID":"3503721223T20050430","BuildingID":1108227206,"Status":"Active","BuildingNameEN":"Man Cheong Court","BuildingNameTC":"文昌閣","BaseHeight":5.2999999999999998,"TopHeight":36.799999999999997,"Storeys":10,"StoreysInBasement":null,"DateStamp":1599580800000}},{"type":"Feature","id":52580,"geometry":{"type":"Polygon","coordinates":[[[114.16016510656716,22.330152053179905],[114.16007861981285,22.330056511992158],[114.16008497314476,22.330051617170039],[114.16006191813905,22.330026673401747],[114.16008859783086,22.330005999828799],[114.16019859693239,22.330126061005487],[114.16016510656716,22.330152053179905]]]},"properties":{"OBJECTID":52580,"Shape__Length":43.864074925878299,"Shape__Area":74.563125120148598,"GeoRefNo":"3454321227","DateCreate":1114790400000,"BuildingBlockType":"Tower","BuildingCSUID":"3454321227T20050430","BuildingID":1108227198,"Status":"Active","BuildingNameEN":null,"BuildingNameTC":null,"BaseHeight":4.2999999999999998,"TopHeight":34.799999999999997,"Storeys":9,"StoreysInBasement":null,"DateStamp":1599580800000}},{"type":"Feature","id":52581,"geometry":{"type":"Polygon","coordinates":[[[114.16077515567761,22.330082437405022],[114.16073331229489,22.330035059542286],[114.1607977559206,22.329982898603401],[114.16085469668913,22.33004766939532],[114.16080762571139,22.330083878377209],[114.16079344311535,22.330067994799141],[114.16077515567761,22.330082437405022]]]},"properties":{"OBJECTID":52581,"Shape__Length":35.906146932696828,"Shape__Area":74.812305469220178,"GeoRefNo":"3461021221","DateCreate":1114790400000,"BuildingBlockType":"Tower","BuildingCSUID":"3461021221T20050430","BuildingID":1108227262,"Status":"Active","BuildingNameEN":null,"BuildingNameTC":null,"BaseHeight":4.4000000000000004,"TopHeight":24.699999999999999,"Storeys":6,"StoreysInBasement":null,"DateStamp":1599580800000}},{"type":"Feature","id":52583,"geometry":{"type":"Polygon","coordinates":[[[114.16023076530421,22.330101094743398],[114.16012165453211,22.329980384922717],[114.16015423176329,22.329955141478621],[114.1601757440114,22.32997909360784],[114.1602629105605,22.330076146443332],[114.16023076530421,22.330101094743398]]]},"properties":{"OBJECTID":52583,"Shape__Length":43.606909678903421,"Shape__Area":75.794202391150804,"GeoRefNo":"3454821220","DateCreate":1114790400000,"BuildingBlockType":"Tower","BuildingCSUID":"3454821220T20050430","BuildingID":1108227247,"Status":"Active","BuildingNameEN":null,"BuildingNameTC":null,"BaseHeight":4.2999999999999998,"TopHeight":35.700000000000003,"Storeys":9,"StoreysInBasement":null,"DateStamp":1599580800000}},{"type":"Feature","id":52617,"geometry":{"type":"Polygon","coordinates":[[[114.16355868785357,22.330875135534988],[114.16352670277156,22.330838689278472],[114.1634660255107,22.33076954859213],[114.16376589638615,22.330537197841245],[114.16389905948202,22.330683222733509],[114.16388982275183,22.330690391646023],[114.16388000091035,22.330679549738448],[114.16382395786817,22.3307231180783],[114.16383362992902,22.330734004768868],[114.16382361339255,22.330741778844605],[114.16381397598525,22.330730890169491],[114.16378850236488,22.330750682434189],[114.16379811162193,22.33076157165036],[114.1637860066195,22.330770966725812],[114.16377655656022,22.330760005457712],[114.16375550526202,22.330776331955434],[114.16376507763357,22.330787210424152],[114.16373165989721,22.330813146988728],[114.16372206704023,22.330802322067751],[114.16370069926401,22.33081891520575],[114.16371031629292,22.330829712406032],[114.16369970894647,22.330837945179734],[114.1636900679385,22.33082718653748],[114.16366360334438,22.330847753074305],[114.16367325910959,22.330858473700573],[114.16366146036108,22.330867631016222],[114.163651855656,22.330856886281786],[114.16359969711316,22.330897430697764],[114.16360912417611,22.330908250735792],[114.163596408354,22.330918119852601],[114.16355868785357,22.330875135534988]]]},"properties":{"OBJECTID":52617,"Shape__Length":141.90494143528593,"Shape__Area":815.1221220380362,"GeoRefNo":"3490821298","DateCreate":1114790400000,"BuildingBlockType":"Tower","BuildingCSUID":"3490821298T20050430","BuildingID":1108226624,"Status":"Active","BuildingNameEN":"Fuk Wa Mansion","BuildingNameTC":"福華大廈","BaseHeight":5.4000000000000004,"TopHeight":35.200000000000003,"Storeys":9,"StoreysInBasement":null,"DateStamp":1599580800000}},{"type":"Feature","id":52624,"geometry":{"type":"Polygon","coordinates":[[[114.16096169436844,22.330891271079413],[114.16085036769555,22.330766838957022],[114.16088987231782,22.330736311895926],[114.16100196719115,22.330859914788387],[114.16096169436844,22.330891271079413]]]},"properties":{"OBJECTID":52624,"Shape__Length":46.536383868770322,"Shape__Area":95.86632426171694,"GeoRefNo":"3462321306","DateCreate":1114790400000,"BuildingBlockType":"Tower","BuildingCSUID":"3462321306T20050430","BuildingID":1108226638,"Status":"Active","BuildingNameEN":null,"BuildingNameTC":null,"BaseHeight":4.4000000000000004,"TopHeight":34.600000000000001,"Storeys":10,"StoreysInBasement":null,"DateStamp":1599580800000}},{"type":"Feature","id":52627,"geometry":{"type":"Polygon","coordinates":[[[114.16372549093421,22.33015882456813],[114.16369561116264,22.330125496501161],[114.16380332495162,22.330042140908471],[114.16383298662046,22.330075478330233],[114.16372549093421,22.33015882456813]]]},"properties":{"OBJECTID":52627,"Shape__Length":38.448118686508082,"Shape__Area":69.226209728555844,"GeoRefNo":"3491621229","DateCreate":1114790400000,"BuildingBlockType":"Tower","BuildingCSUID":"3491621229T20050430","BuildingID":1108227195,"Status":"Active","BuildingNameEN":null,"BuildingNameTC":null,"BaseHeight":5,"TopHeight":24.600000000000001,"Storeys":6,"StoreysInBasement":null,"DateStamp":1599580800000}},{"type":"Feature","id":52635,"geometry":{"type":"Polygon","coordinates":[[[114.16313297414432,22.329634046893297],[114.16302603661372,22.329514166495041],[114.16306024125052,22.329487586980484],[114.16317738884524,22.32961851785754],[114.16316074276234,22.329631551468733],[114.16315050187629,22.329620132516332],[114.16313297414432,22.329634046893297]]]},"properties":{"OBJECTID":52635,"Shape__Length":46.968684385641197,"Shape__Area":83.022548644312948,"GeoRefNo":"3484821168","DateCreate":1114790400000,"BuildingBlockType":"Tower","BuildingCSUID":"3484821168T20050430","BuildingID":1108227688,"Status":"Active","BuildingNameEN":null,"BuildingNameTC":null,"BaseHeight":4.4000000000000004,"TopHeight":27.399999999999999,"Storeys":6,"StoreysInBasement":null,"DateStamp":1599580800000}},{"type":"Feature","id":52669,"geometry":{"type":"Polygon","coordinates":[[[114.16044323259845,22.330942344497917],[114.16050317714647,22.330895465575555],[114.1605091570987,22.330902110879634],[114.1605151952532,22.330897406193476],[114.16052279845029,22.330905876108805],[114.1605385249355,22.330893565124867],[114.16052476860283,22.330878571350851],[114.1605664206019,22.330846007285917],[114.16059177010736,22.330874433040957],[114.16058031171379,22.330883210340055],[114.16058359993949,22.330886884761735],[114.16047186652222,22.33097455893224],[114.16046597586833,22.330967935941391],[114.16044323259845,22.330942344497917]]]},"properties":{"OBJECTID":52669,"Shape__Length":46.801904626290039,"Shape__Area":70.361844976822127,"GeoRefNo":"3458021320","DateCreate":1114790400000,"BuildingBlockType":"Tower","BuildingCSUID":"3458021320T20050430","BuildingID":1108226578,"Status":"Active","BuildingNameEN":null,"BuildingNameTC":null,"BaseHeight":4.4000000000000004,"TopHeight":25.800000000000001,"Storeys":6,"StoreysInBasement":null,"DateStamp":1599580800000}},{"type":"Feature","id":52699,"geometry":{"type":"Polygon","coordinates":[[[114.16424987960883,22.329629373712184],[114.1641333932037,22.329499392053602],[114.16419856527804,22.329449197308609],[114.16431565440226,22.329579033123778],[114.16429619662858,22.329593925038232],[114.1643098211489,22.329608716289709],[114.16428668952513,22.329626480457229],[114.16427279077863,22.329611838729043],[114.16424987960883,22.329629373712184]]]},"properties":{"OBJECTID":52699,"Shape__Length":59.286184707761365,"Shape__Area":170.71271545803694,"GeoRefNo":"3496521168","DateCreate":1114790400000,"BuildingBlockType":"Tower","BuildingCSUID":"3496521168T20050430","BuildingID":1108227690,"Status":"Active","BuildingNameEN":null,"BuildingNameTC":null,"BaseHeight":4.7999999999999998,"TopHeight":27.699999999999999,"Storeys":6,"StoreysInBasement":null,"DateStamp":1599580800000}},{"type":"Feature","id":52700,"geometry":{"type":"Polygon","coordinates":[[[114.16431565440226,22.329579033123778],[114.16419856527804,22.329449197308609],[114.16426941104444,22.32939464797813],[114.1643991516468,22.329540047298167],[114.16432906818328,22.329593914031097],[114.16431565440226,22.329579033123778]]]},"properties":{"OBJECTID":52700,"Shape__Length":60.68333249032402,"Shape__Area":197.07184072727662,"GeoRefNo":"3497221162","DateCreate":1114790400000,"BuildingBlockType":"Tower","BuildingCSUID":"3497221162T20050430","BuildingID":1108227725,"Status":"Active","BuildingNameEN":"Iskra Building","BuildingNameTC":"怡家大廈","BaseHeight":4.7999999999999998,"TopHeight":24.100000000000001,"Storeys":6,"StoreysInBasement":null,"DateStamp":1599580800000}},{"type":"Feature","id":52702,"geometry":{"type":"Polygon","coordinates":[[[114.158575223523,22.329608804803613],[114.15847640786828,22.3294972087829],[114.15844457180083,22.329461255056447],[114.15847717196333,22.32943573019632],[114.158531392738,22.329497214999986],[114.15859619955148,22.329570704065741],[114.1585756409626,22.329586767429255],[114.15858704044511,22.329599721096979],[114.158575223523,22.329608804803613]]]},"properties":{"OBJECTID":52702,"Shape__Length":51.090498077323275,"Shape__Area":87.39504380188616,"GeoRefNo":"3437421161","DateCreate":1114790400000,"BuildingBlockType":"Tower","BuildingCSUID":"3437421161T20050430","BuildingID":1108227711,"Status":"Active","BuildingNameEN":"TANG TAT BUILDING","BuildingNameTC":"騰達樓","BaseHeight":3.7999999999999998,"TopHeight":30,"Storeys":8,"StoreysInBasement":null,"DateStamp":1599580800000}},{"type":"Feature","id":52723,"geometry":{"type":"Polygon","coordinates":[[[114.16196664309851,22.328777392129812],[114.1618813470466,22.328681992332072],[114.161907448131,22.328661836306654],[114.16191358340308,22.328657124893319],[114.16199962247511,22.328751872643917],[114.16196664309851,22.328777392129812]]]},"properties":{"OBJECTID":52723,"Shape__Length":36.209511904782055,"Shape__Area":59.992896983122705,"GeoRefNo":"3472821075","DateCreate":1114790400000,"BuildingBlockType":"Tower","BuildingCSUID":"3472821075T20050430","BuildingID":1108228360,"Status":"Active","BuildingNameEN":null,"BuildingNameTC":null,"BaseHeight":4.2999999999999998,"TopHeight":31.199999999999999,"Storeys":9,"StoreysInBasement":null,"DateStamp":1599580800000}},{"type":"Feature","id":52726,"geometry":{"type":"Polygon","coordinates":[[[114.1632937977146,22.328628504578774],[114.163311255197,22.328648103847929],[114.16338299358145,22.328728643569573],[114.16336581233512,22.328741347452311],[114.16338813470512,22.32876596450933],[114.16337344497514,22.328777385895275],[114.16326189911409,22.328653308654889],[114.16326859727461,22.32864810028433],[114.1632937977146,22.328628504578774]]]},"properties":{"OBJECTID":52726,"Shape__Length":44.39618844475666,"Shape__Area":68.043586899519624,"GeoRefNo":"3487221073","DateCreate":1114790400000,"BuildingBlockType":"Tower","BuildingCSUID":"3487221073T20050430","BuildingID":1108228361,"Status":"Active","BuildingNameEN":null,"BuildingNameTC":null,"BaseHeight":4.5,"TopHeight":25.5,"Storeys":6,"StoreysInBasement":null,"DateStamp":1599580800000}},{"type":"Feature","id":52728,"geometry":{"type":"Polygon","coordinates":[[[114.16072209647784,22.328809360964474],[114.16070397463776,22.328823455361814],[114.16067629139872,22.328792740673677],[114.16066374787654,22.328802420570018],[114.16063368786877,22.328769352357622],[114.16057662596096,22.328706592486807],[114.16060691243351,22.328683106159776],[114.16072209647784,22.328809360964474]]]},"properties":{"OBJECTID":52728,"Shape__Length":44.849235991622329,"Shape__Area":67.367461400811834,"GeoRefNo":"3459421078","DateCreate":1114790400000,"BuildingBlockType":"Tower","BuildingCSUID":"3459421078T20050430","BuildingID":1108228316,"Status":"Active","BuildingNameEN":null,"BuildingNameTC":"明德大廈","BaseHeight":4.2999999999999998,"TopHeight":44.5,"Storeys":13,"StoreysInBasement":null,"DateStamp":1599580800000}},{"type":"Feature","id":52730,"geometry":{"type":"Polygon","coordinates":[[[114.16099992892269,22.328847430484203],[114.16088933942083,22.328725408873598],[114.16088561021925,22.328721294172809],[114.1608970995868,22.328712415619897],[114.16091360055211,22.328730251018619],[114.16093560597984,22.328713543076081],[114.16103421316426,22.32882099589224],[114.16099992892269,22.328847430484203]]]},"properties":{"OBJECTID":52730,"Shape__Length":45.573920528054344,"Shape__Area":75.120673644516259,"GeoRefNo":"3462921082","DateCreate":1114790400000,"BuildingBlockType":"Tower","BuildingCSUID":"3462921082T20050430","BuildingID":1108228295,"Status":"Active","BuildingNameEN":null,"BuildingNameTC":null,"BaseHeight":4.4000000000000004,"TopHeight":35.399999999999999,"Storeys":9,"StoreysInBasement":null,"DateStamp":1599580800000}},{"type":"Feature","id":52742,"geometry":{"type":"Polygon","coordinates":[[[114.164598153889,22.330945195477966],[114.1645722239991,22.330965285388558],[114.16454536715551,22.330934923533579],[114.16457116017128,22.3309149137181],[114.164598153889,22.330945195477966]]]},"properties":{"OBJECTID":52742,"Shape__Length":15.646748408529861,"Shape__Area":15.104359838664099,"GeoRefNo":"3500021322","DateCreate":1114790400000,"BuildingBlockType":"Tower","BuildingCSUID":"3500021322T20050430","BuildingID":1108226586,"Status":"Active","BuildingNameEN":null,"BuildingNameTC":null,"BaseHeight":5.7000000000000002,"TopHeight":18,"Storeys":null,"StoreysInBasement":null,"DateStamp":1361808000000}},{"type":"Feature","id":52745,"geometry":{"type":"Polygon","coordinates":[[[114.16164352723163,22.330075352532035],[114.16155528977031,22.329975511061555],[114.16159122162331,22.329948004851577],[114.16168895375971,22.330058145846852],[114.16166818900132,22.330073220733766],[114.16168320583017,22.330089671704812],[114.16166710048384,22.330102025931883],[114.16164352723163,22.330075352532035]]]},"properties":{"OBJECTID":52745,"Shape__Length":46.000235509625405,"Shape__Area":80.91509748834973,"GeoRefNo":"3469621219","DateCreate":1114790400000,"BuildingBlockType":"Tower","BuildingCSUID":"3469621219T20050430","BuildingID":1108227244,"Status":"Active","BuildingNameEN":null,"BuildingNameTC":null,"BaseHeight":4.2999999999999998,"TopHeight":26.300000000000001,"Storeys":6,"StoreysInBasement":null,"DateStamp":1599580800000}},{"type":"Feature","id":52749,"geometry":{"type":"Polygon","coordinates":[[[114.16212067498009,22.330698307482148],[114.16204886787401,22.330617840362603],[114.16209245073793,22.330583948675109],[114.16210103083966,22.330577276487308],[114.16207736526707,22.330550993535681],[114.16210961314157,22.330526504626906],[114.16213298590149,22.330552427046513],[114.16213953168938,22.330547336739766],[114.1621579831785,22.330532988003934],[114.162231195779,22.33061404489959],[114.16213951738358,22.330683941716376],[114.16212067498009,22.330698307482148]]]},"properties":{"OBJECTID":52749,"Shape__Length":60.218276583015928,"Shape__Area":187.30273573504869,"GeoRefNo":"3474821284","DateCreate":1114790400000,"BuildingBlockType":"Tower","BuildingCSUID":"3474821284T20050430","BuildingID":1108226741,"Status":"Active","BuildingNameEN":"Jackson Building","BuildingNameTC":"積善大樓","BaseHeight":4.7000000000000002,"TopHeight":44.399999999999999,"Storeys":11,"StoreysInBasement":null,"DateStamp":1599580800000}},{"type":"Feature","id":52756,"geometry":{"type":"Polygon","coordinates":[[[114.16134280972668,22.329640432441373],[114.16128015315932,22.32957008660027],[114.16124658526746,22.329532399115052],[114.16128107370207,22.329505623136765],[114.16137791158133,22.329613229535493],[114.1613698221239,22.329619499781362],[114.16138479262335,22.32963633295077],[114.16136814162884,22.329649246812359],[114.16135329703695,22.329632310704834],[114.16134280972668,22.329640432441373]]]},"properties":{"OBJECTID":52756,"Shape__Length":45.268122049108968,"Shape__Area":77.904322445169115,"GeoRefNo":"3466421171","DateCreate":1114790400000,"BuildingBlockType":"Tower","BuildingCSUID":"3466421171T20050430","BuildingID":1108227679,"Status":"Active","BuildingNameEN":null,"BuildingNameTC":null,"BaseHeight":4.2999999999999998,"TopHeight":33.600000000000001,"Storeys":9,"StoreysInBasement":null,"DateStamp":1599580800000}},{"type":"Feature","id":52758,"geometry":{"type":"Polygon","coordinates":[[[114.16318361017225,22.329554372615807],[114.16328815439189,22.329472170659315],[114.1633160886948,22.329503655680377],[114.16319314986269,22.329599572931198],[114.16319001990232,22.329602014898665],[114.16317586250295,22.329586271594451],[114.16319711816628,22.329569391070194],[114.1631870198532,22.329558173514005],[114.16318361017225,22.329554372615807]]]},"properties":{"OBJECTID":52758,"Shape__Length":42.893501019720397,"Shape__Area":69.880217171845317,"GeoRefNo":"3486221166","DateCreate":1114790400000,"BuildingBlockType":"Tower","BuildingCSUID":"3486221166T20050430","BuildingID":1108227716,"Status":"Active","BuildingNameEN":null,"BuildingNameTC":null,"BaseHeight":4.5,"TopHeight":34.200000000000003,"Storeys":9,"StoreysInBasement":null,"DateStamp":1599580800000}},{"type":"Feature","id":52760,"geometry":{"type":"Polygon","coordinates":[[[114.16144589757104,22.329560553840114],[114.16135098002175,22.32945137471776],[114.16138491072294,22.329425015244595],[114.16148196673734,22.329532601464827],[114.16147048121951,22.329541504983077],[114.16148550560889,22.329558208920808],[114.16146837838672,22.329571459498158],[114.16145368531099,22.329554533167055],[114.16144589757104,22.329560553840114]]]},"properties":{"OBJECTID":52760,"Shape__Length":45.356363339183162,"Shape__Area":78.495370692949948,"GeoRefNo":"3467521162","DateCreate":1114790400000,"BuildingBlockType":"Tower","BuildingCSUID":"3467521162T20050430","BuildingID":1108227745,"Status":"Active","BuildingNameEN":null,"BuildingNameTC":null,"BaseHeight":4.2999999999999998,"TopHeight":33.600000000000001,"Storeys":9,"StoreysInBasement":null,"DateStamp":1599580800000}},{"type":"Feature","id":52795,"geometry":{"type":"Polygon","coordinates":[[[114.16019859693239,22.330126061005487],[114.16008859783086,22.330005999828799],[114.16012165453211,22.329980384922717],[114.16023076530421,22.330101094743398],[114.16019859693239,22.330126061005487]]]},"properties":{"OBJECTID":52795,"Shape__Length":43.682147211819888,"Shape__Area":76.397429402882437,"GeoRefNo":"3454621224","DateCreate":1114790400000,"BuildingBlockType":"Tower","BuildingCSUID":"3454621224T20050430","BuildingID":1108227220,"Status":"Active","BuildingNameEN":null,"BuildingNameTC":null,"BaseHeight":4.2999999999999998,"TopHeight":34.799999999999997,"Storeys":9,"StoreysInBasement":null,"DateStamp":1599580800000}},{"type":"Feature","id":52796,"geometry":{"type":"Polygon","coordinates":[[[114.16070340987011,22.330135121291313],[114.160622020906,22.33004385651979],[114.16060613590525,22.330026044003219],[114.16062202437763,22.330013808882899],[114.16064174121945,22.329998625658252],[114.1607552655426,22.33012415184707],[114.1607318651612,22.330142146120284],[114.16071978496662,22.330128603742523],[114.16070662888012,22.330138730864377],[114.16070340987011,22.330135121291313]]]},"properties":{"OBJECTID":52796,"Shape__Length":45.976991096464992,"Shape__Area":84.199433491524189,"GeoRefNo":"3459921225","DateCreate":1114790400000,"BuildingBlockType":"Tower","BuildingCSUID":"3459921225T20050430","BuildingID":1108227205,"Status":"Active","BuildingNameEN":null,"BuildingNameTC":null,"BaseHeight":4.5,"TopHeight":26.300000000000001,"Storeys":6,"StoreysInBasement":null,"DateStamp":1599580800000}},{"type":"Feature","id":52797,"geometry":{"type":"Polygon","coordinates":[[[114.16197884975711,22.330112369980654],[114.16186508815893,22.329984350018108],[114.16188414572456,22.329969661547562],[114.16191033444228,22.329999385594004],[114.16192181771056,22.329990732643541],[114.16194039643828,22.330011722869859],[114.16200896562276,22.330089186897968],[114.16197884975711,22.330112369980654]]]},"properties":{"OBJECTID":52797,"Shape__Length":44.871692495428562,"Shape__Area":67.92758683222803,"GeoRefNo":"3472821222","DateCreate":1114790400000,"BuildingBlockType":"Tower","BuildingCSUID":"3472821222T20050430","BuildingID":1108227233,"Status":"Active","BuildingNameEN":null,"BuildingNameTC":null,"BaseHeight":4.5,"TopHeight":27.899999999999999,"Storeys":6,"StoreysInBasement":null,"DateStamp":1599580800000}},{"type":"Feature","id":52806,"geometry":{"type":"Polygon","coordinates":[[[114.16162161761386,22.330744417354378],[114.16154574072453,22.330657776053997],[114.16156714147994,22.330641732172065],[114.16164239307876,22.330728244898818],[114.16162161761386,22.330744417354378]]]},"properties":{"OBJECTID":52806,"Shape__Length":30.32153127861914,"Shape__Area":34.714016565280275,"GeoRefNo":"3469421294","DateCreate":1114790400000,"BuildingBlockType":"Tower","BuildingCSUID":"3469421294T20050430","BuildingID":1108226717,"Status":"Active","BuildingNameEN":"MTR SHAM SHUI PO STATION","BuildingNameTC":"港鐵深水埗站","BaseHeight":4.4000000000000004,"TopHeight":7.7999999999999998,"Storeys":null,"StoreysInBasement":null,"DateStamp":1361808000000}},{"type":"Feature","id":52810,"geometry":{"type":"Polygon","coordinates":[[[114.16116534968241,22.330621448084106],[114.1611757248604,22.330613379539365],[114.16128504920849,22.330528359910282],[114.16131541623004,22.330561927957397],[114.16128004015768,22.330589526179018],[114.16119585635491,22.330655200932437],[114.16118662152471,22.330644981215741],[114.1611972298704,22.330636812904224],[114.16118436650132,22.330622793942506],[114.16117398063092,22.330630994513861],[114.16116534968241,22.330621448084106]]]},"properties":{"OBJECTID":52810,"Shape__Length":44.728436365623899,"Shape__Area":75.424198758458942,"GeoRefNo":"3465721283","DateCreate":1114790400000,"BuildingBlockType":"Tower","BuildingCSUID":"3465721283T20050430","BuildingID":1108226762,"Status":"Active","BuildingNameEN":null,"BuildingNameTC":"順興樓","BaseHeight":4.5,"TopHeight":23.800000000000001,"Storeys":6,"StoreysInBasement":null,"DateStamp":1599580800000}},{"type":"Feature","id":52811,"geometry":{"type":"Polygon","coordinates":[[[114.16062353418855,22.330691588166729],[114.16066456536818,22.330659818614595],[114.16067516695522,22.330651610511751],[114.16075481324916,22.330740468336856],[114.16075015864878,22.3307440141845],[114.16078229404863,22.330779402529402],[114.16076961997176,22.330789279194931],[114.16075105041604,22.330768504487654],[114.16072667700769,22.330787437210443],[114.16074513947835,22.330808372383274],[114.16073580666404,22.330815646402886],[114.16071704743457,22.330794917277373],[114.16062353418855,22.330691588166729]]]},"properties":{"OBJECTID":52811,"Shape__Length":55.659754887493136,"Shape__Area":110.51298745589153,"GeoRefNo":"3460121298","DateCreate":1114790400000,"BuildingBlockType":"Tower","BuildingCSUID":"3460121298T20050430","BuildingID":1108226678,"Status":"Active","BuildingNameEN":null,"BuildingNameTC":"永泰樓","BaseHeight":4.4000000000000004,"TopHeight":34.5,"Storeys":10,"StoreysInBasement":null,"DateStamp":1599580800000}},{"type":"Feature","id":52812,"geometry":{"type":"Polygon","coordinates":[[[114.16104063523025,22.330829813401117],[114.16095475792015,22.330734266787456],[114.16096795329283,22.330723848684727],[114.16094256741657,22.330695585986422],[114.16096493440229,22.330678304186058],[114.16104589373916,22.330768838162747],[114.16107588394266,22.330802375061538],[114.16104063523025,22.330829813401117]]]},"properties":{"OBJECTID":52812,"Shape__Length":45.255465495793558,"Shape__Area":77.770101583625603,"GeoRefNo":"3463121299","DateCreate":1114790400000,"BuildingBlockType":"Tower","BuildingCSUID":"3463121299T20050430","BuildingID":1108226671,"Status":"Active","BuildingNameEN":null,"BuildingNameTC":null,"BaseHeight":4.5,"TopHeight":28.300000000000001,"Storeys":6,"StoreysInBasement":null,"DateStamp":1599580800000}},{"type":"Feature","id":52837,"geometry":{"type":"Polygon","coordinates":[[[114.16145728210927,22.328822928026256],[114.16151728358979,22.328775732109101],[114.16157942037638,22.328726856410846],[114.16159107835811,22.328739823529279],[114.16161366492108,22.328722383530167],[114.16162379924934,22.328733642548901],[114.16160207976876,22.328752060281861],[114.16160902411114,22.328759784431238],[114.16148693519463,22.328855404273124],[114.16145728210927,22.328822928026256]]]},"properties":{"OBJECTID":52837,"Shape__Length":48.302337914458491,"Shape__Area":83.084021311754313,"GeoRefNo":"3468721084","DateCreate":1114790400000,"BuildingBlockType":"Tower","BuildingCSUID":"3468721084T20050430","BuildingID":1108228288,"Status":"Active","BuildingNameEN":null,"BuildingNameTC":null,"BaseHeight":4.2999999999999998,"TopHeight":33.399999999999999,"Storeys":9,"StoreysInBasement":null,"DateStamp":1599580800000}},{"type":"Feature","id":52842,"geometry":{"type":"Polygon","coordinates":[[[114.16251935264451,22.328816334971311],[114.1626239132797,22.328734345114043],[114.16265538330892,22.328769683279514],[114.1625442561233,22.328858467911711],[114.16251969527266,22.328830761268797],[114.16252715578005,22.328825062725919],[114.16251935264451,22.328816334971311]]]},"properties":{"OBJECTID":52842,"Shape__Length":40.488817374927308,"Shape__Area":76.455401229482177,"GeoRefNo":"3479521085","DateCreate":1114790400000,"BuildingBlockType":"Tower","BuildingCSUID":"3479521085T20050430","BuildingID":1108228286,"Status":"Active","BuildingNameEN":null,"BuildingNameTC":null,"BaseHeight":4.4000000000000004,"TopHeight":26.600000000000001,"Storeys":6,"StoreysInBasement":null,"DateStamp":1599580800000}},{"type":"Feature","id":52844,"geometry":{"type":"Polygon","coordinates":[[[114.16001927342904,22.328779675148841],[114.15990686269454,22.328656971050069],[114.1599198372046,22.328646690632976],[114.15990048320418,22.328625731336672],[114.15992337199422,22.32860776891431],[114.16005442134313,22.328752395861844],[114.16001927342904,22.328779675148841]]]},"properties":{"OBJECTID":52844,"Shape__Length":51.416079408014397,"Shape__Area":94.537333491376089,"GeoRefNo":"3452621072","DateCreate":1114790400000,"BuildingBlockType":"Tower","BuildingCSUID":"3452621072T20050430","BuildingID":1108228356,"Status":"Active","BuildingNameEN":null,"BuildingNameTC":null,"BaseHeight":4.2000000000000002,"TopHeight":25.100000000000001,"Storeys":6,"StoreysInBasement":null,"DateStamp":1599580800000}},{"type":"Feature","id":52845,"geometry":{"type":"Polygon","coordinates":[[[114.16063163673944,22.328831772359987],[114.16062837036769,22.328834265558271],[114.16065611824672,22.328865013403146],[114.16063948631381,22.328877822799477],[114.16057906013498,22.328811771397991],[114.1605646269366,22.328822978981609],[114.16050743564486,22.328760251854888],[114.16053158021165,22.328741534516592],[114.16054258685466,22.328732989078521],[114.16063163673944,22.328831772359987]]]},"properties":{"OBJECTID":52845,"Shape__Length":46.746722118066877,"Shape__Area":66.642559993281537,"GeoRefNo":"3458821083","DateCreate":1114790400000,"BuildingBlockType":"Tower","BuildingCSUID":"3458821083T20050430","BuildingID":1108228270,"Status":"Active","BuildingNameEN":null,"BuildingNameTC":null,"BaseHeight":4.2999999999999998,"TopHeight":27.199999999999999,"Storeys":7,"StoreysInBasement":null,"DateStamp":1599580800000}},{"type":"Feature","id":52859,"geometry":{"type":"Polygon","coordinates":[[[114.15988515185826,22.330101621763923],[114.1598510928447,22.330128226087563],[114.15980931855064,22.330081899244057],[114.1597544827647,22.3300210885788],[114.15978179027051,22.330000107269935],[114.15978869752469,22.329994800181275],[114.15988515185826,22.330101621763923]]]},"properties":{"OBJECTID":52859,"Shape__Length":40.087691496020035,"Shape__Area":70.78539241178342,"GeoRefNo":"3451121224","DateCreate":1114790400000,"BuildingBlockType":"Tower","BuildingCSUID":"3451121224T20050430","BuildingID":1108227219,"Status":"Active","BuildingNameEN":null,"BuildingNameTC":null,"BaseHeight":4.0999999999999996,"TopHeight":27.899999999999999,"Storeys":6,"StoreysInBasement":null,"DateStamp":1599580800000}},{"type":"Feature","id":52865,"geometry":{"type":"Polygon","coordinates":[[[114.16195427162909,22.330651165119914],[114.16196900545954,22.330639637127941],[114.16194463602604,22.330612808103641],[114.16196175818678,22.330599549440002],[114.1619860349288,22.330626312439733],[114.1619908198774,22.330622560851829],[114.16208459400411,22.330727077532941],[114.16206544345482,22.330741842506214],[114.16204789619928,22.330755371336799],[114.16203573875208,22.330741839797376],[114.16195427162909,22.330651165119914]]]},"properties":{"OBJECTID":52865,"Shape__Length":47.715932792232024,"Shape__Area":82.918304353940727,"GeoRefNo":"3473621293","DateCreate":1114790400000,"BuildingBlockType":"Tower","BuildingCSUID":"3473621293T20050430","BuildingID":1108226709,"Status":"Active","BuildingNameEN":null,"BuildingNameTC":null,"BaseHeight":4.5999999999999996,"TopHeight":36.100000000000001,"Storeys":9,"StoreysInBasement":null,"DateStamp":1599580800000}},{"type":"Feature","id":52869,"geometry":{"type":"Polygon","coordinates":[[[114.1609042438252,22.330684328675506],[114.16079314863718,22.330560262362372],[114.16082818199888,22.330533138047784],[114.16093864107839,22.330657512488692],[114.1609042438252,22.330684328675506]]]},"properties":{"OBJECTID":52869,"Shape__Length":45.065644745951822,"Shape__Area":83.27903608647901,"GeoRefNo":"3461821284","DateCreate":1114790400000,"BuildingBlockType":"Tower","BuildingCSUID":"3461821284T20050430","BuildingID":1108226744,"Status":"Active","BuildingNameEN":null,"BuildingNameTC":null,"BaseHeight":4.4000000000000004,"TopHeight":27.899999999999999,"Storeys":6,"StoreysInBasement":null,"DateStamp":1599580800000}},{"type":"Feature","id":52873,"geometry":{"type":"Polygon","coordinates":[[[114.16208459400411,22.330727077532941],[114.1619908198774,22.330622560851829],[114.16199674245351,22.330617917236726],[114.16197200352393,22.330591615929855],[114.16198963056725,22.330577978025065],[114.16201362319588,22.330604727990689],[114.16202749508386,22.330593872783165],[114.16204886787401,22.330617840362603],[114.16212067498009,22.330698307482148],[114.16211914186641,22.330700440547009],[114.16208459400411,22.330727077532941]]]},"properties":{"OBJECTID":52873,"Shape__Length":47.767393024403034,"Shape__Area":83.124631346371714,"GeoRefNo":"3474021290","DateCreate":1114790400000,"BuildingBlockType":"Tower","BuildingCSUID":"3474021290T20050430","BuildingID":1108226724,"Status":"Active","BuildingNameEN":null,"BuildingNameTC":null,"BaseHeight":4.5999999999999996,"TopHeight":36.100000000000001,"Storeys":9,"StoreysInBasement":null,"DateStamp":1599580800000}},{"type":"Feature","id":52876,"geometry":{"type":"Polygon","coordinates":[[[114.16131541623004,22.330561927957397],[114.16134472196325,22.330594323185959],[114.16128003401087,22.330644977291463],[114.16127651598055,22.330647732003733],[114.16126290947312,22.330632666784073],[114.16121940540725,22.330667425823762],[114.16121123495759,22.33065860667358],[114.16120397126424,22.330664169082645],[114.16119585635491,22.330655200932437],[114.16128004015768,22.330589526179018],[114.16131541623004,22.330561927957397]]]},"properties":{"OBJECTID":52876,"Shape__Length":41.590975776284438,"Shape__Area":59.556670437763792,"GeoRefNo":"3466121285","DateCreate":1114790400000,"BuildingBlockType":"Tower","BuildingCSUID":"3466121285T20050430","BuildingID":1108226756,"Status":"Active","BuildingNameEN":null,"BuildingNameTC":null,"BaseHeight":4.4000000000000004,"TopHeight":19.5,"Storeys":4,"StoreysInBasement":null,"DateStamp":1599580800000}},{"type":"Feature","id":52900,"geometry":{"type":"Polygon","coordinates":[[[114.16491122721166,22.329145988493035],[114.16478099481162,22.329000472864049],[114.16493389792321,22.32888187584059],[114.16502117795119,22.32897987697006],[114.16505195128376,22.329014430222209],[114.16504047885452,22.329023250913686],[114.16505290881338,22.329036754075062],[114.16501507066849,22.329065930310676],[114.16500271167939,22.32905227065163],[114.16498960502518,22.329062352341232],[114.16500199992889,22.329076007217637],[114.164985386908,22.329088806585659],[114.16497293658084,22.329075140686623],[114.16496135512935,22.329084041104515],[114.16494484092507,22.329096749989144],[114.16493484156183,22.329104428321966],[114.16491573405422,22.329119132230371],[114.16492808098724,22.329132995444393],[114.16491122721166,22.329145988493035]]]},"properties":{"OBJECTID":52900,"Shape__Length":90.912937232528279,"Shape__Area":408.44289022615152,"GeoRefNo":"3503421107","DateCreate":1114790400000,"BuildingBlockType":"Tower","BuildingCSUID":"3503421107T20050430","BuildingID":1108228100,"Status":"Active","BuildingNameEN":"Shek On Building","BuildingNameTC":"石安大廈","BaseHeight":5.0999999999999996,"TopHeight":45.5,"Storeys":9,"StoreysInBasement":null,"DateStamp":1599580800000}},{"type":"Feature","id":52908,"geometry":{"type":"Polygon","coordinates":[[[114.16388964709415,22.329037941847499],[114.16378744489965,22.328924790828033],[114.16382249485522,22.328897536633956],[114.1639320167165,22.329019317298215],[114.16391484891122,22.329032729689008],[114.16392299291472,22.329041793341116],[114.16390543293809,22.329055418821429],[114.16388964709415,22.329037941847499]]]},"properties":{"OBJECTID":52908,"Shape__Length":47.156807288293585,"Shape__Area":85.517634917527289,"GeoRefNo":"3492721104","DateCreate":1114790400000,"BuildingBlockType":"Tower","BuildingCSUID":"3492721104T20050430","BuildingID":1108228157,"Status":"Active","BuildingNameEN":null,"BuildingNameTC":null,"BaseHeight":4.7999999999999998,"TopHeight":24.699999999999999,"Storeys":6,"StoreysInBasement":null,"DateStamp":1599580800000}},{"type":"Feature","id":52909,"geometry":{"type":"Polygon","coordinates":[[[114.16205356147053,22.329047575723663],[114.16196853073676,22.32895247753023],[114.16200323914917,22.328925562164791],[114.16208842569908,22.329020494462696],[114.16211954483168,22.32905517364701],[114.16211203905395,22.329060954164532],[114.16208131588211,22.329026022158484],[114.16205356147053,22.329047575723663]]]},"properties":{"OBJECTID":52909,"Shape__Length":46.776105134482215,"Shape__Area":68.817359133964032,"GeoRefNo":"3473921105","DateCreate":1114790400000,"BuildingBlockType":"Tower","BuildingCSUID":"3473921105T20050430","BuildingID":1108228154,"Status":"Active","BuildingNameEN":null,"BuildingNameTC":null,"BaseHeight":4.2999999999999998,"TopHeight":33.100000000000001,"Storeys":9,"StoreysInBasement":null,"DateStamp":1599580800000}},{"type":"Feature","id":52911,"geometry":{"type":"Polygon","coordinates":[[[114.16287131399179,22.329010591755694],[114.16276048862784,22.329097445188587],[114.16275465777939,22.329102014247848],[114.16274747720585,22.329094176522581],[114.16273656704686,22.329102809353884],[114.16271400463928,22.329077756732513],[114.16284206502667,22.328978132413653],[114.16287131399179,22.329010591755694]]]},"properties":{"OBJECTID":52911,"Shape__Length":43.837093899578967,"Shape__Area":79.519329246841423,"GeoRefNo":"3481821110","DateCreate":1114790400000,"BuildingBlockType":"Tower","BuildingCSUID":"3481821110T20050430","BuildingID":1108228132,"Status":"Active","BuildingNameEN":null,"BuildingNameTC":null,"BaseHeight":4.4000000000000004,"TopHeight":26,"Storeys":null,"StoreysInBasement":null,"DateStamp":1361808000000}},{"type":"Feature","id":52912,"geometry":{"type":"Polygon","coordinates":[[[114.16193182889089,22.328980932148514],[114.16196853073676,22.32895247753023],[114.16205356147053,22.329047575723663],[114.16202451576828,22.329070126413427],[114.16205523604889,22.329104818577484],[114.16204702074843,22.329111159736208],[114.16201633997376,22.329076474347147],[114.16193182889089,22.328980932148514]]]},"properties":{"OBJECTID":52912,"Shape__Length":47.270350766294222,"Shape__Area":73.391033832599234,"GeoRefNo":"3473621109","DateCreate":1114790400000,"BuildingBlockType":"Tower","BuildingCSUID":"3473621109T20050430","BuildingID":1108228125,"Status":"Active","BuildingNameEN":null,"BuildingNameTC":null,"BaseHeight":4.2999999999999998,"TopHeight":33.100000000000001,"Storeys":9,"StoreysInBasement":null,"DateStamp":1599580800000}},{"type":"Feature","id":52913,"geometry":{"type":"Polygon","coordinates":[[[114.16378834327128,22.329116663619025],[114.16368581551292,22.329003809526263],[114.16371897053892,22.328978027908743],[114.16383760497919,22.3291080543855],[114.16382713260536,22.329116182425377],[114.16381142810421,22.32909872468565],[114.16378834327128,22.329116663619025]]]},"properties":{"OBJECTID":52913,"Shape__Length":46.725452120115001,"Shape__Area":76.646825862909381,"GeoRefNo":"3491621112","DateCreate":1114790400000,"BuildingBlockType":"Tower","BuildingCSUID":"3491621112T20050430","BuildingID":1108228115,"Status":"Active","BuildingNameEN":null,"BuildingNameTC":"錦城大廈","BaseHeight":4.7000000000000002,"TopHeight":37.5,"Storeys":9,"StoreysInBasement":null,"DateStamp":1599580800000}},{"type":"Feature","id":52915,"geometry":{"type":"Polygon","coordinates":[[[114.16065459173714,22.329113763382434],[114.1605945033082,22.329047127833835],[114.16055390315034,22.329002103955411],[114.16056929873983,22.328990410624158],[114.1605567995371,22.328975950592756],[114.16057436681507,22.328962346878459],[114.16068734445992,22.329088506661222],[114.16065459173714,22.329113763382434]]]},"properties":{"OBJECTID":52915,"Shape__Length":45.162757561728171,"Shape__Area":76.005850143313594,"GeoRefNo":"3459421112","DateCreate":1114790400000,"BuildingBlockType":"Tower","BuildingCSUID":"3459421112T20050430","BuildingID":1108228119,"Status":"Active","BuildingNameEN":null,"BuildingNameTC":null,"BaseHeight":4.2999999999999998,"TopHeight":27.100000000000001,"Storeys":6,"StoreysInBasement":null,"DateStamp":1599580800000}},{"type":"Feature","id":52926,"geometry":{"type":"Polygon","coordinates":[[[114.16194705001784,22.330136849333428],[114.1618587250004,22.330038274288988],[114.1618722750954,22.330028064028451],[114.16184622182705,22.329998891215237],[114.16186508815893,22.329984350018108],[114.16197884975711,22.330112369980654],[114.16194705001784,22.330136849333428]]]},"properties":{"OBJECTID":52926,"Shape__Length":45.376985407987917,"Shape__Area":71.354311230377874,"GeoRefNo":"3472621224","DateCreate":1114790400000,"BuildingBlockType":"Tower","BuildingCSUID":"3472621224T20050430","BuildingID":1108227209,"Status":"Active","BuildingNameEN":null,"BuildingNameTC":null,"BaseHeight":4.4000000000000004,"TopHeight":25.399999999999999,"Storeys":6,"StoreysInBasement":null,"DateStamp":1599580800000}},{"type":"Feature","id":52937,"geometry":{"type":"Polygon","coordinates":[[[114.16397972192772,22.330601198053635],[114.1639900805051,22.330612578039847],[114.16397276370334,22.330626018326775],[114.16394726898056,22.330598064664795],[114.1639194546503,22.33061965520471],[114.16389052317915,22.330642112947668],[114.16391599576617,22.330670077814567],[114.16389905948202,22.330683222733509],[114.16376589638615,22.330537197841245],[114.16385713889625,22.330466476478868],[114.16395399699275,22.330572932728987],[114.16397972192772,22.330601198053635]]]},"properties":{"OBJECTID":52937,"Shape__Length":74.965149226957294,"Shape__Area":228.22136630149657,"GeoRefNo":"3492821280","DateCreate":1114790400000,"BuildingBlockType":"Tower","BuildingCSUID":"3492821280T20050430","BuildingID":1108226748,"Status":"Active","BuildingNameEN":null,"BuildingNameTC":null,"BaseHeight":5.4000000000000004,"TopHeight":27.5,"Storeys":6,"StoreysInBasement":null,"DateStamp":1599580800000}},{"type":"Feature","id":52942,"geometry":{"type":"Polygon","coordinates":[[[114.16309880979533,22.330769025096984],[114.1631282606719,22.33080182630064],[114.16310693357106,22.33081865370735],[114.16306193393027,22.330769021968486],[114.16303736879725,22.330741928134902],[114.16301632684174,22.330718720095913],[114.16303776409717,22.330701034624411],[114.16307448344129,22.330741931289257],[114.16309880979533,22.330769025096984]]]},"properties":{"OBJECTID":52942,"Shape__Length":34.852589742123875,"Shape__Area":42.307460036825653,"GeoRefNo":"3484521301","DateCreate":1114790400000,"BuildingBlockType":"Tower","BuildingCSUID":"3484521301T20050430","BuildingID":1108226676,"Status":"Active","BuildingNameEN":"MTR SHAM SHUI PO STATION","BuildingNameTC":"港鐵深水埗站","BaseHeight":5.2000000000000002,"TopHeight":8.9000000000000004,"Storeys":null,"StoreysInBasement":null,"DateStamp":1361808000000}},{"type":"Feature","id":52943,"geometry":{"type":"Polygon","coordinates":[[[114.16163258295134,22.330652072106695],[114.16171913690354,22.330584881473857],[114.16174738130154,22.330616380877512],[114.16166120161122,22.330683797595682],[114.16163258295134,22.330652072106695]]]},"properties":{"OBJECTID":52943,"Shape__Length":32.341951514274328,"Shape__Area":52.976753444782894,"GeoRefNo":"3470421287","DateCreate":1114790400000,"BuildingBlockType":"Tower","BuildingCSUID":"3470421287T20050430","BuildingID":1108226745,"Status":"Active","BuildingNameEN":null,"BuildingNameTC":null,"BaseHeight":4.2999999999999998,"TopHeight":30.199999999999999,"Storeys":8,"StoreysInBasement":null,"DateStamp":1599580800000}},{"type":"Feature","id":52944,"geometry":{"type":"Polygon","coordinates":[[[114.16075481324916,22.330740468336856],[114.16067516695522,22.330651610511751],[114.16068464993302,22.330644267878021],[114.16072484069683,22.330613154208148],[114.16083586379381,22.330737644455656],[114.16082919466265,22.330742834304719],[114.16081047345214,22.330722345768304],[114.1607855798287,22.330741682657482],[114.16080430685408,22.330762242629209],[114.16079094645106,22.33077265844458],[114.16075884423269,22.330737400957752],[114.16075481324916,22.330740468336856]]]},"properties":{"OBJECTID":52944,"Shape__Length":55.029629351288136,"Shape__Area":106.11359248072119,"GeoRefNo":"3460621293","DateCreate":1114790400000,"BuildingBlockType":"Tower","BuildingCSUID":"3460621293T20050430","BuildingID":1108226700,"Status":"Active","BuildingNameEN":null,"BuildingNameTC":"永泰樓","BaseHeight":4.4000000000000004,"TopHeight":34.5,"Storeys":10,"StoreysInBasement":null,"DateStamp":1599580800000}},{"type":"Feature","id":52945,"geometry":{"type":"Polygon","coordinates":[[[114.15742375226492,22.330687982534752],[114.15749521235252,22.330632560643703],[114.15753203475087,22.330673799209436],[114.15746091301457,22.330729363298222],[114.15742375226492,22.330687982534752]]]},"properties":{"OBJECTID":52945,"Shape__Length":31.060016557130446,"Shape__Area":57.014766690722531,"GeoRefNo":"3427021293","DateCreate":1114790400000,"BuildingBlockType":"Tower","BuildingCSUID":"3427021293T20050430","BuildingID":1108226723,"Status":"Active","BuildingNameEN":"Shamshuipo Army Camp Substation","BuildingNameTC":"深水埗軍營支站","BaseHeight":4.5999999999999996,"TopHeight":8.9000000000000004,"Storeys":null,"StoreysInBasement":null,"DateStamp":1361808000000}},{"type":"Feature","id":52946,"geometry":{"type":"Polygon","coordinates":[[[114.16420314978785,22.330628376083201],[114.1642739741596,22.330573316709966],[114.16432997802079,22.330636055407385],[114.16429756776203,22.330661230888822],[114.16426161127167,22.330689167098789],[114.1642216623932,22.330720197228633],[114.16420369927776,22.330734159367093],[114.16416073183915,22.330685934965249],[114.16417105268222,22.330677909300395],[114.164185322965,22.33069402729361],[114.16419195635024,22.330688790163933],[114.16417232147271,22.330666915478972],[114.16421076832403,22.330636975596573],[114.16420314978785,22.330628376083201]]]},"properties":{"OBJECTID":52946,"Shape__Length":56.573679486638852,"Shape__Area":139.80226854817184,"GeoRefNo":"3496721287","DateCreate":1114790400000,"BuildingBlockType":"Tower","BuildingCSUID":"3496721287T20050430","BuildingID":1108226721,"Status":"Active","BuildingNameEN":null,"BuildingNameTC":null,"BaseHeight":5.5,"TopHeight":26.199999999999999,"Storeys":6,"StoreysInBasement":null,"DateStamp":1599580800000}},{"type":"Feature","id":52947,"geometry":{"type":"Polygon","coordinates":[[[114.16412064269011,22.330798240655305],[114.16408086085185,22.330753969619575],[114.16407011646568,22.330742012735417],[114.16401751887786,22.330683479670022],[114.16402735309879,22.33067579208079],[114.16399770630167,22.330642462012921],[114.16401655522564,22.330627850939269],[114.16404618194096,22.330661073809164],[114.16404958109852,22.330658408791354],[114.16415326006275,22.330773005624039],[114.16412064269011,22.330798240655305]]]},"properties":{"OBJECTID":52947,"Shape__Length":51.40061319268581,"Shape__Area":84.08782017427994,"GeoRefNo":"3495021298","DateCreate":1114790400000,"BuildingBlockType":"Tower","BuildingCSUID":"3495021298T20050430","BuildingID":1108226687,"Status":"Active","BuildingNameEN":null,"BuildingNameTC":null,"BaseHeight":5.5999999999999996,"TopHeight":35.899999999999999,"Storeys":9,"StoreysInBasement":null,"DateStamp":1599580800000}},{"type":"Feature","id":52948,"geometry":{"type":"Polygon","coordinates":[[[114.16110814988404,22.330777252498116],[114.1611006322653,22.330768843484531],[114.16102488505433,22.33068411426931],[114.16105832146714,22.330657684562581],[114.16114097011689,22.330751706357294],[114.16111895104723,22.330768845261399],[114.16110814988404,22.330777252498116]]]},"properties":{"OBJECTID":52948,"Shape__Length":35.793044256331576,"Shape__Area":59.960835724981081,"GeoRefNo":"3463821294","DateCreate":1114790400000,"BuildingBlockType":"Tower","BuildingCSUID":"3463821294T20050430","BuildingID":1108226695,"Status":"Active","BuildingNameEN":null,"BuildingNameTC":null,"BaseHeight":4.5,"TopHeight":26.600000000000001,"Storeys":6,"StoreysInBasement":null,"DateStamp":1599580800000}},{"type":"Feature","id":52967,"geometry":{"type":"Polygon","coordinates":[[[114.15871615036114,22.328628509168659],[114.15864831391603,22.328552702013091],[114.15868067596931,22.328527557811775],[114.15881288824606,22.328673123178188],[114.1587925052438,22.328688939604142],[114.158774999306,22.328669079491625],[114.15876170894623,22.328679420286722],[114.15871615036114,22.328628509168659]]]},"properties":{"OBJECTID":52967,"Shape__Length":51.069266788387409,"Shape__Area":88.246671899850185,"GeoRefNo":"3439621061","DateCreate":1114790400000,"BuildingBlockType":"Tower","BuildingCSUID":"3439621061T20050430","BuildingID":1108228429,"Status":"Active","BuildingNameEN":"HYATT COURT","BuildingNameTC":"海逸閣","BaseHeight":3.7000000000000002,"TopHeight":35.799999999999997,"Storeys":9,"StoreysInBasement":null,"DateStamp":1599580800000}},{"type":"Feature","id":52971,"geometry":{"type":"Polygon","coordinates":[[[114.1638548166014,22.329065003270227],[114.16375190005087,22.328952427239077],[114.16378744489965,22.328924790828033],[114.16388964709415,22.329037941847499],[114.1638548166014,22.329065003270227]]]},"properties":{"OBJECTID":52971,"Shape__Length":42.178920651705795,"Shape__Area":77.305027672097538,"GeoRefNo":"3492421107","DateCreate":1114790400000,"BuildingBlockType":"Tower","BuildingCSUID":"3492421107T20050430","BuildingID":1108228151,"Status":"Active","BuildingNameEN":null,"BuildingNameTC":"錦城大廈","BaseHeight":4.7999999999999998,"TopHeight":37,"Storeys":9,"StoreysInBasement":null,"DateStamp":1599580800000}},{"type":"Feature","id":52973,"geometry":{"type":"Polygon","coordinates":[[[114.16068734445992,22.329088506661222],[114.16057436681507,22.328962346878459],[114.16059169567384,22.328948923930625],[114.16060497000156,22.328963796283109],[114.16062400092453,22.328949450757172],[114.16072327938565,22.329060792756884],[114.16068734445992,22.329088506661222]]]},"properties":{"OBJECTID":52973,"Shape__Length":45.99882229625031,"Shape__Area":82.370118909528159,"GeoRefNo":"3459721108","DateCreate":1114790400000,"BuildingBlockType":"Tower","BuildingCSUID":"3459721108T20050430","BuildingID":1108228139,"Status":"Active","BuildingNameEN":null,"BuildingNameTC":null,"BaseHeight":4.2999999999999998,"TopHeight":27,"Storeys":6,"StoreysInBasement":null,"DateStamp":1599580800000}},{"type":"Feature","id":52977,"geometry":{"type":"Polygon","coordinates":[[[114.16049530485137,22.330233698153151],[114.1604307681296,22.330161096140611],[114.16045844028142,22.330139783874436],[114.16046576737202,22.330134134901545],[114.16058363740399,22.330265024097113],[114.16055891548892,22.330283985478186],[114.16055114294716,22.330275462718017],[114.16055732814517,22.330270627643046],[114.16051205726723,22.330220521421893],[114.16049530485137,22.330233698153151]]]},"properties":{"OBJECTID":52977,"Shape__Length":48.901474351020497,"Shape__Area":71.209508299969912,"GeoRefNo":"3458021239","DateCreate":1114790400000,"BuildingBlockType":"Tower","BuildingCSUID":"3458021239T20050430","BuildingID":1108227074,"Status":"Active","BuildingNameEN":null,"BuildingNameTC":null,"BaseHeight":4.4000000000000004,"TopHeight":22.699999999999999,"Storeys":5,"StoreysInBasement":null,"DateStamp":1599580800000}},{"type":"Feature","id":52994,"geometry":{"type":"Polygon","coordinates":[[[114.16290712342062,22.330010066167912],[114.16283169218597,22.329927021206835],[114.16284772635797,22.329914654214761],[114.16286660197734,22.329936324544263],[114.16290908440199,22.329903111277929],[114.16289008816975,22.329881980791132],[114.16290904524034,22.329867359378746],[114.16302749510933,22.329998854520131],[114.16295090694567,22.330058268850731],[114.16290712342062,22.330010066167912]]]},"properties":{"OBJECTID":52994,"Shape__Length":64.838181949550489,"Shape__Area":178.59495576194584,"GeoRefNo":"3483121213","DateCreate":1114790400000,"BuildingBlockType":"Tower","BuildingCSUID":"3483121213T20050430","BuildingID":1108227292,"Status":"Active","BuildingNameEN":"Wah Tong House","BuildingNameTC":"華通樓","BaseHeight":4.7000000000000002,"TopHeight":45.399999999999999,"Storeys":13,"StoreysInBasement":null,"DateStamp":1599580800000}},{"type":"Feature","id":52995,"geometry":{"type":"Polygon","coordinates":[[[114.16408577570327,22.330825216508835],[114.16401030791792,22.330742008015552],[114.16398223649279,22.330711057176472],[114.16398715545094,22.330707198437562],[114.16395659016364,22.33067431060741],[114.16397557286408,22.330659602109233],[114.16400573996371,22.330692687493478],[114.16401751887786,22.330683479670022],[114.16407011646568,22.330742012735417],[114.16408086085185,22.330753969619575],[114.16412064269011,22.330798240655305],[114.16408577570327,22.330825216508835]]]},"properties":{"OBJECTID":52995,"Shape__Length":52.187660879395921,"Shape__Area":90.084506516331615,"GeoRefNo":"3494621301","DateCreate":1114790400000,"BuildingBlockType":"Tower","BuildingCSUID":"3494621301T20050430","BuildingID":1108226673,"Status":"Active","BuildingNameEN":null,"BuildingNameTC":null,"BaseHeight":5.5999999999999996,"TopHeight":35.899999999999999,"Storeys":9,"StoreysInBasement":null,"DateStamp":1599580800000}},{"type":"Feature","id":52996,"geometry":{"type":"Polygon","coordinates":[[[114.1602629105605,22.330076146443332],[114.1601757440114,22.32997909360784],[114.16021068459354,22.329952430607072],[114.16021498255216,22.329957122706187],[114.16029862004524,22.330048431981542],[114.1602629105605,22.330076146443332]]]},"properties":{"OBJECTID":52996,"Shape__Length":37.418714877793185,"Shape__Area":66.055379072418447,"GeoRefNo":"3455321217","DateCreate":1114790400000,"BuildingBlockType":"Tower","BuildingCSUID":"3455321217T20050430","BuildingID":1108227269,"Status":"Active","BuildingNameEN":null,"BuildingNameTC":null,"BaseHeight":4.4000000000000004,"TopHeight":26.5,"Storeys":6,"StoreysInBasement":null,"DateStamp":1599580800000}},{"type":"Feature","id":52997,"geometry":{"type":"Polygon","coordinates":[[[114.16192824609233,22.329928390066819],[114.16194840250709,22.329913085171789],[114.16199708646137,22.329967962614504],[114.16201400700557,22.329954910094006],[114.16208264268374,22.330032470453901],[114.16204512992672,22.330061347651394],[114.16192824609233,22.329928390066819]]]},"properties":{"OBJECTID":52997,"Shape__Length":47.98521562124651,"Shape__Area":76.875753728480433,"GeoRefNo":"3473721216","DateCreate":1114790400000,"BuildingBlockType":"Tower","BuildingCSUID":"3473721216T20050430","BuildingID":1108227287,"Status":"Active","BuildingNameEN":null,"BuildingNameTC":null,"BaseHeight":4.4000000000000004,"TopHeight":18.199999999999999,"Storeys":null,"StoreysInBasement":null,"DateStamp":1361808000000}},{"type":"Feature","id":52998,"geometry":{"type":"Polygon","coordinates":[[[114.16168895375971,22.330058145846852],[114.16159122162331,22.329948004851577],[114.16162604544834,22.329921343701809],[114.16173845922924,22.330047244049197],[114.16172438839219,22.330058037264383],[114.16171048384504,22.330042562245595],[114.16168895375971,22.330058145846852]]]},"properties":{"OBJECTID":52998,"Shape__Length":45.508412735235659,"Shape__Area":78.319395374092579,"GeoRefNo":"3470021216","DateCreate":1114790400000,"BuildingBlockType":"Tower","BuildingCSUID":"3470021216T20050430","BuildingID":1108227293,"Status":"Active","BuildingNameEN":null,"BuildingNameTC":null,"BaseHeight":4.4000000000000004,"TopHeight":28.5,"Storeys":6,"StoreysInBasement":null,"DateStamp":1599580800000}},{"type":"Feature","id":52999,"geometry":{"type":"Polygon","coordinates":[[[114.16073331229489,22.330035059542286],[114.16069242249961,22.329988761279274],[114.16071064753706,22.329975010870498],[114.16069512970078,22.329957515191847],[114.16074061047598,22.32992248538795],[114.1607977559206,22.329982898603401],[114.16073331229489,22.330035059542286]]]},"properties":{"OBJECTID":52999,"Shape__Length":35.358934533139376,"Shape__Area":71.922602500840782,"GeoRefNo":"3460421216","DateCreate":1114790400000,"BuildingBlockType":"Tower","BuildingCSUID":"3460421216T20050430","BuildingID":1108227309,"Status":"Active","BuildingNameEN":null,"BuildingNameTC":null,"BaseHeight":4.2999999999999998,"TopHeight":24.699999999999999,"Storeys":6,"StoreysInBasement":null,"DateStamp":1599580800000}},{"type":"Feature","id":53001,"geometry":{"type":"Polygon","coordinates":[[[114.16033218908956,22.3300223785598],[114.16024918792525,22.32993055200453],[114.16025517012922,22.329925905027189],[114.16028161106993,22.329905365772806],[114.16036419354977,22.329997539585435],[114.16034061275273,22.330015840823904],[114.16033218908956,22.3300223785598]]]},"properties":{"OBJECTID":53001,"Shape__Length":35.218890150663199,"Shape__Area":57.434155514824745,"GeoRefNo":"3456021212","DateCreate":1114790400000,"BuildingBlockType":"Tower","BuildingCSUID":"3456021212T20050430","BuildingID":1108227318,"Status":"Active","BuildingNameEN":null,"BuildingNameTC":null,"BaseHeight":4.4000000000000004,"TopHeight":32.899999999999999,"Storeys":8,"StoreysInBasement":null,"DateStamp":1599580800000}},{"type":"Feature","id":53003,"geometry":{"type":"Polygon","coordinates":[[[114.16356833753944,22.329937714229629],[114.16365176161823,22.329873003003069],[114.16376947768194,22.33000450151626],[114.16378490730736,22.330021754241812],[114.16372624829943,22.330066871627629],[114.1636653987498,22.329999147442411],[114.16364049650414,22.330018692655347],[114.16356833753944,22.329937714229629]]]},"properties":{"OBJECTID":53003,"Shape__Length":65.245044564848044,"Shape__Area":207.17000511622467,"GeoRefNo":"3490621214","DateCreate":1114790400000,"BuildingBlockType":"Tower","BuildingCSUID":"3490621214T20050430","BuildingID":1108227279,"Status":"Active","BuildingNameEN":null,"BuildingNameTC":"鑽石樓","BaseHeight":4.7000000000000002,"TopHeight":43.5,"Storeys":13,"StoreysInBasement":null,"DateStamp":1599580800000}},{"type":"Feature","id":53028,"geometry":{"type":"Polygon","coordinates":[[[114.1636603098042,22.328595138319251],[114.16368253391106,22.328577937131818],[114.16370541962013,22.328603215771938],[114.16372166968488,22.328590291070196],[114.16377437582199,22.328648141813794],[114.16381247164163,22.328689956210727],[114.16377250859477,22.328720789640769],[114.16370763376598,22.328648136424011],[114.1636603098042,22.328595138319251]]]},"properties":{"OBJECTID":53028,"Shape__Length":46.745893147184617,"Shape__Area":87.145093621512203,"GeoRefNo":"3491521067","DateCreate":1114790400000,"BuildingBlockType":"Tower","BuildingCSUID":"3491521067T20050430","BuildingID":1108228405,"Status":"Active","BuildingNameEN":null,"BuildingNameTC":null,"BaseHeight":4.9000000000000004,"TopHeight":31.199999999999999,"Storeys":8,"StoreysInBasement":null,"DateStamp":1599580800000}},{"type":"Feature","id":53033,"geometry":{"type":"Polygon","coordinates":[[[114.16241213539388,22.330213804120842],[114.16229530808235,22.330082532908293],[114.16233161232117,22.330054474618681],[114.16237144955144,22.330099321340224],[114.16238979232868,22.330119971402009],[114.16244831441553,22.330185854703231],[114.16241213539388,22.330213804120842]]]},"properties":{"OBJECTID":53033,"Shape__Length":47.452612427475998,"Shape__Area":91.599666650827658,"GeoRefNo":"3477121230","DateCreate":1114790400000,"BuildingBlockType":"Tower","BuildingCSUID":"3477121230T20050430","BuildingID":1108227145,"Status":"Active","BuildingNameEN":null,"BuildingNameTC":null,"BaseHeight":4.5,"TopHeight":27.899999999999999,"Storeys":7,"StoreysInBasement":null,"DateStamp":1599580800000}},{"type":"Feature","id":53035,"geometry":{"type":"Polygon","coordinates":[[[114.16501067610371,22.330109510479815],[114.16489176664844,22.329977573353165],[114.16491208548652,22.3299616205184],[114.16489992367626,22.329947871825944],[114.16491401979361,22.329936997603273],[114.16504497506295,22.330082815415196],[114.16501067610371,22.330109510479815]]]},"properties":{"OBJECTID":53035,"Shape__Length":51.311947670050941,"Shape__Area":91.918957719245228,"GeoRefNo":"3504121221","DateCreate":1114790400000,"BuildingBlockType":"Tower","BuildingCSUID":"3504121221T20050430","BuildingID":1108227240,"Status":"Active","BuildingNameEN":"MAN CHEONG COURT","BuildingNameTC":"文昌閣","BaseHeight":5.2999999999999998,"TopHeight":36.799999999999997,"Storeys":10,"StoreysInBasement":null,"DateStamp":1599580800000}}]}