{"type":"FeatureCollection","features":[{"type":"Feature","id":238607,"geometry":{"type":"Polygon","coordinates":[[[114.15925353960017,22.326372716978636],[114.15922803719664,22.326343817960538],[114.15920593701131,22.326318774284967],[114.15922804247619,22.326301732628981],[114.15924821179826,22.326286183606172],[114.15933348054143,22.326381505704877],[114.15930803678317,22.326401283191604],[114.15929132520989,22.326414273056692],[114.15925353960017,22.326372716978636]]]},"properties":{"OBJECTID":238607,"Shape__Length":38.804441592658492,"Shape__Area":78.104543897610782,"GeoRefNo":"3445620816","DateCreate":1114790400000,"BuildingBlockType":"Tower","BuildingCSUID":"3445620816T20050430","BuildingID":1108230074,"Status":"Active","BuildingNameEN":"TUNG CHAU ST PARK","BuildingNameTC":"通州街公園","BaseHeight":4.7000000000000002,"TopHeight":9.9000000000000004,"Storeys":null,"StoreysInBasement":null,"DateStamp":1307548800000}},{"type":"Feature","id":238741,"geometry":{"type":"Polygon","coordinates":[[[114.15715727579978,22.329716801528015],[114.15723930615214,22.329653145856664],[114.1572746330577,22.32969189132222],[114.1571926026987,22.329755547011136],[114.15715727579978,22.329716801528015]]]},"properties":{"OBJECTID":238741,"Shape__Length":33.261867588434242,"Shape__Area":61.912499993592505,"GeoRefNo":"3424221185","DateCreate":1114790400000,"BuildingBlockType":"Tower","BuildingCSUID":"3424221185T20050430","BuildingID":1108227567,"Status":"Active","BuildingNameEN":"Ka Ling Sch T.P.B. Substation","BuildingNameTC":"寶血會嘉靈小學變電站","BaseHeight":4.9000000000000004,"TopHeight":8.8000000000000007,"Storeys":null,"StoreysInBasement":null,"DateStamp":1303833600000}},{"type":"Feature","id":238747,"geometry":{"type":"Polygon","coordinates":[[[114.16213654033727,22.328417911631586],[114.16218303660627,22.328381254106343],[114.16216797574529,22.328364719189807],[114.16212147947785,22.328401376801111],[114.16210039006846,22.328378223267528],[114.16210837896141,22.328371924799594],[114.16209746409253,22.328359941757778],[114.16213365741677,22.32833140695233],[114.16213597146391,22.328329582532579],[114.16207889730704,22.328266922251348],[114.16211592360155,22.328237730730933],[114.1621538894405,22.328279412396871],[114.16218943466784,22.328251388560769],[114.16221955627701,22.328284458298555],[114.16218401104729,22.328312482141168],[114.16219499288765,22.328324538872831],[114.16223053811822,22.328296515027859],[114.16226065974678,22.328329584757842],[114.16222511451384,22.328357608609291],[114.16223609636127,22.328369665247831],[114.16227164169216,22.328341641394008],[114.16230176334007,22.328374711116165],[114.16226621810391,22.328402734976475],[114.16230449771359,22.328444761151339],[114.16226747140361,22.328473952714074],[114.16221504081415,22.328416390663754],[114.1621765957575,22.328446700696347],[114.16216599560659,22.328435245886581],[114.16215785696387,22.328441314605676],[114.16213654033727,22.328417911631586]]]},"properties":{"OBJECTID":238747,"Shape__Length":123.9732171192386,"Shape__Area":279.71294046406871,"GeoRefNo":"3475321036","DateCreate":1114790400000,"BuildingBlockType":"Tower","BuildingCSUID":"3475321036T20050430","BuildingID":1108228613,"Status":"Active","BuildingNameEN":"Nam Cheong Centre","BuildingNameTC":"南昌中心","BaseHeight":14.699999999999999,"TopHeight":50.299999999999997,"Storeys":13,"StoreysInBasement":null,"DateStamp":1599580800000}},{"type":"Feature","id":238795,"geometry":{"type":"Polygon","coordinates":[[[114.15829584308554,22.325920372708765],[114.15826738392542,22.325942651883437],[114.15820485616683,22.325872922981937],[114.15820223850389,22.325871736694165],[114.15820004683775,22.32587068483048],[114.1581978754627,22.325869597659462],[114.15819572428173,22.32586847536178],[114.15819359445948,22.325867318750284],[114.15819148677244,22.325866127734756],[114.15818940131761,22.325864902857091],[114.1581873399392,22.325863644478659],[114.15818530166649,22.325862353050923],[114.15818328844077,22.325861028483786],[114.15818129929126,22.325859671860819],[114.15817933615926,22.325858282911302],[114.15817739991819,22.325856863170557],[114.15817549066519,22.325855411645247],[114.158173608303,22.325853930051156],[114.15817175380232,22.325852418027136],[114.15816992726015,22.325850875934496],[114.15816813139411,22.325849305128092],[114.15816636436003,22.325847705156189],[114.15816462712849,22.325846076831635],[114.15816292154355,22.325844420696523],[114.15816124576102,22.325842737111831],[114.1581596025956,22.325841026980964],[114.15815799204726,22.325839290665122],[114.15815641421305,22.325837528254638],[114.15815486889869,22.325835740923484],[114.15815335726897,22.32583392840084],[114.15815188019725,22.325832092312336],[114.15815043758658,22.325830231845192],[114.15814902963083,22.325828349076488],[114.1581476571066,22.325826443283869],[114.15814632108133,22.32582451609294],[114.15814502048742,22.325822567052068],[114.15814375736296,22.32582059805792],[114.1581425306404,22.325818608026648],[114.15814134138716,22.325816598854892],[114.15814019047677,22.325814570994211],[114.15813907703564,22.32581252471546],[114.15813800193723,22.325810460560525],[114.15813696624916,22.325808379432644],[114.15813596880658,22.325806281692898],[114.15813501077409,22.325804168695967],[114.1581340931224,22.325802039990506],[114.15813321468656,22.325799896840604],[114.15813237760186,22.325797740239889],[114.15813157982996,22.325795570007521],[114.15813082331199,22.325793387227382],[114.15813010707724,22.325791192531529],[114.15812935962327,22.325788732242483],[114.15806509403798,22.325717064850473],[114.15809446861893,22.325694608997569],[114.15829584308554,22.325920372708765]]]},"properties":{"OBJECTID":238795,"Shape__Length":73.148563668746945,"Shape__Area":136.75184096079869,"GeoRefNo":"3434220756","DateCreate":1307030400000,"BuildingBlockType":"Tower","BuildingCSUID":"3434220756T20110603","BuildingID":1810068881,"Status":"Active","BuildingNameEN":"ELCHK Nam Cheong Kindergarten","BuildingNameTC":"基督教香港信義會南昌幼稚園","BaseHeight":4.7000000000000002,"TopHeight":8,"Storeys":1,"StoreysInBasement":null,"DateStamp":1310400000000}},{"type":"Feature","id":239402,"geometry":{"type":"Polygon","coordinates":[[[114.16424632724117,22.32666217458409],[114.16418432167509,22.326592695923519],[114.16422152323423,22.326563814762164],[114.16425705155875,22.326536232783148],[114.16430920268445,22.326594395330897],[114.16435091004779,22.326640910310726],[114.1643551785298,22.326645670841906],[114.1643587495743,22.326649653514899],[114.16436334571485,22.326654779358275],[114.16435868133701,22.326658399000255],[114.16434503610596,22.326668988027944],[114.16432862485956,22.326650802955331],[114.16431194118624,22.326663838944448],[114.16432831448493,22.326681965046085],[114.1643185041539,22.326689578518181],[114.16430213822838,22.32667149847213],[114.16429230352708,22.326679182921197],[114.16430888582913,22.326697042909547],[114.16429030693287,22.32671146133271],[114.16428410909687,22.326704511365538],[114.16428251933586,22.326702728695093],[114.16427790912589,22.32669756293317],[114.16424632724117,22.32666217458409]]]},"properties":{"OBJECTID":239402,"Shape__Length":64.262589196914959,"Shape__Area":157.85049480848198,"GeoRefNo":"3497220847","DateCreate":1114790400000,"BuildingBlockType":"Tower","BuildingCSUID":"3497220847T20050430","BuildingID":1108229904,"Status":"Active","BuildingNameEN":"Lander Hotel","BuildingNameTC":"泛達太子酒店","BaseHeight":4.5999999999999996,"TopHeight":33.799999999999997,"Storeys":9,"StoreysInBasement":null,"DateStamp":1599580800000}},{"type":"Feature","id":239514,"geometry":{"type":"Polygon","coordinates":[[[114.1593642402531,22.333564577364768],[114.15940568209031,22.333610979041133],[114.15942829728233,22.333593498181244],[114.15949299467705,22.333665841402535],[114.15911690051335,22.333956554911403],[114.15905225443663,22.333884171633059],[114.15912716567996,22.333826266917484],[114.15931453977153,22.333681430483256],[114.15920415012042,22.333559442131769],[114.15894271740379,22.33376152423882],[114.15881520344324,22.333618747960355],[114.1588146201393,22.333618094894401],[114.15888954686739,22.333560207536866],[114.15890505528337,22.333577572255727],[114.1590692519687,22.333450715855303],[114.15909981298441,22.333427104690585],[114.15908430456092,22.333409739990067],[114.15916812047332,22.333344984636611],[114.15926256850059,22.333450736927109],[114.1593642402531,22.333564577364768]]]},"properties":{"OBJECTID":239514,"Shape__Length":273.33107702706394,"Shape__Area":1653.4920639866471,"GeoRefNo":"3443621610","DateCreate":1114790400000,"BuildingBlockType":"Tower","BuildingCSUID":"3443621610T20050430","BuildingID":1108225024,"Status":"Active","BuildingNameEN":"Kowloon Technical School","BuildingNameTC":"九龍工業中學","BaseHeight":5.0999999999999996,"TopHeight":24,"Storeys":null,"StoreysInBasement":null,"DateStamp":1302019200000}},{"type":"Feature","id":239515,"geometry":{"type":"Polygon","coordinates":[[[114.15736551863857,22.333653382182057],[114.15747482920365,22.333776704658337],[114.15722455033348,22.333970953459339],[114.15717639185563,22.333917152473514],[114.15736959112385,22.333767204980958],[114.1573081604553,22.333697899645117],[114.15721407129875,22.333591749188564],[114.15727141646312,22.333547217307729],[114.15736551863857,22.333653382182057]]]},"properties":{"OBJECTID":239515,"Shape__Length":133.06674288856971,"Shape__Area":454.26392780430211,"GeoRefNo":"3425421643","DateCreate":1114790400000,"BuildingBlockType":"Tower","BuildingCSUID":"3425421643T20050430","BuildingID":1108225019,"Status":"Active","BuildingNameEN":null,"BuildingNameTC":"麗閣護老院","BaseHeight":5.2999999999999998,"TopHeight":8.4000000000000004,"Storeys":null,"StoreysInBasement":null,"DateStamp":1303142400000}},{"type":"Feature","id":239545,"geometry":{"type":"Polygon","coordinates":[[[114.16001101682858,22.329905534243316],[114.16003236905783,22.329889124367419],[114.16001686739925,22.329871875160293],[114.16005727893946,22.329840572304526],[114.16007273188814,22.3298576860441],[114.1600917946319,22.32984333001983],[114.1600927493526,22.329844390037898],[114.1601159994315,22.329870206537944],[114.16009724134901,22.329884819606853],[114.1601129364287,22.329902443234168],[114.16007255904339,22.329933806702293],[114.16005657800565,22.32991618611193],[114.16003548357681,22.329932664288901],[114.16001221389321,22.329906861682559],[114.16001101682858,22.329905534243316]]]},"properties":{"OBJECTID":239545,"Shape__Length":39.430929742816659,"Shape__Area":69.495378784635292,"GeoRefNo":"3453521205","DateCreate":1114790400000,"BuildingBlockType":"Tower","BuildingCSUID":"3453521205T20050430","BuildingID":1108227391,"Status":"Active","BuildingNameEN":"Gold Canyon Court","BuildingNameTC":"嘉利閣","BaseHeight":10,"TopHeight":46,"Storeys":13,"StoreysInBasement":null,"DateStamp":1599580800000}},{"type":"Feature","id":240397,"geometry":{"type":"Polygon","coordinates":[[[114.15898543408802,22.328408471203286],[114.15899834350718,22.328422661838946],[114.15899194185724,22.328427675546955],[114.15900422691695,22.328441367715453],[114.15899680111873,22.328447183497808],[114.15901494687286,22.328467407589734],[114.15898405986091,22.328491394841421],[114.15896079606134,22.328465466465055],[114.15894780083588,22.32847564412555],[114.15891806793859,22.328442505643014],[114.1589310631631,22.328432328075166],[114.15890680401682,22.328405290444614],[114.15893758407159,22.328381183991876],[114.15895518738428,22.328400803523497],[114.15896894435436,22.328390029385854],[114.15898543408802,22.328408471203286]]]},"properties":{"OBJECTID":240397,"Shape__Length":40.36217820132844,"Shape__Area":70.591242193134946,"GeoRefNo":"3442021043","DateCreate":1114790400000,"BuildingBlockType":"Tower","BuildingCSUID":"3442021043T20050430","BuildingID":1108228594,"Status":"Active","BuildingNameEN":"Hai Tin Mansion","BuildingNameTC":"海天大廈","BaseHeight":8.9000000000000004,"TopHeight":51.899999999999999,"Storeys":16,"StoreysInBasement":null,"DateStamp":1599580800000}},{"type":"Feature","id":240401,"geometry":{"type":"Polygon","coordinates":[[[114.15825577639868,22.328216388445487],[114.15823657439515,22.328194884874272],[114.15825515998891,22.328180781503466],[114.15824091345237,22.328163940449336],[114.15827659519552,22.328136150114812],[114.15829161115646,22.328153121294271],[114.15831010131399,22.328139090331462],[114.15832936545465,22.328160507207574],[114.15832131537429,22.328166620265037],[114.15833383085895,22.328180448511645],[114.1583271301146,22.328185630218584],[114.15835067642304,22.328212167470596],[114.15830633047393,22.32824518743595],[114.15828338043326,22.32821946146321],[114.15827609752208,22.328225093366346],[114.15826334975331,22.328210587794914],[114.15825577639868,22.328216388445487]]]},"properties":{"OBJECTID":240401,"Shape__Length":42.114094095711764,"Shape__Area":79.556516552848535,"GeoRefNo":"3435421018","DateCreate":1114790400000,"BuildingBlockType":"Tower","BuildingCSUID":"3435421018T20050430","BuildingID":1108228798,"Status":"Active","BuildingNameEN":"Shining Court","BuildingNameTC":"順興閣","BaseHeight":13.300000000000001,"TopHeight":52,"Storeys":14,"StoreysInBasement":null,"DateStamp":1599580800000}},{"type":"Feature","id":240405,"geometry":{"type":"Polygon","coordinates":[[[114.16246779644872,22.328035689779014],[114.16247165530835,22.328032704067784],[114.16254495182594,22.327975432706385],[114.16256188034711,22.327962205293925],[114.16257605361454,22.327978068130818],[114.16259701052051,22.327961304782249],[114.16260121743903,22.327966109783887],[114.16260703037938,22.327961597710889],[114.16261923451732,22.327975191888342],[114.16254651282777,22.328032710681715],[114.16249918120319,22.328070560185903],[114.16246779644872,22.328035689779014]]]},"properties":{"OBJECTID":240405,"Shape__Length":42.514612588525559,"Shape__Area":71.91052639693973,"GeoRefNo":"3478721001","DateCreate":1114790400000,"BuildingBlockType":"Tower","BuildingCSUID":"3478721001T20050430","BuildingID":1108228942,"Status":"Active","BuildingNameEN":null,"BuildingNameTC":null,"BaseHeight":4.0999999999999996,"TopHeight":25.899999999999999,"Storeys":6,"StoreysInBasement":null,"DateStamp":1599580800000}},{"type":"Feature","id":240406,"geometry":{"type":"Polygon","coordinates":[[[114.16326068953266,22.328135886328855],[114.16317239900876,22.328038400074224],[114.16317927044692,22.328032765207031],[114.16320234052861,22.32801476160742],[114.16321956715718,22.328032768595776],[114.16332073825512,22.328142142225158],[114.16330375155097,22.328155300266555],[114.16327549312184,22.328124857521253],[114.16326068953266,22.328135886328855]]]},"properties":{"OBJECTID":240406,"Shape__Length":45.495676325992982,"Shape__Area":69.116823739931235,"GeoRefNo":"3486321005","DateCreate":1114790400000,"BuildingBlockType":"Tower","BuildingCSUID":"3486321005T20050430","BuildingID":1108228885,"Status":"Active","BuildingNameEN":null,"BuildingNameTC":null,"BaseHeight":4.5999999999999996,"TopHeight":25.800000000000001,"Storeys":6,"StoreysInBasement":null,"DateStamp":1599580800000}},{"type":"Feature","id":243231,"geometry":{"type":"Polygon","coordinates":[[[114.16146202620067,22.330259431337474],[114.16142250399571,22.330289786415392],[114.16135978815814,22.330220508471232],[114.16130880985746,22.330164196201473],[114.16134812294295,22.330134077641787],[114.16146202620067,22.330259431337474]]]},"properties":{"OBJECTID":243231,"Shape__Length":46.885327549315143,"Shape__Area":95.676197583536052,"GeoRefNo":"3467221241","DateCreate":1329753600000,"BuildingBlockType":"Tower","BuildingCSUID":"3467221241T20120221","BuildingID":1810079581,"Status":"Active","BuildingNameEN":null,"BuildingNameTC":null,"BaseHeight":4.4000000000000004,"TopHeight":9.4000000000000004,"Storeys":1,"StoreysInBasement":null,"DateStamp":1599580800000}},{"type":"Feature","id":243238,"geometry":{"type":"Polygon","coordinates":[[[114.15811886985884,22.32985760852636],[114.1581019299784,22.329838374770524],[114.15808700975826,22.329821434111338],[114.15812327049846,22.329793447378005],[114.15810277750391,22.329770494237476],[114.15807799169833,22.329742732173706],[114.15811901237552,22.329711160127935],[114.15814366060563,22.329739179721887],[114.15817338190696,22.329716413976723],[114.15814911840471,22.329687988326235],[114.15818809529408,22.329657988432231],[114.15823370487878,22.329708209942304],[114.15827180564943,22.329678802966043],[114.15827928538283,22.329687177249475],[114.15830627499057,22.329717394317825],[114.15827927862757,22.329738262622342],[114.15826139330092,22.329752088202316],[114.15827927409161,22.329772565199367],[114.15828990790382,22.329784742982703],[114.15827927139314,22.329792971787001],[114.1582535591417,22.329812863576507],[114.15822209157642,22.329777990539782],[114.15820238964463,22.329793187017927],[114.15823398029582,22.329828010404341],[114.15822056572989,22.329838388435533],[114.15819602333545,22.329857375305131],[114.15817910554352,22.329838383669841],[114.15816713674909,22.329824947675174],[114.15814975940376,22.329838380290184],[114.15812130596666,22.329860374694356],[114.15811886985884,22.32985760852636]]]},"properties":{"OBJECTID":243238,"Shape__Length":102.51086592863619,"Shape__Area":274.76297933398263,"GeoRefNo":"3434321191","DateCreate":1114790400000,"BuildingBlockType":"Tower","BuildingCSUID":"3434321191T20050430","BuildingID":1108227457,"Status":"Active","BuildingNameEN":"Grammy Centre Block A","BuildingNameTC":"嘉美中心Ａ座","BaseHeight":7.2999999999999998,"TopHeight":46.399999999999999,"Storeys":14,"StoreysInBasement":null,"DateStamp":1599580800000}},{"type":"Feature","id":243718,"geometry":{"type":"Polygon","coordinates":[[[114.16257007400446,22.330771993845623],[114.16280600305942,22.330589835089771],[114.1629052271673,22.330699956237623],[114.16279984553955,22.330781501609312],[114.162787362849,22.330767892706046],[114.16275776688177,22.330790858700773],[114.1627701547356,22.330804476718949],[114.16266885156595,22.330882865898939],[114.16257007400446,22.330771993845623]]]},"properties":{"OBJECTID":243718,"Shape__Length":99.066575975430794,"Shape__Area":495.97372177138641,"GeoRefNo":"3480721297","DateCreate":1114790400000,"BuildingBlockType":"Tower","BuildingCSUID":"3480721297T20050430","BuildingID":1108226639,"Status":"Active","BuildingNameEN":"BOC Cheung Sha Wan Building","BuildingNameTC":"中銀長沙灣大樓","BaseHeight":4.7000000000000002,"TopHeight":45.5,"Storeys":13,"StoreysInBasement":null,"DateStamp":1599580800000}},{"type":"Feature","id":243719,"geometry":{"type":"Polygon","coordinates":[[[114.16283887977016,22.330543386876052],[114.16281495634885,22.33056181830359],[114.16279303863283,22.330537493166734],[114.16279250773319,22.330536903875274],[114.16281643115317,22.330518472541311],[114.16283887977016,22.330543386876052]]]},"properties":{"OBJECTID":243719,"Shape__Length":13.599998821447439,"Shape__Area":11.519802148272634,"GeoRefNo":"3482021278","DateCreate":1331481600000,"BuildingBlockType":"Tower","BuildingCSUID":"3482021278T20120312","BuildingID":1810080688,"Status":"Active","BuildingNameEN":null,"BuildingNameTC":null,"BaseHeight":4.7000000000000002,"TopHeight":10.800000000000001,"Storeys":null,"StoreysInBasement":null,"DateStamp":1331740800000}},{"type":"Feature","id":244148,"geometry":{"type":"Polygon","coordinates":[[[114.16447522160007,22.328768040998849],[114.16442665829703,22.328713510714518],[114.16447470132513,22.328676564666051],[114.16445980983437,22.328660023564119],[114.16451105249909,22.328620013129765],[114.16452522988681,22.328636437317122],[114.16448931787902,22.328664974212309],[114.16450403534856,22.328681352657473],[114.16455211845914,22.328644114449538],[114.16464088718671,22.328742974888378],[114.16452962959521,22.328829133875985],[114.16447522160007,22.328768040998849]]]},"properties":{"OBJECTID":244148,"Shape__Length":77.515375655865483,"Shape__Area":248.30412705372416,"GeoRefNo":"3499621077","DateCreate":1114790400000,"BuildingBlockType":"Tower","BuildingCSUID":"3499621077T20050430","BuildingID":1108228311,"Status":"Active","BuildingNameEN":null,"BuildingNameTC":"祥康大廈","BaseHeight":5.0999999999999996,"TopHeight":51.799999999999997,"Storeys":15,"StoreysInBasement":null,"DateStamp":1599580800000}},{"type":"Feature","id":244150,"geometry":{"type":"Polygon","coordinates":[[[114.16493578545351,22.328514601678084],[114.16484965923286,22.32841745586909],[114.16484442273968,22.328411549389525],[114.16485821983136,22.32840078748794],[114.16483147266214,22.328371016459894],[114.1648357664605,22.328367708964969],[114.16490817119092,22.32831193735408],[114.16493470263991,22.328341093009836],[114.16495109378091,22.328328298686671],[114.16504355202234,22.328431145550052],[114.16493578545351,22.328514601678084]]]},"properties":{"OBJECTID":244150,"Shape__Length":66.929332946604987,"Shape__Area":257.1120793603211,"GeoRefNo":"3503621042","DateCreate":1114790400000,"BuildingBlockType":"Tower","BuildingCSUID":"3503621042T20050430","BuildingID":1108228567,"Status":"Active","BuildingNameEN":null,"BuildingNameTC":"鑽石樓","BaseHeight":5.0999999999999996,"TopHeight":50.399999999999999,"Storeys":14,"StoreysInBasement":null,"DateStamp":1599580800000}},{"type":"Feature","id":244151,"geometry":{"type":"Polygon","coordinates":[[[114.16478779870687,22.328629204846891],[114.16469105959895,22.328521001118936],[114.16472171264584,22.328497455892649],[114.16470001516748,22.328473090747533],[114.16471829459427,22.328458882941792],[114.16475617498784,22.328501541009995],[114.16477126101422,22.328489882565247],[114.16473285556221,22.328447541163907],[114.1647609947296,22.328425624137271],[114.16478303502019,22.328450314762119],[114.16480360562042,22.328434502833694],[114.16481355353677,22.328445638552797],[114.16489995157129,22.328542352016282],[114.16478779870687,22.328629204846891]]]},"properties":{"OBJECTID":244151,"Shape__Length":80.566754541583947,"Shape__Area":250.62660774903534,"GeoRefNo":"3502221054","DateCreate":1114790400000,"BuildingBlockType":"Tower","BuildingCSUID":"3502221054T20050430","BuildingID":1108228478,"Status":"Active","BuildingNameEN":"Cheng Fai Building","BuildingNameTC":"正輝大樓","BaseHeight":5.0999999999999996,"TopHeight":51.399999999999999,"Storeys":16,"StoreysInBasement":null,"DateStamp":1599580800000}},{"type":"Feature","id":244554,"geometry":{"type":"Polygon","coordinates":[[[114.16178778340048,22.326874716202987],[114.16189121419129,22.326989268454597],[114.16187317540896,22.327003307907077],[114.16188678584849,22.327018867055479],[114.16187468080903,22.327028619332875],[114.1618608469623,22.327012723773521],[114.16185607910518,22.32701661190335],[114.16185107370919,22.327020693807466],[114.1618646063154,22.327036125709565],[114.16185029446584,22.327047113978235],[114.161836190161,22.327031555593901],[114.16182178626762,22.327042772415663],[114.16181548293547,22.327035795794778],[114.16171845768326,22.326928407695291],[114.16175263649423,22.326901936902942],[114.16178778340048,22.326874716202987]]]},"properties":{"OBJECTID":244554,"Shape__Length":60.607591788515165,"Shape__Area":161.87864916204526,"GeoRefNo":"3471720882","DateCreate":1114790400000,"BuildingBlockType":"Tower","BuildingCSUID":"3471720882T20050430","BuildingID":1108229658,"Status":"Active","BuildingNameEN":null,"BuildingNameTC":"森明樓","BaseHeight":4.0999999999999996,"TopHeight":36.299999999999997,"Storeys":10,"StoreysInBasement":null,"DateStamp":1599580800000}},{"type":"Feature","id":245383,"geometry":{"type":"Polygon","coordinates":[[[114.16054024361419,22.333297439602081],[114.16056449132553,22.333278235080403],[114.16057666541667,22.333268592998355],[114.16061369502751,22.333239956859639],[114.16062702072217,22.333254850249098],[114.16075483807424,22.33339770406662],[114.16068616420803,22.333450884999689],[114.16059502805753,22.333521460702691],[114.16053691584902,22.333456512097257],[114.16054362963028,22.333450870737579],[114.16056371515093,22.333433990088334],[114.16049114380549,22.333352621880003],[114.16054812801494,22.33330625893516],[114.16054024361419,22.333297439602081]]]},"properties":{"OBJECTID":245383,"Shape__Length":87.892321306945192,"Shape__Area":426.13745116480351,"GeoRefNo":"3459421587","DateCreate":1114790400000,"BuildingBlockType":"Tower","BuildingCSUID":"3459421587T20050430","BuildingID":1108225229,"Status":"Active","BuildingNameEN":"Sheung Wing Building","BuildingNameTC":"常榮大樓","BaseHeight":5.4000000000000004,"TopHeight":37.799999999999997,"Storeys":11,"StoreysInBasement":null,"DateStamp":1599580800000}},{"type":"Feature","id":245387,"geometry":{"type":"Polygon","coordinates":[[[114.16025708808169,22.333250772377557],[114.16028780178999,22.333285156825344],[114.16039536831259,22.333405578706156],[114.1603572580744,22.333435549133103],[114.16021758953887,22.333281834427236],[114.16023752088283,22.333266160197269],[114.16025708808169,22.333250772377557]]]},"properties":{"OBJECTID":245387,"Shape__Length":55.04615384579737,"Shape__Area":116.66721833104965,"GeoRefNo":"3456121587","DateCreate":1114790400000,"BuildingBlockType":"Tower","BuildingCSUID":"3456121587T20050430","BuildingID":1108225263,"Status":"Active","BuildingNameEN":"Chit Tak Building","BuildingNameTC":"捷德樓","BaseHeight":5.4000000000000004,"TopHeight":28.300000000000001,"Storeys":6,"StoreysInBasement":null,"DateStamp":1599580800000}},{"type":"Feature","id":245388,"geometry":{"type":"Polygon","coordinates":[[[114.1604709138263,22.333219888934845],[114.16043339076671,22.333249542285749],[114.16041527964317,22.333230781231002],[114.1603678702926,22.333267579281358],[114.16031428927822,22.333207694680546],[114.16047409918471,22.333083938316442],[114.16054403580972,22.333162102672404],[114.16050736697173,22.333191081000464],[114.1604709138263,22.333219888934845]]]},"properties":{"OBJECTID":245388,"Shape__Length":65.419613239871552,"Shape__Area":225.44805429540602,"GeoRefNo":"3457821567","DateCreate":1114790400000,"BuildingBlockType":"Tower","BuildingCSUID":"3457821567T20050430","BuildingID":1108225337,"Status":"Active","BuildingNameEN":null,"BuildingNameTC":"福江大廈","BaseHeight":5.2000000000000002,"TopHeight":35.100000000000001,"Storeys":8,"StoreysInBasement":null,"DateStamp":1599580800000}},{"type":"Feature","id":245612,"geometry":{"type":"Polygon","coordinates":[[[114.16409387545224,22.332864509503128],[114.16408067035675,22.332849809390833],[114.16400000560037,22.332760012244798],[114.16404342856917,22.332711468726583],[114.16408067915131,22.332753056938046],[114.16414714824919,22.332827265973091],[114.16417142731572,22.33285437225225],[114.16415741936547,22.332865346291385],[114.16414799796073,22.332872690124507],[114.16411959855793,22.332841853889505],[114.16410374357021,22.332853962652049],[114.16413246184024,22.332884836572287],[114.16412221460693,22.332892840655127],[114.16412043675903,22.332894229328492],[114.16409387545224,22.332864509503128]]]},"properties":{"OBJECTID":245612,"Shape__Length":62.853495798048328,"Shape__Area":127.69968453777388,"GeoRefNo":"3494921527","DateCreate":1114790400000,"BuildingBlockType":"Tower","BuildingCSUID":"3494921527T20050430","BuildingID":1108225530,"Status":"Active","BuildingNameEN":"Cheung Hing Court","BuildingNameTC":"長興閣","BaseHeight":9.0999999999999996,"TopHeight":50.700000000000003,"Storeys":14,"StoreysInBasement":null,"DateStamp":1599580800000}},{"type":"Feature","id":246016,"geometry":{"type":"Polygon","coordinates":[[[114.16135008377748,22.329916969444177],[114.16128012342719,22.329838320009426],[114.16123611578239,22.32978884652066],[114.16131115355532,22.329730630576424],[114.16142683270755,22.329857503507199],[114.16138865914714,22.329887086952986],[114.16135008377748,22.329916969444177]]]},"properties":{"OBJECTID":246016,"Shape__Length":57.194396007660153,"Shape__Area":187.46702298435605,"GeoRefNo":"3466721195","DateCreate":1114790400000,"BuildingBlockType":"Tower","BuildingCSUID":"3466721195T20050430","BuildingID":1108227407,"Status":"Active","BuildingNameEN":null,"BuildingNameTC":"彩蘭樓","BaseHeight":4.4000000000000004,"TopHeight":36.600000000000001,"Storeys":9,"StoreysInBasement":null,"DateStamp":1599580800000}},{"type":"Feature","id":246352,"geometry":{"type":"Polygon","coordinates":[[[114.15886728077396,22.328667164424385],[114.1589004718211,22.32870381276339],[114.15891126094598,22.328715725657698],[114.15891585346769,22.328720796476883],[114.1589220499756,22.328727638551236],[114.15893478947073,22.328741704911803],[114.15894519194434,22.328753190704813],[114.15895457391251,22.328763549728961],[114.15896854268148,22.32877897333849],[114.15900060777756,22.328814377750149],[114.15886396832083,22.328917862270576],[114.15882794899312,22.328877590811725],[114.15878989314145,22.32883504232732],[114.15873267814419,22.328771072867042],[114.15886728077396,22.328667164424385]]]},"properties":{"OBJECTID":246352,"Shape__Length":78.633867238642651,"Shape__Area":383.95788721230309,"GeoRefNo":"3441321084","DateCreate":1411401600000,"BuildingBlockType":"Podium","BuildingCSUID":"3441321084P20140923","BuildingID":1810133399,"Status":"Active","BuildingNameEN":null,"BuildingNameTC":null,"BaseHeight":3.8999999999999999,"TopHeight":25.600000000000001,"Storeys":4,"StoreysInBasement":null,"DateStamp":1599580800000}},{"type":"Feature","id":247267,"geometry":{"type":"Polygon","coordinates":[[[114.16072186773859,22.326944793354418],[114.16076032668653,22.326914381526649],[114.16079364324247,22.326950850512173],[114.16078180966868,22.326960208007943],[114.16081324050496,22.326994612681574],[114.16082507407955,22.326985255183505],[114.16086593420052,22.32702998129211],[114.16084374635409,22.327047526617033],[114.16085128978889,22.327055783754346],[114.1608350186783,22.327068650372894],[114.16082977665843,22.32706291236326],[114.16080547666233,22.327036313172226],[114.16072186773859,22.326944793354418]]]},"properties":{"OBJECTID":247267,"Shape__Length":49.600016101623183,"Shape__Area":81.999941007681059,"GeoRefNo":"3461120885","DateCreate":1503936000000,"BuildingBlockType":"Tower","BuildingCSUID":"3461120885T20170829","BuildingID":1810165228,"Status":"Active","BuildingNameEN":null,"BuildingNameTC":null,"BaseHeight":4,"TopHeight":42,"Storeys":12,"StoreysInBasement":null,"DateStamp":1599580800000}},{"type":"Feature","id":247268,"geometry":{"type":"Polygon","coordinates":[[[114.16085128978889,22.327055783754346],[114.16085569006965,22.327060600379994],[114.16087787791669,22.327043055053494],[114.16089296479075,22.327059569324629],[114.16085613298181,22.32708869457554],[114.16085450583172,22.327089981273623],[114.1608350186783,22.327068650372894],[114.16085128978889,22.327055783754346]]]},"properties":{"OBJECTID":247268,"Shape__Length":16.600013090503051,"Shape__Area":14.020037707734884,"GeoRefNo":"3461920893","DateCreate":1503936000000,"BuildingBlockType":"Tower","BuildingCSUID":"3461920893T20170829","BuildingID":1810165232,"Status":"Active","BuildingNameEN":null,"BuildingNameTC":null,"BaseHeight":4,"TopHeight":8.5999999999999996,"Storeys":12,"StoreysInBasement":null,"DateStamp":1599580800000}},{"type":"Feature","id":247353,"geometry":{"type":"Polygon","coordinates":[[[114.16171986478808,22.333719972560935],[114.1617982256649,22.33380880163611],[114.16178986377886,22.333815276597544],[114.16180849348716,22.333836099136256],[114.16181670024338,22.333829744266186],[114.16195242851057,22.333981448009805],[114.16185465244341,22.334057039299648],[114.16174590990774,22.333936689808819],[114.16171999911161,22.333957133616909],[114.1617425470905,22.333982088288504],[114.16172360367155,22.33399705118476],[114.1617573325746,22.334034380052163],[114.16174016587289,22.334047940576447],[114.16175442285964,22.334063719226087],[114.16166132122699,22.33413747654226],[114.16149855678459,22.333954509753383],[114.16148968036406,22.333961371339893],[114.16140611359099,22.333867806618834],[114.16160725896188,22.333711506330364],[114.16165725514567,22.333767961434837],[114.16171986478808,22.333719972560935]]]},"properties":{"OBJECTID":247353,"Shape__Length":186.99462102260571,"Shape__Area":1312.455317219815,"GeoRefNo":"3471021647","DateCreate":1114790400000,"BuildingBlockType":"Tower","BuildingCSUID":"3471021647T20050430","BuildingID":1108224941,"Status":"Active","BuildingNameEN":"Precious Blood Hospital","BuildingNameTC":"寶血醫院","BaseHeight":6.0999999999999996,"TopHeight":31.199999999999999,"Storeys":7,"StoreysInBasement":null,"DateStamp":1599580800000}},{"type":"Feature","id":247549,"geometry":{"type":"Polygon","coordinates":[[[114.16064208301907,22.327541172944354],[114.16060789374423,22.327567677634832],[114.16054254326991,22.327494726349492],[114.16055604840882,22.327484187116667],[114.16054610535947,22.327473087619197],[114.16054912465393,22.327470731391301],[114.16051392646563,22.327431439297786],[114.16053149822585,22.32741772785101],[114.16064208301907,22.327541172944354]]]},"properties":{"OBJECTID":247549,"Shape__Length":44.744424761450098,"Shape__Area":66.060578000463522,"GeoRefNo":"3458820939","DateCreate":1114790400000,"BuildingBlockType":"Tower","BuildingCSUID":"3458820939T20050430","BuildingID":1108229340,"Status":"Active","BuildingNameEN":null,"BuildingNameTC":null,"BaseHeight":4,"TopHeight":22.100000000000001,"Storeys":null,"StoreysInBasement":null,"DateStamp":1567353600000}},{"type":"Feature","id":249808,"geometry":{"type":"Polygon","coordinates":[[[114.16076817661438,22.32706531129659],[114.16074742917743,22.327042360986056],[114.16074721313821,22.327042122015335],[114.16068508063465,22.326973392810611],[114.16072186773859,22.326944793354418],[114.16080547666233,22.327036313172226],[114.16076817661438,22.32706531129659]]]},"properties":{"OBJECTID":249808,"Shape__Length":36.547315157078266,"Shape__Area":66.146027956975075,"GeoRefNo":"3460420883","DateCreate":1114790400000,"BuildingBlockType":"Tower","BuildingCSUID":"3460420883T20050430","BuildingID":1108229648,"Status":"Active","BuildingNameEN":"Hoi On Court","BuildingNameTC":"海安閣","BaseHeight":4,"TopHeight":23.399999999999999,"Storeys":6,"StoreysInBasement":null,"DateStamp":1599580800000}},{"type":"Feature","id":249809,"geometry":{"type":"Polygon","coordinates":[[[114.16174339774759,22.327229756778667],[114.16183324615108,22.327159875789434],[114.16191714189533,22.327253096691653],[114.16182728037802,22.327322903132732],[114.16174339774759,22.327229756778667]]]},"properties":{"OBJECTID":249809,"Shape__Length":51.045492597430666,"Shape__Area":162.36457074842198,"GeoRefNo":"3471820912","DateCreate":1114790400000,"BuildingBlockType":"Tower","BuildingCSUID":"3471820912T20050430","BuildingID":1108229485,"Status":"Active","BuildingNameEN":"Pao Fung Mansion","BuildingNameTC":"寶豐大廈","BaseHeight":14.6,"TopHeight":51.299999999999997,"Storeys":12,"StoreysInBasement":null,"DateStamp":1599580800000}},{"type":"Feature","id":250004,"geometry":{"type":"Polygon","coordinates":[[[114.16254976673848,22.333189536093769],[114.16249518918742,22.333232186401698],[114.16248472796352,22.33322053602928],[114.16238588184521,22.333110438893044],[114.16254446833591,22.332988206634003],[114.1625548580683,22.332980185144276],[114.16265134504989,22.333089410160767],[114.16260645402342,22.333124227507316],[114.16261761117086,22.3331365242516],[114.16258054371755,22.333165488655485],[114.16254066444299,22.333121103550937],[114.16250966032818,22.333145119083763],[114.16254976673848,22.333189536093769]]]},"properties":{"OBJECTID":250004,"Shape__Length":92.946771945758542,"Shape__Area":356.92247159597576,"GeoRefNo":"3478721558","DateCreate":1114790400000,"BuildingBlockType":"Tower","BuildingCSUID":"3478721558T20050430","BuildingID":1108225354,"Status":"Active","BuildingNameEN":"Leung Chau Building","BuildingNameTC":"兩洲大廈","BaseHeight":6,"TopHeight":43.200000000000003,"Storeys":12,"StoreysInBasement":null,"DateStamp":1599580800000}},{"type":"Feature","id":250005,"geometry":{"type":"Polygon","coordinates":[[[114.16175260432625,22.332959625717343],[114.16168920601787,22.332890178535798],[114.161758333452,22.332837558014827],[114.16177518536371,22.332856017814319],[114.161875440684,22.332965838488334],[114.16189145550341,22.332983381142892],[114.16182231106218,22.333035983115106],[114.16175260432625,22.332959625717343]]]},"properties":{"OBJECTID":250005,"Shape__Length":60.771498661230851,"Shape__Area":194.89435187060494,"GeoRefNo":"3471521543","DateCreate":1114790400000,"BuildingBlockType":"Tower","BuildingCSUID":"3471521543T20050430","BuildingID":1108225467,"Status":"Active","BuildingNameEN":"Wing Yip Commercial Building","BuildingNameTC":"榮業商業大廈","BaseHeight":5.5,"TopHeight":44.799999999999997,"Storeys":13,"StoreysInBasement":null,"DateStamp":1599580800000}},{"type":"Feature","id":250006,"geometry":{"type":"Polygon","coordinates":[[[114.16021831977322,22.326921806560133],[114.16024878034888,22.326955788160898],[114.16022427225218,22.326974508765407],[114.16026093603632,22.327015328868221],[114.16022743327399,22.327040905296464],[114.16019076949294,22.327000085095925],[114.16017695803565,22.327010628963386],[114.16021362181546,22.327051449167005],[114.16018005603502,22.327077073621602],[114.16014339225828,22.327036253500815],[114.16011647223894,22.327056804430526],[114.16008549378597,22.327023207364483],[114.16013245788523,22.326987354462556],[114.16012826552694,22.326982686843337],[114.16016938819149,22.326951293444534],[114.16017358055021,22.326955961062716],[114.16021831977322,22.326921806560133]]]},"properties":{"OBJECTID":250006,"Shape__Length":70.045844878887408,"Shape__Area":142.91814473182117,"GeoRefNo":"3454720885","DateCreate":1114790400000,"BuildingBlockType":"Tower","BuildingCSUID":"3454720885T20050430","BuildingID":1108229645,"Status":"Active","BuildingNameEN":"Ngun Hoi Mansion","BuildingNameTC":"銀海大廈","BaseHeight":9,"TopHeight":47.399999999999999,"Storeys":14,"StoreysInBasement":null,"DateStamp":1599580800000}},{"type":"Feature","id":250007,"geometry":{"type":"Polygon","coordinates":[[[114.1602837934261,22.326929309184774],[114.16025145653991,22.326893234470024],[114.16029022433973,22.326863638608355],[114.16030493205426,22.326852410574926],[114.16031060465349,22.326858726241813],[114.16031822094837,22.326852911772072],[114.16031254834904,22.32684659610543],[114.16036373376679,22.326807520549639],[114.16036940636685,22.326813836214512],[114.16037679103948,22.326808198627624],[114.1603711184393,22.326801882963032],[114.16042165362822,22.326763289285054],[114.16045399373098,22.32679936757901],[114.16043332543062,22.326815154385429],[114.16042525971504,22.326806174367466],[114.16039246120384,22.326831213220718],[114.16041560300599,22.326856978472716],[114.16043022246997,22.326845817787142],[114.16044674726,22.326864215845234],[114.16043212779539,22.326875376532282],[114.16044596288307,22.326890780046934],[114.1604276032693,22.326904796007298],[114.16041376818228,22.326889392491086],[114.16038973723695,22.326907738038578],[114.16040357232319,22.326923141556808],[114.16038594172356,22.326936601031242],[114.16037210663798,22.326921197511545],[114.16035736785805,22.326932449207956],[114.16034084316881,22.326914051140921],[114.16035558185104,22.326902799445982],[114.16033244005239,22.326877034185586],[114.16029928728649,22.326902343449738],[114.1603073529995,22.326911323473848],[114.1602837934261,22.326929309184774]]]},"properties":{"OBJECTID":250007,"Shape__Length":91.469318933434508,"Shape__Area":166.43369289563842,"GeoRefNo":"3456620868","DateCreate":1114790400000,"BuildingBlockType":"Tower","BuildingCSUID":"3456620868T20050430","BuildingID":1108229726,"Status":"Active","BuildingNameEN":"Beverly Court","BuildingNameTC":"普陞閣","BaseHeight":8.8000000000000007,"TopHeight":48.600000000000001,"Storeys":16,"StoreysInBasement":null,"DateStamp":1599580800000}},{"type":"Feature","id":250008,"geometry":{"type":"Polygon","coordinates":[[[114.16030903685365,22.326580168897031],[114.1603246884783,22.326568220226516],[114.16029434306382,22.326534434704218],[114.16032915123199,22.326507861687546],[114.16035949664909,22.326541647203456],[114.1603939417536,22.326515343247479],[114.16042991930021,22.326555479448768],[114.16039551457561,22.326581748377667],[114.16042563505805,22.326615283439931],[114.16039082688143,22.326641856567257],[114.16036070640166,22.326608321408326],[114.16034505487266,22.326620270082273],[114.16030903685365,22.326580168897031]]]},"properties":{"OBJECTID":250008,"Shape__Length":53.629597182528542,"Shape__Area":110.52840002610979,"GeoRefNo":"3456720838","DateCreate":1114790400000,"BuildingBlockType":"Tower","BuildingCSUID":"3456720838T20050430","BuildingID":1108229946,"Status":"Active","BuildingNameEN":"Canaan Building","BuildingNameTC":"迦南大廈","BaseHeight":12.1,"TopHeight":51.399999999999999,"Storeys":13,"StoreysInBasement":null,"DateStamp":1599580800000}},{"type":"Feature","id":250009,"geometry":{"type":"Polygon","coordinates":[[[114.16150704062871,22.32609481398228],[114.16147462418553,22.326093658070064],[114.16147307933029,22.326135153921232],[114.16140857373595,22.326132764354512],[114.16141020838454,22.326091361166334],[114.1614222198522,22.326091789455234],[114.16142396145148,22.326044285934895],[114.16141208023845,22.326043945887339],[114.16141364421976,22.326004331651209],[114.16143341524328,22.326005164163693],[114.16143371551914,22.326016152519959],[114.16147745688815,22.326017570858514],[114.16147640638019,22.326045787098426],[114.16150916760844,22.326046724863886],[114.16150704062871,22.32609481398228]]]},"properties":{"OBJECTID":250009,"Shape__Length":50.892899626056781,"Shape__Area":100.29340751119112,"GeoRefNo":"3467820787","DateCreate":1114790400000,"BuildingBlockType":"Tower","BuildingCSUID":"3467820787T20050430","BuildingID":1108230228,"Status":"Active","BuildingNameEN":null,"BuildingNameTC":"仁友大廈","BaseHeight":14.800000000000001,"TopHeight":51.200000000000003,"Storeys":13,"StoreysInBasement":null,"DateStamp":1599580800000}},{"type":"Feature","id":250010,"geometry":{"type":"Polygon","coordinates":[[[114.16121667253466,22.326125328982808],[114.16093535365312,22.326115321760224],[114.1608897164875,22.326063566598567],[114.16118074332852,22.325838716635694],[114.16119297494851,22.325829266403694],[114.16122357800411,22.325860714489032],[114.16122198294444,22.325921836237764],[114.16117198258627,22.325957228426571],[114.16116983156779,22.326039654358308],[114.16121886164164,22.326041442447874],[114.16121667253466,22.326125328982808]]]},"properties":{"OBJECTID":250010,"Shape__Length":118.44596488118367,"Shape__Area":615.13454572909984,"GeoRefNo":"3464220773","DateCreate":1114790400000,"BuildingBlockType":"Tower","BuildingCSUID":"3464220773T20050430","BuildingID":1108230237,"Status":"Active","BuildingNameEN":"Boundary Building","BuildingNameTC":"界限大樓","BaseHeight":10,"TopHeight":49.100000000000001,"Storeys":15,"StoreysInBasement":null,"DateStamp":1599580800000}},{"type":"Feature","id":250011,"geometry":{"type":"Polygon","coordinates":[[[114.16164473203406,22.326141950166534],[114.16154884219524,22.32613809728608],[114.16155388710894,22.326024031155978],[114.16163143324532,22.326025478823887],[114.16163224556888,22.325978050348226],[114.1616972483782,22.325981134595402],[114.16169570171294,22.326036433971979],[114.16174613551046,22.326038460350336],[114.16174418400536,22.326108234004042],[114.16170251749077,22.326144271915005],[114.16169369767974,22.326143917544218],[114.16165467118606,22.326142349526791],[114.16164473203406,22.326141950166534]]]},"properties":{"OBJECTID":250011,"Shape__Length":73.35431068638178,"Shape__Area":276.33102413779574,"GeoRefNo":"3469620784","DateCreate":1114790400000,"BuildingBlockType":"Tower","BuildingCSUID":"3469620784T20050430","BuildingID":1108230220,"Status":"Active","BuildingNameEN":"Kin Fook Mansion","BuildingNameTC":"建福大廈","BaseHeight":19.899999999999999,"TopHeight":47,"Storeys":14,"StoreysInBasement":null,"DateStamp":1599580800000}},{"type":"Feature","id":250012,"geometry":{"type":"Polygon","coordinates":[[[114.16018969495133,22.326889873007925],[114.16021831977322,22.326921806560133],[114.16024878034888,22.326955788160898],[114.16032251796949,22.327038048970717],[114.16018852793033,22.327142015328821],[114.16005570165491,22.3269938418767],[114.16018969495133,22.326889873007925]]]},"properties":{"OBJECTID":250012,"Shape__Length":78.681027122503622,"Shape__Area":384.04548384593494,"GeoRefNo":"3454920887","DateCreate":1142006400000,"BuildingBlockType":"Podium","BuildingCSUID":"3454920887P20060311","BuildingID":1108245856,"Status":"Active","BuildingNameEN":"NGUN HOI MANSION","BuildingNameTC":"銀海大廈","BaseHeight":3.8999999999999999,"TopHeight":9,"Storeys":2,"StoreysInBasement":null,"DateStamp":1599580800000}},{"type":"Feature","id":250200,"geometry":{"type":"Polygon","coordinates":[[[114.16313755102018,22.326012953694161],[114.16313539329136,22.326063574195587],[114.16300999866236,22.326058484209508],[114.16301370177726,22.32600805772816],[114.16313755102018,22.326012953694161]]]},"properties":{"OBJECTID":250200,"Shape__Length":36.908870846687343,"Shape__Area":71.998012955319894,"GeoRefNo":"3484520778","DateCreate":1161619200000,"BuildingBlockType":"Tower","BuildingCSUID":"3484520778T20061024","BuildingID":1108230274,"Status":"Active","BuildingNameEN":"LUNG KONG WORLD FEDERATION SCHOOL LTD LAU WONG FAT SECONDARY SCHOOL","BuildingNameTC":"世界龍岡學校劉皇發中學","BaseHeight":4.4000000000000004,"TopHeight":8.6999999999999993,"Storeys":null,"StoreysInBasement":null,"DateStamp":1425312000000}},{"type":"Feature","id":250308,"geometry":{"type":"Polygon","coordinates":[[[114.16063868205745,22.332203598241311],[114.16068999607707,22.332163979071517],[114.16079696360151,22.332282349075296],[114.16078343485513,22.332292573242459],[114.16080878904113,22.332320935564429],[114.16076990315239,22.332351490565387],[114.16063868205745,22.332203598241311]]]},"properties":{"OBJECTID":250308,"Shape__Length":56.353966971750161,"Shape__Area":140.34984105544314,"GeoRefNo":"3460421467","DateCreate":1114790400000,"BuildingBlockType":"Tower","BuildingCSUID":"3460421467T20050430","BuildingID":1108225783,"Status":"Active","BuildingNameEN":"Bao Hua Building","BuildingNameTC":"保華大廈","BaseHeight":4.9000000000000004,"TopHeight":46.5,"Storeys":13,"StoreysInBasement":null,"DateStamp":1599580800000}},{"type":"Feature","id":250309,"geometry":{"type":"Polygon","coordinates":[[[114.16267157676434,22.332345326681573],[114.16260716038515,22.332273321130629],[114.1625600583543,22.332220669611925],[114.16264453217146,22.332155359023528],[114.16270613557579,22.332107730532464],[114.16282764082403,22.332246040436118],[114.16283693913151,22.332256624717733],[114.16281533979954,22.332273339267505],[114.16277558683778,22.332304102017204],[114.16276747058127,22.332295004539073],[114.16275498702132,22.332281011113597],[114.16267157676434,22.332345326681573]]]},"properties":{"OBJECTID":250309,"Shape__Length":81.525303962516261,"Shape__Area":377.52372099003736,"GeoRefNo":"3481121461","DateCreate":1114790400000,"BuildingBlockType":"Tower","BuildingCSUID":"3481121461T20050430","BuildingID":1108225785,"Status":"Active","BuildingNameEN":"Sheung Fook Building","BuildingNameTC":"常福大廈","BaseHeight":5.5999999999999996,"TopHeight":38.299999999999997,"Storeys":11,"StoreysInBasement":null,"DateStamp":1599580800000}},{"type":"Feature","id":250310,"geometry":{"type":"Polygon","coordinates":[[[114.16103516344522,22.332120195622075],[114.16104900655714,22.332135893112113],[114.16095817129928,22.332205516966567],[114.16092105075651,22.332163391721796],[114.16082627941049,22.332057526383],[114.16091831500923,22.331987694293257],[114.1609722419159,22.332048845366231],[114.16099318563219,22.332072594588894],[114.16103516344522,22.332120195622075]]]},"properties":{"OBJECTID":250310,"Shape__Length":66.874990094252212,"Shape__Area":258.55525307559742,"GeoRefNo":"3462521449","DateCreate":1114790400000,"BuildingBlockType":"Tower","BuildingCSUID":"3462521449T20050430","BuildingID":1108225854,"Status":"Active","BuildingNameEN":"Chong Fat Commercial Building","BuildingNameTC":"昌發商業大廈","BaseHeight":4.9000000000000004,"TopHeight":43.299999999999997,"Storeys":12,"StoreysInBasement":null,"DateStamp":1599580800000}},{"type":"Feature","id":250311,"geometry":{"type":"Polygon","coordinates":[[[114.16372029801413,22.332193725641069],[114.16368525010935,22.332154874962463],[114.16365722119474,22.332123804872165],[114.1637347816142,22.332063720503708],[114.16384825410093,22.332190031597627],[114.16377104894383,22.33224997968631],[114.16375960088756,22.332237292875547],[114.16372029801413,22.332193725641069]]]},"properties":{"OBJECTID":250311,"Shape__Length":57.227360935641428,"Shape__Area":189.25781194498921,"GeoRefNo":"3491621456","DateCreate":1114790400000,"BuildingBlockType":"Tower","BuildingCSUID":"3491621456T20050430","BuildingID":1108225829,"Status":"Active","BuildingNameEN":"Wai Chun House","BuildingNameTC":"惠珍樓","BaseHeight":6.0999999999999996,"TopHeight":34.700000000000003,"Storeys":9,"StoreysInBasement":null,"DateStamp":1599580800000}},{"type":"Feature","id":250312,"geometry":{"type":"Polygon","coordinates":[[[114.16342227416096,22.33184088362303],[114.16341947888837,22.331837806040852],[114.16353759512531,22.331748195117257],[114.16366974504425,22.331895415471429],[114.16358021268034,22.331965617145361],[114.16355413720802,22.33198606277368],[114.16353556355615,22.331965613488755],[114.16342227416096,22.33184088362303]]]},"properties":{"OBJECTID":250312,"Shape__Length":74.010174280794445,"Shape__Area":334.12254857701578,"GeoRefNo":"3489421424","DateCreate":1114790400000,"BuildingBlockType":"Tower","BuildingCSUID":"3489421424T20050430","BuildingID":1108225957,"Status":"Active","BuildingNameEN":"Sham Shui Po Government Offices","BuildingNameTC":"深水埗政府合署","BaseHeight":5.9000000000000004,"TopHeight":28.699999999999999,"Storeys":8,"StoreysInBasement":null,"DateStamp":1783612800000}},{"type":"Feature","id":250313,"geometry":{"type":"Polygon","coordinates":[[[114.1629227875079,22.331941846764593],[114.16294402468827,22.331965563882882],[114.16297441286291,22.331999500514613],[114.16296091487246,22.332009790428629],[114.16304138724892,22.3321001821148],[114.16297847784399,22.332149410569638],[114.16296955715696,22.332139529810497],[114.16290336080853,22.332066209099803],[114.1628453452299,22.332001949448735],[114.16289223375836,22.331965559436952],[114.1629227875079,22.331941846764593]]]},"properties":{"OBJECTID":250313,"Shape__Length":63.287247794793956,"Shape__Area":196.83713795096929,"GeoRefNo":"3483321447","DateCreate":1114790400000,"BuildingBlockType":"Tower","BuildingCSUID":"3483321447T20050430","BuildingID":1108225885,"Status":"Active","BuildingNameEN":"Hang On Building","BuildingNameTC":"恆安樓","BaseHeight":5.5999999999999996,"TopHeight":38.100000000000001,"Storeys":10,"StoreysInBasement":null,"DateStamp":1599580800000}},{"type":"Feature","id":250314,"geometry":{"type":"Polygon","coordinates":[[[114.16153359235334,22.332047187305037],[114.16147286710159,22.332094320558028],[114.16134760702923,22.331952828707831],[114.16134252069872,22.331947082786076],[114.16143916293896,22.33187183845159],[114.16144786450258,22.331881832698532],[114.16144190492727,22.331886856567042],[114.16145230473302,22.331898343097741],[114.1614868580108,22.331871190243763],[114.16147915562509,22.331862458839595],[114.16146255583408,22.331875253869644],[114.16145103763988,22.331862592896766],[114.16150028196121,22.33182425191201],[114.16163062963643,22.331971869746884],[114.16153359235334,22.332047187305037]]]},"properties":{"OBJECTID":250314,"Shape__Length":96.925241064815978,"Shape__Area":438.47739388103702,"GeoRefNo":"3468521437","DateCreate":1114790400000,"BuildingBlockType":"Tower","BuildingCSUID":"3468521437T20050430","BuildingID":1108225911,"Status":"Active","BuildingNameEN":"Wing Luen Mansion","BuildingNameTC":"永聯大廈","BaseHeight":5,"TopHeight":43.799999999999997,"Storeys":11,"StoreysInBasement":null,"DateStamp":1599580800000}},{"type":"Feature","id":250531,"geometry":{"type":"Polygon","coordinates":[[[114.16369075329634,22.331882503807346],[114.16360630437248,22.33178745739421],[114.16364397394393,22.331759552357575],[114.16366459425097,22.331782255649138],[114.16368421384914,22.331767050827871],[114.16364951493416,22.331728092342757],[114.16360923996281,22.331759097547181],[114.16357177330067,22.331716709817801],[114.16371390638115,22.331604718974923],[114.16385042911531,22.331756800248211],[114.16369075329634,22.331882503807346]]]},"properties":{"OBJECTID":250531,"Shape__Length":104.28176285233916,"Shape__Area":431.74491786842651,"GeoRefNo":"3491421412","DateCreate":1114790400000,"BuildingBlockType":"Tower","BuildingCSUID":"3491421412T20050430","BuildingID":1108226002,"Status":"Active","BuildingNameEN":"Lung On Building","BuildingNameTC":"龍安大廈","BaseHeight":5.7999999999999998,"TopHeight":43.299999999999997,"Storeys":11,"StoreysInBasement":null,"DateStamp":1599580800000}},{"type":"Feature","id":250532,"geometry":{"type":"Polygon","coordinates":[[[114.16164511173086,22.331638522490429],[114.16153322255585,22.331512819740922],[114.16157088152137,22.331483797740287],[114.16161011292898,22.331527648149823],[114.16168210302806,22.331608113846475],[114.16168247504528,22.331608529649191],[114.16165186398977,22.331633101975132],[114.16164511173086,22.331638522490429]]]},"properties":{"OBJECTID":250532,"Shape__Length":46.165261399646241,"Shape__Area":91.197864421939599,"GeoRefNo":"3469521391","DateCreate":1114790400000,"BuildingBlockType":"Tower","BuildingCSUID":"3469521391T20050430","BuildingID":1108226149,"Status":"Active","BuildingNameEN":"Yau Hing Building","BuildingNameTC":"友興大廈","BaseHeight":4.7999999999999998,"TopHeight":43.899999999999999,"Storeys":7,"StoreysInBasement":null,"DateStamp":1599580800000}},{"type":"Feature","id":250533,"geometry":{"type":"Polygon","coordinates":[[[114.16152150672073,22.331644555480963],[114.16157067865555,22.331699675015678],[114.16155226859463,22.331714028021086],[114.16156808662011,22.331732007771745],[114.16155734840997,22.3317403867776],[114.16154131817657,22.331722565221639],[114.16153270477666,22.331729275484765],[114.16154848872564,22.33174729894208],[114.1615344342833,22.331758263901602],[114.16151809156443,22.331740659950899],[114.16149130369286,22.331761545872801],[114.16143938360088,22.331703515948913],[114.16141087497087,22.331671652538162],[114.16137669351588,22.331633448662387],[114.16145663753812,22.331571839891527],[114.16152150672073,22.331644555480963]]]},"properties":{"OBJECTID":250533,"Shape__Length":68.408807057032817,"Shape__Area":205.52318390028796,"GeoRefNo":"3468121402","DateCreate":1114790400000,"BuildingBlockType":"Tower","BuildingCSUID":"3468121402T20050430","BuildingID":1108226073,"Status":"Active","BuildingNameEN":"Wing On Building","BuildingNameTC":"永安大廈","BaseHeight":4.7000000000000002,"TopHeight":45.100000000000001,"Storeys":12,"StoreysInBasement":null,"DateStamp":1599580800000}},{"type":"Feature","id":250534,"geometry":{"type":"Polygon","coordinates":[[[114.1646080322507,22.331496895015224],[114.16454832555689,22.331431901113387],[114.16462141048422,22.331375066985128],[114.16467996400276,22.33144025646671],[114.16466202674312,22.331454388070341],[114.16464932539168,22.331440978148471],[114.16463167444292,22.331454414596152],[114.16464385660107,22.331468664414675],[114.1646080322507,22.331496895015224]]]},"properties":{"OBJECTID":250534,"Shape__Length":42.291053170517202,"Shape__Area":87.315949370413477,"GeoRefNo":"3500521376","DateCreate":1114790400000,"BuildingBlockType":"Tower","BuildingCSUID":"3500521376T20050430","BuildingID":1108226251,"Status":"Active","BuildingNameEN":"Shun King House","BuildingNameTC":"順景樓","BaseHeight":6,"TopHeight":25.699999999999999,"Storeys":6,"StoreysInBasement":null,"DateStamp":1599580800000}},{"type":"Feature","id":250535,"geometry":{"type":"Polygon","coordinates":[[[114.16450066111187,22.331654697093583],[114.1644023104562,22.331545446014257],[114.16447614016171,22.33148803432319],[114.16447810388573,22.331486507311347],[114.16453721146146,22.331552659816669],[114.16455345033344,22.33157083473019],[114.1645597482723,22.331577881137186],[114.1645789621912,22.331599388196366],[114.16455880219243,22.331615114601398],[114.16457388020348,22.331632555780466],[114.16456109361654,22.331642473822168],[114.16454560788624,22.331625415959184],[114.16453714451752,22.331632030759632],[114.16455279411815,22.331648864858025],[114.16454033127239,22.331658533678571],[114.16452475651211,22.331641694888756],[114.16450372632235,22.331658101945955],[114.16450066111187,22.331654697093583]]]},"properties":{"OBJECTID":250535,"Shape__Length":62.642302762809713,"Shape__Area":173.44640209154724,"GeoRefNo":"3499321391","DateCreate":1114790400000,"BuildingBlockType":"Tower","BuildingCSUID":"3499321391T20050430","BuildingID":1108226137,"Status":"Active","BuildingNameEN":"Hing Sing Building","BuildingNameTC":"慶成樓","BaseHeight":6,"TopHeight":34.799999999999997,"Storeys":10,"StoreysInBasement":null,"DateStamp":1599580800000}},{"type":"Feature","id":250536,"geometry":{"type":"Polygon","coordinates":[[[114.16212091741333,22.331459624965397],[114.1620036127287,22.331550648219551],[114.16197524943144,22.331572656849929],[114.1619307331738,22.331522842608862],[114.1619113005172,22.331501097259771],[114.16193073708347,22.331486034413611],[114.16205609380739,22.331388885599655],[114.16212091741333,22.331459624965397]]]},"properties":{"OBJECTID":250536,"Shape__Length":59.554215161160627,"Shape__Area":200.60186449687924,"GeoRefNo":"3473921380","DateCreate":1114790400000,"BuildingBlockType":"Tower","BuildingCSUID":"3473921380T20050430","BuildingID":1108226192,"Status":"Active","BuildingNameEN":"Kam Moon Lau","BuildingNameTC":"金滿樓","BaseHeight":4.9000000000000004,"TopHeight":27.100000000000001,"Storeys":4,"StoreysInBasement":null,"DateStamp":1599580800000}},{"type":"Feature","id":250537,"geometry":{"type":"Polygon","coordinates":[[[114.16122458592247,22.331393158690197],[114.16116877017373,22.331331512276744],[114.16116198654404,22.331324020031744],[114.16112955860301,22.331288204499227],[114.16110353694869,22.33125945844975],[114.16112084844734,22.331246251639669],[114.16114690603324,22.331274860063854],[114.16116199333337,22.331263236095023],[114.16116912154472,22.33125774429433],[114.16126451387019,22.331362505062504],[114.16122458592247,22.331393158690197]]]},"properties":{"OBJECTID":250537,"Shape__Length":49.32460921098933,"Shape__Area":90.343747701907517,"GeoRefNo":"3464921361","DateCreate":1114790400000,"BuildingBlockType":"Tower","BuildingCSUID":"3464921361T20050430","BuildingID":1108226332,"Status":"Active","BuildingNameEN":"Hung Yick Building","BuildingNameTC":"鴻益大廈","BaseHeight":4.7000000000000002,"TopHeight":44.700000000000003,"Storeys":12,"StoreysInBasement":null,"DateStamp":1599580800000}},{"type":"Feature","id":250538,"geometry":{"type":"Polygon","coordinates":[[[114.1624066574913,22.331374176019036],[114.1623307334843,22.331433003568918],[114.16227045150929,22.331364956981975],[114.16220807365838,22.3312945386621],[114.16219812789144,22.331283317719091],[114.1622594560487,22.331235901947622],[114.16233497074955,22.331320712557545],[114.16234908224335,22.331309894279983],[114.1624066574913,22.331374176019036]]]},"properties":{"OBJECTID":250538,"Shape__Length":63.218233488794979,"Shape__Area":194.57671534823638,"GeoRefNo":"3476721365","DateCreate":1114790400000,"BuildingBlockType":"Tower","BuildingCSUID":"3476721365T20050430","BuildingID":1108226305,"Status":"Active","BuildingNameEN":"Kam Wah Building","BuildingNameTC":"金華大廈","BaseHeight":4.7999999999999998,"TopHeight":35.700000000000003,"Storeys":9,"StoreysInBasement":null,"DateStamp":1599580800000}},{"type":"Feature","id":250539,"geometry":{"type":"Polygon","coordinates":[[[114.16483923666597,22.331210108077798],[114.16496448357728,22.331349369127526],[114.16492524869726,22.331394134091145],[114.16487058883986,22.33145563897893],[114.16486034901588,22.331467258322903],[114.16481257577365,22.331414525135177],[114.16482512899235,22.33140435311611],[114.16477434945932,22.331347496330714],[114.16476100970151,22.331357655192992],[114.1647141069528,22.331305920912946],[114.16472540951172,22.33129726928691],[114.16479038007591,22.331247526190523],[114.16483923666597,22.331210108077798]]]},"properties":{"OBJECTID":250539,"Shape__Length":80.5078913348014,"Shape__Area":347.83072458793413,"GeoRefNo":"3503121361","DateCreate":1114790400000,"BuildingBlockType":"Tower","BuildingCSUID":"3503121361T20050430","BuildingID":1108226277,"Status":"Active","BuildingNameEN":"Diamond Building","BuildingNameTC":"鑽石樓","BaseHeight":5.7999999999999998,"TopHeight":42.299999999999997,"Storeys":12,"StoreysInBasement":null,"DateStamp":1599580800000}},{"type":"Feature","id":250540,"geometry":{"type":"Polygon","coordinates":[[[114.16253902797888,22.331271611453403],[114.16242631448246,22.331144942698714],[114.16240627219857,22.331122418917666],[114.16243098364009,22.331103317372055],[114.16244863966232,22.331123442325712],[114.16246124324009,22.331113927107477],[114.16247153059989,22.331106160455089],[114.16245327323612,22.331086089995267],[114.16247674850656,22.331067941239883],[114.16254871764968,22.331148011105281],[114.16261022792396,22.331216445200571],[114.16253902797888,22.331271611453403]]]},"properties":{"OBJECTID":250540,"Shape__Length":67.708948223169187,"Shape__Area":194.82561646287209,"GeoRefNo":"3478921347","DateCreate":1114790400000,"BuildingBlockType":"Tower","BuildingCSUID":"3478921347T20050430","BuildingID":1108226405,"Status":"Active","BuildingNameEN":"Fuk Kiu Building","BuildingNameTC":"福僑大樓","BaseHeight":5.0999999999999996,"TopHeight":37.600000000000001,"Storeys":10,"StoreysInBasement":null,"DateStamp":1599580800000}},{"type":"Feature","id":250541,"geometry":{"type":"Polygon","coordinates":[[[114.16226781579415,22.331193189314746],[114.16217759791904,22.331263000037087],[114.16213946117968,22.331220617783583],[114.16204476529393,22.331115379874042],[114.16213515766573,22.331045589558986],[114.16213947900634,22.331050397561313],[114.16226781579415,22.331193189314746]]]},"properties":{"OBJECTID":250541,"Shape__Length":66.814265478566753,"Shape__Area":257.77074030617513,"GeoRefNo":"3475121345","DateCreate":1114790400000,"BuildingBlockType":"Tower","BuildingCSUID":"3475121345T20050430","BuildingID":1108226412,"Status":"Active","BuildingNameEN":"Cheung Yin Building","BuildingNameTC":"祥賢大廈","BaseHeight":4.5999999999999996,"TopHeight":43.700000000000003,"Storeys":12,"StoreysInBasement":null,"DateStamp":1599580800000}},{"type":"Feature","id":250554,"geometry":{"type":"Polygon","coordinates":[[[114.16175129964874,22.327975526889595],[114.16174164896381,22.327965003012427],[114.16176729492027,22.327945481273638],[114.16175442700232,22.327931296640987],[114.16171817814133,22.327959314989165],[114.16165448234149,22.327888331441738],[114.16164468087315,22.327877408663646],[114.16165448434785,22.327869782440214],[114.16167228154929,22.327855937690465],[114.16177192065082,22.327778426992488],[114.16186664269235,22.327884792483939],[114.16175129964874,22.327975526889595]]]},"properties":{"OBJECTID":250554,"Shape__Length":71.615665645623096,"Shape__Area":249.5631224392535,"GeoRefNo":"3471020982","DateCreate":1114790400000,"BuildingBlockType":"Tower","BuildingCSUID":"3471020982T20050430","BuildingID":1108229025,"Status":"Active","BuildingNameEN":"Tung Shing Building","BuildingNameTC":"東成大廈","BaseHeight":4,"TopHeight":52.100000000000001,"Storeys":16,"StoreysInBasement":null,"DateStamp":1599580800000}},{"type":"Feature","id":250755,"geometry":{"type":"Polygon","coordinates":[[[114.16242768030558,22.331069485631453],[114.16229440392101,22.330922637925369],[114.16239937093283,22.330841594315203],[114.16241431569334,22.330858220494189],[114.16253179718279,22.33098891948891],[114.16252383671174,22.330995079449004],[114.16248820914134,22.330955531745587],[114.16240201080763,22.331022555390838],[114.16243728679655,22.331062052149164],[114.16242768030558,22.331069485631453]]]},"properties":{"OBJECTID":250755,"Shape__Length":81.929613297885965,"Shape__Area":231.84307518785306,"GeoRefNo":"3477821321","DateCreate":1114790400000,"BuildingBlockType":"Tower","BuildingCSUID":"3477821321T20050430","BuildingID":1108226519,"Status":"Active","BuildingNameEN":"Tak Wong Building","BuildingNameTC":"德旺大廈","BaseHeight":4.7999999999999998,"TopHeight":45.299999999999997,"Storeys":12,"StoreysInBasement":null,"DateStamp":1599580800000}},{"type":"Feature","id":250756,"geometry":{"type":"Polygon","coordinates":[[[114.1634660255107,22.33076954859213],[114.16352670277156,22.330838689278472],[114.16351503313146,22.330847674290602],[114.16353370495153,22.330868233039336],[114.16350134087082,22.330893659053473],[114.1635071808016,22.330900281026903],[114.16351397604038,22.330894972958063],[114.16355280174132,22.330939020366252],[114.16352781326155,22.330958064626106],[114.16353476789786,22.330965960814726],[114.1634410276388,22.331038715200751],[114.16343214591879,22.331028782994615],[114.16330909904519,22.330891159809557],[114.16335374057063,22.330856567550654],[114.16339547643246,22.330824215525762],[114.1634660255107,22.33076954859213]]]},"properties":{"OBJECTID":250756,"Shape__Length":86.288312415966502,"Shape__Area":394.35966899741345,"GeoRefNo":"3488221321","DateCreate":1114790400000,"BuildingBlockType":"Tower","BuildingCSUID":"3488221321T20050430","BuildingID":1108226535,"Status":"Active","BuildingNameEN":"Fuk On Building","BuildingNameTC":"福安大廈","BaseHeight":5.5,"TopHeight":44.100000000000001,"Storeys":12,"StoreysInBasement":null,"DateStamp":1599580800000}},{"type":"Feature","id":250757,"geometry":{"type":"Polygon","coordinates":[[[114.16133424071802,22.331046873339869],[114.16125686470437,22.33110559901726],[114.16116880637713,22.331007245154311],[114.16116202277256,22.33099966847309],[114.16113846961478,22.330973361465638],[114.16121587704365,22.330913864906076],[114.16127999621703,22.330985917410004],[114.16133424071802,22.331046873339869]]]},"properties":{"OBJECTID":250757,"Shape__Length":58.810581897369538,"Shape__Area":196.91870220942181,"GeoRefNo":"3465721329","DateCreate":1114790400000,"BuildingBlockType":"Tower","BuildingCSUID":"3465721329T20050430","BuildingID":1108226498,"Status":"Active","BuildingNameEN":"Kam Fai Building","BuildingNameTC":"金輝大廈","BaseHeight":4.2999999999999998,"TopHeight":44.899999999999999,"Storeys":10,"StoreysInBasement":null,"DateStamp":1599580800000}},{"type":"Feature","id":250758,"geometry":{"type":"Polygon","coordinates":[[[114.16286688577082,22.331017125383422],[114.16283642943465,22.330983835943435],[114.16284739126405,22.330975331255878],[114.16283060419487,22.330956732859534],[114.16289194174185,22.330908920134014],[114.16290839097448,22.330926978827559],[114.162929109628,22.330910833474842],[114.16291893503131,22.330899721193791],[114.16295329996365,22.330873446592697],[114.16294033090641,22.33085920985366],[114.16300453295871,22.330810168539166],[114.16305787577907,22.330869369084603],[114.16298062715494,22.330929136101062],[114.16287851508731,22.331008130842299],[114.16286688577082,22.331017125383422]]]},"properties":{"OBJECTID":250758,"Shape__Length":73.617689080277344,"Shape__Area":186.41035073224771,"GeoRefNo":"3483721314","DateCreate":1114790400000,"BuildingBlockType":"Tower","BuildingCSUID":"3483721314T20050430","BuildingID":1108226545,"Status":"Active","BuildingNameEN":"Mayfair Building","BuildingNameTC":"美華大廈","BaseHeight":5.2999999999999998,"TopHeight":47.5,"Storeys":12,"StoreysInBasement":null,"DateStamp":1599580800000}},{"type":"Feature","id":250760,"geometry":{"type":"Polygon","coordinates":[[[114.16228801737341,22.33111815025033],[114.16218781582062,22.331004932958795],[114.16229440392101,22.330922637925369],[114.16242768030558,22.331069485631453],[114.16240716019902,22.331085364264343],[114.16236349372082,22.331036972621622],[114.16234939097406,22.331047961760206],[114.16236694190474,22.331067587141717],[114.16232772751266,22.331097525251966],[114.16234178285937,22.331113215428108],[114.1623646072352,22.331095785465088],[114.16237670450546,22.331108930916553],[114.1623271151101,22.33114730338616],[114.16229579350379,22.331112243773799],[114.16228801737341,22.33111815025033]]]},"properties":{"OBJECTID":250760,"Shape__Length":91.434112397434063,"Shape__Area":271.99950507280056,"GeoRefNo":"3476621330","DateCreate":1114790400000,"BuildingBlockType":"Tower","BuildingCSUID":"3476621330T20050430","BuildingID":1108226473,"Status":"Active","BuildingNameEN":"Kam Sha Mansion","BuildingNameTC":"金沙樓","BaseHeight":4.7000000000000002,"TopHeight":44.200000000000003,"Storeys":12,"StoreysInBasement":null,"DateStamp":1599580800000}},{"type":"Feature","id":250762,"geometry":{"type":"Polygon","coordinates":[[[114.16348765838819,22.330307087052358],[114.16361086191925,22.330443295212781],[114.16351475650006,22.330515206177587],[114.1633829956685,22.330366600142856],[114.16347641607982,22.330294658329635],[114.16348765838819,22.330307087052358]]]},"properties":{"OBJECTID":250762,"Shape__Length":68.043152617431659,"Shape__Area":269.88544625510963,"GeoRefNo":"3488921262","DateCreate":1114790400000,"BuildingBlockType":"Tower","BuildingCSUID":"3488921262T20050430","BuildingID":1108226862,"Status":"Active","BuildingNameEN":"Wah On Mansion","BuildingNameTC":"華安大廈","BaseHeight":5.0999999999999996,"TopHeight":43.399999999999999,"Storeys":9,"StoreysInBasement":null,"DateStamp":1599580800000}},{"type":"Feature","id":250763,"geometry":{"type":"Polygon","coordinates":[[[114.16055823264834,22.330527266938681],[114.1604760883579,22.330435253387122],[114.16045914960674,22.330416283391298],[114.16044528289427,22.330400222725594],[114.16051470760134,22.330347276654255],[114.16054549036937,22.330381363965969],[114.16062197212668,22.330466045980739],[114.16062827380613,22.330473023457763],[114.16055823264834,22.330527266938681]]]},"properties":{"OBJECTID":250763,"Shape__Length":55.081318330664125,"Shape__Area":170.09198586689376,"GeoRefNo":"3458621266","DateCreate":1114790400000,"BuildingBlockType":"Tower","BuildingCSUID":"3458621266T20050430","BuildingID":1108226853,"Status":"Active","BuildingNameEN":"Tender Court","BuildingNameTC":"溫馨閣","BaseHeight":4.5,"TopHeight":19.100000000000001,"Storeys":12,"StoreysInBasement":null,"DateStamp":1599580800000}},{"type":"Feature","id":250764,"geometry":{"type":"Polygon","coordinates":[[[114.16187127766449,22.330593978817586],[114.16177404503256,22.330485397567138],[114.16184235590231,22.330432603079579],[114.16194152254931,22.330543664265203],[114.16195933433988,22.330563612468978],[114.1619452476365,22.330574495103942],[114.16192926845393,22.330556611458146],[114.16191865585989,22.330565024726663],[114.16193464457825,22.330582686402675],[114.16191623966594,22.330596905167194],[114.16190050175207,22.330579416538466],[114.16188801258573,22.330589317420419],[114.16190363617123,22.330606641683236],[114.16189121187601,22.330616239685657],[114.16187127766449,22.330593978817586]]]},"properties":{"OBJECTID":250764,"Shape__Length":66.170481356941863,"Shape__Area":164.37550054684945,"GeoRefNo":"3472121276","DateCreate":1114790400000,"BuildingBlockType":"Tower","BuildingCSUID":"3472121276T20050430","BuildingID":1108226781,"Status":"Active","BuildingNameEN":"Houston Court","BuildingNameTC":"好時閣","BaseHeight":4.5,"TopHeight":45.299999999999997,"Storeys":10,"StoreysInBasement":null,"DateStamp":1599580800000}},{"type":"Feature","id":250765,"geometry":{"type":"Polygon","coordinates":[[[114.16310062796319,22.330516169233075],[114.1631175728198,22.330535046389883],[114.16304142701514,22.330593612734702],[114.16291051905829,22.330447927241465],[114.16298647248499,22.330389016965785],[114.16310062796319,22.330516169233075]]]},"properties":{"OBJECTID":250765,"Shape__Length":62.461705839040029,"Shape__Area":214.32906741133155,"GeoRefNo":"3483721266","DateCreate":1114790400000,"BuildingBlockType":"Tower","BuildingCSUID":"3483721266T20050430","BuildingID":1108226800,"Status":"Active","BuildingNameEN":"Fu On Commercial Building","BuildingNameTC":"富安商業大廈","BaseHeight":4.7999999999999998,"TopHeight":44.600000000000001,"Storeys":12,"StoreysInBasement":null,"DateStamp":1599580800000}},{"type":"Feature","id":250766,"geometry":{"type":"Polygon","coordinates":[[[114.16467692532848,22.330312687624303],[114.16469999803341,22.33029452722656],[114.16470660525646,22.330289440884311],[114.16473450414954,22.330320647874601],[114.16460442524034,22.330422809849274],[114.16457624853581,22.330391757600154],[114.16467692532848,22.330312687624303]]]},"properties":{"OBJECTID":250766,"Shape__Length":44.102819619712875,"Shape__Area":78.997420856161511,"GeoRefNo":"3500921257","DateCreate":1114790400000,"BuildingBlockType":"Tower","BuildingCSUID":"3500921257T20050430","BuildingID":1108226950,"Status":"Active","BuildingNameEN":"Champion House","BuildingNameTC":"俊賢樓","BaseHeight":5.4000000000000004,"TopHeight":26.199999999999999,"Storeys":6,"StoreysInBasement":null,"DateStamp":1599580800000}},{"type":"Feature","id":250768,"geometry":{"type":"Polygon","coordinates":[[[114.16365238787314,22.330411584906308],[114.1635317793463,22.330273097309732],[114.16357220592826,22.330241953511639],[114.16369417619991,22.330379674041147],[114.16365238787314,22.330411584906308]]]},"properties":{"OBJECTID":250768,"Shape__Length":50.474532823569398,"Shape__Area":108.38834622661527,"GeoRefNo":"3490021255","DateCreate":1114790400000,"BuildingBlockType":"Tower","BuildingCSUID":"3490021255T20050430","BuildingID":1108226957,"Status":"Active","BuildingNameEN":"Fook Cheong House","BuildingNameTC":"福昌樓","BaseHeight":5.2000000000000002,"TopHeight":25.100000000000001,"Storeys":6,"StoreysInBasement":null,"DateStamp":1599580800000}},{"type":"Feature","id":250769,"geometry":{"type":"Polygon","coordinates":[[[114.16467692532848,22.330312687624303],[114.16457624853581,22.330391757600154],[114.16449348339648,22.330299441343048],[114.164556511521,22.330250111786949],[114.16456426209024,22.330258476318345],[114.16462513572166,22.330210769638789],[114.16463335155895,22.330219984160351],[114.16462347748623,22.330227928162021],[114.16465527567968,22.330264212543451],[114.16464264419328,22.330273546326286],[114.16467692532848,22.330312687624303]]]},"properties":{"OBJECTID":250769,"Shape__Length":59.900905751574399,"Shape__Area":187.74846563778141,"GeoRefNo":"3500221250","DateCreate":1114790400000,"BuildingBlockType":"Tower","BuildingCSUID":"3500221250T20050430","BuildingID":1108226970,"Status":"Active","BuildingNameEN":"Po Tai Building","BuildingNameTC":"普泰大廈","BaseHeight":5.4000000000000004,"TopHeight":45.5,"Storeys":13,"StoreysInBasement":null,"DateStamp":1599580800000}},{"type":"Feature","id":250770,"geometry":{"type":"Polygon","coordinates":[[[114.16076746915365,22.327661795473698],[114.16077216360641,22.32766704325056],[114.16086002253364,22.327765257735582],[114.1608877351848,22.327796241239561],[114.16078685143515,22.32787510983157],[114.16077214164649,22.327858911298758],[114.16066554498636,22.327741525677169],[114.16076746915365,22.327661795473698]]]},"properties":{"OBJECTID":250770,"Shape__Length":66.028664648101355,"Shape__Area":264.30807471398725,"GeoRefNo":"3460920970","DateCreate":1114790400000,"BuildingBlockType":"Tower","BuildingCSUID":"3460920970T20050430","BuildingID":1108229112,"Status":"Active","BuildingNameEN":"Standard Building","BuildingNameTC":"三達大廈","BaseHeight":4,"TopHeight":33.200000000000003,"Storeys":10,"StoreysInBasement":null,"DateStamp":1599580800000}},{"type":"Feature","id":250774,"geometry":{"type":"Polygon","coordinates":[[[114.16381929751729,22.327727099316842],[114.16371768956087,22.327614338043375],[114.16375124166073,22.327588312891933],[114.16376030365716,22.327581283854187],[114.16378421073175,22.327562740028572],[114.16380091725328,22.327581287123881],[114.16386850895698,22.327656325236521],[114.1638856618589,22.32767536786681],[114.16388577677257,22.327675495478157],[114.1638438927565,22.327708007562109],[114.16385511741596,22.327720464346942],[114.16384170181374,22.327730878065541],[114.16383047715465,22.327718421279805],[114.16381929751729,22.327727099316842]]]},"properties":{"OBJECTID":250774,"Shape__Length":54.027037576275717,"Shape__Area":148.58640308923074,"GeoRefNo":"3492220958","DateCreate":1114790400000,"BuildingBlockType":"Tower","BuildingCSUID":"3492220958T20050430","BuildingID":1108229211,"Status":"Active","BuildingNameEN":"Ki Yip Building","BuildingNameTC":"基業大廈","BaseHeight":4.7999999999999998,"TopHeight":35,"Storeys":9,"StoreysInBasement":null,"DateStamp":1599580800000}},{"type":"Feature","id":250775,"geometry":{"type":"Polygon","coordinates":[[[114.16347375049109,22.327589021831631],[114.16339957365425,22.327646624423711],[114.16334022076532,22.327581249437259],[114.16328970226451,22.327525605170838],[114.16336557229693,22.327466907449118],[114.16339383299434,22.327498838782986],[114.16346687211194,22.327581259928294],[114.16347375049109,22.327589021831631]]]},"properties":{"OBJECTID":250775,"Shape__Length":55.185017841034238,"Shape__Area":176.35539814358111,"GeoRefNo":"3488020949","DateCreate":1114790400000,"BuildingBlockType":"Tower","BuildingCSUID":"3488020949T20050430","BuildingID":1108229281,"Status":"Active","BuildingNameEN":"Ming Kai Building","BuildingNameTC":"明基樓","BaseHeight":4.5999999999999996,"TopHeight":27.199999999999999,"Storeys":4,"StoreysInBasement":null,"DateStamp":1599580800000}},{"type":"Feature","id":250776,"geometry":{"type":"Polygon","coordinates":[[[114.1641419300573,22.327636900137396],[114.16409053713997,22.32758131014555],[114.16408484695204,22.327575155264118],[114.16423492293983,22.327456622954216],[114.16429291136329,22.327519764606205],[114.16428919091915,22.327522251341581],[114.16421224844339,22.32758131966585],[114.1642047882621,22.327587046823908],[114.1641419300573,22.327636900137396]]]},"properties":{"OBJECTID":250776,"Shape__Length":58.751663280402227,"Shape__Area":183.46304500111151,"GeoRefNo":"3496020946","DateCreate":1114790400000,"BuildingBlockType":"Tower","BuildingCSUID":"3496020946T20050430","BuildingID":1108229286,"Status":"Active","BuildingNameEN":"Pine & Bamboo Mansion","BuildingNameTC":"松竹大廈","BaseHeight":4.7000000000000002,"TopHeight":26.800000000000001,"Storeys":6,"StoreysInBasement":null,"DateStamp":1599580800000}},{"type":"Feature","id":250967,"geometry":{"type":"Polygon","coordinates":[[[114.1633317189403,22.330370333999433],[114.16319993070387,22.330223454187479],[114.16331044790324,22.330137734230352],[114.16343329474046,22.330274354473818],[114.16344277933587,22.330284899636176],[114.1634240064194,22.330299327509799],[114.1634102838125,22.330284306980843],[114.16337346793058,22.330312998422357],[114.16338689643517,22.330327887896267],[114.16336736681204,22.330342898624544],[114.16335379869484,22.33032832719454],[114.16333458211335,22.330343303177173],[114.16334776097925,22.330357989174473],[114.1633317189403,22.330370333999433]]]},"properties":{"OBJECTID":250967,"Shape__Length":80.638872683995544,"Shape__Area":298.46310652464928,"GeoRefNo":"3487221243","DateCreate":1114790400000,"BuildingBlockType":"Tower","BuildingCSUID":"3487221243T20050430","BuildingID":1108226993,"Status":"Active","BuildingNameEN":"Man Yui Building","BuildingNameTC":"文裔大廈","BaseHeight":4.7000000000000002,"TopHeight":44.299999999999997,"Storeys":13,"StoreysInBasement":null,"DateStamp":1599580800000}},{"type":"Feature","id":250968,"geometry":{"type":"Polygon","coordinates":[[[114.16369417619991,22.330379674041147],[114.16357220592826,22.330241953511639],[114.16356112126297,22.330229437210949],[114.1635765071416,22.330217590345995],[114.16359113079217,22.330234087073599],[114.16361087785009,22.330218615776175],[114.16373055660367,22.330351876248496],[114.16369417619991,22.330379674041147]]]},"properties":{"OBJECTID":250968,"Shape__Length":52.720641229911095,"Shape__Area":96.745889208007853,"GeoRefNo":"3490521250","DateCreate":1114790400000,"BuildingBlockType":"Tower","BuildingCSUID":"3490521250T20050430","BuildingID":1108226982,"Status":"Active","BuildingNameEN":"Fuk Cheong Building","BuildingNameTC":"福昌樓","BaseHeight":5.2000000000000002,"TopHeight":29.600000000000001,"Storeys":4,"StoreysInBasement":null,"DateStamp":1599580800000}},{"type":"Feature","id":250969,"geometry":{"type":"Polygon","coordinates":[[[114.16368311494726,22.33019168062566],[114.16371642537214,22.330165853601358],[114.16372549093421,22.33015882456813],[114.16383298662046,22.330075478330233],[114.16389896008123,22.330149387635768],[114.16383265546564,22.330200786031895],[114.16374889569354,22.330265715500666],[114.16373523685992,22.330250355905932],[114.16375814392099,22.330232858473526],[114.16372729204349,22.330199047017526],[114.16370521170347,22.330216562393133],[114.16368311494726,22.33019168062566]]]},"properties":{"OBJECTID":250969,"Shape__Length":67.596270595527088,"Shape__Area":199.1853969493109,"GeoRefNo":"3492121234","DateCreate":1114790400000,"BuildingBlockType":"Tower","BuildingCSUID":"3492121234T20050430","BuildingID":1108227089,"Status":"Active","BuildingNameEN":"Nam Cheong Building","BuildingNameTC":"南昌大廈","BaseHeight":5.0999999999999996,"TopHeight":45.399999999999999,"Storeys":13,"StoreysInBasement":null,"DateStamp":1599580800000}},{"type":"Feature","id":250971,"geometry":{"type":"Polygon","coordinates":[[[114.16343329474046,22.330274354473818],[114.16331044790324,22.330137734230352],[114.16337607423056,22.330086835021209],[114.16348793342509,22.330211695680834],[114.16349852203834,22.330223515055728],[114.16343329474046,22.330274354473818]]]},"properties":{"OBJECTID":250971,"Shape__Length":56.995770606923301,"Shape__Area":173.16954157283769,"GeoRefNo":"3488021237","DateCreate":1114790400000,"BuildingBlockType":"Tower","BuildingCSUID":"3488021237T20050430","BuildingID":1108227082,"Status":"Active","BuildingNameEN":"Li Shing House","BuildingNameTC":"利誠樓","BaseHeight":4.7000000000000002,"TopHeight":28.5,"Storeys":6,"StoreysInBasement":null,"DateStamp":1599580800000}},{"type":"Feature","id":250972,"geometry":{"type":"Polygon","coordinates":[[[114.16056305569222,22.330180226582304],[114.16049854443698,22.33010890188438],[114.16060613590525,22.330026044003219],[114.160622020906,22.33004385651979],[114.16070340987011,22.330135121291313],[114.16066078496267,22.330168148024409],[114.16067593663622,22.330185186541314],[114.16065424486366,22.330201878582947],[114.1606393338289,22.330184766398489],[114.16062200307377,22.330198197386316],[114.16059690333348,22.330217649186501],[114.16056305569222,22.330180226582304]]]},"properties":{"OBJECTID":250972,"Shape__Length":65.014058860095304,"Shape__Area":232.33842643303475,"GeoRefNo":"3459121232","DateCreate":1114790400000,"BuildingBlockType":"Tower","BuildingCSUID":"3459121232T20050430","BuildingID":1108227139,"Status":"Active","BuildingNameEN":"Tai Tak Building","BuildingNameTC":"大德樓","BaseHeight":4.2999999999999998,"TopHeight":36.5,"Storeys":10,"StoreysInBasement":null,"DateStamp":1599580800000}},{"type":"Feature","id":250973,"geometry":{"type":"Polygon","coordinates":[[[114.16348793342509,22.330211695680834],[114.16337607423056,22.330086835021209],[114.16348283143435,22.330004032955845],[114.16359148137707,22.330125289807704],[114.16359494611379,22.330129156534515],[114.16358255334647,22.330138571439271],[114.16360308630537,22.330161602636394],[114.16352014794079,22.330225395465195],[114.1634996685502,22.330202543790151],[114.16348793342509,22.330211695680834]]]},"properties":{"OBJECTID":250973,"Shape__Length":71.27696189233113,"Shape__Area":294.53696486341897,"GeoRefNo":"3488821230","DateCreate":1114790400000,"BuildingBlockType":"Tower","BuildingCSUID":"3488821230T20050430","BuildingID":1108227131,"Status":"Active","BuildingNameEN":"Hong Ning Building","BuildingNameTC":"康寧大廈","BaseHeight":4.7000000000000002,"TopHeight":44.299999999999997,"Storeys":13,"StoreysInBasement":null,"DateStamp":1599580800000}},{"type":"Feature","id":250974,"geometry":{"type":"Polygon","coordinates":[[[114.16504497506295,22.330082815415196],[114.16491401979361,22.329936997603273],[114.1650195654355,22.32985557557198],[114.1650376430502,22.329875577100363],[114.16515062291988,22.330000591572375],[114.16504497506295,22.330082815415196]]]},"properties":{"OBJECTID":250974,"Shape__Length":70.337215262409728,"Shape__Area":297.4654844229716,"GeoRefNo":"3504821214","DateCreate":1114790400000,"BuildingBlockType":"Tower","BuildingCSUID":"3504821214T20050430","BuildingID":1108227263,"Status":"Active","BuildingNameEN":"Wing Wah Building","BuildingNameTC":"榮華大廈","BaseHeight":5.2000000000000002,"TopHeight":43.700000000000003,"Storeys":11,"StoreysInBasement":null,"DateStamp":1599580800000}},{"type":"Feature","id":250975,"geometry":{"type":"Polygon","coordinates":[[[114.16192360706815,22.330685659846907],[114.16197368396526,22.330741834120911],[114.16199783703513,22.330768928077891],[114.16201106635688,22.330783768159062],[114.16185702881663,22.330902533961968],[114.16173930042019,22.330771731776405],[114.16174295337625,22.330768904551128],[114.16177795262911,22.330741816060701],[114.16187962789814,22.330663121966101],[114.16190948755457,22.330696414150985],[114.16192360706815,22.330685659846907]]]},"properties":{"OBJECTID":250975,"Shape__Length":79.103056403728758,"Shape__Area":381.53211754632486,"GeoRefNo":"3471721306","DateCreate":1114790400000,"BuildingBlockType":"Tower","BuildingCSUID":"3471721306T20050430","BuildingID":1108226632,"Status":"Active","BuildingNameEN":"Wellcome Mansion","BuildingNameTC":"惠康大廈","BaseHeight":4.5,"TopHeight":43.799999999999997,"Storeys":13,"StoreysInBasement":null,"DateStamp":1599580800000}},{"type":"Feature","id":250977,"geometry":{"type":"Polygon","coordinates":[[[114.16273081415912,22.329921383248994],[114.16275538467289,22.329948939136742],[114.16272323462451,22.329974111980093],[114.16270288589702,22.329951841333084],[114.16269506390088,22.329958090807555],[114.16271539672037,22.329980248842752],[114.16258699850995,22.330080781585977],[114.16257702492859,22.330069677066344],[114.16252434688752,22.330011009039495],[114.16250152358845,22.329985607787808],[114.16246774647016,22.329947996124666],[114.16263712652801,22.329816376758977],[114.16273081415912,22.329921383248994]]]},"properties":{"OBJECTID":250977,"Shape__Length":90.116386813147798,"Shape__Area":430.66246349717107,"GeoRefNo":"3479321217","DateCreate":1114790400000,"BuildingBlockType":"Tower","BuildingCSUID":"3479321217T20050430","BuildingID":1108227264,"Status":"Active","BuildingNameEN":"New Pei Ho Building","BuildingNameTC":"新北河大樓","BaseHeight":4.4000000000000004,"TopHeight":41,"Storeys":12,"StoreysInBasement":null,"DateStamp":1599580800000}},{"type":"Feature","id":250978,"geometry":{"type":"Polygon","coordinates":[[[114.16150596164395,22.330181100073826],[114.16141639840879,22.330081834103314],[114.16155528977031,22.329975511061555],[114.16164352723163,22.330075352532035],[114.16157925724856,22.330124751909818],[114.16160304096474,22.330151182506253],[114.16158860811299,22.330162256526606],[114.16156453986781,22.330136066385691],[114.16150596164395,22.330181100073826]]]},"properties":{"OBJECTID":250978,"Shape__Length":73.171892352745431,"Shape__Area":271.9533411920803,"GeoRefNo":"3468821225","DateCreate":1114790400000,"BuildingBlockType":"Tower","BuildingCSUID":"3468821225T20050430","BuildingID":1108227174,"Status":"Active","BuildingNameEN":"Harmony House","BuildingNameTC":"涵碧樓","BaseHeight":4.2999999999999998,"TopHeight":41.100000000000001,"Storeys":11,"StoreysInBasement":null,"DateStamp":1599580800000}},{"type":"Feature","id":250979,"geometry":{"type":"Polygon","coordinates":[[[114.16448422492969,22.330093199567774],[114.16438076883125,22.330173717898631],[114.16432102635805,22.330107077895779],[114.16442857286712,22.330023033021465],[114.16447606506924,22.330075713661412],[114.16449286903337,22.330062424181751],[114.16450552668994,22.330076620588201],[114.16448422492969,22.330093199567774]]]},"properties":{"OBJECTID":250979,"Shape__Length":52.764331863426321,"Shape__Area":143.98827183804732,"GeoRefNo":"3498221225","DateCreate":1114790400000,"BuildingBlockType":"Tower","BuildingCSUID":"3498221225T20050430","BuildingID":1108227183,"Status":"Active","BuildingNameEN":"Yiu Kam Building","BuildingNameTC":"耀錦大樓","BaseHeight":5.2000000000000002,"TopHeight":27.199999999999999,"Storeys":4,"StoreysInBasement":null,"DateStamp":1599580800000}},{"type":"Feature","id":250980,"geometry":{"type":"Polygon","coordinates":[[[114.16120326344254,22.330030734010673],[114.16116213609813,22.329985029694225],[114.161135326806,22.329955236744119],[114.16108857915643,22.329903286584337],[114.1611654932254,22.329843625004063],[114.16127982708298,22.329971413608988],[114.16120326344254,22.330030734010673]]]},"properties":{"OBJECTID":250980,"Shape__Length":57.398556181702176,"Shape__Area":189.43715952135119,"GeoRefNo":"3465121209","DateCreate":1114790400000,"BuildingBlockType":"Tower","BuildingCSUID":"3465121209T20050430","BuildingID":1108227311,"Status":"Active","BuildingNameEN":"Shun Pong Building","BuildingNameTC":"信邦大廈","BaseHeight":4.4000000000000004,"TopHeight":42.399999999999999,"Storeys":12,"StoreysInBasement":null,"DateStamp":1599580800000}},{"type":"Feature","id":250981,"geometry":{"type":"Polygon","coordinates":[[[114.16126374782908,22.327383760750408],[114.16124283033457,22.327399841129008],[114.16123230879212,22.327388166279277],[114.16122020498109,22.327397523690266],[114.16118991051792,22.327363749541661],[114.16117323912125,22.327345163258492],[114.16118016406027,22.327339782420836],[114.161231002262,22.327300280226059],[114.16129728259195,22.327248779292489],[114.16135539660917,22.327313309828646],[114.16128976779102,22.327363759146074],[114.16126374782908,22.327383760750408]]]},"properties":{"OBJECTID":250981,"Shape__Length":51.876265650719226,"Shape__Area":151.8360915812641,"GeoRefNo":"3465720923","DateCreate":1114790400000,"BuildingBlockType":"Tower","BuildingCSUID":"3465720923T20050430","BuildingID":1108229442,"Status":"Active","BuildingNameEN":"Sun Nam Fung Mansion","BuildingNameTC":"新南風大廈","BaseHeight":3.8999999999999999,"TopHeight":33.299999999999997,"Storeys":10,"StoreysInBasement":null,"DateStamp":1599580800000}},{"type":"Feature","id":250983,"geometry":{"type":"Polygon","coordinates":[[[114.16262518082563,22.327299579753685],[114.16253076508798,22.327194628733849],[114.16256626000421,22.327167288331772],[114.16259822660795,22.327142665637762],[114.16263242907345,22.327116320819886],[114.16272807835215,22.327222094123677],[114.16271686017129,22.327230574131395],[114.16273395275262,22.32724990459365],[114.16272400571459,22.327257619189631],[114.16270675066035,22.327238153163119],[114.16269363674425,22.327248102822129],[114.16266742912457,22.327266757182155],[114.16268555404896,22.327287441063159],[114.16267827602063,22.327293085627463],[114.16265986611333,22.327272402081988],[114.16262518082563,22.327299579753685]]]},"properties":{"OBJECTID":250983,"Shape__Length":69.168359118542753,"Shape__Area":213.61003735158675,"GeoRefNo":"3480020908","DateCreate":1114790400000,"BuildingBlockType":"Tower","BuildingCSUID":"3480020908T20050430","BuildingID":1108229500,"Status":"Active","BuildingNameEN":"Po Hing House","BuildingNameTC":"寶興樓","BaseHeight":4.2000000000000002,"TopHeight":50.100000000000001,"Storeys":15,"StoreysInBasement":null,"DateStamp":1599580800000}},{"type":"Feature","id":250984,"geometry":{"type":"Polygon","coordinates":[[[114.16162982670235,22.327103642981328],[114.1615739738895,22.327041621722326],[114.16165458079102,22.326978129551378],[114.1617002112977,22.326942187389623],[114.16175666366694,22.327005391758682],[114.16165456928854,22.327084476707682],[114.16162982670235,22.327103642981328]]]},"properties":{"OBJECTID":250984,"Shape__Length":52.10401066595108,"Shape__Area":153.70567459309649,"GeoRefNo":"3470120887","DateCreate":1114790400000,"BuildingBlockType":"Tower","BuildingCSUID":"3470120887T20050430","BuildingID":1108229628,"Status":"Active","BuildingNameEN":"Cheong Wah House","BuildingNameTC":"昌華樓","BaseHeight":3.8999999999999999,"TopHeight":26,"Storeys":6,"StoreysInBasement":null,"DateStamp":1599580800000}},{"type":"Feature","id":251194,"geometry":{"type":"Polygon","coordinates":[[[114.16142683270755,22.329857503507199],[114.16131115355532,22.329730630576424],[114.16134513519367,22.329704279244943],[114.16135779568063,22.329718674119231],[114.16137963486628,22.329701710356513],[114.16136708610985,22.329687248848845],[114.1614137948508,22.329651015556454],[114.1614374375939,22.329677607632089],[114.16152781743452,22.329779261539532],[114.16142683270755,22.329857503507199]]]},"properties":{"OBJECTID":251194,"Shape__Length":68.263451930732913,"Shape__Area":245.52247462849613,"GeoRefNo":"3467621189","DateCreate":1114790400000,"BuildingBlockType":"Tower","BuildingCSUID":"3467621189T20050430","BuildingID":1108227464,"Status":"Active","BuildingNameEN":"Tung Hing Building","BuildingNameTC":"東興樓","BaseHeight":4.4000000000000004,"TopHeight":26.899999999999999,"Storeys":6,"StoreysInBasement":null,"DateStamp":1599580800000}},{"type":"Feature","id":251195,"geometry":{"type":"Polygon","coordinates":[[[114.16408449876916,22.32984352214536],[114.16418082432945,22.329767647150234],[114.16420739706253,22.329747136975648],[114.16421912015858,22.329759625468402],[114.16419988430485,22.32977384668683],[114.16424240931289,22.329821270036526],[114.164261089112,22.329806609251555],[114.16427351349604,22.329820518215001],[114.1641513465743,22.329917003279128],[114.16408449876916,22.32984352214536]]]},"properties":{"OBJECTID":251195,"Shape__Length":59.455752194989977,"Shape__Area":159.04613019363788,"GeoRefNo":"3495821200","DateCreate":1114790400000,"BuildingBlockType":"Tower","BuildingCSUID":"3495821200T20050430","BuildingID":1108227408,"Status":"Active","BuildingNameEN":"Cheung Hing Building","BuildingNameTC":"祥興大樓","BaseHeight":5.0999999999999996,"TopHeight":27.699999999999999,"Storeys":6,"StoreysInBasement":null,"DateStamp":1599580800000}},{"type":"Feature","id":251197,"geometry":{"type":"Polygon","coordinates":[[[114.16189845463619,22.32989056182701],[114.16180491210864,22.329784423246942],[114.1619247378009,22.329692689189635],[114.16197338832791,22.329655443586141],[114.16199447156788,22.329678889813341],[114.16208585023999,22.329780571225125],[114.16202321451695,22.329828651832361],[114.16200509541891,22.329808521910412],[114.16196516447698,22.329839241198155],[114.16189845463619,22.32989056182701]]]},"properties":{"OBJECTID":251197,"Shape__Length":81.26746837756906,"Shape__Area":366.50705234621648,"GeoRefNo":"3473421190","DateCreate":1114790400000,"BuildingBlockType":"Tower","BuildingCSUID":"3473421190T20050430","BuildingID":1108227429,"Status":"Active","BuildingNameEN":"Cheung On Building","BuildingNameTC":"長安大廈","BaseHeight":4.2999999999999998,"TopHeight":36.700000000000003,"Storeys":11,"StoreysInBasement":null,"DateStamp":1599580800000}},{"type":"Feature","id":251199,"geometry":{"type":"Polygon","coordinates":[[[114.16456810787265,22.329695685558864],[114.16449900500841,22.3296187579014],[114.16445653936624,22.329571488142278],[114.16448301200128,22.329551453464866],[114.16450770751065,22.329532763753281],[114.16453805140706,22.329509799298041],[114.16456630459294,22.329541033438819],[114.16465034066265,22.329633935937832],[114.16456810787265,22.329695685558864]]]},"properties":{"OBJECTID":251199,"Shape__Length":57.601905234289482,"Shape__Area":194.78055538469286,"GeoRefNo":"3499721172","DateCreate":1114790400000,"BuildingBlockType":"Tower","BuildingCSUID":"3499721172T20050430","BuildingID":1108227634,"Status":"Active","BuildingNameEN":"Fook Wan Mansion","BuildingNameTC":"福運大廈","BaseHeight":5.2000000000000002,"TopHeight":45.899999999999999,"Storeys":13,"StoreysInBasement":null,"DateStamp":1599580800000}},{"type":"Feature","id":251200,"geometry":{"type":"Polygon","coordinates":[[[114.16424987960883,22.329629373712184],[114.16425445439187,22.329634491788859],[114.16423769335961,22.329647785311622],[114.16424640510738,22.329657471830206],[114.16421461004254,22.329681929685524],[114.16420638961425,22.329672613005879],[114.16418740548714,22.329687669752118],[114.16406535032824,22.329551793168964],[114.1641333932037,22.329499392053602],[114.16424987960883,22.329629373712184]]]},"properties":{"OBJECTID":251200,"Shape__Length":60.00854532209199,"Shape__Area":183.41779364642207,"GeoRefNo":"3495521169","DateCreate":1114790400000,"BuildingBlockType":"Tower","BuildingCSUID":"3495521169T20050430","BuildingID":1108227641,"Status":"Active","BuildingNameEN":"Dah Sing Building","BuildingNameTC":"大新大廈","BaseHeight":4.7999999999999998,"TopHeight":26.699999999999999,"Storeys":6,"StoreysInBasement":null,"DateStamp":1599580800000}},{"type":"Feature","id":251201,"geometry":{"type":"Polygon","coordinates":[[[114.16023873245524,22.328968620460834],[114.16029366044332,22.329029465205341],[114.16030694262554,22.329044200588921],[114.16029629830004,22.329051858250935],[114.16034322649239,22.32910386067886],[114.16028532554301,22.329148873139843],[114.16016932394427,22.329022469302625],[114.16023873245524,22.328968620460834]]]},"properties":{"OBJECTID":251201,"Shape__Length":55.322544265535633,"Shape__Area":159.54053130093499,"GeoRefNo":"3455621115","DateCreate":1114790400000,"BuildingBlockType":"Tower","BuildingCSUID":"3455621115T20050430","BuildingID":1108228096,"Status":"Active","BuildingNameEN":"Fung Lin Court","BuildingNameTC":"豐年閣","BaseHeight":4.2000000000000002,"TopHeight":32.399999999999999,"Storeys":6,"StoreysInBasement":null,"DateStamp":1599580800000}},{"type":"Feature","id":251202,"geometry":{"type":"Polygon","coordinates":[[[114.16232256836415,22.329160205620934],[114.16220376719443,22.32902804102449],[114.16227833778331,22.328970491131816],[114.16239768051129,22.329100737265634],[114.16232256836415,22.329160205620934]]]},"properties":{"OBJECTID":251202,"Shape__Length":58.173110988770759,"Shape__Area":191.50166989093844,"GeoRefNo":"3477021116","DateCreate":1114790400000,"BuildingBlockType":"Tower","BuildingCSUID":"3477021116T20050430","BuildingID":1108228089,"Status":"Active","BuildingNameEN":"Gold Ming Building","BuildingNameTC":"高明大廈","BaseHeight":4.4000000000000004,"TopHeight":45.399999999999999,"Storeys":12,"StoreysInBasement":null,"DateStamp":1599580800000}},{"type":"Feature","id":251203,"geometry":{"type":"Polygon","coordinates":[[[114.16076077963142,22.32903186212857],[114.16065403413133,22.328916420605101],[114.16067028978362,22.328904089068299],[114.16066170671581,22.328894684214106],[114.16068000426478,22.328880541435218],[114.16070823027081,22.328911653883296],[114.16079402836813,22.329006227143541],[114.16076077963142,22.32903186212857]]]},"properties":{"OBJECTID":251203,"Shape__Length":45.501858283655928,"Shape__Area":79.631228535520862,"GeoRefNo":"3460321101","DateCreate":1114790400000,"BuildingBlockType":"Tower","BuildingCSUID":"3460321101T20050430","BuildingID":1108228164,"Status":"Active","BuildingNameEN":"Nan Bong House","BuildingNameTC":"南邦樓","BaseHeight":4.2000000000000002,"TopHeight":24.199999999999999,"Storeys":6,"StoreysInBasement":null,"DateStamp":1599580800000}}]}