{"type":"FeatureCollection","features":[{"type":"Feature","id":155318,"geometry":{"type":"Polygon","coordinates":[[[114.16364234453322,22.327787579008536],[114.16358081377443,22.327720507267724],[114.16361424468153,22.327694576233803],[114.16372754486173,22.327819491155307],[114.16370908845647,22.327833817768905],[114.16369945771194,22.327823453760718],[114.16368490928784,22.32783539318207],[114.16364234453322,22.327787579008536]]]},"properties":{"OBJECTID":155318,"Shape__Length":45.214915966703138,"Shape__Area":77.758547149582839,"GeoRefNo":"3490520970","DateCreate":1114790400000,"BuildingBlockType":"Tower","BuildingCSUID":"3490520970T20050430","BuildingID":1108229141,"Status":"Active","BuildingNameEN":null,"BuildingNameTC":null,"BaseHeight":4.7999999999999998,"TopHeight":26.699999999999999,"Storeys":6,"StoreysInBasement":null,"DateStamp":1599580800000}},{"type":"Feature","id":155319,"geometry":{"type":"Polygon","coordinates":[[[114.16009584061723,22.327701951738202],[114.16017321509041,22.327641200848717],[114.16019371600991,22.327663863220394],[114.16019991573539,22.327670716535355],[114.16004069329988,22.327795090287037],[114.16003144221342,22.327785099605336],[114.1601132590056,22.32772152507064],[114.16009584061723,22.327701951738202]]]},"properties":{"OBJECTID":155319,"Shape__Length":51.37762931288286,"Shape__Area":60.352689372733678,"GeoRefNo":"3454320962","DateCreate":1114790400000,"BuildingBlockType":"Tower","BuildingCSUID":"3454320962T20050430","BuildingID":1108229168,"Status":"Active","BuildingNameEN":null,"BuildingNameTC":null,"BaseHeight":3.8999999999999999,"TopHeight":24.899999999999999,"Storeys":7,"StoreysInBasement":null,"DateStamp":1599580800000}},{"type":"Feature","id":155331,"geometry":{"type":"Polygon","coordinates":[[[114.16322203560593,22.327115356082189],[114.16315669735744,22.327042608222555],[114.16311291592001,22.326993861756169],[114.1631872097049,22.326936070380494],[114.16320685731432,22.326957818044932],[114.16329954887772,22.327060417056074],[114.16322475565364,22.327117413839158],[114.16322203560593,22.327115356082189]]]},"properties":{"OBJECTID":155331,"Shape__Length":55.818189806399111,"Shape__Area":179.40556867633995,"GeoRefNo":"3486020888","DateCreate":1114790400000,"BuildingBlockType":"Tower","BuildingCSUID":"3486020888T20050430","BuildingID":1108229618,"Status":"Active","BuildingNameEN":"Comfort Building","BuildingNameTC":null,"BaseHeight":4.5,"TopHeight":24.300000000000001,"Storeys":null,"StoreysInBasement":null,"DateStamp":1361808000000}},{"type":"Feature","id":155351,"geometry":{"type":"Polygon","coordinates":[[[114.16082433633625,22.326916770941072],[114.16081094095367,22.326901820566682],[114.16079191538509,22.326916927487545],[114.1607785931788,22.326902099933683],[114.16081251879996,22.326875815886396],[114.16090187515039,22.32680658637679],[114.16092843788076,22.326835927010457],[114.16082433633625,22.326916770941072]]]},"properties":{"OBJECTID":155351,"Shape__Length":41.618585927848116,"Shape__Area":64.88832029590823,"GeoRefNo":"3461820869","DateCreate":1114790400000,"BuildingBlockType":"Tower","BuildingCSUID":"3461820869T20050430","BuildingID":1108229739,"Status":"Active","BuildingNameEN":null,"BuildingNameTC":null,"BaseHeight":4,"TopHeight":24.300000000000001,"Storeys":6,"StoreysInBasement":null,"DateStamp":1599580800000}},{"type":"Feature","id":155353,"geometry":{"type":"Polygon","coordinates":[[[114.16340204305371,22.326978701396854],[114.16332772730917,22.326896207775086],[114.16329094453658,22.326855377337626],[114.16328748037657,22.326851487665177],[114.16330348766357,22.3268390634573],[114.16335052194817,22.326891940101547],[114.16336882486631,22.326878002190742],[114.16341307883762,22.326927071110067],[114.1634358238788,22.326952290811882],[114.16340204305371,22.326978701396854]]]},"properties":{"OBJECTID":155353,"Shape__Length":45.847082542574903,"Shape__Area":65.062861951430321,"GeoRefNo":"3487620875","DateCreate":1114790400000,"BuildingBlockType":"Tower","BuildingCSUID":"3487620875T20050430","BuildingID":1108229704,"Status":"Active","BuildingNameEN":null,"BuildingNameTC":null,"BaseHeight":4.5999999999999996,"TopHeight":34.5,"Storeys":null,"StoreysInBasement":null,"DateStamp":1361808000000}},{"type":"Feature","id":155356,"geometry":{"type":"Polygon","coordinates":[[[114.16354041385208,22.326875337245749],[114.16342817591924,22.326750290149771],[114.16343802638862,22.326742696963446],[114.16345547530987,22.326762288364154],[114.16347805852359,22.326744682840772],[114.1635724621633,22.326850480202221],[114.16354041385208,22.326875337245749]]]},"properties":{"OBJECTID":155356,"Shape__Length":44.736010063377975,"Shape__Area":69.466213432011671,"GeoRefNo":"3488920862","DateCreate":1114790400000,"BuildingBlockType":"Tower","BuildingCSUID":"3488920862T20050430","BuildingID":1108229764,"Status":"Active","BuildingNameEN":null,"BuildingNameTC":null,"BaseHeight":4.5999999999999996,"TopHeight":24.300000000000001,"Storeys":6,"StoreysInBasement":null,"DateStamp":1599580800000}},{"type":"Feature","id":155581,"geometry":{"type":"Polygon","coordinates":[[[114.16004069329988,22.327795090287037],[114.16019991573539,22.327670716535355],[114.16020892086686,22.327680671060037],[114.16022979176292,22.327703742369877],[114.16016545397675,22.327753635348444],[114.16009295684081,22.327809855460508],[114.16008308026713,22.327798988479536],[114.16006088827478,22.327816899975588],[114.16004069329988,22.327795090287037]]]},"properties":{"OBJECTID":155581,"Shape__Length":52.341144274847679,"Shape__Area":96.765445947651898,"GeoRefNo":"3454520965","DateCreate":1114790400000,"BuildingBlockType":"Tower","BuildingCSUID":"3454520965T20050430","BuildingID":1108229157,"Status":"Active","BuildingNameEN":null,"BuildingNameTC":null,"BaseHeight":4,"TopHeight":24.399999999999999,"Storeys":7,"StoreysInBasement":null,"DateStamp":1599580800000}},{"type":"Feature","id":155609,"geometry":{"type":"Polygon","coordinates":[[[114.16311091171997,22.326921428070303],[114.1630157664988,22.326814802905325],[114.16305459615135,22.326784754677295],[114.16315332198734,22.326895570765409],[114.16315487475832,22.326897313799495],[114.16315719406387,22.326899917151849],[114.16316412383532,22.326907695508954],[114.16316880748035,22.326912952788415],[114.16315696816416,22.326922135173557],[114.16313793108935,22.326900553265823],[114.16311725403042,22.326916528069241],[114.16311091171997,22.326921428070303]]]},"properties":{"OBJECTID":155609,"Shape__Length":47.285384076928864,"Shape__Area":84.649985830663027,"GeoRefNo":"3484820870","DateCreate":1114790400000,"BuildingBlockType":"Tower","BuildingCSUID":"3484820870T20050430","BuildingID":1108229734,"Status":"Active","BuildingNameEN":null,"BuildingNameTC":null,"BaseHeight":4.4000000000000004,"TopHeight":44.399999999999999,"Storeys":12,"StoreysInBasement":null,"DateStamp":1599580800000}},{"type":"Feature","id":155610,"geometry":{"type":"Polygon","coordinates":[[[114.16241084928292,22.326926934031448],[114.16232918711187,22.326841675487167],[114.16233806369931,22.326835015230532],[114.1623229195456,22.326819076426847],[114.16234266332471,22.326803854159941],[114.16235110757593,22.326812307362285],[114.16234445025236,22.32681735992217],[114.16235187323441,22.326825367554388],[114.16236807692756,22.32681329041155],[114.162445103591,22.326900321951687],[114.16241084928292,22.326926934031448]]]},"properties":{"OBJECTID":155610,"Shape__Length":41.372787313734747,"Shape__Area":66.199600267978951,"GeoRefNo":"3477420869","DateCreate":1114790400000,"BuildingBlockType":"Tower","BuildingCSUID":"3477420869T20050430","BuildingID":1108229732,"Status":"Active","BuildingNameEN":null,"BuildingNameTC":null,"BaseHeight":4.2999999999999998,"TopHeight":32.700000000000003,"Storeys":9,"StoreysInBasement":null,"DateStamp":1599580800000}},{"type":"Feature","id":155822,"geometry":{"type":"Polygon","coordinates":[[[114.16443261541708,22.32788663582539],[114.16435499095307,22.327800098985801],[114.16446654747578,22.32771284535184],[114.16456889368543,22.327826957637733],[114.1645806297051,22.327840042849257],[114.16449177715826,22.32790989165736],[114.16445473558089,22.327869128927549],[114.16443261541708,22.32788663582539]]]},"properties":{"OBJECTID":155822,"Shape__Length":66.727494879913991,"Shape__Area":257.92803905832062,"GeoRefNo":"3498620974","DateCreate":1114790400000,"BuildingBlockType":"Tower","BuildingCSUID":"3498620974T20050430","BuildingID":1108229086,"Status":"Active","BuildingNameEN":"Yu Chau House","BuildingNameTC":"汝洲樓","BaseHeight":4.9000000000000004,"TopHeight":36.5,"Storeys":9,"StoreysInBasement":null,"DateStamp":1599580800000}},{"type":"Feature","id":155824,"geometry":{"type":"Polygon","coordinates":[[[114.16315622378048,22.327173049122703],[114.16306746258907,22.327073562756162],[114.16307090444728,22.327071271085728],[114.16304712519373,22.327044395126052],[114.1630624312774,22.32703247334446],[114.16308611946822,22.327058529046106],[114.16310074537635,22.327048002789954],[114.16318653123797,22.327144519360715],[114.1631894998773,22.327147493292095],[114.16315622378048,22.327173049122703]]]},"properties":{"OBJECTID":155824,"Shape__Length":45.11207498138365,"Shape__Area":71.501606024274622,"GeoRefNo":"3485020896","DateCreate":1114790400000,"BuildingBlockType":"Tower","BuildingCSUID":"3485020896T20050430","BuildingID":1108229577,"Status":"Active","BuildingNameEN":null,"BuildingNameTC":null,"BaseHeight":4.5,"TopHeight":34.700000000000003,"Storeys":9,"StoreysInBasement":null,"DateStamp":1599580800000}},{"type":"Feature","id":155825,"geometry":{"type":"Polygon","coordinates":[[[114.16100315805957,22.327152037243501],[114.16112715995727,22.327055430887679],[114.16113255008602,22.327061384733042],[114.16115364057794,22.327084680718254],[114.16107384302073,22.327146332555373],[114.16105919016817,22.327157653407625],[114.16104896517113,22.327146171738747],[114.16101872786403,22.327169366108699],[114.16100315805957,22.327152037243501]]]},"properties":{"OBJECTID":155825,"Shape__Length":41.735482313294966,"Shape__Area":63.337120868997999,"GeoRefNo":"3464120897","DateCreate":1114790400000,"BuildingBlockType":"Tower","BuildingCSUID":"3464120897T20050430","BuildingID":1108229579,"Status":"Active","BuildingNameEN":null,"BuildingNameTC":null,"BaseHeight":3.8999999999999999,"TopHeight":25.300000000000001,"Storeys":6,"StoreysInBasement":null,"DateStamp":1599580800000}},{"type":"Feature","id":156080,"geometry":{"type":"Polygon","coordinates":[[[114.16463062182557,22.327086780844692],[114.1645343371956,22.326980784473818],[114.16464301597648,22.326896606037629],[114.16464845761847,22.326901179806313],[114.16474030728034,22.327002730383562],[114.16471930730718,22.327019276641966],[114.16473473675883,22.327036094912152],[114.16466726217699,22.327088330447232],[114.16465200100677,22.327070758400389],[114.16463062182557,22.327086780844692]]]},"properties":{"OBJECTID":156080,"Shape__Length":65.045817042018712,"Shape__Area":248.45054778399106,"GeoRefNo":"3500620885","DateCreate":1114790400000,"BuildingBlockType":"Tower","BuildingCSUID":"3500620885T20050430","BuildingID":1108229637,"Status":"Active","BuildingNameEN":null,"BuildingNameTC":null,"BaseHeight":4.5999999999999996,"TopHeight":26.600000000000001,"Storeys":6,"StoreysInBasement":null,"DateStamp":1599580800000}},{"type":"Feature","id":156088,"geometry":{"type":"Polygon","coordinates":[[[114.16024878034888,22.326955788160898],[114.16021831977322,22.326921806560133],[114.16018975619116,22.326889941375757],[114.16022440580319,22.32686305699194],[114.16025145653991,22.326893234470024],[114.1602837934261,22.326929309184774],[114.16035705190642,22.327011035590498],[114.16032240238029,22.327037920002194],[114.16024878034888,22.326955788160898]]]},"properties":{"OBJECTID":156088,"Shape__Length":51.970287045789647,"Shape__Area":99.178403952289031,"GeoRefNo":"3455520875","DateCreate":1114790400000,"BuildingBlockType":"Tower","BuildingCSUID":"3455520875T20050430","BuildingID":1108229665,"Status":"Active","BuildingNameEN":"Shui Ying Building","BuildingNameTC":"瑞英樓","BaseHeight":3.8999999999999999,"TopHeight":23.699999999999999,"Storeys":6,"StoreysInBasement":null,"DateStamp":1599580800000}},{"type":"Feature","id":156343,"geometry":{"type":"Polygon","coordinates":[[[114.16094612089448,22.327088555858886],[114.16107053917541,22.326992888947931],[114.16107611340874,22.3269990461819],[114.1610983822016,22.32702364368668],[114.16100473413231,22.327096716571958],[114.16099155175897,22.327081872794501],[114.16096136691674,22.327105524377604],[114.16094612089448,22.327088555858886]]]},"properties":{"OBJECTID":156343,"Shape__Length":42.320790085147486,"Shape__Area":66.440303649196167,"GeoRefNo":"3463420890","DateCreate":1114790400000,"BuildingBlockType":"Tower","BuildingCSUID":"3463420890T20050430","BuildingID":1108229627,"Status":"Active","BuildingNameEN":null,"BuildingNameTC":null,"BaseHeight":4,"TopHeight":25.300000000000001,"Storeys":6,"StoreysInBasement":null,"DateStamp":1599580800000}},{"type":"Feature","id":156789,"geometry":{"type":"Polygon","coordinates":[[[114.16137408023241,22.325688124046806],[114.16139765541503,22.325669784628484],[114.16141156170437,22.325658966676155],[114.16143363517482,22.325683317856189],[114.16144265521467,22.325693268703908],[114.16144750258889,22.325698616264951],[114.16146288314883,22.325715583939381],[114.16147123770493,22.325724800535657],[114.161433513747,22.325754091820457],[114.16142390625333,22.325743428041907],[114.16141113379089,22.325729251334284],[114.16140647994273,22.325724085847231],[114.16139440975353,22.325710688635027],[114.16137408023241,22.325688124046806]]]},"properties":{"OBJECTID":156789,"Shape__Length":29.163929120635292,"Shape__Area":48.126374505231148,"GeoRefNo":"3467620743","DateCreate":1114790400000,"BuildingBlockType":"Tower","BuildingCSUID":"3467620743T20050430","BuildingID":1108230470,"Status":"Active","BuildingNameEN":"FU ON MANSION","BuildingNameTC":"富安大廈","BaseHeight":4.2000000000000002,"TopHeight":37.799999999999997,"Storeys":11,"StoreysInBasement":null,"DateStamp":1599580800000}},{"type":"Feature","id":157023,"geometry":{"type":"Polygon","coordinates":[[[114.16386850895698,22.327656325236521],[114.16380091725328,22.327581287123881],[114.16378421073175,22.327562740028572],[114.16380878895792,22.327543675640072],[114.16381747217248,22.327536940333573],[114.16385789121323,22.327581291693594],[114.16393102567898,22.327661541232498],[114.16391055642303,22.327677430361582],[114.16388212443933,22.327645568820838],[114.16386850895698,22.327656325236521]]]},"properties":{"OBJECTID":157023,"Shape__Length":45.244334893724442,"Shape__Area":73.272232890152409,"GeoRefNo":"3492620953","DateCreate":1114790400000,"BuildingBlockType":"Tower","BuildingCSUID":"3492620953T20050430","BuildingID":1108229253,"Status":"Active","BuildingNameEN":null,"BuildingNameTC":null,"BaseHeight":4.7999999999999998,"TopHeight":25.100000000000001,"Storeys":6,"StoreysInBasement":null,"DateStamp":1599580800000}},{"type":"Feature","id":157024,"geometry":{"type":"Polygon","coordinates":[[[114.16379564666389,22.327766627899358],[114.163682075824,22.327641962246844],[114.16371768956087,22.327614338043375],[114.16381929751729,22.327727099316842],[114.16381964497583,22.327727484860411],[114.16380549276093,22.327738724996028],[114.16381594636027,22.327750870527602],[114.16379564666389,22.327766627899358]]]},"properties":{"OBJECTID":157024,"Shape__Length":45.586548997003703,"Shape__Area":82.198499063735369,"GeoRefNo":"3491720962","DateCreate":1114790400000,"BuildingBlockType":"Tower","BuildingCSUID":"3491720962T20050430","BuildingID":1108229190,"Status":"Active","BuildingNameEN":null,"BuildingNameTC":null,"BaseHeight":4.7999999999999998,"TopHeight":26.699999999999999,"Storeys":6,"StoreysInBasement":null,"DateStamp":1599580800000}},{"type":"Feature","id":157025,"geometry":{"type":"Polygon","coordinates":[[[114.16411588093341,22.327769475663604],[114.16402944742062,22.32767486779343],[114.16402489754581,22.327669887517917],[114.16400918170474,22.327652685449266],[114.16407650410721,22.327599513347085],[114.16407778494975,22.327600932333421],[114.16418271965117,22.327717638742474],[114.16415806378771,22.327736760706017],[114.16414875310211,22.327743981646378],[114.16414042517525,22.327750440391426],[114.16411588093341,22.327769475663604]]]},"properties":{"OBJECTID":157025,"Shape__Length":52.090076985100573,"Shape__Area":153.65700972477345,"GeoRefNo":"3495120960","DateCreate":1114790400000,"BuildingBlockType":"Tower","BuildingCSUID":"3495120960T20050430","BuildingID":1108229185,"Status":"Active","BuildingNameEN":null,"BuildingNameTC":null,"BaseHeight":4.7000000000000002,"TopHeight":23.300000000000001,"Storeys":6,"StoreysInBasement":null,"DateStamp":1599580800000}},{"type":"Feature","id":157026,"geometry":{"type":"Polygon","coordinates":[[[114.16247412240767,22.327703715205377],[114.16243804623407,22.327731736710795],[114.16237231756244,22.327658521534346],[114.16238923658241,22.327644971566045],[114.16234865433674,22.327599668543964],[114.16235210560939,22.327596683792368],[114.16234339161578,22.327585871687607],[114.16234946363623,22.327581163954012],[114.1623579253049,22.32757460362842],[114.16236383056896,22.327581165236872],[114.16247412240767,22.327703715205377]]]},"properties":{"OBJECTID":157026,"Shape__Length":46.813512253345635,"Shape__Area":70.701652936409644,"GeoRefNo":"3477820959","DateCreate":1114790400000,"BuildingBlockType":"Tower","BuildingCSUID":"3477820959T20050430","BuildingID":1108229210,"Status":"Active","BuildingNameEN":null,"BuildingNameTC":null,"BaseHeight":4.2000000000000002,"TopHeight":19,"Storeys":3,"StoreysInBasement":null,"DateStamp":1599580800000}},{"type":"Feature","id":157028,"geometry":{"type":"Polygon","coordinates":[[[114.16129330294847,22.327581628132588],[114.16129839194805,22.327577599624753],[114.16127560164566,22.327552566012049],[114.16129198878495,22.327539520284674],[114.16131639941737,22.327567027798381],[114.16132897165906,22.327556926214708],[114.16143664886322,22.327676218223246],[114.16140271314941,22.327702667205767],[114.16129330294847,22.327581628132588]]]},"properties":{"OBJECTID":157028,"Shape__Length":51.528200511223389,"Shape__Area":87.53624859564728,"GeoRefNo":"3466820953","DateCreate":1114790400000,"BuildingBlockType":"Tower","BuildingCSUID":"3466820953T20050430","BuildingID":1108229239,"Status":"Active","BuildingNameEN":null,"BuildingNameTC":null,"BaseHeight":4,"TopHeight":33.399999999999999,"Storeys":9,"StoreysInBasement":null,"DateStamp":1599580800000}},{"type":"Feature","id":157030,"geometry":{"type":"Polygon","coordinates":[[[114.1641419300573,22.327636900137396],[114.1642047882621,22.327587046823908],[114.16421224844339,22.32758131966585],[114.16428919091915,22.327522251341581],[114.16429291136329,22.327519764606205],[114.16432240567514,22.327551880007135],[114.16431903378279,22.327554473240664],[114.16428412018671,22.327581325244775],[114.16423892188917,22.327616087144957],[114.16417033498256,22.327669143804854],[114.1641419300573,22.327636900137396]]]},"properties":{"OBJECTID":157030,"Shape__Length":49.897818291460503,"Shape__Area":95.301324609187148,"GeoRefNo":"3496820949","DateCreate":1114790400000,"BuildingBlockType":"Tower","BuildingCSUID":"3496820949T20050430","BuildingID":1108229263,"Status":"Active","BuildingNameEN":"Tung Lee Building","BuildingNameTC":"同利大廈","BaseHeight":4.7999999999999998,"TopHeight":24.699999999999999,"Storeys":6,"StoreysInBasement":null,"DateStamp":1599580800000}},{"type":"Feature","id":157032,"geometry":{"type":"Polygon","coordinates":[[[114.16393102567898,22.327661541232498],[114.16385789121323,22.327581291693594],[114.16381747217248,22.327536940333573],[114.16382574719721,22.327530521786791],[114.16385046558447,22.327511348584594],[114.16391340249552,22.327581296126709],[114.16393469742765,22.327604963102822],[114.16392281284021,22.327613421557512],[114.16395117973651,22.32764589680459],[114.16393102567898,22.327661541232498]]]},"properties":{"OBJECTID":157032,"Shape__Length":44.913812689992525,"Shape__Area":71.777385862755324,"GeoRefNo":"3493020950","DateCreate":1114790400000,"BuildingBlockType":"Tower","BuildingCSUID":"3493020950T20050430","BuildingID":1108229267,"Status":"Active","BuildingNameEN":null,"BuildingNameTC":null,"BaseHeight":4.7999999999999998,"TopHeight":25.100000000000001,"Storeys":6,"StoreysInBasement":null,"DateStamp":1599580800000}},{"type":"Feature","id":157033,"geometry":{"type":"Polygon","coordinates":[[[114.16211961973811,22.327511317418598],[114.16213984722363,22.327534030903848],[114.16217550483709,22.327574070869598],[114.16216663314587,22.327580727324293],[114.16216700660942,22.327581147551207],[114.16218717209044,22.327603836732518],[114.16218463576052,22.32760581212445],[114.16217201361567,22.327615642762105],[114.16216640161578,22.32762001359951],[114.16215857081156,22.327626112509268],[114.16216698377305,22.327635264323618],[114.16217602606594,22.327628087361429],[114.16219533755965,22.327612759778329],[114.16222430515462,22.327645495914052],[114.16216042999709,22.327694854213195],[114.16214994874923,22.32768304685807],[114.1621398328142,22.327671651149409],[114.16210410473855,22.32763140283431],[114.1620836023959,22.327608306603633],[114.16204709481626,22.32756718016098],[114.16211961973811,22.327511317418598]]]},"properties":{"OBJECTID":157033,"Shape__Length":63.821142309721303,"Shape__Area":162.10960243383008,"GeoRefNo":"3474820954","DateCreate":1114790400000,"BuildingBlockType":"Tower","BuildingCSUID":"3474820954T20050430","BuildingID":1108229243,"Status":"Active","BuildingNameEN":"Wen Pang Building","BuildingNameTC":"懷邦樓","BaseHeight":3.8999999999999999,"TopHeight":44.100000000000001,"Storeys":13,"StoreysInBasement":null,"DateStamp":1599580800000}},{"type":"Feature","id":157034,"geometry":{"type":"Polygon","coordinates":[[[114.16423892188917,22.327616087144957],[114.16428412018671,22.327581325244775],[114.16431903378279,22.327554473240664],[114.16432240567514,22.327551880007135],[114.16434945244362,22.327581330288435],[114.16435320598535,22.327585417278428],[114.16429604208537,22.327629751054484],[114.16427767594423,22.327643994929719],[114.16422485762698,22.327684958441218],[114.16420125539672,22.327703263315726],[114.16417797385235,22.327677572285133],[114.16424634707494,22.32762501021061],[114.16423892188917,22.327616087144957]]]},"properties":{"OBJECTID":157034,"Shape__Length":50.532400295655336,"Shape__Area":88.881503572163609,"GeoRefNo":"3496620957","DateCreate":1114790400000,"BuildingBlockType":"Tower","BuildingCSUID":"3496620957T20050430","BuildingID":1108229238,"Status":"Active","BuildingNameEN":null,"BuildingNameTC":null,"BaseHeight":4.9000000000000004,"TopHeight":27.5,"Storeys":6,"StoreysInBasement":null,"DateStamp":1599580800000}},{"type":"Feature","id":157209,"geometry":{"type":"Polygon","coordinates":[[[114.16273957920953,22.3274975259008],[114.16265081715019,22.327397917848685],[114.16262730625728,22.327371534018898],[114.1626431559209,22.327359210734919],[114.16266628855468,22.327385564547836],[114.1626836787913,22.32737271527262],[114.1627726731856,22.327471820594528],[114.16273957920953,22.3274975259008]]]},"properties":{"OBJECTID":157209,"Shape__Length":45.048371127425888,"Shape__Area":71.274207337687088,"GeoRefNo":"3480720932","DateCreate":1114790400000,"BuildingBlockType":"Tower","BuildingCSUID":"3480720932T20050430","BuildingID":1108229385,"Status":"Active","BuildingNameEN":null,"BuildingNameTC":null,"BaseHeight":4.2999999999999998,"TopHeight":37.100000000000001,"Storeys":10,"StoreysInBasement":null,"DateStamp":1599580800000}},{"type":"Feature","id":157211,"geometry":{"type":"Polygon","coordinates":[[[114.16338934237139,22.327372127288083],[114.1633051594671,22.327278516010029],[114.1633762173313,22.327223126415529],[114.16348194844306,22.327340009897291],[114.16347052623084,22.327348872746793],[114.16345568541328,22.327331942065054],[114.16344113442838,22.327343570180776],[114.16345606332224,22.327360094765659],[114.16341039075978,22.32739553305834],[114.16338934237139,22.327372127288083]]]},"properties":{"OBJECTID":157211,"Shape__Length":57.807288688319645,"Shape__Area":157.16457949539898,"GeoRefNo":"3487920919","DateCreate":1114790400000,"BuildingBlockType":"Tower","BuildingCSUID":"3487920919T20050430","BuildingID":1108229446,"Status":"Active","BuildingNameEN":null,"BuildingNameTC":null,"BaseHeight":4.5999999999999996,"TopHeight":26.199999999999999,"Storeys":6,"StoreysInBasement":null,"DateStamp":1599580800000}},{"type":"Feature","id":157212,"geometry":{"type":"Polygon","coordinates":[[[114.16487535120424,22.326818307027196],[114.16482086981956,22.326758989026928],[114.16486052648675,22.326728513731997],[114.16489805704938,22.32676972604359],[114.16491499211021,22.326788322440052],[114.16487535120424,22.326818307027196]]]},"properties":{"OBJECTID":157212,"Shape__Length":27.882947049295161,"Shape__Area":45.728562179739846,"GeoRefNo":"3503120861","DateCreate":1114790400000,"BuildingBlockType":"Tower","BuildingCSUID":"3503120861T20050430","BuildingID":1108229809,"Status":"Active","BuildingNameEN":null,"BuildingNameTC":null,"BaseHeight":4.7999999999999998,"TopHeight":27.600000000000001,"Storeys":6,"StoreysInBasement":null,"DateStamp":1599580800000}},{"type":"Feature","id":157214,"geometry":{"type":"Polygon","coordinates":[[[114.16019700422805,22.327407331817341],[114.16025346679311,22.327363656479857],[114.1603054220798,22.327323467642969],[114.16031940021853,22.32733932361451],[114.1603530449684,22.327312718508665],[114.16036162576992,22.327322238340102],[114.16032830840963,22.327348933696566],[114.16033294425394,22.32735379190089],[114.16032011777219,22.327363663282306],[114.16022411854013,22.32743754524628],[114.16021727973997,22.327429924808651],[114.16019700422805,22.327407331817341]]]},"properties":{"OBJECTID":157214,"Shape__Length":46.879894602883475,"Shape__Area":69.861612536829284,"GeoRefNo":"3455820926","DateCreate":1114790400000,"BuildingBlockType":"Tower","BuildingCSUID":"3455820926T20050430","BuildingID":1108229417,"Status":"Active","BuildingNameEN":null,"BuildingNameTC":null,"BaseHeight":4,"TopHeight":31,"Storeys":7,"StoreysInBasement":null,"DateStamp":1599580800000}},{"type":"Feature","id":157215,"geometry":{"type":"Polygon","coordinates":[[[114.16367855455528,22.327429979268228],[114.16359565666927,22.327338362108826],[114.16356933058697,22.327309267023139],[114.16357761745085,22.327302855714287],[114.16360437793354,22.327332628308596],[114.16362073719522,22.327319284333729],[114.16359458664864,22.32728972717133],[114.16360112087129,22.327284671931466],[114.16371044144336,22.327405217097485],[114.1637008456546,22.3274126688111],[114.16367855455528,22.327429979268228]]]},"properties":{"OBJECTID":157215,"Shape__Length":51.981221391430793,"Shape__Area":64.945375936271191,"GeoRefNo":"3490420924","DateCreate":1114790400000,"BuildingBlockType":"Tower","BuildingCSUID":"3490420924T20050430","BuildingID":1108229421,"Status":"Active","BuildingNameEN":null,"BuildingNameTC":null,"BaseHeight":4.9000000000000004,"TopHeight":33.799999999999997,"Storeys":9,"StoreysInBasement":null,"DateStamp":1599580800000}},{"type":"Feature","id":157219,"geometry":{"type":"Polygon","coordinates":[[[114.1613292584445,22.326765707335035],[114.16144188914834,22.326676902343074],[114.16147559429767,22.326714081030492],[114.16136224036642,22.32680278645941],[114.1613292584445,22.326765707335035]]]},"properties":{"OBJECTID":157219,"Shape__Length":41.185576115673705,"Shape__Area":81.623181578762697,"GeoRefNo":"3467420856","DateCreate":1114790400000,"BuildingBlockType":"Tower","BuildingCSUID":"3467420856T20050430","BuildingID":1108229829,"Status":"Active","BuildingNameEN":null,"BuildingNameTC":null,"BaseHeight":4,"TopHeight":23.699999999999999,"Storeys":6,"StoreysInBasement":null,"DateStamp":1599580800000}},{"type":"Feature","id":157222,"geometry":{"type":"Polygon","coordinates":[[[114.16444778568471,22.32683201568862],[114.16435099971991,22.326724028464945],[114.16437429998746,22.32670576987007],[114.16438939304889,22.326721324407679],[114.16440054134409,22.326712329263909],[114.1644834780563,22.326804614736663],[114.16445632476447,22.326825460315852],[114.16444778568471,22.32683201568862]]]},"properties":{"OBJECTID":157222,"Shape__Length":40.637171392439519,"Shape__Area":70.568623593977264,"GeoRefNo":"3498320858","DateCreate":1114790400000,"BuildingBlockType":"Tower","BuildingCSUID":"3498320858T20050430","BuildingID":1108229799,"Status":"Active","BuildingNameEN":null,"BuildingNameTC":null,"BaseHeight":4.7000000000000002,"TopHeight":26.199999999999999,"Storeys":6,"StoreysInBasement":null,"DateStamp":1599580800000}},{"type":"Feature","id":157421,"geometry":{"type":"Polygon","coordinates":[[[114.1644834780563,22.326804614736663],[114.16440054134409,22.326712329263909],[114.1643950133726,22.326706178198005],[114.1644147754391,22.326692181943077],[114.16439474092239,22.326669918567511],[114.16442909879102,22.326645015384742],[114.16444880466806,22.326664857630881],[114.16446785575631,22.326650499369187],[114.16455546110308,22.326748267450039],[114.1644834780563,22.326804614736663]]]},"properties":{"OBJECTID":157421,"Shape__Length":53.773842814221375,"Shape__Area":151.15247568800763,"GeoRefNo":"3498720854","DateCreate":1114790400000,"BuildingBlockType":"Tower","BuildingCSUID":"3498720854T20050430","BuildingID":1108229828,"Status":"Active","BuildingNameEN":null,"BuildingNameTC":null,"BaseHeight":4.5999999999999996,"TopHeight":33.899999999999999,"Storeys":9,"StoreysInBasement":null,"DateStamp":1599580800000}},{"type":"Feature","id":157425,"geometry":{"type":"Polygon","coordinates":[[[114.1622670256494,22.326781618052827],[114.16234229654881,22.32672364148198],[114.1623750324209,22.326759364707048],[114.16225714163355,22.326850823872832],[114.1622415135375,22.326833803334488],[114.16226937595646,22.326812674539482],[114.16226219945121,22.326804437277833],[114.16227723876996,22.326792267024341],[114.1622670256494,22.326781618052827]]]},"properties":{"OBJECTID":157425,"Shape__Length":42.069949761930566,"Shape__Area":68.994578015547788,"GeoRefNo":"3476720861","DateCreate":1114790400000,"BuildingBlockType":"Tower","BuildingCSUID":"3476720861T20050430","BuildingID":1108229781,"Status":"Active","BuildingNameEN":null,"BuildingNameTC":null,"BaseHeight":4.2999999999999998,"TopHeight":22.100000000000001,"Storeys":5,"StoreysInBasement":null,"DateStamp":1599580800000}},{"type":"Feature","id":157426,"geometry":{"type":"Polygon","coordinates":[[[114.16325122903432,22.326807885414819],[114.1631584681665,22.326704373374863],[114.16319461274595,22.326676402914547],[114.16328730947848,22.326780751251391],[114.16325788884417,22.326802877338672],[114.16325122903432,22.326807885414819]]]},"properties":{"OBJECTID":157426,"Shape__Length":39.537502361050159,"Shape__Area":71.964725830176491,"GeoRefNo":"3486220857","DateCreate":1114790400000,"BuildingBlockType":"Tower","BuildingCSUID":"3486220857T20050430","BuildingID":1108229822,"Status":"Active","BuildingNameEN":null,"BuildingNameTC":null,"BaseHeight":4.4000000000000004,"TopHeight":33,"Storeys":9,"StoreysInBasement":null,"DateStamp":1599580800000}},{"type":"Feature","id":157429,"geometry":{"type":"Polygon","coordinates":[[[114.16326873397117,22.326694634661617],[114.16329299373378,22.32672194364666],[114.16332172605688,22.32675428728157],[114.16334283692069,22.326777978524369],[114.16333923681037,22.326780770752901],[114.16330850224723,22.326804607945739],[114.16328730947848,22.326780751251391],[114.16319461274595,22.326676402914547],[114.16320764990546,22.326666314136791],[114.16322885625328,22.326649903549658],[114.16322894060868,22.326649839800787],[114.16326873397117,22.326694634661617]]]},"properties":{"OBJECTID":157429,"Shape__Length":46.035784814456072,"Shape__Area":84.719119054763524,"GeoRefNo":"3486620855","DateCreate":1114790400000,"BuildingBlockType":"Tower","BuildingCSUID":"3486620855T20050430","BuildingID":1108229827,"Status":"Active","BuildingNameEN":null,"BuildingNameTC":null,"BaseHeight":4.4000000000000004,"TopHeight":23.300000000000001,"Storeys":6,"StoreysInBasement":null,"DateStamp":1599580800000}},{"type":"Feature","id":157441,"geometry":{"type":"Polygon","coordinates":[[[114.16129983002673,22.326732623224011],[114.16139751869656,22.326656026002059],[114.16141376356912,22.326674335977522],[114.16144173708196,22.326653581110925],[114.16145401445299,22.326667341999443],[114.16144188914834,22.326676902343074],[114.1613292584445,22.326765707335035],[114.16129983002673,22.326732623224011]]]},"properties":{"OBJECTID":157441,"Shape__Length":43.060404607581383,"Shape__Area":69.842955587685623,"GeoRefNo":"3467020852","DateCreate":1114790400000,"BuildingBlockType":"Tower","BuildingCSUID":"3467020852T20050430","BuildingID":1108229860,"Status":"Active","BuildingNameEN":null,"BuildingNameTC":null,"BaseHeight":4,"TopHeight":22.699999999999999,"Storeys":6,"StoreysInBasement":null,"DateStamp":1599580800000}},{"type":"Feature","id":157443,"geometry":{"type":"Polygon","coordinates":[[[114.1635724621633,22.326850480202221],[114.16347805852359,22.326744682840772],[114.16346069452047,22.326725223115378],[114.16349742185412,22.326696911911611],[114.16360933833492,22.32682187865236],[114.1635724621633,22.326850480202221]]]},"properties":{"OBJECTID":157443,"Shape__Length":45.899184312374075,"Shape__Area":88.836246282258443,"GeoRefNo":"3489220859","DateCreate":1114790400000,"BuildingBlockType":"Tower","BuildingCSUID":"3489220859T20050430","BuildingID":1108229782,"Status":"Active","BuildingNameEN":null,"BuildingNameTC":null,"BaseHeight":4.5999999999999996,"TopHeight":26.899999999999999,"Storeys":6,"StoreysInBasement":null,"DateStamp":1599580800000}},{"type":"Feature","id":157449,"geometry":{"type":"Polygon","coordinates":[[[114.1637583531584,22.326583920434452],[114.16372109735227,22.326612633335497],[114.16368294385431,22.326569071393251],[114.16367462213131,22.3265595699995],[114.16373593828618,22.326512395930251],[114.16378316301216,22.326564799534687],[114.1637583531584,22.326583920434452]]]},"properties":{"OBJECTID":157449,"Shape__Length":31.652729269649512,"Shape__Area":62.503348106187332,"GeoRefNo":"3491320836","DateCreate":1114790400000,"BuildingBlockType":"Tower","BuildingCSUID":"3491320836T20050430","BuildingID":1108229960,"Status":"Active","BuildingNameEN":null,"BuildingNameTC":null,"BaseHeight":4.5999999999999996,"TopHeight":36.700000000000003,"Storeys":9,"StoreysInBasement":null,"DateStamp":1599580800000}},{"type":"Feature","id":158330,"geometry":{"type":"Polygon","coordinates":[[[114.1614801715546,22.327564271090939],[114.16146623153773,22.32754901151301],[114.16152581792154,22.327502547293971],[114.16158161664364,22.327564506520929],[114.16152252872089,22.327610619878655],[114.1614801715546,22.327564271090939]]]},"properties":{"OBJECTID":158330,"Shape__Length":33.860798893198442,"Shape__Area":71.422545343128334,"GeoRefNo":"3468520946","DateCreate":1114790400000,"BuildingBlockType":"Tower","BuildingCSUID":"3468520946T20050430","BuildingID":1108229307,"Status":"Active","BuildingNameEN":null,"BuildingNameTC":null,"BaseHeight":4,"TopHeight":25.699999999999999,"Storeys":6,"StoreysInBasement":null,"DateStamp":1599580800000}},{"type":"Feature","id":158332,"geometry":{"type":"Polygon","coordinates":[[[114.1625710291169,22.327628444531513],[114.16252908033715,22.327581179900886],[114.16251462731877,22.327564895306082],[114.16248584387145,22.327532464291359],[114.16250159941748,22.327521041091558],[114.16247351168424,22.32749111151778],[114.16249190604621,22.327476809602],[114.16258532455947,22.327581184853482],[114.16260441408249,22.327602513340381],[114.16259951684637,22.327606317225094],[114.1625710291169,22.327628444531513]]]},"properties":{"OBJECTID":158332,"Shape__Length":45.305022981679059,"Shape__Area":71.766705592554516,"GeoRefNo":"3479020946","DateCreate":1114790400000,"BuildingBlockType":"Tower","BuildingCSUID":"3479020946T20050430","BuildingID":1108229292,"Status":"Active","BuildingNameEN":null,"BuildingNameTC":null,"BaseHeight":4.2999999999999998,"TopHeight":25.800000000000001,"Storeys":6,"StoreysInBasement":null,"DateStamp":1599580800000}},{"type":"Feature","id":158333,"geometry":{"type":"Polygon","coordinates":[[[114.1640673746307,22.327555701466984],[114.16395444515828,22.327430695328541],[114.16398840895025,22.327404350748306],[114.16408057236329,22.327508139316279],[114.16406291521704,22.327521989579949],[114.16408270232695,22.327543803432231],[114.1640673746307,22.327555701466984]]]},"properties":{"OBJECTID":158333,"Shape__Length":45.142645286936727,"Shape__Area":73.508077703310519,"GeoRefNo":"3494320938","DateCreate":1114790400000,"BuildingBlockType":"Tower","BuildingCSUID":"3494320938T20050430","BuildingID":1108229345,"Status":"Active","BuildingNameEN":null,"BuildingNameTC":null,"BaseHeight":4.7999999999999998,"TopHeight":34.100000000000001,"Storeys":9,"StoreysInBasement":null,"DateStamp":1599580800000}},{"type":"Feature","id":158551,"geometry":{"type":"Polygon","coordinates":[[[114.16036294037491,22.327592234458077],[114.16033403790568,22.327560028452933],[114.16033386466678,22.327559835361406],[114.16038169423875,22.327522990377698],[114.1604263843147,22.32748856381394],[114.16043866078019,22.327479106691879],[114.16045440268856,22.327466980116807],[114.16046857844823,22.327482304464635],[114.16049109009089,22.327465868451519],[114.16050648702235,22.327482950180698],[114.16036294037491,22.327592234458077]]]},"properties":{"OBJECTID":158551,"Shape__Length":47.560981343329949,"Shape__Area":83.596655322204924,"GeoRefNo":"3457220943","DateCreate":1114790400000,"BuildingBlockType":"Tower","BuildingCSUID":"3457220943T20050430","BuildingID":1108229319,"Status":"Active","BuildingNameEN":null,"BuildingNameTC":null,"BaseHeight":4,"TopHeight":32.5,"Storeys":9,"StoreysInBasement":null,"DateStamp":1599580800000}},{"type":"Feature","id":158552,"geometry":{"type":"Polygon","coordinates":[[[114.16225817275556,22.32753024810658],[114.16219180106069,22.327455719208448],[114.16222676113956,22.327428790989281],[114.16232238442861,22.327536249452574],[114.162336192599,22.327551766497454],[114.16233968130423,22.327555687076693],[114.16234388866344,22.327560721191229],[114.16232719541246,22.327573436207231],[114.16227664065133,22.32751660897657],[114.16225817275556,22.32753024810658]]]},"properties":{"OBJECTID":158552,"Shape__Length":47.162591495760822,"Shape__Area":68.599178113355578,"GeoRefNo":"3476120939","DateCreate":1114790400000,"BuildingBlockType":"Tower","BuildingCSUID":"3476120939T20050430","BuildingID":1108229331,"Status":"Active","BuildingNameEN":null,"BuildingNameTC":null,"BaseHeight":4.2000000000000002,"TopHeight":16.300000000000001,"Storeys":null,"StoreysInBasement":null,"DateStamp":1361808000000}},{"type":"Feature","id":158554,"geometry":{"type":"Polygon","coordinates":[[[114.16347375049109,22.327589021831631],[114.16346687211194,22.327581259928294],[114.16339383299434,22.327498838782986],[114.16340672909509,22.327488624634071],[114.1633782745204,22.327457080156591],[114.16339702377283,22.327442574527758],[114.16350646188813,22.327563619500985],[114.16350116561286,22.327567732406795],[114.16348374391302,22.327581261318382],[114.16347375049109,22.327589021831631]]]},"properties":{"OBJECTID":158554,"Shape__Length":43.665005833091641,"Shape__Area":67.508325836667709,"GeoRefNo":"3488320942","DateCreate":1114790400000,"BuildingBlockType":"Tower","BuildingCSUID":"3488320942T20050430","BuildingID":1108229320,"Status":"Active","BuildingNameEN":null,"BuildingNameTC":null,"BaseHeight":4.7999999999999998,"TopHeight":28.5,"Storeys":6,"StoreysInBasement":null,"DateStamp":1599580800000}},{"type":"Feature","id":158595,"geometry":{"type":"Polygon","coordinates":[[[114.16025208158786,22.327468704530599],[114.16035662652186,22.327387580347878],[114.16038627904433,22.327420098432448],[114.16037370678491,22.327429877822166],[114.16032919412677,22.327464502069233],[114.16028156099676,22.327501553406634],[114.16025208158786,22.327468704530599]]]},"properties":{"OBJECTID":158595,"Shape__Length":37.548316564979686,"Shape__Area":66.43194124074212,"GeoRefNo":"3456320933","DateCreate":1114790400000,"BuildingBlockType":"Tower","BuildingCSUID":"3456320933T20050430","BuildingID":1108229380,"Status":"Active","BuildingNameEN":null,"BuildingNameTC":null,"BaseHeight":3.8999999999999999,"TopHeight":25.199999999999999,"Storeys":6,"StoreysInBasement":null,"DateStamp":1599580800000}},{"type":"Feature","id":158602,"geometry":{"type":"Polygon","coordinates":[[[114.16131674870333,22.32750517175527],[114.16144091952576,22.327408275298044],[114.16144306848227,22.327410661653605],[114.16146707484125,22.327437318425535],[114.16137686066014,22.327507779028256],[114.1613677962453,22.327497840275768],[114.16135063536329,22.327510433775586],[114.16133847224219,22.327496939564739],[114.16132140765107,22.32751036930286],[114.16131674870333,22.32750517175527]]]},"properties":{"OBJECTID":158602,"Shape__Length":41.724809850395509,"Shape__Area":58.824740076381914,"GeoRefNo":"3467320936","DateCreate":1114790400000,"BuildingBlockType":"Tower","BuildingCSUID":"3467320936T20050430","BuildingID":1108229373,"Status":"Active","BuildingNameEN":null,"BuildingNameTC":null,"BaseHeight":4.0999999999999996,"TopHeight":25.5,"Storeys":6,"StoreysInBasement":null,"DateStamp":1599580800000}},{"type":"Feature","id":158603,"geometry":{"type":"Polygon","coordinates":[[[114.16252658851481,22.327378947581231],[114.16251304528332,22.327363871810036],[114.1624304330221,22.327271910736748],[114.16246376257519,22.327246238294773],[114.16252445689277,22.327313949122658],[114.16257650577722,22.327372014953674],[114.16256680237477,22.327379540641481],[114.16255859881825,22.327369935350013],[114.16253472563575,22.327388005524654],[114.16252658851481,22.327378947581231]]]},"properties":{"OBJECTID":158603,"Shape__Length":45.178642130590404,"Shape__Area":76.35766370713219,"GeoRefNo":"3478620920","DateCreate":1114790400000,"BuildingBlockType":"Tower","BuildingCSUID":"3478620920T20050430","BuildingID":1108229450,"Status":"Active","BuildingNameEN":null,"BuildingNameTC":null,"BaseHeight":4.2000000000000002,"TopHeight":23.899999999999999,"Storeys":6,"StoreysInBasement":null,"DateStamp":1599580800000}},{"type":"Feature","id":158605,"geometry":{"type":"Polygon","coordinates":[[[114.16022411854013,22.32743754524628],[114.16032011777219,22.327363663282306],[114.16033294425394,22.32735379190089],[114.16033573152563,22.327356712946742],[114.16036947644635,22.327330947963095],[114.16038026849544,22.327342920905647],[114.16035290348218,22.327363666618396],[114.1603503179205,22.327365626715011],[114.1603645086435,22.327381464010887],[114.16035662652186,22.327387580347878],[114.16025208158786,22.327468704530599],[114.16022962209333,22.327443677938593],[114.16022411854013,22.32743754524628]]]},"properties":{"OBJECTID":158605,"Shape__Length":47.051658508812885,"Shape__Area":73.96802728635943,"GeoRefNo":"3456020929","DateCreate":1114790400000,"BuildingBlockType":"Tower","BuildingCSUID":"3456020929T20050430","BuildingID":1108229404,"Status":"Active","BuildingNameEN":null,"BuildingNameTC":null,"BaseHeight":3.8999999999999999,"TopHeight":28.399999999999999,"Storeys":7,"StoreysInBasement":null,"DateStamp":1599580800000}},{"type":"Feature","id":158606,"geometry":{"type":"Polygon","coordinates":[[[114.16410065376496,22.327453046377425],[114.164028850349,22.3273729816936],[114.16406694646943,22.327343431836113],[114.16410772011049,22.327311804964442],[114.16421159289581,22.327427713784527],[114.16422006962654,22.327437172808374],[114.16415439329622,22.327488153647874],[114.16411413774637,22.327443770044589],[114.16410065376496,22.327453046377425]]]},"properties":{"OBJECTID":158606,"Shape__Length":57.171046138403312,"Shape__Area":179.88124559407404,"GeoRefNo":"3495320930","DateCreate":1114790400000,"BuildingBlockType":"Tower","BuildingCSUID":"3495320930T20050430","BuildingID":1108229393,"Status":"Active","BuildingNameEN":null,"BuildingNameTC":null,"BaseHeight":4.7000000000000002,"TopHeight":25,"Storeys":6,"StoreysInBasement":null,"DateStamp":1599580800000}},{"type":"Feature","id":158607,"geometry":{"type":"Polygon","coordinates":[[[114.16374298307247,22.327379946551336],[114.16366043734331,22.327287113484569],[114.16365582315886,22.327281932172408],[114.16366920776113,22.327271593058718],[114.16364825835305,22.327248203223569],[114.1636641177117,22.32723593339168],[114.16368530640156,22.327259158255405],[114.16369031571251,22.327255288875051],[114.16377751311681,22.327353131747955],[114.16374298307247,22.327379946551336]]]},"properties":{"OBJECTID":158607,"Shape__Length":44.127674955076458,"Shape__Area":72.353741224080181,"GeoRefNo":"3491020918","DateCreate":1114790400000,"BuildingBlockType":"Tower","BuildingCSUID":"3491020918T20050430","BuildingID":1108229456,"Status":"Active","BuildingNameEN":null,"BuildingNameTC":null,"BaseHeight":4.7999999999999998,"TopHeight":32.200000000000003,"Storeys":9,"StoreysInBasement":null,"DateStamp":1599580800000}},{"type":"Feature","id":158774,"geometry":{"type":"Polygon","coordinates":[[[114.16263816335062,22.327576299155659],[114.16255299949695,22.32748076434051],[114.16252590750327,22.327450373129533],[114.1625950978715,22.327396576528624],[114.16261873737699,22.327422930663655],[114.16270779444346,22.32752221419949],[114.16263816335062,22.327576299155659]]]},"properties":{"OBJECTID":158774,"Shape__Length":54.871604640625108,"Shape__Area":168.81588285850475,"GeoRefNo":"3479920939","DateCreate":1114790400000,"BuildingBlockType":"Tower","BuildingCSUID":"3479920939T20050430","BuildingID":1108229330,"Status":"Active","BuildingNameEN":null,"BuildingNameTC":null,"BaseHeight":4.2000000000000002,"TopHeight":26.800000000000001,"Storeys":6,"StoreysInBasement":null,"DateStamp":1599580800000}},{"type":"Feature","id":158782,"geometry":{"type":"Polygon","coordinates":[[[114.15920701207159,22.32759949504559],[114.15921584911906,22.327609360294726],[114.15921596053452,22.327609484567692],[114.15919513050915,22.327625642624884],[114.15917990142812,22.327608740588765],[114.1591917076677,22.327599591272474],[114.15919794916731,22.327606518319911],[114.15920701207159,22.32759949504559]]]},"properties":{"OBJECTID":158782,"Shape__Length":10.475391761428122,"Shape__Area":5.6127033467605081,"GeoRefNo":"3444620953","DateCreate":1114790400000,"BuildingBlockType":"Tower","BuildingCSUID":"3444620953T20050430","BuildingID":1108229293,"Status":"Active","BuildingNameEN":"TUNG MING BUILDING","BuildingNameTC":"通明大廈","BaseHeight":4,"TopHeight":6.4000000000000004,"Storeys":null,"StoreysInBasement":null,"DateStamp":1361808000000}},{"type":"Feature","id":158794,"geometry":{"type":"Polygon","coordinates":[[[114.16371044144336,22.327405217097485],[114.16360112087129,22.327284671931466],[114.16361576702975,22.327273340734735],[114.16362165151688,22.327279415005549],[114.1636302830567,22.327272984667506],[114.16365032615126,22.327294488122519],[114.16366043734331,22.327287113484569],[114.16374298307247,22.327379946551336],[114.16371044144336,22.327405217097485]]]},"properties":{"OBJECTID":158794,"Shape__Length":43.65617673894144,"Shape__Area":71.065285262017383,"GeoRefNo":"3490720921","DateCreate":1114790400000,"BuildingBlockType":"Tower","BuildingCSUID":"3490720921T20050430","BuildingID":1108229441,"Status":"Active","BuildingNameEN":null,"BuildingNameTC":null,"BaseHeight":4.9000000000000004,"TopHeight":32.799999999999997,"Storeys":9,"StoreysInBasement":null,"DateStamp":1599580800000}},{"type":"Feature","id":158796,"geometry":{"type":"Polygon","coordinates":[[[114.16408057236329,22.327508139316279],[114.16398840895025,22.327404350748306],[114.164028850349,22.3273729816936],[114.16410065376496,22.327453046377425],[114.16412797642954,22.327483512568229],[114.16408666064646,22.327514995634765],[114.16408057236329,22.327508139316279]]]},"properties":{"OBJECTID":158796,"Shape__Length":42.759654559908597,"Shape__Area":86.954793952802234,"GeoRefNo":"3494720935","DateCreate":1114790400000,"BuildingBlockType":"Tower","BuildingCSUID":"3494720935T20050430","BuildingID":1108229371,"Status":"Active","BuildingNameEN":null,"BuildingNameTC":null,"BaseHeight":4.7000000000000002,"TopHeight":25,"Storeys":6,"StoreysInBasement":null,"DateStamp":1599580800000}},{"type":"Feature","id":158798,"geometry":{"type":"Polygon","coordinates":[[[114.16127356911248,22.327427247663962],[114.16135555023116,22.327363765439493],[114.16138223000078,22.327343105914796],[114.16138559338346,22.327346840743569],[114.16140083920006,22.32736376975679],[114.16141213126042,22.327376308625038],[114.16132086067607,22.327446377440122],[114.16131222078106,22.327436904251766],[114.16127914055168,22.327463228668993],[114.16125781397302,22.327439449542183],[114.16127356911248,22.327427247663962]]]},"properties":{"OBJECTID":158798,"Shape__Length":42.954221743398747,"Shape__Area":73.426589013956374,"GeoRefNo":"3466820929","DateCreate":1114790400000,"BuildingBlockType":"Tower","BuildingCSUID":"3466820929T20050430","BuildingID":1108229405,"Status":"Active","BuildingNameEN":null,"BuildingNameTC":null,"BaseHeight":4,"TopHeight":25.5,"Storeys":6,"StoreysInBasement":null,"DateStamp":1599580800000}},{"type":"Feature","id":158799,"geometry":{"type":"Polygon","coordinates":[[[114.16335564746078,22.327398282032608],[114.16327135554026,22.327304866059805],[114.1633051594671,22.327278516010029],[114.16338934237139,22.327372127288083],[114.16336187698835,22.327393445949429],[114.16335564746078,22.327398282032608]]]},"properties":{"OBJECTID":158799,"Shape__Length":36.086210090494433,"Shape__Area":61.233492499751918,"GeoRefNo":"3487320924","DateCreate":1114790400000,"BuildingBlockType":"Tower","BuildingCSUID":"3487320924T20050430","BuildingID":1108229444,"Status":"Active","BuildingNameEN":null,"BuildingNameTC":null,"BaseHeight":4.5999999999999996,"TopHeight":33.5,"Storeys":8,"StoreysInBasement":null,"DateStamp":1599580800000}},{"type":"Feature","id":158827,"geometry":{"type":"Polygon","coordinates":[[[114.1645706204085,22.327416773871381],[114.164527963854,22.327368905737437],[114.16447605958354,22.327310645031492],[114.16449006720848,22.3273000883507],[114.16447134187661,22.327279245416374],[114.16449367507751,22.327261935575486],[114.16460801857205,22.327387831953665],[114.1645706204085,22.327416773871381]]]},"properties":{"OBJECTID":158827,"Shape__Length":46.388215575264326,"Shape__Area":84.347472514880991,"GeoRefNo":"3499620924","DateCreate":1114790400000,"BuildingBlockType":"Tower","BuildingCSUID":"3499620924T20050430","BuildingID":1108229435,"Status":"Active","BuildingNameEN":null,"BuildingNameTC":null,"BaseHeight":4.7000000000000002,"TopHeight":24.699999999999999,"Storeys":6,"StoreysInBasement":null,"DateStamp":1599580800000}},{"type":"Feature","id":158828,"geometry":{"type":"Polygon","coordinates":[[[114.16357751057578,22.327508446011684],[114.16349232883128,22.32741408476053],[114.16349667621763,22.327410716980786],[114.16347286721475,22.327383897252414],[114.16348800040586,22.327372189351458],[114.16351205578025,22.327398808347969],[114.1635278995405,22.327386536631934],[114.16361342279987,22.327480557981335],[114.16357751057578,22.327508446011684]]]},"properties":{"OBJECTID":158828,"Shape__Length":44.54124051523997,"Shape__Area":73.27049220173474,"GeoRefNo":"3489420932","DateCreate":1114790400000,"BuildingBlockType":"Tower","BuildingCSUID":"3489420932T20050430","BuildingID":1108229375,"Status":"Active","BuildingNameEN":null,"BuildingNameTC":null,"BaseHeight":4.7000000000000002,"TopHeight":33.600000000000001,"Storeys":9,"StoreysInBasement":null,"DateStamp":1599580800000}},{"type":"Feature","id":158830,"geometry":{"type":"Polygon","coordinates":[[[114.16364598863491,22.327455268582941],[114.1635366672233,22.327334537434385],[114.16355136047223,22.327323169854122],[114.16355802875991,22.327329244101119],[114.16356576532441,22.327323241833334],[114.1635861280354,22.327345948015665],[114.16359565666927,22.327338362108826],[114.16367855455528,22.327429979268228],[114.16364598863491,22.327455268582941]]]},"properties":{"OBJECTID":158830,"Shape__Length":43.647113448386413,"Shape__Area":69.98041738497011,"GeoRefNo":"3490020927","DateCreate":1114790400000,"BuildingBlockType":"Tower","BuildingCSUID":"3490020927T20050430","BuildingID":1108229407,"Status":"Active","BuildingNameEN":null,"BuildingNameTC":null,"BaseHeight":4.9000000000000004,"TopHeight":36.899999999999999,"Storeys":9,"StoreysInBasement":null,"DateStamp":1599580800000}},{"type":"Feature","id":158832,"geometry":{"type":"Polygon","coordinates":[[[114.16019700422805,22.327407331817341],[114.16016785076052,22.327374846078889],[114.16018236547211,22.327363649192996],[114.16020555578703,22.32734575972599],[114.16024350746298,22.327316483024692],[114.16028259945105,22.327286326761502],[114.16031012011204,22.327265096765984],[114.1603287628224,22.327285779427896],[114.1602953948415,22.327312093230312],[114.1603054220798,22.327323467642969],[114.16025346679311,22.327363656479857],[114.16019700422805,22.327407331817341]]]},"properties":{"OBJECTID":158832,"Shape__Length":47.376876818166721,"Shape__Area":81.556211385702838,"GeoRefNo":"3455620920","DateCreate":1114790400000,"BuildingBlockType":"Tower","BuildingCSUID":"3455620920T20050430","BuildingID":1108229440,"Status":"Active","BuildingNameEN":null,"BuildingNameTC":"北海樓","BaseHeight":4,"TopHeight":23.899999999999999,"Storeys":6,"StoreysInBasement":null,"DateStamp":1599580800000}},{"type":"Feature","id":158833,"geometry":{"type":"Polygon","coordinates":[[[114.16038027278766,22.327369231426058],[114.16038743966584,22.327363670125433],[114.16039422513971,22.327358404718105],[114.16039897227257,22.32736367129489],[114.16041163026003,22.327377714234597],[114.16039802045927,22.32738846674733],[114.16038027278766,22.327369231426058]]]},"properties":{"OBJECTID":158833,"Shape__Length":9.3089951075297215,"Shape__Area":5.1934715130636064,"GeoRefNo":"3457020927","DateCreate":1114790400000,"BuildingBlockType":"Tower","BuildingCSUID":"3457020927T20050430","BuildingID":1108229449,"Status":"Active","BuildingNameEN":null,"BuildingNameTC":null,"BaseHeight":3.8999999999999999,"TopHeight":6.7999999999999998,"Storeys":6,"StoreysInBasement":null,"DateStamp":1599580800000}},{"type":"Feature","id":159007,"geometry":{"type":"Polygon","coordinates":[[[114.16270779444346,22.32752221419949],[114.16261873737699,22.327422930663655],[114.16263300331302,22.327411743921655],[114.16260944514417,22.32738542131256],[114.16261976942458,22.327377394117924],[114.16264335931226,22.327403935268485],[114.16265081715019,22.327397917848685],[114.16273957920953,22.3274975259008],[114.16270779444346,22.32752221419949]]]},"properties":{"OBJECTID":159007,"Shape__Length":44.845206430862426,"Shape__Area":66.669173162427285,"GeoRefNo":"3480420934","DateCreate":1114790400000,"BuildingBlockType":"Tower","BuildingCSUID":"3480420934T20050430","BuildingID":1108229366,"Status":"Active","BuildingNameEN":null,"BuildingNameTC":null,"BaseHeight":4.2999999999999998,"TopHeight":37.100000000000001,"Storeys":10,"StoreysInBasement":null,"DateStamp":1599580800000}},{"type":"Feature","id":159008,"geometry":{"type":"Polygon","coordinates":[[[114.1614907726303,22.327635403033014],[114.16144844311773,22.327589171908304],[114.1614801715546,22.327564271090939],[114.16152252872089,22.327610619878655],[114.1614907726303,22.327635403033014]]]},"properties":{"OBJECTID":159008,"Shape__Length":22.0085067405861,"Shape__Area":28.76299840514131,"GeoRefNo":"3468220951","DateCreate":1114790400000,"BuildingBlockType":"Tower","BuildingCSUID":"3468220951T20050430","BuildingID":1108229288,"Status":"Active","BuildingNameEN":null,"BuildingNameTC":null,"BaseHeight":4.0999999999999996,"TopHeight":28,"Storeys":6,"StoreysInBasement":null,"DateStamp":1599580800000}},{"type":"Feature","id":159016,"geometry":{"type":"Polygon","coordinates":[[[114.16254008557674,22.326616048226928],[114.16265064324577,22.326741562493162],[114.16261518600844,22.326768995120794],[114.16257262772793,22.326721552179325],[114.16253310123945,22.32667748891981],[114.16252452276098,22.326667925855919],[114.16248157069818,22.326620043697826],[114.16251793536811,22.326591790298767],[114.16252452978722,22.326599012189131],[114.16254008557674,22.326616048226928]]]},"properties":{"OBJECTID":159016,"Shape__Length":52.610007250765065,"Shape__Area":104.04965935140149,"GeoRefNo":"3479620852","DateCreate":1114790400000,"BuildingBlockType":"Tower","BuildingCSUID":"3479620852T20050430","BuildingID":1108229857,"Status":"Active","BuildingNameEN":null,"BuildingNameTC":null,"BaseHeight":4.2999999999999998,"TopHeight":27.399999999999999,"Storeys":6,"StoreysInBasement":null,"DateStamp":1599580800000}},{"type":"Feature","id":159054,"geometry":{"type":"Polygon","coordinates":[[[114.1643264103889,22.326482386594307],[114.16435275650683,22.326461932991624],[114.16438251934103,22.326462780723382],[114.1645554343973,22.326467705735752],[114.1646031558831,22.326469064833425],[114.1644815989543,22.326563359413356],[114.16447255163791,22.326552545499815],[114.16445647602582,22.326552109992594],[114.1644327899824,22.326551468185134],[114.16445833436578,22.326581406349781],[114.16443350536987,22.32660066687399],[114.16437855934167,22.32653997621955],[114.1643264103889,22.326482386594307]]]},"properties":{"OBJECTID":159054,"Shape__Length":75.954177613315736,"Shape__Area":216.13870706959099,"GeoRefNo":"3498920828","DateCreate":1114790400000,"BuildingBlockType":"Tower","BuildingCSUID":"3498920828T20050430","BuildingID":1108229968,"Status":"Active","BuildingNameEN":"Kam Yuen Building","BuildingNameTC":"金椽樓","BaseHeight":4.5999999999999996,"TopHeight":43.299999999999997,"Storeys":12,"StoreysInBasement":null,"DateStamp":1599580800000}},{"type":"Feature","id":159055,"geometry":{"type":"Polygon","coordinates":[[[114.1637583531584,22.326583920434452],[114.16378316301216,22.326564799534687],[114.1637939156325,22.326556512579234],[114.16385775583737,22.32662771845516],[114.16382243048787,22.326655114061616],[114.1637583531584,22.326583920434452]]]},"properties":{"OBJECTID":159055,"Shape__Length":30.046027643692334,"Shape__Area":48.784156482357673,"GeoRefNo":"3492220842","DateCreate":1114790400000,"BuildingBlockType":"Tower","BuildingCSUID":"3492220842T20050430","BuildingID":1108229935,"Status":"Active","BuildingNameEN":null,"BuildingNameTC":null,"BaseHeight":4.5999999999999996,"TopHeight":34.600000000000001,"Storeys":9,"StoreysInBasement":null,"DateStamp":1599580800000}},{"type":"Feature","id":159059,"geometry":{"type":"Polygon","coordinates":[[[114.16158998392899,22.326502338125749],[114.16159462263001,22.326506062324061],[114.16165462747809,22.326546472692169],[114.16169135891782,22.326571209547897],[114.16165461971137,22.326618282648656],[114.16163100894565,22.326648534615895],[114.16150856034062,22.326567040560711],[114.1614956726465,22.326558463355511],[114.16155661258929,22.326480464259379],[114.16158998392899,22.326502338125749]]]},"properties":{"OBJECTID":159059,"Shape__Length":55.542854398449322,"Shape__Area":182.32598771027909,"GeoRefNo":"3469320837","DateCreate":1114790400000,"BuildingBlockType":"Tower","BuildingCSUID":"3469320837T20050430","BuildingID":1108229940,"Status":"Active","BuildingNameEN":"Kwan Tai Temple","BuildingNameTC":"武帝廟","BaseHeight":4,"TopHeight":9.9000000000000004,"Storeys":null,"StoreysInBasement":null,"DateStamp":1361808000000}},{"type":"Feature","id":159061,"geometry":{"type":"Polygon","coordinates":[[[114.16336787458324,22.326542323937602],[114.16339946612067,22.326517876787598],[114.16350445916804,22.326633297429073],[114.16351476859499,22.326644630758882],[114.16348160370289,22.326670353010506],[114.16336787458324,22.326542323937602]]]},"properties":{"OBJECTID":159061,"Shape__Length":45.462137211983794,"Shape__Area":79.827722305445192,"GeoRefNo":"3488620843","DateCreate":1114790400000,"BuildingBlockType":"Tower","BuildingCSUID":"3488620843T20050430","BuildingID":1108229931,"Status":"Active","BuildingNameEN":null,"BuildingNameTC":null,"BaseHeight":4.5,"TopHeight":29.399999999999999,"Storeys":8,"StoreysInBasement":null,"DateStamp":1599580800000}},{"type":"Feature","id":159241,"geometry":{"type":"Polygon","coordinates":[[[114.16349742185412,22.326696911911611],[114.16353407335987,22.326668658940502],[114.16364640873235,22.326793126389365],[114.16360933833492,22.32682187865236],[114.16349742185412,22.326696911911611]]]},"properties":{"OBJECTID":159241,"Shape__Length":45.885479688448001,"Shape__Area":88.906027066963929,"GeoRefNo":"3489920859","DateCreate":1114790400000,"BuildingBlockType":"Tower","BuildingCSUID":"3489920859T20050430","BuildingID":1108229807,"Status":"Active","BuildingNameEN":null,"BuildingNameTC":null,"BaseHeight":4.5999999999999996,"TopHeight":24.199999999999999,"Storeys":6,"StoreysInBasement":null,"DateStamp":1599580800000}},{"type":"Feature","id":159244,"geometry":{"type":"Polygon","coordinates":[[[114.16136224036642,22.32680278645941],[114.16147559429767,22.326714081030492],[114.16151024942046,22.326752307438856],[114.16139583732952,22.326840557017135],[114.16136224036642,22.32680278645941]]]},"properties":{"OBJECTID":159244,"Shape__Length":41.537882023231269,"Shape__Area":83.814417750463463,"GeoRefNo":"3467720860","DateCreate":1114790400000,"BuildingBlockType":"Tower","BuildingCSUID":"3467720860T20050430","BuildingID":1108229792,"Status":"Active","BuildingNameEN":null,"BuildingNameTC":null,"BaseHeight":4,"TopHeight":26.300000000000001,"Storeys":6,"StoreysInBasement":null,"DateStamp":1599580800000}},{"type":"Feature","id":159276,"geometry":{"type":"Polygon","coordinates":[[[114.16120620784059,22.326627370512657],[114.16117557340961,22.3265929305004],[114.16128422719716,22.326509751919346],[114.16130435072344,22.326530843517947],[114.16132086757902,22.326518105921981],[114.16133118630778,22.326529671477697],[114.16131431637794,22.326542859215639],[114.16131409369244,22.326543033304016],[114.16120620784059,22.326627370512657]]]},"properties":{"OBJECTID":159276,"Shape__Length":43.261784067145349,"Shape__Area":74.727127758844532,"GeoRefNo":"3465820836","DateCreate":1114790400000,"BuildingBlockType":"Tower","BuildingCSUID":"3465820836T20050430","BuildingID":1108229951,"Status":"Active","BuildingNameEN":null,"BuildingNameTC":null,"BaseHeight":3.7999999999999998,"TopHeight":26,"Storeys":6,"StoreysInBasement":null,"DateStamp":1599580800000}},{"type":"Feature","id":159280,"geometry":{"type":"Polygon","coordinates":[[[114.16440192728456,22.326632865359148],[114.16429151082264,22.326509481075984],[114.1642977361043,22.326504649561556],[114.1643264103889,22.326482386594307],[114.16437855934167,22.32653997621955],[114.1643616707462,22.326553423270528],[114.16442035034717,22.326618706450173],[114.16440192728456,22.326632865359148]]]},"properties":{"OBJECTID":159280,"Shape__Length":44.975889713487156,"Shape__Area":62.441147643036821,"GeoRefNo":"3497720834","DateCreate":1114790400000,"BuildingBlockType":"Tower","BuildingCSUID":"3497720834T20050430","BuildingID":1108229947,"Status":"Active","BuildingNameEN":null,"BuildingNameTC":null,"BaseHeight":4.5999999999999996,"TopHeight":22.800000000000001,"Storeys":null,"StoreysInBasement":null,"DateStamp":1361808000000}},{"type":"Feature","id":159284,"geometry":{"type":"Polygon","coordinates":[[[114.16446785575631,22.326650499369187],[114.16446134782019,22.326643235211005],[114.16449896649033,22.326614688691517],[114.16459362224781,22.326720057068435],[114.16455546110308,22.326748267450039],[114.16446785575631,22.326650499369187]]]},"properties":{"OBJECTID":159284,"Shape__Length":40.371484361298187,"Shape__Area":76.031728524043572,"GeoRefNo":"3499520849","DateCreate":1114790400000,"BuildingBlockType":"Tower","BuildingCSUID":"3499520849T20050430","BuildingID":1108229877,"Status":"Active","BuildingNameEN":null,"BuildingNameTC":null,"BaseHeight":4.7000000000000002,"TopHeight":24.300000000000001,"Storeys":6,"StoreysInBasement":null,"DateStamp":1599580800000}},{"type":"Feature","id":159464,"geometry":{"type":"Polygon","coordinates":[[[114.16322682527927,22.326842045352997],[114.16322496794754,22.326840003471929],[114.16312509138929,22.326730202006047],[114.1631584681665,22.326704373374863],[114.16325122903432,22.326807885414819],[114.16324560371902,22.326812115502101],[114.16323334722847,22.326821331903297],[114.16325527344515,22.326845891335918],[114.16324064419005,22.326857237492888],[114.16323509306051,22.326851134789568],[114.16322894097011,22.32684437126764],[114.16322682527927,22.326842045352997]]]},"properties":{"OBJECTID":159464,"Shape__Length":45.691053546606078,"Shape__Area":72.819970754192468,"GeoRefNo":"3485820860","DateCreate":1114790400000,"BuildingBlockType":"Tower","BuildingCSUID":"3485820860T20050430","BuildingID":1108229775,"Status":"Active","BuildingNameEN":null,"BuildingNameTC":null,"BaseHeight":4.4000000000000004,"TopHeight":33,"Storeys":9,"StoreysInBasement":null,"DateStamp":1599580800000}},{"type":"Feature","id":159497,"geometry":{"type":"Polygon","coordinates":[[[114.16430920268445,22.326594395330897],[114.16425705155875,22.326536232783148],[114.16428441170417,22.326514992345075],[114.16429151082264,22.326509481075984],[114.16440192728456,22.326632865359148],[114.16438417905793,22.3266465066846],[114.16432579257597,22.326582553087917],[114.16430920268445,22.326594395330897]]]},"properties":{"OBJECTID":159497,"Shape__Length":44.607499750443758,"Shape__Area":61.534665219356413,"GeoRefNo":"3497420837","DateCreate":1114790400000,"BuildingBlockType":"Tower","BuildingCSUID":"3497420837T20050430","BuildingID":1108229943,"Status":"Active","BuildingNameEN":null,"BuildingNameTC":null,"BaseHeight":4.5999999999999996,"TopHeight":22.800000000000001,"Storeys":null,"StoreysInBasement":null,"DateStamp":1361808000000}},{"type":"Feature","id":159902,"geometry":{"type":"Polygon","coordinates":[[[114.1613001112846,22.32778263353207],[114.16122930438318,22.327703715765832],[114.16118192681276,22.327650911084394],[114.16117802682196,22.327646564377588],[114.16117255155903,22.327640461882496],[114.16116948554789,22.327637044683851],[114.16118005098531,22.327628633624041],[114.16118970681032,22.327639482185074],[114.16121174072559,22.327622259462089],[114.1612343542631,22.327604583727382],[114.16122441068457,22.327593319011921],[114.16123520520988,22.327584725552708],[114.16126026490151,22.327612355862811],[114.16136728316604,22.327730280803355],[114.16133331946881,22.327756751622498],[114.16130677686084,22.327777438423563],[114.1613001112846,22.32778263353207]]]},"properties":{"OBJECTID":159902,"Shape__Length":63.199438177081163,"Shape__Area":179.2247781810423,"GeoRefNo":"3465920960","DateCreate":1114790400000,"BuildingBlockType":"Tower","BuildingCSUID":"3465920960T20050430","BuildingID":1108229173,"Status":"Active","BuildingNameEN":null,"BuildingNameTC":"龍康樓","BaseHeight":4.0999999999999996,"TopHeight":41.700000000000003,"Storeys":12,"StoreysInBasement":null,"DateStamp":1599580800000}},{"type":"Feature","id":159904,"geometry":{"type":"Polygon","coordinates":[[[114.16006463493703,22.3276184433266],[114.16011577227425,22.327577701795402],[114.16013854954375,22.32760288060086],[114.16014375292184,22.327608632445262],[114.15999117031923,22.327728544820673],[114.15997895831696,22.327714842619113],[114.16000558939399,22.327693715532654],[114.15999132726641,22.327676848170054],[114.16006463493703,22.3276184433266]]]},"properties":{"OBJECTID":159904,"Shape__Length":49.886391643229658,"Shape__Area":81.999759298466756,"GeoRefNo":"3453620956","DateCreate":1114790400000,"BuildingBlockType":"Tower","BuildingCSUID":"3453620956T20050430","BuildingID":1108229218,"Status":"Active","BuildingNameEN":null,"BuildingNameTC":null,"BaseHeight":3.8999999999999999,"TopHeight":28.5,"Storeys":8,"StoreysInBasement":null,"DateStamp":1599580800000}},{"type":"Feature","id":159905,"geometry":{"type":"Polygon","coordinates":[[[114.16086002253364,22.327765257735582],[114.16077216360641,22.32766704325056],[114.16076746915365,22.327661795473698],[114.16077216462745,22.32765812238728],[114.16079236263658,22.32764232248876],[114.16080112308529,22.327635469683134],[114.16090662499251,22.327751864002906],[114.16088856368022,22.327765977302654],[114.16087668498376,22.327752478299338],[114.16086002253364,22.327765257735582]]]},"properties":{"OBJECTID":159905,"Shape__Length":42.882139123420941,"Shape__Area":72.983550322641932,"GeoRefNo":"3461520963","DateCreate":1114790400000,"BuildingBlockType":"Tower","BuildingCSUID":"3461520963T20050430","BuildingID":1108229192,"Status":"Active","BuildingNameEN":null,"BuildingNameTC":null,"BaseHeight":4.2000000000000002,"TopHeight":29.800000000000001,"Storeys":8,"StoreysInBasement":null,"DateStamp":1599580800000}},{"type":"Feature","id":159907,"geometry":{"type":"Polygon","coordinates":[[[114.16136728316604,22.327730280803355],[114.16126026490151,22.327612355862811],[114.16127439303216,22.327600320803999],[114.1612497479522,22.32757314811564],[114.16126553974203,22.327560576349153],[114.16128852866203,22.327585407606872],[114.16129330294847,22.327581628132588],[114.16140271314941,22.327702667205767],[114.16136728316604,22.327730280803355]]]},"properties":{"OBJECTID":159907,"Shape__Length":51.691558188222253,"Shape__Area":90.741960260626612,"GeoRefNo":"3466520956","DateCreate":1114790400000,"BuildingBlockType":"Tower","BuildingCSUID":"3466520956T20050430","BuildingID":1108229212,"Status":"Active","BuildingNameEN":null,"BuildingNameTC":null,"BaseHeight":4.0999999999999996,"TopHeight":33.399999999999999,"Storeys":9,"StoreysInBasement":null,"DateStamp":1599580800000}},{"type":"Feature","id":159908,"geometry":{"type":"Polygon","coordinates":[[[114.16311547591818,22.327659096074704],[114.16311226014103,22.327656122572762],[114.16314924271326,22.327626499690105],[114.16326059700661,22.327750739106168],[114.16322333404869,22.327779890232492],[114.16311547591818,22.327659096074704]]]},"properties":{"OBJECTID":159908,"Shape__Length":45.81311970456867,"Shape__Area":89.414977721291976,"GeoRefNo":"3485820964","DateCreate":1114790400000,"BuildingBlockType":"Tower","BuildingCSUID":"3485820964T20050430","BuildingID":1108229177,"Status":"Active","BuildingNameEN":"Ki Lung Street Substation","BuildingNameTC":"基隆街變電站","BaseHeight":4.7000000000000002,"TopHeight":7.7000000000000002,"Storeys":1,"StoreysInBasement":null,"DateStamp":1599580800000}},{"type":"Feature","id":160139,"geometry":{"type":"Polygon","coordinates":[[[114.1599081249644,22.327576789654209],[114.15996803853234,22.327643129969822],[114.15995001542058,22.327656934684335],[114.15996641406014,22.327675315257096],[114.15994252546932,22.32769400526805],[114.15986664680406,22.327608942057971],[114.15990083787888,22.327582438336986],[114.1599081249644,22.327576789654209]]]},"properties":{"OBJECTID":160139,"Shape__Length":35.663853098757755,"Shape__Area":62.114943429209298,"GeoRefNo":"3452120955","DateCreate":1114790400000,"BuildingBlockType":"Tower","BuildingCSUID":"3452120955T20050430","BuildingID":1108229244,"Status":"Active","BuildingNameEN":null,"BuildingNameTC":null,"BaseHeight":3.8999999999999999,"TopHeight":25.300000000000001,"Storeys":8,"StoreysInBasement":null,"DateStamp":1599580800000}},{"type":"Feature","id":160144,"geometry":{"type":"Polygon","coordinates":[[[114.16482093653774,22.327626111101253],[114.16491017125853,22.327556461443269],[114.16495081589636,22.327601318079559],[114.16487147493505,22.327663137798535],[114.16486175800371,22.327671162833234],[114.16482093653774,22.327626111101253]]]},"properties":{"OBJECTID":160144,"Shape__Length":37.022147371609584,"Shape__Area":77.924279479979816,"GeoRefNo":"3503420953","DateCreate":1114790400000,"BuildingBlockType":"Tower","BuildingCSUID":"3503420953T20050430","BuildingID":1108229260,"Status":"Active","BuildingNameEN":null,"BuildingNameTC":null,"BaseHeight":5.0999999999999996,"TopHeight":10.9,"Storeys":null,"StoreysInBasement":null,"DateStamp":1361808000000}},{"type":"Feature","id":160379,"geometry":{"type":"Polygon","coordinates":[[[114.16137686066014,22.327507779028256],[114.16146707484125,22.327437318425535],[114.16149614458676,22.327469597754074],[114.16151088264604,22.327485963019541],[114.16152581792154,22.327502547293971],[114.16146623153773,22.32754901151301],[114.16140141332858,22.327599555230261],[114.16138489987996,22.327581135237491],[114.16140106845621,22.327568654612314],[114.16138836956556,22.327554788113577],[114.16137248062635,22.327567347510886],[114.16136281382231,22.327556512415146],[114.16138020900176,22.327543244171132],[114.16136006895601,22.327520899769826],[114.16137686066014,22.327507779028256]]]},"properties":{"OBJECTID":160379,"Shape__Length":56.632116700252816,"Shape__Area":145.62644937841253,"GeoRefNo":"3467520944","DateCreate":1114790400000,"BuildingBlockType":"Tower","BuildingCSUID":"3467520944T20050430","BuildingID":1108229312,"Status":"Active","BuildingNameEN":null,"BuildingNameTC":"幹興樓","BaseHeight":4,"TopHeight":40.700000000000003,"Storeys":12,"StoreysInBasement":null,"DateStamp":1599580800000}},{"type":"Feature","id":160380,"geometry":{"type":"Polygon","coordinates":[[[114.16217550483709,22.327574070869598],[114.16213984722363,22.327534030903848],[114.16211961973811,22.327511317418598],[114.16213985123348,22.327495733908254],[114.1621478412241,22.327489579565928],[114.16215710850183,22.327482441366246],[114.16224438554836,22.32758115453262],[114.1622700319584,22.327610161361907],[114.16225895212554,22.327618723167046],[114.16224544526413,22.327603050907069],[114.16221950998997,22.327623484333863],[114.16218180820073,22.327581148889514],[114.16217550483709,22.327574070869598]]]},"properties":{"OBJECTID":160380,"Shape__Length":46.666958433697857,"Shape__Area":83.560210780392467,"GeoRefNo":"3475420946","DateCreate":1114790400000,"BuildingBlockType":"Tower","BuildingCSUID":"3475420946T20050430","BuildingID":1108229295,"Status":"Active","BuildingNameEN":null,"BuildingNameTC":null,"BaseHeight":4,"TopHeight":31.100000000000001,"Storeys":9,"StoreysInBasement":null,"DateStamp":1599580800000}},{"type":"Feature","id":160381,"geometry":{"type":"Polygon","coordinates":[[[114.1599081249644,22.327576789654209],[114.15991457293812,22.327571791446886],[114.15994900842813,22.327545098189148],[114.16002542157503,22.327629148817291],[114.16000803097283,22.32764275285394],[114.15998803788104,22.327620518922473],[114.15997978229325,22.327626849768819],[114.15999141395834,22.327640349263863],[114.15997612872876,22.327652096827507],[114.15996803853234,22.327643129969822],[114.1599081249644,22.327576789654209]]]},"properties":{"OBJECTID":160381,"Shape__Length":39.17548762163392,"Shape__Area":60.823833400912577,"GeoRefNo":"3452520951","DateCreate":1114790400000,"BuildingBlockType":"Tower","BuildingCSUID":"3452520951T20050430","BuildingID":1108229275,"Status":"Active","BuildingNameEN":null,"BuildingNameTC":null,"BaseHeight":3.8999999999999999,"TopHeight":25.300000000000001,"Storeys":8,"StoreysInBasement":null,"DateStamp":1599580800000}},{"type":"Feature","id":160384,"geometry":{"type":"Polygon","coordinates":[[[114.16260441408249,22.327602513340381],[114.16258532455947,22.327581184853482],[114.16249190604621,22.327476809602],[114.16251020313727,22.327462583442117],[114.16253710315304,22.327492795742852],[114.16255299949695,22.32748076434051],[114.16263816335062,22.327576299155659],[114.16263186807136,22.32758118893711],[114.16261193005664,22.327596675455649],[114.16260441408249,22.327602513340381]]]},"properties":{"OBJECTID":160384,"Shape__Length":45.299319533124937,"Shape__Area":73.178632733982695,"GeoRefNo":"3479320943","DateCreate":1114790400000,"BuildingBlockType":"Tower","BuildingCSUID":"3479320943T20050430","BuildingID":1108229310,"Status":"Active","BuildingNameEN":null,"BuildingNameTC":null,"BaseHeight":4.4000000000000004,"TopHeight":25.800000000000001,"Storeys":6,"StoreysInBasement":null,"DateStamp":1599580800000}},{"type":"Feature","id":160386,"geometry":{"type":"Polygon","coordinates":[[[114.16401253430475,22.32756067344361],[114.16391955887654,22.327457755411682],[114.16392543426765,22.327453198052837],[114.16395444515828,22.327430695328541],[114.1640673746307,22.327555701466984],[114.16405122230351,22.327568239613434],[114.1640318432873,22.327546100959434],[114.16401253430475,22.32756067344361]]]},"properties":{"OBJECTID":160386,"Shape__Length":45.53948736207532,"Shape__Area":76.553093597776183,"GeoRefNo":"3494020941","DateCreate":1114790400000,"BuildingBlockType":"Tower","BuildingCSUID":"3494020941T20050430","BuildingID":1108229333,"Status":"Active","BuildingNameEN":null,"BuildingNameTC":null,"BaseHeight":4.7999999999999998,"TopHeight":34.100000000000001,"Storeys":9,"StoreysInBasement":null,"DateStamp":1599580800000}},{"type":"Feature","id":160387,"geometry":{"type":"Polygon","coordinates":[[[114.16001819672169,22.327567468811178],[114.15999691445664,22.327544099150813],[114.15998063771967,22.327555813469814],[114.15996084189076,22.327534308052549],[114.15997218501717,22.327525612688913],[114.16002914884683,22.327481945519636],[114.16006299259038,22.327519357500481],[114.16007012847143,22.327527245732114],[114.16001819672169,22.327567468811178]]]},"properties":{"OBJECTID":160387,"Shape__Length":31.283534508462871,"Shape__Area":52.57222549184204,"GeoRefNo":"3453020943","DateCreate":1114790400000,"BuildingBlockType":"Tower","BuildingCSUID":"3453020943T20050430","BuildingID":1108229334,"Status":"Active","BuildingNameEN":null,"BuildingNameTC":null,"BaseHeight":3.8999999999999999,"TopHeight":26.199999999999999,"Storeys":8,"StoreysInBasement":null,"DateStamp":1599580800000}},{"type":"Feature","id":160388,"geometry":{"type":"Polygon","coordinates":[[[114.16039165127536,22.327624226955486],[114.16050843510148,22.327534028179134],[114.1605195714946,22.327546613601079],[114.16052721583483,22.327541102371882],[114.16054499777871,22.327560627471588],[114.16042018108851,22.327656017595782],[114.16041528303066,22.327650559736743],[114.16039165127536,22.327624226955486]]]},"properties":{"OBJECTID":160388,"Shape__Length":42.49976919356056,"Shape__Area":75.163760171108294,"GeoRefNo":"3457820950","DateCreate":1114790400000,"BuildingBlockType":"Tower","BuildingCSUID":"3457820950T20050430","BuildingID":1108229271,"Status":"Active","BuildingNameEN":null,"BuildingNameTC":null,"BaseHeight":4,"TopHeight":23.600000000000001,"Storeys":6,"StoreysInBasement":null,"DateStamp":1599580800000}},{"type":"Feature","id":160389,"geometry":{"type":"Polygon","coordinates":[[[114.16227433815536,22.327032988498814],[114.16216699612656,22.326912427999261],[114.16216204009027,22.32690686172986],[114.16217920950444,22.326893884705232],[114.16215944962273,22.326872514745723],[114.16217695329435,22.326858894954402],[114.16218066409328,22.326856011010985],[114.16221064577441,22.326832709748984],[114.16223935937636,22.326864619292635],[114.16224939025832,22.326875766647426],[114.16226185214211,22.32688961553923],[114.16229600160992,22.326863286680613],[114.16229907024928,22.32686673384006],[114.16237644877042,22.326953659515013],[114.16234292073437,22.326979707233374],[114.16230861736582,22.32700635721536],[114.16227433815536,22.327032988498814]]]},"properties":{"OBJECTID":160389,"Shape__Length":69.896874318536405,"Shape__Area":246.20372185749258,"GeoRefNo":"3476320878","DateCreate":1114790400000,"BuildingBlockType":"Tower","BuildingCSUID":"3476320878T20050430","BuildingID":1108229671,"Status":"Active","BuildingNameEN":null,"BuildingNameTC":"永明大廈","BaseHeight":4.2000000000000002,"TopHeight":48,"Storeys":14,"StoreysInBasement":null,"DateStamp":1599580800000}},{"type":"Feature","id":160405,"geometry":{"type":"Polygon","coordinates":[[[114.1622700319584,22.327610161361907],[114.16224438554836,22.32758115453262],[114.16215710850183,22.327482441366246],[114.1621645539109,22.327476706534764],[114.16219180106069,22.327455719208448],[114.16225817275556,22.32753024810658],[114.16229142841129,22.32756759093694],[114.16227353019434,22.327581157152569],[114.16226615614232,22.327586746332056],[114.16227987206884,22.327602557680127],[114.1622700319584,22.327610161361907]]]},"properties":{"OBJECTID":160405,"Shape__Length":45.96699823140473,"Shape__Area":78.016766494876563,"GeoRefNo":"3475720943","DateCreate":1114790400000,"BuildingBlockType":"Tower","BuildingCSUID":"3475720943T20050430","BuildingID":1108229308,"Status":"Active","BuildingNameEN":null,"BuildingNameTC":null,"BaseHeight":4.0999999999999996,"TopHeight":31.100000000000001,"Storeys":9,"StoreysInBasement":null,"DateStamp":1599580800000}},{"type":"Feature","id":160622,"geometry":{"type":"Polygon","coordinates":[[[114.16354041385208,22.326875337245749],[114.16350547870461,22.326902433269677],[114.16348056051586,22.326874731793527],[114.16341044356288,22.326796782564649],[114.16343575050355,22.326778362984751],[114.16341740200353,22.326758595320772],[114.16342817591924,22.326750290149771],[114.16354041385208,22.326875337245749]]]},"properties":{"OBJECTID":160622,"Shape__Length":45.625556496479525,"Shape__Area":75.391970126252303,"GeoRefNo":"3488620865","DateCreate":1114790400000,"BuildingBlockType":"Tower","BuildingCSUID":"3488620865T20050430","BuildingID":1108229750,"Status":"Active","BuildingNameEN":null,"BuildingNameTC":null,"BaseHeight":4.5999999999999996,"TopHeight":24.300000000000001,"Storeys":6,"StoreysInBasement":null,"DateStamp":1599580800000}},{"type":"Feature","id":160623,"geometry":{"type":"Polygon","coordinates":[[[114.16333513269443,22.327033300089827],[114.16325985068602,22.326949732168867],[114.16327233396052,22.326940196282642],[114.16324783780335,22.326912968821631],[114.16325498696276,22.326906540275491],[114.1632427732561,22.326892848793619],[114.16325263481843,22.3268851776857],[114.16328489147922,22.326920696685374],[114.16328969904652,22.326917260046049],[114.16337009882795,22.327006653828803],[114.16333513269443,22.327033300089827]]]},"properties":{"OBJECTID":160623,"Shape__Length":45.326665561882578,"Shape__Area":68.9300977601402,"GeoRefNo":"3486920880","DateCreate":1114790400000,"BuildingBlockType":"Tower","BuildingCSUID":"3486920880T20050430","BuildingID":1108229670,"Status":"Active","BuildingNameEN":null,"BuildingNameTC":null,"BaseHeight":4.5999999999999996,"TopHeight":33.5,"Storeys":9,"StoreysInBasement":null,"DateStamp":1599580800000}},{"type":"Feature","id":160624,"geometry":{"type":"Polygon","coordinates":[[[114.1630157664988,22.326814802905325],[114.16311091171997,22.326921428070303],[114.16310532123349,22.326925747197183],[114.16308442332779,22.326941892475133],[114.16310390914943,22.326963286681156],[114.16309350154404,22.326971358601398],[114.16298387114973,22.326848701455216],[114.16297900165345,22.326843253338222],[114.16298387205933,22.326839484387747],[114.1630157664988,22.326814802905325]]]},"properties":{"OBJECTID":160624,"Shape__Length":46.770264477014308,"Shape__Area":79.789957303244861,"GeoRefNo":"3484420873","DateCreate":1114790400000,"BuildingBlockType":"Tower","BuildingCSUID":"3484420873T20050430","BuildingID":1108229707,"Status":"Active","BuildingNameEN":null,"BuildingNameTC":null,"BaseHeight":4.4000000000000004,"TopHeight":44.399999999999999,"Storeys":12,"StoreysInBasement":null,"DateStamp":1599580800000}},{"type":"Feature","id":160632,"geometry":{"type":"Polygon","coordinates":[[[114.16036294037491,22.327592234458077],[114.16050648702235,22.327482950180698],[114.16051979450849,22.327497713727531],[114.16050887531487,22.327506301617955],[114.16052361182935,22.327522473086248],[114.16050843510148,22.327534028179134],[114.16039165127536,22.327624226955486],[114.16036294037491,22.327592234458077]]]},"properties":{"OBJECTID":160632,"Shape__Length":47.335977695169639,"Shape__Area":83.500366989908542,"GeoRefNo":"3457520946","DateCreate":1114790400000,"BuildingBlockType":"Tower","BuildingCSUID":"3457520946T20050430","BuildingID":1108229294,"Status":"Active","BuildingNameEN":null,"BuildingNameTC":null,"BaseHeight":3.8999999999999999,"TopHeight":32.5,"Storeys":9,"StoreysInBasement":null,"DateStamp":1599580800000}},{"type":"Feature","id":160634,"geometry":{"type":"Polygon","coordinates":[[[114.16393469742765,22.327604963102822],[114.16391340249552,22.327581296126709],[114.16385046558447,22.327511348584594],[114.16388695300209,22.327483046667982],[114.16397526262789,22.327581301044457],[114.16399956395882,22.327608339006641],[114.16398440602788,22.327620105200346],[114.16396526213856,22.327598684759614],[114.16394367340725,22.327614938910713],[114.16393469742765,22.327604963102822]]]},"properties":{"OBJECTID":160634,"Shape__Length":45.919352130104244,"Shape__Area":79.558772159744677,"GeoRefNo":"3493320947","DateCreate":1114790400000,"BuildingBlockType":"Tower","BuildingCSUID":"3493320947T20050430","BuildingID":1108229303,"Status":"Active","BuildingNameEN":null,"BuildingNameTC":null,"BaseHeight":4.7999999999999998,"TopHeight":36.5,"Storeys":10,"StoreysInBasement":null,"DateStamp":1599580800000}},{"type":"Feature","id":160635,"geometry":{"type":"Polygon","coordinates":[[[114.16006463493703,22.3276184433266],[114.16001819672169,22.327567468811178],[114.16007012847143,22.327527245732114],[114.16007701948979,22.327534863291486],[114.16011577227425,22.327577701795402],[114.16006463493703,22.3276184433266]]]},"properties":{"OBJECTID":160635,"Shape__Length":28.599740170627712,"Shape__Area":51.0798077885837,"GeoRefNo":"3453520949","DateCreate":1114790400000,"BuildingBlockType":"Tower","BuildingCSUID":"3453520949T20050430","BuildingID":1108229304,"Status":"Active","BuildingNameEN":null,"BuildingNameTC":null,"BaseHeight":4,"TopHeight":26.199999999999999,"Storeys":8,"StoreysInBasement":null,"DateStamp":1599580800000}},{"type":"Feature","id":160636,"geometry":{"type":"Polygon","coordinates":[[[114.16350646188813,22.327563619500985],[114.16339702377283,22.327442574527758],[114.1634136983896,22.327429674092155],[114.16344227378696,22.327460473821134],[114.16345777278507,22.327448196213702],[114.1635391248342,22.327538254817249],[114.16351276946428,22.327558721288099],[114.16350646188813,22.327563619500985]]]},"properties":{"OBJECTID":160636,"Shape__Length":43.762049238950979,"Shape__Area":67.265570256132719,"GeoRefNo":"3488720939","DateCreate":1114790400000,"BuildingBlockType":"Tower","BuildingCSUID":"3488720939T20050430","BuildingID":1108229339,"Status":"Active","BuildingNameEN":null,"BuildingNameTC":null,"BaseHeight":4.7999999999999998,"TopHeight":28.5,"Storeys":6,"StoreysInBasement":null,"DateStamp":1599580800000}},{"type":"Feature","id":160637,"geometry":{"type":"Polygon","coordinates":[[[114.16399956395882,22.327608339006641],[114.16397526262789,22.327581301044457],[114.16388695300209,22.327483046667982],[114.16391955887654,22.327457755411682],[114.16401253430475,22.32756067344361],[114.16399411158592,22.327574577190514],[114.16399995440146,22.327581303000805],[114.16401382455145,22.327597269269603],[114.16399956395882,22.327608339006641]]]},"properties":{"OBJECTID":160637,"Shape__Length":44.934701631576573,"Shape__Area":71.55256533752106,"GeoRefNo":"3493720943","DateCreate":1114790400000,"BuildingBlockType":"Tower","BuildingCSUID":"3493720943T20050430","BuildingID":1108229309,"Status":"Active","BuildingNameEN":null,"BuildingNameTC":null,"BaseHeight":4.7999999999999998,"TopHeight":36.600000000000001,"Storeys":10,"StoreysInBasement":null,"DateStamp":1599580800000}}]}