{"type":"FeatureCollection","features":[{"type":"Feature","id":2187,"geometry":{"type":"Polygon","coordinates":[[[114.16071046143293,22.327488163541478],[114.16070174817399,22.327494918365204],[114.16067627218392,22.327514668246575],[114.16061092169871,22.327441716988318],[114.16056226656687,22.327387402895287],[114.16059678782388,22.327361265701594],[114.16071046143293,22.327488163541478]]]},"properties":{"OBJECTID":2187,"Shape__Length":45.807939367049393,"Shape__Area":83.991038413591014,"GeoRefNo":"3459520933","DateCreate":1114790400000,"BuildingBlockType":"Tower","BuildingCSUID":"3459520933T20050430","BuildingID":1108229372,"Status":"Active","BuildingNameEN":null,"BuildingNameTC":null,"BaseHeight":4.0999999999999996,"TopHeight":27.399999999999999,"Storeys":null,"StoreysInBasement":null,"DateStamp":1567353600000}},{"type":"Feature","id":3588,"geometry":{"type":"Polygon","coordinates":[[[114.16088479310845,22.327353161705105],[114.16074465057196,22.327461658829094],[114.16063096164093,22.32733539550015],[114.16061191047274,22.327314336527717],[114.16075195552368,22.327205730597971],[114.16088479310845,22.327353161705105]]]},"properties":{"OBJECTID":3588,"Shape__Length":80.156451145467315,"Shape__Area":399.92165707366246,"GeoRefNo":"3460920925","DateCreate":1222185600000,"BuildingBlockType":"Podium","BuildingCSUID":"3460920925P20080924","BuildingID":1108245846,"Status":"Active","BuildingNameEN":"HEY HOME","BuildingNameTC":"喜居","BaseHeight":4,"TopHeight":14.4,"Storeys":3,"StoreysInBasement":null,"DateStamp":1599580800000}},{"type":"Feature","id":10013,"geometry":{"type":"Polygon","coordinates":[[[114.16300791954689,22.32765858872116],[114.16299203595254,22.327671450079695],[114.16301671122061,22.327700247198152],[114.16299858529773,22.32771425516016],[114.16298378738196,22.327697521848233],[114.16289075965237,22.327592328058167],[114.16292552572881,22.327566035244594],[114.16300791954689,22.32765858872116]]]},"properties":{"OBJECTID":10013,"Shape__Length":44.082637180626165,"Shape__Area":72.031435577235584,"GeoRefNo":"3483320954","DateCreate":1114790400000,"BuildingBlockType":"Tower","BuildingCSUID":"3483320954T20050430","BuildingID":1108229226,"Status":"Active","BuildingNameEN":null,"BuildingNameTC":null,"BaseHeight":4.5999999999999996,"TopHeight":25,"Storeys":6,"StoreysInBasement":null,"DateStamp":1599580800000}},{"type":"Feature","id":10066,"geometry":{"type":"Polygon","coordinates":[[[114.15963973452419,22.329069421166498],[114.15928184902383,22.329347512404993],[114.15907568321991,22.32911902929273],[114.1590581256886,22.329099600235899],[114.15899842041013,22.329033402572769],[114.1592031687069,22.328873967260577],[114.15925010790195,22.328927409301436],[114.15928143886013,22.328963080792292],[114.15930191868331,22.328986397807526],[114.15935113034283,22.329042427055391],[114.15951924501003,22.328910170800278],[114.15955137385254,22.328884898257286],[114.15956047401482,22.328877739328966],[114.15949114588909,22.328800142868705],[114.1595927246299,22.328721573808195],[114.15979544378465,22.328948351660205],[114.15977414659363,22.32896490022241],[114.1597186229001,22.329008056314748],[114.15968672620627,22.329032828349838],[114.15963973452419,22.329069421166498]]]},"properties":{"OBJECTID":10066,"Shape__Length":251.64475861149847,"Shape__Area":2288.2054379249771,"GeoRefNo":"3446721122","DateCreate":1411401600000,"BuildingBlockType":"Podium","BuildingCSUID":"3446721122P20140923","BuildingID":1810133415,"Status":"Active","BuildingNameEN":null,"BuildingNameTC":null,"BaseHeight":4,"TopHeight":29.300000000000001,"Storeys":4,"StoreysInBasement":null,"DateStamp":1599580800000}},{"type":"Feature","id":14171,"geometry":{"type":"Polygon","coordinates":[[[114.16181648003469,22.333733226509445],[114.16179193494439,22.333705822478937],[114.16182141440815,22.333683013338955],[114.16184595950023,22.333710417274784],[114.16181648003469,22.333733226509445]]]},"properties":{"OBJECTID":14171,"Shape__Length":15.800013938265939,"Shape__Area":15.602520712851478,"GeoRefNo":"3471721628","DateCreate":1121875200000,"BuildingBlockType":"Tower","BuildingCSUID":"3471721628T20050721","BuildingID":1108225127,"Status":"Active","BuildingNameEN":"PRECIOUS BLOOD HOSPITAL","BuildingNameTC":"寶血醫院","BaseHeight":6.0999999999999996,"TopHeight":9.1999999999999993,"Storeys":null,"StoreysInBasement":null,"DateStamp":1274198400000}},{"type":"Feature","id":20658,"geometry":{"type":"Polygon","coordinates":[[[114.1593642402531,22.333564577364768],[114.15938681816557,22.333547117005967],[114.15942829728233,22.333593498181244],[114.15940568209031,22.333610979041133],[114.1593642402531,22.333564577364768]]]},"properties":{"OBJECTID":20658,"Shape__Length":19.415333761165776,"Shape__Area":20.221753383182705,"GeoRefNo":"3446721614","DateCreate":1197302400000,"BuildingBlockType":"Open-sided Structure","BuildingCSUID":"3446721614T20071211","BuildingID":1108225187,"Status":"Active","BuildingNameEN":"KOWLOON TECHNICAL SCHOOL","BuildingNameTC":"九龍工業學校","BaseHeight":null,"TopHeight":null,"Storeys":null,"StoreysInBasement":null,"DateStamp":1274198400000}},{"type":"Feature","id":21128,"geometry":{"type":"Polygon","coordinates":[[[114.16026010921406,22.326704020377864],[114.16026574335298,22.326710460213071],[114.16021462922748,22.326750029718742],[114.160209463385,22.326750497876549],[114.16020699478854,22.32675251866856],[114.16020630245545,22.326753085357122],[114.16021290669194,22.326760068573648],[114.16019265662895,22.326775800215458],[114.16019252259915,22.326775659866396],[114.16017208135587,22.326754248053845],[114.16016865614355,22.326756621481646],[114.16016300538614,22.326749558440646],[114.16014603788774,22.326762572478696],[114.16014512568921,22.326760803292995],[114.16012648835368,22.326776503756385],[114.16011017888111,22.326757497206788],[114.16012560198946,22.326745258740697],[114.16009857411831,22.326714269303469],[114.16024419128318,22.326602145159903],[114.1602727945474,22.326632943285802],[114.16028097109681,22.326626238910606],[114.16029708047476,22.326644040833035],[114.16027188631264,22.326663379880369],[114.16027431069813,22.326665845478001],[114.16025818530409,22.326679279445852],[114.16027181510273,22.32669515561561],[114.16026010921406,22.326704020377864]]]},"properties":{"OBJECTID":21128,"Shape__Length":68.817829496342682,"Shape__Area":192.36189049995022,"GeoRefNo":"3455020853","DateCreate":1513612800000,"BuildingBlockType":"Tower","BuildingCSUID":"3455020853T20171219","BuildingID":1810169891,"Status":"Active","BuildingNameEN":"Harbour Park","BuildingNameTC":"海柏匯","BaseHeight":14.6,"TopHeight":95.5,"Storeys":23,"StoreysInBasement":null,"DateStamp":1599580800000}},{"type":"Feature","id":27611,"geometry":{"type":"Polygon","coordinates":[[[114.15779557646805,22.332152353530567],[114.15780015409143,22.332176903338283],[114.15780727733176,22.332215104972121],[114.15781071484442,22.332233539949659],[114.15779882319985,22.332235459087038],[114.15777312654934,22.332239606160663],[114.15772846422348,22.332246814078257],[114.15771332589331,22.332165627651626],[114.15776068957294,22.33215798378869],[114.15779557646805,22.332152353530567]]]},"properties":{"OBJECTID":27611,"Shape__Length":35.448880055552749,"Shape__Area":78.470149793568496,"GeoRefNo":"3429921461","DateCreate":1366214400000,"BuildingBlockType":"Tower","BuildingCSUID":"3429921461T20130418","BuildingID":1810098152,"Status":"Active","BuildingNameEN":null,"BuildingNameTC":null,"BaseHeight":5.0999999999999996,"TopHeight":10.6,"Storeys":null,"StoreysInBasement":null,"DateStamp":1527004800000}},{"type":"Feature","id":28495,"geometry":{"type":"Polygon","coordinates":[[[114.15796216382637,22.330038297910903],[114.15792892596527,22.330064011962325],[114.15792368001142,22.330068070326231],[114.15789428332793,22.330035860948456],[114.15784923252023,22.330070685008867],[114.15781429353369,22.330031924634618],[114.15785359794569,22.330001588381361],[114.15780767281834,22.329950789313692],[114.15784792564055,22.329919807937681],[114.15787187862617,22.329947355101048],[114.15790132965626,22.329924796355755],[114.1578774722072,22.329897066880353],[114.15791587742918,22.329867507317005],[114.15792895050487,22.329881877672669],[114.15796184715821,22.32991803887386],[114.15799818395976,22.329889992485569],[114.15803070204683,22.329925615225456],[114.15803326889717,22.329928426833781],[114.15798846221027,22.32996306168069],[114.15801746166895,22.329995517078935],[114.15797912436682,22.330025176281126],[114.15794753886165,22.329989761433673],[114.15793043649819,22.330002953301591],[114.15796216382637,22.330038297910903]]]},"properties":{"OBJECTID":28495,"Shape__Length":102.46086682258344,"Shape__Area":275.80563498247506,"GeoRefNo":"3431521214","DateCreate":1114790400000,"BuildingBlockType":"Tower","BuildingCSUID":"3431521214T20050430","BuildingID":1108227275,"Status":"Active","BuildingNameEN":"Grammy Centre Block B","BuildingNameTC":"嘉美中心Ｂ座","BaseHeight":7.2999999999999998,"TopHeight":45.899999999999999,"Storeys":14,"StoreysInBasement":null,"DateStamp":1599580800000}},{"type":"Feature","id":29740,"geometry":{"type":"Polygon","coordinates":[[[114.15755526089725,22.330082252084612],[114.15751243922659,22.330104438197139],[114.15748730526352,22.330076936354434],[114.15753014756329,22.330040237111934],[114.15755526089725,22.330082252084612]]]},"properties":{"OBJECTID":29740,"Shape__Length":20.370054261741174,"Shape__Area":25.422654492893727,"GeoRefNo":"3427521225","DateCreate":1273507200000,"BuildingBlockType":"Open-sided Structure","BuildingCSUID":"3427521225T20100511","BuildingID":1109609227,"Status":"Active","BuildingNameEN":null,"BuildingNameTC":null,"BaseHeight":4.7000000000000002,"TopHeight":7.7000000000000002,"Storeys":null,"StoreysInBasement":null,"DateStamp":1554912000000}},{"type":"Feature","id":39909,"geometry":{"type":"Polygon","coordinates":[[[114.16463978486993,22.328032881630481],[114.16464717065632,22.328041127380519],[114.16455530533963,22.328114842620614],[114.16454715228551,22.328106194766686],[114.16455974718083,22.328095780476502],[114.16453723444002,22.328070318030655],[114.16458301369069,22.328032877350836],[114.16461577774146,22.328005851734666],[114.16463978486993,22.328032881630481]]]},"properties":{"OBJECTID":39909,"Shape__Length":35.020859851283781,"Shape__Area":56.221036529774302,"GeoRefNo":"3500021003","DateCreate":1114790400000,"BuildingBlockType":"Tower","BuildingCSUID":"3500021003T20050430","BuildingID":1108228918,"Status":"Active","BuildingNameEN":null,"BuildingNameTC":null,"BaseHeight":5.0999999999999996,"TopHeight":25.600000000000001,"Storeys":6,"StoreysInBasement":null,"DateStamp":1599580800000}},{"type":"Feature","id":46478,"geometry":{"type":"Polygon","coordinates":[[[114.15798443311618,22.331523288044153],[114.15809633799854,22.331648620731965],[114.15808830088991,22.331654876911319],[114.15810848840263,22.331677025478811],[114.1580019171459,22.331759528886966],[114.15798223681161,22.331737439696315],[114.15797352363892,22.331744222364406],[114.15774903070918,22.33149338065666],[114.15772220274793,22.331514064208026],[114.15767498137264,22.33146142398493],[114.15763117146977,22.33149543618547],[114.15740494924601,22.331242992576971],[114.15741208430471,22.33123747403128],[114.15739453198194,22.331217335628359],[114.15750750025734,22.331129088843646],[114.15752580802396,22.331149518741373],[114.15753539439316,22.331142104060149],[114.15775988693028,22.331393175089513],[114.15780566533215,22.331357554557748],[114.15785338193163,22.331410422913919],[114.15787134845984,22.331396633694396],[114.15792873774734,22.331460909505196],[114.15798443311618,22.331523288044153]]]},"properties":{"OBJECTID":46478,"Shape__Length":224.41000452789092,"Shape__Area":1458.0635459404075,"GeoRefNo":"3430521381","DateCreate":1114790400000,"BuildingBlockType":"Tower","BuildingCSUID":"3430521381T20050430","BuildingID":1108226075,"Status":"Active","BuildingNameEN":"Lai Kuk House","BuildingNameTC":"麗菊樓","BaseHeight":4.5999999999999996,"TopHeight":39.799999999999997,"Storeys":13,"StoreysInBasement":null,"DateStamp":1786636800000}},{"type":"Feature","id":46544,"geometry":{"type":"Polygon","coordinates":[[[114.16351328614684,22.331673429306264],[114.16366988594406,22.33155342053378],[114.1637027607311,22.33159015797693],[114.16357133216084,22.331691691461263],[114.16355137345948,22.331669403979731],[114.16352652593265,22.331687992475793],[114.16351328614684,22.331673429306264]]]},"properties":{"OBJECTID":46544,"Shape__Length":52.403463517291783,"Shape__Area":100.79422211049909,"GeoRefNo":"3490121397","DateCreate":1114790400000,"BuildingBlockType":"Tower","BuildingCSUID":"3490121397T20050430","BuildingID":1108226116,"Status":"Active","BuildingNameEN":null,"BuildingNameTC":"慶豐大樓","BaseHeight":5.7999999999999998,"TopHeight":37.700000000000003,"Storeys":10,"StoreysInBasement":null,"DateStamp":1599580800000}},{"type":"Feature","id":46603,"geometry":{"type":"Polygon","coordinates":[[[114.15893783010121,22.331691272880121],[114.15884396023296,22.331587410813956],[114.15896007468321,22.331494313496229],[114.15896413670002,22.331456127953082],[114.1588851291615,22.331362726764237],[114.15899968809086,22.331274885312183],[114.15907949236458,22.331364653079284],[114.15912267954556,22.331368538153907],[114.15923848969089,22.331280238006535],[114.15933300414441,22.331384364513777],[114.1592165113166,22.331474022762372],[114.15921487552244,22.331516565017953],[114.15929532469406,22.331605609667786],[114.15918076530212,22.331696449748762],[114.15909906545239,22.331602607500642],[114.15905489218171,22.33160025678788],[114.15896687888515,22.331668687351836],[114.15893783010121,22.331691272880121]]]},"properties":{"OBJECTID":46603,"Shape__Length":193.73462053743319,"Shape__Area":1326.3064868296051,"GeoRefNo":"3443621382","DateCreate":1114790400000,"BuildingBlockType":"Tower","BuildingCSUID":"3443621382T20050430","BuildingID":1108226112,"Status":"Active","BuildingNameEN":"Lai Ching House","BuildingNameTC":"麗正樓","BaseHeight":5.2000000000000002,"TopHeight":47.399999999999999,"Storeys":15,"StoreysInBasement":null,"DateStamp":1786636800000}},{"type":"Feature","id":46604,"geometry":{"type":"Polygon","coordinates":[[[114.16152150672073,22.331644555480963],[114.16145663753812,22.331571839891527],[114.16149484414254,22.331542396051979],[114.16160815097722,22.331668192607818],[114.16162488206056,22.331686767824959],[114.16162929366713,22.331691665251732],[114.16160803462114,22.331708180278401],[114.16153925062859,22.331630803310933],[114.16152150672073,22.331644555480963]]]},"properties":{"OBJECTID":46604,"Shape__Length":53.492008486671324,"Shape__Area":85.024798083146493,"GeoRefNo":"3468621394","DateCreate":1114790400000,"BuildingBlockType":"Tower","BuildingCSUID":"3468621394T20050430","BuildingID":1108226106,"Status":"Active","BuildingNameEN":null,"BuildingNameTC":null,"BaseHeight":4.7999999999999998,"TopHeight":17.899999999999999,"Storeys":null,"StoreysInBasement":null,"DateStamp":1361808000000}},{"type":"Feature","id":46682,"geometry":{"type":"Polygon","coordinates":[[[114.16347556743264,22.331737264550576],[114.1633606247898,22.331610791058207],[114.16339809393401,22.33158169465694],[114.16346186685452,22.331652530205819],[114.16344434699883,22.331665996064586],[114.16350263679912,22.331731642262465],[114.16349622456204,22.331736829442306],[114.16350393353373,22.33174594310611],[114.16349190279065,22.331755235486821],[114.1634879388415,22.331750877363586],[114.16347556743264,22.331737264550576]]]},"properties":{"OBJECTID":46682,"Shape__Length":51.746821260976738,"Shape__Area":77.66681108829502,"GeoRefNo":"3488121399","DateCreate":1114790400000,"BuildingBlockType":"Tower","BuildingCSUID":"3488121399T20050430","BuildingID":1108226080,"Status":"Active","BuildingNameEN":null,"BuildingNameTC":null,"BaseHeight":5.7999999999999998,"TopHeight":21.600000000000001,"Storeys":null,"StoreysInBasement":null,"DateStamp":1361808000000}},{"type":"Feature","id":46743,"geometry":{"type":"Polygon","coordinates":[[[114.16350611071132,22.331618865948247],[114.16363643891773,22.331516078891379],[114.16366988594406,22.33155342053378],[114.16351328614684,22.331673429306264],[114.16350172905871,22.331660717001228],[114.16352671279553,22.331641865820487],[114.16350611071132,22.331618865948247]]]},"properties":{"OBJECTID":46743,"Shape__Length":52.358782048445789,"Shape__Area":98.602934889081283,"GeoRefNo":"3489821393","DateCreate":1114790400000,"BuildingBlockType":"Tower","BuildingCSUID":"3489821393T20050430","BuildingID":1108226127,"Status":"Active","BuildingNameEN":null,"BuildingNameTC":"慶豐大樓","BaseHeight":5.7999999999999998,"TopHeight":37.700000000000003,"Storeys":10,"StoreysInBasement":null,"DateStamp":1599580800000}},{"type":"Feature","id":46933,"geometry":{"type":"Polygon","coordinates":[[[114.16302211184558,22.331489135367455],[114.16307459023055,22.33154753255878],[114.16310525963088,22.331581660910793],[114.16303472397263,22.33163641663403],[114.16295096922013,22.331544038021015],[114.162967882586,22.331530982513094],[114.16291895785668,22.331477063676623],[114.16295880354072,22.331446330968269],[114.16300812977822,22.331499944503225],[114.16302211184558,22.331489135367455]]]},"properties":{"OBJECTID":46933,"Shape__Length":61.29891267835621,"Shape__Area":168.77806955743617,"GeoRefNo":"3484021389","DateCreate":1114790400000,"BuildingBlockType":"Tower","BuildingCSUID":"3484021389T20050430","BuildingID":1108226150,"Status":"Active","BuildingNameEN":null,"BuildingNameTC":null,"BaseHeight":5.5,"TopHeight":36,"Storeys":10,"StoreysInBasement":null,"DateStamp":1599580800000}},{"type":"Feature","id":46934,"geometry":{"type":"Polygon","coordinates":[[[114.16402742358804,22.331620011957899],[114.16393704378794,22.331520159983018],[114.16391849237448,22.331499667034588],[114.16389560004039,22.331474378860374],[114.16390209086377,22.33146932234331],[114.16391111575759,22.331478881300665],[114.16391849481575,22.33147314494131],[114.16393491601859,22.331460379445694],[114.16392603538134,22.33145066905827],[114.16393373323272,22.331444672281645],[114.16394282413232,22.33145424262106],[114.16396693298645,22.331435497772929],[114.16395773957862,22.331425970863812],[114.16399105511117,22.331400017359361],[114.16412132399468,22.33154728389076],[114.16411911204595,22.331548997089385],[114.16408078589508,22.331578681571234],[114.16402742358804,22.331620011957899]]]},"properties":{"OBJECTID":46934,"Shape__Length":73.258001427371752,"Shape__Area":259.02699669455694,"GeoRefNo":"3494321384","DateCreate":1114790400000,"BuildingBlockType":"Tower","BuildingCSUID":"3494321384T20050430","BuildingID":1108226158,"Status":"Active","BuildingNameEN":null,"BuildingNameTC":null,"BaseHeight":5.9000000000000004,"TopHeight":34.399999999999999,"Storeys":6,"StoreysInBasement":null,"DateStamp":1599580800000}},{"type":"Feature","id":47064,"geometry":{"type":"Polygon","coordinates":[[[114.16251555270226,22.331507390624392],[114.16258085411062,22.331579668568168],[114.16256607578963,22.331591047064062],[114.16262074005019,22.331653717142199],[114.16263104011692,22.331665521916857],[114.16257588110322,22.331707804303484],[114.16244480290152,22.331562260399547],[114.16251555270226,22.331507390624392]]]},"properties":{"OBJECTID":47064,"Shape__Length":60.930861827490901,"Shape__Area":178.15727736005712,"GeoRefNo":"3478921392","DateCreate":1114790400000,"BuildingBlockType":"Tower","BuildingCSUID":"3478921392T20050430","BuildingID":1108226107,"Status":"Active","BuildingNameEN":null,"BuildingNameTC":"貴華樓","BaseHeight":5.2000000000000002,"TopHeight":37.100000000000001,"Storeys":9,"StoreysInBasement":null,"DateStamp":1599580800000}},{"type":"Feature","id":47065,"geometry":{"type":"Polygon","coordinates":[[[114.16258085411062,22.331579668568168],[114.16251555270226,22.331507390624392],[114.1625508388547,22.331480024485138],[114.16266167946561,22.331603306877945],[114.16267148719602,22.331614214238282],[114.16263660058706,22.331641370838554],[114.16258085411062,22.331579668568168]]]},"properties":{"OBJECTID":47065,"Shape__Length":48.172307897604369,"Shape__Area":91.251854755012232,"GeoRefNo":"3479521388","DateCreate":1114790400000,"BuildingBlockType":"Tower","BuildingCSUID":"3479521388T20050430","BuildingID":1108226148,"Status":"Active","BuildingNameEN":null,"BuildingNameTC":null,"BaseHeight":5.2999999999999998,"TopHeight":27.399999999999999,"Storeys":6,"StoreysInBasement":null,"DateStamp":1599580800000}},{"type":"Feature","id":47066,"geometry":{"type":"Polygon","coordinates":[[[114.16393704378794,22.331520159983018],[114.16402742358804,22.331620011957899],[114.16398971460094,22.331649223986719],[114.16391848577646,22.331571347449589],[114.16385717405358,22.331504313428717],[114.16388440243706,22.331483101958899],[114.16391849047953,22.331520253417356],[114.16392619953227,22.331528655180666],[114.16393704378794,22.331520159983018]]]},"properties":{"OBJECTID":47066,"Shape__Length":52.331639731442579,"Shape__Area":97.855849677413104,"GeoRefNo":"3493521390","DateCreate":1114790400000,"BuildingBlockType":"Tower","BuildingCSUID":"3493521390T20050430","BuildingID":1108226144,"Status":"Active","BuildingNameEN":"Wang Kee Building","BuildingNameTC":"宏基樓","BaseHeight":5.9000000000000004,"TopHeight":25.600000000000001,"Storeys":6,"StoreysInBasement":null,"DateStamp":1599580800000}},{"type":"Feature","id":47067,"geometry":{"type":"Polygon","coordinates":[[[114.16278681197181,22.331482666320923],[114.16268918628869,22.331372729474257],[114.16271278040286,22.331354431058983],[114.16272183667589,22.331347407500527],[114.16280435422877,22.331438751764257],[114.16285236061729,22.331491893203971],[114.16283276532319,22.331507182633963],[114.16280435055178,22.331475525463066],[114.16280100654218,22.33147179978813],[114.16278681197181,22.331482666320923]]]},"properties":{"OBJECTID":47067,"Shape__Length":50.702874049022952,"Shape__Area":83.641603530889654,"GeoRefNo":"3481421374","DateCreate":1114790400000,"BuildingBlockType":"Tower","BuildingCSUID":"3481421374T20050430","BuildingID":1108226240,"Status":"Active","BuildingNameEN":null,"BuildingNameTC":null,"BaseHeight":5.4000000000000004,"TopHeight":26.600000000000001,"Storeys":6,"StoreysInBasement":null,"DateStamp":1599580800000}},{"type":"Feature","id":47070,"geometry":{"type":"Polygon","coordinates":[[[114.16272183667589,22.331347407500527],[114.16273226802267,22.331339317459257],[114.16275680676715,22.331320286378325],[114.1628043608108,22.331372924248505],[114.16285582134942,22.331429886283438],[114.16284187364971,22.331440570514975],[114.16287305907278,22.331475755172605],[114.16285236061729,22.331491893203971],[114.16280435422877,22.331438751764257],[114.16272183667589,22.331347407500527]]]},"properties":{"OBJECTID":47070,"Shape__Length":51.137331790645277,"Shape__Area":88.498393602174929,"GeoRefNo":"3481721372","DateCreate":1114790400000,"BuildingBlockType":"Tower","BuildingCSUID":"3481721372T20050430","BuildingID":1108226254,"Status":"Active","BuildingNameEN":null,"BuildingNameTC":null,"BaseHeight":5.4000000000000004,"TopHeight":29.800000000000001,"Storeys":6,"StoreysInBasement":null,"DateStamp":1599580800000}},{"type":"Feature","id":47125,"geometry":{"type":"Polygon","coordinates":[[[114.16412132399468,22.33154728389076],[114.16399105511117,22.331400017359361],[114.16404936837853,22.331354590109115],[114.164080803041,22.331390037254128],[114.1641799687682,22.331501860593825],[114.16412132399468,22.33154728389076]]]},"properties":{"OBJECTID":47125,"Shape__Length":57.958317578528607,"Shape__Area":165.83920230022088,"GeoRefNo":"3495021378","DateCreate":1114790400000,"BuildingBlockType":"Tower","BuildingCSUID":"3495021378T20050430","BuildingID":1108226216,"Status":"Active","BuildingNameEN":null,"BuildingNameTC":null,"BaseHeight":5.9000000000000004,"TopHeight":34.600000000000001,"Storeys":9,"StoreysInBasement":null,"DateStamp":1599580800000}},{"type":"Feature","id":47126,"geometry":{"type":"Polygon","coordinates":[[[114.1641799687682,22.331501860593825],[114.164080803041,22.331390037254128],[114.16404936837853,22.331354590109115],[114.16406878334571,22.331339465415905],[114.16408080643188,22.331352729666783],[114.16409577601448,22.331369244525309],[114.1641153928736,22.331354190642166],[114.16421973061307,22.331471066883385],[114.1641799687682,22.331501860593825]]]},"properties":{"OBJECTID":47126,"Shape__Length":52.837537697547361,"Shape__Area":100.59618988135253,"GeoRefNo":"3495521374","DateCreate":1114790400000,"BuildingBlockType":"Tower","BuildingCSUID":"3495521374T20050430","BuildingID":1108226245,"Status":"Active","BuildingNameEN":null,"BuildingNameTC":"樂成樓","BaseHeight":5.9000000000000004,"TopHeight":28,"Storeys":6,"StoreysInBasement":null,"DateStamp":1599580800000}},{"type":"Feature","id":47602,"geometry":{"type":"Polygon","coordinates":[[[114.16050059604088,22.327316090289539],[114.16039611728137,22.327198040677697],[114.16040275684591,22.327192878926201],[114.16043047998582,22.327171326267685],[114.16056194946218,22.327317020107042],[114.16054040330181,22.327333948665196],[114.16051478659475,22.327305104295615],[114.16050059604088,22.327316090289539]]]},"properties":{"OBJECTID":47602,"Shape__Length":51.562621745554026,"Shape__Area":91.449369071186936,"GeoRefNo":"3457720912","DateCreate":1114790400000,"BuildingBlockType":"Tower","BuildingCSUID":"3457720912T20050430","BuildingID":1108229479,"Status":"Active","BuildingNameEN":null,"BuildingNameTC":null,"BaseHeight":4,"TopHeight":32.899999999999999,"Storeys":9,"StoreysInBasement":null,"DateStamp":1599580800000}},{"type":"Feature","id":47603,"geometry":{"type":"Polygon","coordinates":[[[114.16454925846642,22.327125353543455],[114.16446707223801,22.327032885295761],[114.16449969653789,22.327007615776694],[114.16461183131348,22.327131242240579],[114.16460296741604,22.327138104185156],[114.16458893540299,22.327122526810658],[114.16456387861287,22.32714180729392],[114.16454925846642,22.327125353543455]]]},"properties":{"OBJECTID":47603,"Shape__Length":44.725612278949299,"Shape__Area":72.367778075615618,"GeoRefNo":"3499720895","DateCreate":1114790400000,"BuildingBlockType":"Tower","BuildingCSUID":"3499720895T20050430","BuildingID":1108229600,"Status":"Active","BuildingNameEN":null,"BuildingNameTC":"幗瑞樓","BaseHeight":4.7999999999999998,"TopHeight":24.699999999999999,"Storeys":6,"StoreysInBasement":null,"DateStamp":1599580800000}},{"type":"Feature","id":47665,"geometry":{"type":"Polygon","coordinates":[[[114.16135627314728,22.325814066437854],[114.16129667344322,22.325748339737128],[114.16133466117988,22.32571878860908],[114.16135611601061,22.325742680805906],[114.16136935062602,22.32575741890323],[114.16139394937784,22.325784812282443],[114.16135627314728,22.325814066437854]]]},"properties":{"OBJECTID":47665,"Shape__Length":29.206496914812895,"Shape__Area":48.371696885846916,"GeoRefNo":"3466820749","DateCreate":1114790400000,"BuildingBlockType":"Tower","BuildingCSUID":"3466820749T20050430","BuildingID":1108230425,"Status":"Active","BuildingNameEN":"FU ON MANSION","BuildingNameTC":"富安大廈","BaseHeight":4,"TopHeight":37.799999999999997,"Storeys":11,"StoreysInBasement":null,"DateStamp":1599580800000}},{"type":"Feature","id":47672,"geometry":{"type":"Polygon","coordinates":[[[114.16101709291004,22.331446628784878],[114.16107318204895,22.331509403286095],[114.16100072776048,22.331565039954494],[114.16096427302254,22.331524166871421],[114.1608804157339,22.331430145960081],[114.16093511075306,22.331388064582633],[114.16096899929046,22.331426095227094],[114.16095346884232,22.331437710645549],[114.16096702450022,22.331453046982791],[114.16100019414338,22.331427715834707],[114.16101709291004,22.331446628784878]]]},"properties":{"OBJECTID":47672,"Shape__Length":62.306154462092628,"Shape__Area":165.21962537767155,"GeoRefNo":"3463221383","DateCreate":1114790400000,"BuildingBlockType":"Tower","BuildingCSUID":"3463221383T20050430","BuildingID":1108226195,"Status":"Active","BuildingNameEN":null,"BuildingNameTC":null,"BaseHeight":4.7999999999999998,"TopHeight":25.399999999999999,"Storeys":6,"StoreysInBasement":null,"DateStamp":1599580800000}},{"type":"Feature","id":47696,"geometry":{"type":"Polygon","coordinates":[[[114.16383940282742,22.331419477644936],[114.16373820828834,22.331308016690443],[114.16377250835025,22.331281482011573],[114.16387450189775,22.331392578083108],[114.16387102331737,22.331395244084018],[114.16390362618829,22.331431408836277],[114.16388712248067,22.331444147320742],[114.1638543225574,22.331408043325268],[114.16383940282742,22.331419477644936]]]},"properties":{"OBJECTID":47696,"Shape__Length":52.056915376928515,"Shape__Area":86.621727839738938,"GeoRefNo":"3492121367","DateCreate":1114790400000,"BuildingBlockType":"Tower","BuildingCSUID":"3492121367T20050430","BuildingID":1108226299,"Status":"Active","BuildingNameEN":null,"BuildingNameTC":null,"BaseHeight":6,"TopHeight":35.200000000000003,"Storeys":9,"StoreysInBasement":null,"DateStamp":1599580800000}},{"type":"Feature","id":47718,"geometry":{"type":"Polygon","coordinates":[[[114.16133736319325,22.32589159772974],[114.16128449552848,22.325889949282111],[114.16128630125789,22.325838726791901],[114.16128731449103,22.325809985149402],[114.16128744560297,22.325806675903348],[114.1612877155964,22.325804398686092],[114.16128813118387,22.325802140447024],[114.16128869081149,22.325799909132922],[114.16128939253709,22.325797712600217],[114.16129023393322,22.325795558795555],[114.16129121198999,22.325793455304353],[114.16129232321231,22.325791409531377],[114.16129515395578,22.325788210807513],[114.1613281799324,22.325825878470731],[114.161338699925,22.325825986579186],[114.16133844023021,22.325838731783065],[114.16133736319325,22.32589159772974]]]},"properties":{"OBJECTID":47718,"Shape__Length":30.644556233326568,"Shape__Area":48.748397589634997,"GeoRefNo":"3466420757","DateCreate":1114790400000,"BuildingBlockType":"Tower","BuildingCSUID":"3466420757T20050430","BuildingID":1108230377,"Status":"Active","BuildingNameEN":"FU ON MANSION","BuildingNameTC":"富安大廈","BaseHeight":4.2000000000000002,"TopHeight":37.799999999999997,"Storeys":11,"StoreysInBasement":null,"DateStamp":1599580800000}},{"type":"Feature","id":47720,"geometry":{"type":"Polygon","coordinates":[[[114.16321074062719,22.331499783302661],[114.16311153499039,22.33138908078443],[114.16314675086061,22.331361264695801],[114.16314953067821,22.331364400709393],[114.16324556446884,22.331472751917456],[114.16321074062719,22.331499783302661]]]},"properties":{"OBJECTID":47720,"Shape__Length":41.392942996709706,"Shape__Area":75.358247800504984,"GeoRefNo":"3485621375","DateCreate":1114790400000,"BuildingBlockType":"Tower","BuildingCSUID":"3485621375T20050430","BuildingID":1108226249,"Status":"Active","BuildingNameEN":null,"BuildingNameTC":null,"BaseHeight":5.7000000000000002,"TopHeight":36.100000000000001,"Storeys":10,"StoreysInBasement":null,"DateStamp":1599580800000}},{"type":"Feature","id":47737,"geometry":{"type":"Polygon","coordinates":[[[114.16278504322852,22.331544405358581],[114.16265413336585,22.331399914691577],[114.16268918628869,22.331372729474257],[114.16278681197181,22.331482666320923],[114.16279153244123,22.331487981949149],[114.16277962941636,22.331497257491439],[114.1628070146533,22.33152726568375],[114.16278504322852,22.331544405358581]]]},"properties":{"OBJECTID":47737,"Shape__Length":51.094210818668856,"Shape__Area":89.344442887474457,"GeoRefNo":"3481021377","DateCreate":1114790400000,"BuildingBlockType":"Tower","BuildingCSUID":"3481021377T20050430","BuildingID":1108226218,"Status":"Active","BuildingNameEN":null,"BuildingNameTC":null,"BaseHeight":5.4000000000000004,"TopHeight":34.5,"Storeys":9,"StoreysInBasement":null,"DateStamp":1599580800000}},{"type":"Feature","id":47763,"geometry":{"type":"Polygon","coordinates":[[[114.16285582134942,22.331429886283438],[114.1628043608108,22.331372924248505],[114.16275680676715,22.331320286378325],[114.16279366030227,22.33129170886918],[114.16280436773157,22.331303708548564],[114.16290436995494,22.331415780179722],[114.16286827351172,22.331443669558251],[114.16285582134942,22.331429886283438]]]},"properties":{"OBJECTID":47763,"Shape__Length":45.480318082050232,"Shape__Area":87.263643572047371,"GeoRefNo":"3482121369","DateCreate":1114790400000,"BuildingBlockType":"Tower","BuildingCSUID":"3482121369T20050430","BuildingID":1108226300,"Status":"Active","BuildingNameEN":null,"BuildingNameTC":null,"BaseHeight":5.4000000000000004,"TopHeight":25,"Storeys":6,"StoreysInBasement":null,"DateStamp":1599580800000}},{"type":"Feature","id":47764,"geometry":{"type":"Polygon","coordinates":[[[114.16390943524787,22.331365805650972],[114.16380768518248,22.331254234882955],[114.16384255951498,22.331227231818964],[114.16391850960937,22.331312426248683],[114.16394309777873,22.331340007058305],[114.16393893958042,22.331343193800237],[114.16397154124616,22.33137879900417],[114.16395563649934,22.331391112473792],[114.16392302455627,22.331355390952012],[114.16391850533583,22.331358854361682],[114.16390943524787,22.331365805650972]]]},"properties":{"OBJECTID":47764,"Shape__Length":51.970906833122967,"Shape__Area":85.346306235895355,"GeoRefNo":"3492821360","DateCreate":1114790400000,"BuildingBlockType":"Tower","BuildingCSUID":"3492821360T20050430","BuildingID":1108226333,"Status":"Active","BuildingNameEN":null,"BuildingNameTC":null,"BaseHeight":5.7999999999999998,"TopHeight":32.899999999999999,"Storeys":9,"StoreysInBasement":null,"DateStamp":1599580800000}},{"type":"Feature","id":47872,"geometry":{"type":"Polygon","coordinates":[[[114.16373820828834,22.331308016690443],[114.16383940282742,22.331419477644936],[114.16385349877085,22.331435005503494],[114.16384023617238,22.331444459820396],[114.16385970064664,22.331465379636285],[114.16383731408536,22.331482709604742],[114.16370589951121,22.33133302237497],[114.16373820828834,22.331308016690443]]]},"properties":{"OBJECTID":47872,"Shape__Length":51.923823036172642,"Shape__Area":91.284249216562515,"GeoRefNo":"3492121373","DateCreate":1114790400000,"BuildingBlockType":"Tower","BuildingCSUID":"3492121373T20050430","BuildingID":1108226263,"Status":"Active","BuildingNameEN":null,"BuildingNameTC":null,"BaseHeight":5.9000000000000004,"TopHeight":26.600000000000001,"Storeys":6,"StoreysInBasement":null,"DateStamp":1599580800000}},{"type":"Feature","id":47940,"geometry":{"type":"Polygon","coordinates":[[[114.16272095989308,22.331542994182335],[114.16261838206728,22.331427641584536],[114.16265413336585,22.331399914691577],[114.16278504322852,22.331544405358581],[114.16276031941125,22.331563691541092],[114.16273379679424,22.33153298607462],[114.16272095989308,22.331542994182335]]]},"properties":{"OBJECTID":47940,"Shape__Length":51.710405925328089,"Shape__Area":94.994553659518999,"GeoRefNo":"3480621380","DateCreate":1114790400000,"BuildingBlockType":"Tower","BuildingCSUID":"3480621380T20050430","BuildingID":1108226196,"Status":"Active","BuildingNameEN":null,"BuildingNameTC":null,"BaseHeight":5.4000000000000004,"TopHeight":37.200000000000003,"Storeys":9,"StoreysInBasement":null,"DateStamp":1599580800000}},{"type":"Feature","id":47942,"geometry":{"type":"Polygon","coordinates":[[[114.16453721146146,22.331552659816669],[114.16447810388573,22.331486507311347],[114.164513174248,22.331459235729884],[114.16456096122572,22.331511406311083],[114.16454583990827,22.331523110694764],[114.16455798866805,22.331536298791708],[114.16453721146146,22.331552659816669]]]},"properties":{"OBJECTID":47942,"Shape__Length":28.578942132775207,"Shape__Area":41.46403151920228,"GeoRefNo":"3499521384","DateCreate":1114790400000,"BuildingBlockType":"Tower","BuildingCSUID":"3499521384T20050430","BuildingID":1108226209,"Status":"Active","BuildingNameEN":null,"BuildingNameTC":null,"BaseHeight":6.0999999999999996,"TopHeight":24.300000000000001,"Storeys":6,"StoreysInBasement":null,"DateStamp":1599580800000}},{"type":"Feature","id":48302,"geometry":{"type":"Polygon","coordinates":[[[114.16456096122572,22.331511406311083],[114.164513174248,22.331459235729884],[114.16454832555689,22.331431901113387],[114.1646080322507,22.331496895015224],[114.16458887659286,22.33151197147874],[114.16457680070157,22.331499113005787],[114.16456096122572,22.331511406311083]]]},"properties":{"OBJECTID":48302,"Shape__Length":28.378161704460553,"Shape__Area":40.757342789704417,"GeoRefNo":"3499921381","DateCreate":1114790400000,"BuildingBlockType":"Tower","BuildingCSUID":"3499921381T20050430","BuildingID":1108226237,"Status":"Active","BuildingNameEN":null,"BuildingNameTC":null,"BaseHeight":6.0999999999999996,"TopHeight":26.100000000000001,"Storeys":6,"StoreysInBasement":null,"DateStamp":1599580800000}},{"type":"Feature","id":48373,"geometry":{"type":"Polygon","coordinates":[[[114.16224048856331,22.331482619053332],[114.16222086124573,22.331460846180445],[114.16216057375411,22.331393968290151],[114.16218023793633,22.331380446412769],[114.16225917289721,22.331468627849333],[114.16224048856331,22.331482619053332]]]},"properties":{"OBJECTID":48373,"Shape__Length":30.509512976496996,"Shape__Area":31.804553319158614,"GeoRefNo":"3475621376","DateCreate":1114790400000,"BuildingBlockType":"Tower","BuildingCSUID":"3475621376T20050430","BuildingID":1108226262,"Status":"Active","BuildingNameEN":"MTR SHAM SHUI PO STATION","BuildingNameTC":"港鐵深水埗站","BaseHeight":4.9000000000000004,"TopHeight":8.4000000000000004,"Storeys":null,"StoreysInBasement":null,"DateStamp":1361808000000}},{"type":"Feature","id":48378,"geometry":{"type":"Polygon","coordinates":[[[114.16314547131914,22.331492516495093],[114.16307674400575,22.331416561234683],[114.16311153499039,22.33138908078443],[114.16321074062719,22.331499783302661],[114.16317626265182,22.331526546230265],[114.16314547131914,22.331492516495093]]]},"properties":{"OBJECTID":48378,"Shape__Length":41.207800740932683,"Shape__Area":74.340702307167817,"GeoRefNo":"3485221378","DateCreate":1114790400000,"BuildingBlockType":"Tower","BuildingCSUID":"3485221378T20050430","BuildingID":1108226225,"Status":"Active","BuildingNameEN":null,"BuildingNameTC":null,"BaseHeight":5.7000000000000002,"TopHeight":38.600000000000001,"Storeys":10,"StoreysInBasement":null,"DateStamp":1599580800000}},{"type":"Feature","id":48446,"geometry":{"type":"Polygon","coordinates":[[[114.16387450189775,22.331392578083108],[114.16377250835025,22.331281482011573],[114.16380768518248,22.331254234882955],[114.16390943524787,22.331365805650972],[114.16389314104433,22.331378293283318],[114.16391850095566,22.331406440736721],[114.16392563520995,22.331414359137668],[114.16391849971812,22.331419885555796],[114.16391119609193,22.331425542271468],[114.16387835276002,22.331389626926146],[114.16387450189775,22.331392578083108]]]},"properties":{"OBJECTID":48446,"Shape__Length":52.153913999078569,"Shape__Area":86.108423932405827,"GeoRefNo":"3492521363","DateCreate":1114790400000,"BuildingBlockType":"Tower","BuildingCSUID":"3492521363T20050430","BuildingID":1108226311,"Status":"Active","BuildingNameEN":null,"BuildingNameTC":null,"BaseHeight":6.0999999999999996,"TopHeight":32.899999999999999,"Storeys":9,"StoreysInBasement":null,"DateStamp":1599580800000}},{"type":"Feature","id":48450,"geometry":{"type":"Polygon","coordinates":[[[114.16290436995494,22.331415780179722],[114.16280436773157,22.331303708548564],[114.16279366030227,22.33129170886918],[114.16280436976196,22.331283402203667],[114.16282991855672,22.331263585357757],[114.16295980260132,22.331408657908639],[114.16294339432541,22.331421398743441],[114.16293379454132,22.331411124641484],[114.16291392125763,22.331426484225215],[114.16290436995494,22.331415780179722]]]},"properties":{"OBJECTID":48450,"Shape__Length":51.538200513085755,"Shape__Area":97.998962547513074,"GeoRefNo":"3482521366","DateCreate":1114790400000,"BuildingBlockType":"Tower","BuildingCSUID":"3482521366T20050430","BuildingID":1108226309,"Status":"Active","BuildingNameEN":null,"BuildingNameTC":null,"BaseHeight":5.5,"TopHeight":27,"Storeys":6,"StoreysInBasement":null,"DateStamp":1599580800000}},{"type":"Feature","id":48451,"geometry":{"type":"Polygon","coordinates":[[[114.16302633919726,22.331356570502852],[114.16289693628599,22.331211613004996],[114.16294096333797,22.331177459965559],[114.16306972117827,22.331323116973248],[114.16302633919726,22.331356570502852]]]},"properties":{"OBJECTID":48451,"Shape__Length":53.459475235194638,"Shape__Area":122.22421429623159,"GeoRefNo":"3483621357","DateCreate":1114790400000,"BuildingBlockType":"Tower","BuildingCSUID":"3483621357T20050430","BuildingID":1108226355,"Status":"Active","BuildingNameEN":null,"BuildingNameTC":null,"BaseHeight":5.5999999999999996,"TopHeight":25.199999999999999,"Storeys":4,"StoreysInBasement":null,"DateStamp":1599580800000}},{"type":"Feature","id":48494,"geometry":{"type":"Polygon","coordinates":[[[114.16394426296397,22.331273637347177],[114.16391851583937,22.33124474267624],[114.16387827061907,22.33119957752875],[114.1639026791983,22.331180671788573],[114.16391133972246,22.331173969981801],[114.16391852160886,22.331182061864556],[114.16403324293222,22.331311317814372],[114.16403014051831,22.331313729456962],[114.1640443907022,22.331329377598635],[114.16402921208403,22.331341160857114],[114.16395894445805,22.331262281925998],[114.16394426296397,22.331273637347177]]]},"properties":{"OBJECTID":48494,"Shape__Length":52.844682916249447,"Shape__Area":73.814604735051006,"GeoRefNo":"3493421353","DateCreate":1114790400000,"BuildingBlockType":"Tower","BuildingCSUID":"3493421353T20050430","BuildingID":1108226363,"Status":"Active","BuildingNameEN":null,"BuildingNameTC":null,"BaseHeight":5.9000000000000004,"TopHeight":26.699999999999999,"Storeys":7,"StoreysInBasement":null,"DateStamp":1599580800000}},{"type":"Feature","id":48500,"geometry":{"type":"Polygon","coordinates":[[[114.16421973061307,22.331471066883385],[114.1641153928736,22.331354190642166],[114.16413190197865,22.331341530158923],[114.16410485498456,22.331311364722897],[114.16412318590584,22.331297084568174],[114.1642550621437,22.331443694506472],[114.16421973061307,22.331471066883385]]]},"properties":{"OBJECTID":48500,"Shape__Length":51.74719955026265,"Shape__Area":89.860244492790798,"GeoRefNo":"3495921371","DateCreate":1114790400000,"BuildingBlockType":"Tower","BuildingCSUID":"3495921371T20050430","BuildingID":1108226274,"Status":"Active","BuildingNameEN":null,"BuildingNameTC":"樂成樓","BaseHeight":6,"TopHeight":28.600000000000001,"Storeys":6,"StoreysInBasement":null,"DateStamp":1599580800000}},{"type":"Feature","id":48504,"geometry":{"type":"Polygon","coordinates":[[[114.1624066574913,22.331374176019036],[114.16234908224335,22.331309894279983],[114.16231902047758,22.331276343524536],[114.16232956667245,22.331268264807644],[114.16230288674777,22.33123862883755],[114.1623219530544,22.331224160123],[114.16231000256887,22.331210793070319],[114.16229954229196,22.33121877832718],[114.16229217995892,22.331210609054803],[114.16232139816647,22.331188023570935],[114.16234081501148,22.331209863330162],[114.16236229722907,22.331193539584184],[114.16234265412876,22.331171594149449],[114.16238358564941,22.331139950402491],[114.16240340818455,22.331162338798311],[114.16242631448246,22.331144942698714],[114.16253902797888,22.331271611453403],[114.16252629719719,22.331281480213502],[114.16241772421711,22.331365608517469],[114.1624066574913,22.331374176019036]]]},"properties":{"OBJECTID":48504,"Shape__Length":87.594188623781633,"Shape__Area":346.24375628815,"GeoRefNo":"3477821356","DateCreate":1114790400000,"BuildingBlockType":"Tower","BuildingCSUID":"3477821356T20050430","BuildingID":1108226345,"Status":"Active","BuildingNameEN":null,"BuildingNameTC":"慶華大廈","BaseHeight":4.9000000000000004,"TopHeight":40.700000000000003,"Storeys":10,"StoreysInBasement":null,"DateStamp":1599580800000}},{"type":"Feature","id":48505,"geometry":{"type":"Polygon","coordinates":[[[114.1642550621437,22.331443694506472],[114.16412318590584,22.331297084568174],[114.16415943419889,22.331268846340983],[114.16429100231851,22.331415856371489],[114.1642550621437,22.331443694506472]]]},"properties":{"OBJECTID":48505,"Shape__Length":52.041188920765343,"Shape__Area":102.58326433618267,"GeoRefNo":"3496321368","DateCreate":1114790400000,"BuildingBlockType":"Tower","BuildingCSUID":"3496321368T20050430","BuildingID":1108226301,"Status":"Active","BuildingNameEN":null,"BuildingNameTC":null,"BaseHeight":5.9000000000000004,"TopHeight":25.600000000000001,"Storeys":6,"StoreysInBasement":null,"DateStamp":1599580800000}},{"type":"Feature","id":48580,"geometry":{"type":"Polygon","coordinates":[[[114.16261022792396,22.331216445200571],[114.16254871764968,22.331148011105281],[114.16255739250876,22.331141276862041],[114.16249478622449,22.331068843365937],[114.1625201143821,22.331050044475937],[114.16258347348152,22.331121032774405],[114.16264475601682,22.331189694046223],[114.16261022792396,22.331216445200571]]]},"properties":{"OBJECTID":48580,"Shape__Length":49.402041269104721,"Shape__Area":80.960772782882032,"GeoRefNo":"3479521345","DateCreate":1114790400000,"BuildingBlockType":"Tower","BuildingCSUID":"3479521345T20050430","BuildingID":1108226434,"Status":"Active","BuildingNameEN":null,"BuildingNameTC":null,"BaseHeight":5.2999999999999998,"TopHeight":26.5,"Storeys":6,"StoreysInBasement":null,"DateStamp":1599580800000}},{"type":"Feature","id":48581,"geometry":{"type":"Polygon","coordinates":[[[114.16410199458723,22.331257873386548],[114.16408081718971,22.331234367467292],[114.16397913427548,22.331121504263297],[114.16398489332596,22.331117065376407],[114.16401294363165,22.33109534200543],[114.16404267586805,22.331128480898052],[114.16405387208455,22.331140959967289],[114.16406248889039,22.33115056403734],[114.1640737969212,22.33116316773598],[114.16407920431301,22.331169194719894],[114.16405973744448,22.331184261885785],[114.16408081957286,22.331208147084858],[114.16412951594695,22.331263318096269],[114.16412018250395,22.331270561606395],[114.16410599290138,22.331254765193886],[114.16410199458723,22.331257873386548]]]},"properties":{"OBJECTID":48581,"Shape__Length":52.891730644146932,"Shape__Area":67.798155197307352,"GeoRefNo":"3494421344","DateCreate":1114790400000,"BuildingBlockType":"Tower","BuildingCSUID":"3494421344T20050430","BuildingID":1108226407,"Status":"Active","BuildingNameEN":null,"BuildingNameTC":null,"BaseHeight":5.7999999999999998,"TopHeight":26.899999999999999,"Storeys":7,"StoreysInBasement":null,"DateStamp":1599580800000}},{"type":"Feature","id":48583,"geometry":{"type":"Polygon","coordinates":[[[114.16134225403812,22.331302800774122],[114.16127996877752,22.331233446088675],[114.16122192297544,22.331168814961622],[114.16126028291633,22.331139101447171],[114.16127997678836,22.331161181573602],[114.16138026759407,22.331273612507584],[114.16134225403812,22.331302800774122]]]},"properties":{"OBJECTID":48583,"Shape__Length":48.910197215050459,"Shape__Area":98.850839258419171,"GeoRefNo":"3466421351","DateCreate":1114790400000,"BuildingBlockType":"Tower","BuildingCSUID":"3466421351T20050430","BuildingID":1108226384,"Status":"Active","BuildingNameEN":"Lan Fong Building","BuildingNameTC":"蘭芳華廈","BaseHeight":4.5,"TopHeight":44.899999999999999,"Storeys":12,"StoreysInBasement":null,"DateStamp":1599580800000}},{"type":"Feature","id":48584,"geometry":{"type":"Polygon","coordinates":[[[114.1614624269511,22.331210526358547],[114.16136369208051,22.331100224131006],[114.1613944408786,22.331076786202278],[114.16140687290472,22.331067299315396],[114.16144840565237,22.331035627234559],[114.16154720874073,22.331145425240461],[114.1614624269511,22.331210526358547]]]},"properties":{"OBJECTID":48584,"Shape__Length":54.361016718532142,"Shape__Area":179.4626776274136,"GeoRefNo":"3467921342","DateCreate":1114790400000,"BuildingBlockType":"Tower","BuildingCSUID":"3467921342T20050430","BuildingID":1108226438,"Status":"Active","BuildingNameEN":"Kau On Building","BuildingNameTC":"球安大廈","BaseHeight":4.5,"TopHeight":43.700000000000003,"Storeys":12,"StoreysInBasement":null,"DateStamp":1599580800000}},{"type":"Feature","id":48586,"geometry":{"type":"Polygon","coordinates":[[[114.15855097740251,22.330977355252038],[114.15865689032269,22.330896197769913],[114.15873957579903,22.330986054260112],[114.15878723708121,22.33099002806204],[114.15890209923214,22.330901181333928],[114.15899437620912,22.331004143663449],[114.15887886953155,22.331092002709784],[114.15887283568722,22.331131546052806],[114.15896280025181,22.331231439188603],[114.15884797594889,22.331319298285553],[114.15876604872358,22.331227713395176],[114.15872073880794,22.331219400926592],[114.15860219790507,22.331311139784443],[114.15850707740647,22.33120673057627],[114.15862804508312,22.331114180751999],[114.15862854362784,22.331070756446056],[114.15855097740251,22.330977355252038]]]},"properties":{"OBJECTID":48586,"Shape__Length":194.94549487905724,"Shape__Area":1315.2371877864607,"GeoRefNo":"3440221340","DateCreate":1114790400000,"BuildingBlockType":"Tower","BuildingCSUID":"3440221340T20050430","BuildingID":1108226378,"Status":"Active","BuildingNameEN":"Lai Wing House","BuildingNameTC":"麗榮樓","BaseHeight":5.2999999999999998,"TopHeight":47.399999999999999,"Storeys":15,"StoreysInBasement":null,"DateStamp":1786636800000}},{"type":"Feature","id":48587,"geometry":{"type":"Polygon","coordinates":[[[114.16203683310776,22.331144838350873],[114.16210620078148,22.331222447792623],[114.16208431588275,22.331240707895432],[114.16207935563048,22.331235042831484],[114.16202474241307,22.331172668685113],[114.16201468506952,22.331161182040809],[114.16203683310776,22.331144838350873]]]},"properties":{"OBJECTID":48587,"Shape__Length":28.476124246044265,"Shape__Area":33.451124112706054,"GeoRefNo":"3474321350","DateCreate":1114790400000,"BuildingBlockType":"Tower","BuildingCSUID":"3474321350T20050430","BuildingID":1108226422,"Status":"Active","BuildingNameEN":"MTR SHAM SHUI PO STATION","BuildingNameTC":"港鐵深水埗站","BaseHeight":4.4000000000000004,"TopHeight":8,"Storeys":null,"StoreysInBasement":null,"DateStamp":1361808000000}},{"type":"Feature","id":48588,"geometry":{"type":"Polygon","coordinates":[[[114.16323506104445,22.331289296952466],[114.16335096915583,22.331197384529823],[114.16338319719179,22.33123326642826],[114.16331811310599,22.331284458810742],[114.16326698927912,22.331324660673715],[114.16323506104445,22.331289296952466]]]},"properties":{"OBJECTID":48588,"Shape__Length":41.658462904737412,"Shape__Area":80.708070079597093,"GeoRefNo":"3487021358","DateCreate":1114790400000,"BuildingBlockType":"Tower","BuildingCSUID":"3487021358T20050430","BuildingID":1108226373,"Status":"Active","BuildingNameEN":null,"BuildingNameTC":null,"BaseHeight":5.7000000000000002,"TopHeight":25.199999999999999,"Storeys":6,"StoreysInBasement":null,"DateStamp":1599580800000}},{"type":"Feature","id":48589,"geometry":{"type":"Polygon","coordinates":[[[114.1645074336426,22.331248215178771],[114.16443982961412,22.331172773425916],[114.16437129108523,22.33109628989482],[114.16438866847257,22.331082901857808],[114.16445779615837,22.331158825711242],[114.16447570756164,22.331144910681079],[114.1645439134515,22.331219955841714],[114.1645074336426,22.331248215178771]]]},"properties":{"OBJECTID":48589,"Shape__Length":53.422718333101209,"Shape__Area":78.887228787276356,"GeoRefNo":"3499121349","DateCreate":1114790400000,"BuildingBlockType":"Tower","BuildingCSUID":"3499121349T20050430","BuildingID":1108226419,"Status":"Active","BuildingNameEN":null,"BuildingNameTC":null,"BaseHeight":5.9000000000000004,"TopHeight":21.100000000000001,"Storeys":4,"StoreysInBasement":null,"DateStamp":1599580800000}},{"type":"Feature","id":48632,"geometry":{"type":"Polygon","coordinates":[[[114.16113046315016,22.331359578595944],[114.16109336819034,22.331318503374458],[114.16106594457396,22.331288137186988],[114.16108616467712,22.331272711488602],[114.16111263088332,22.331301618689494],[114.16112955860301,22.331288204499227],[114.16116198654404,22.331324020031744],[114.16116877017373,22.331331512276744],[114.16122458592247,22.331393158690197],[114.16118690799266,22.331422079917864],[114.16113046315016,22.331359578595944]]]},"properties":{"OBJECTID":48632,"Shape__Length":48.789887460798404,"Shape__Area":87.576458537033915,"GeoRefNo":"3464621365","DateCreate":1114790400000,"BuildingBlockType":"Tower","BuildingCSUID":"3464621365T20050430","BuildingID":1108226313,"Status":"Active","BuildingNameEN":"Hung Yick Building","BuildingNameTC":null,"BaseHeight":4.5999999999999996,"TopHeight":44.700000000000003,"Storeys":12,"StoreysInBasement":null,"DateStamp":1599580800000}},{"type":"Feature","id":48640,"geometry":{"type":"Polygon","coordinates":[[[114.16295980260132,22.331408657908639],[114.16282991855672,22.331263585357757],[114.16286478832743,22.331236541053507],[114.16296952459999,22.331353071812295],[114.16296355126855,22.331357613683547],[114.16294977182388,22.331368086803884],[114.16297537486223,22.331396550405643],[114.16295980260132,22.331408657908639]]]},"properties":{"OBJECTID":48640,"Shape__Length":51.233451003076681,"Shape__Area":87.426834635647239,"GeoRefNo":"3482921363","DateCreate":1114790400000,"BuildingBlockType":"Tower","BuildingCSUID":"3482921363T20050430","BuildingID":1108226326,"Status":"Active","BuildingNameEN":null,"BuildingNameTC":null,"BaseHeight":5.4000000000000004,"TopHeight":31.800000000000001,"Storeys":8,"StoreysInBasement":null,"DateStamp":1599580800000}},{"type":"Feature","id":48643,"geometry":{"type":"Polygon","coordinates":[[[114.16462141048422,22.331375066985128],[114.16469153011566,22.331320539734232],[114.16474999468515,22.331385120342546],[114.16467996400276,22.33144025646671],[114.16462141048422,22.331375066985128]]]},"properties":{"OBJECTID":48643,"Shape__Length":37.623388005658356,"Shape__Area":88.468566801697278,"GeoRefNo":"3501221370","DateCreate":1114790400000,"BuildingBlockType":"Tower","BuildingCSUID":"3501221370T20050430","BuildingID":1108226302,"Status":"Active","BuildingNameEN":"Lon Kie Lau","BuildingNameTC":"隆基樓","BaseHeight":6,"TopHeight":27.800000000000001,"Storeys":6,"StoreysInBasement":null,"DateStamp":1599580800000}},{"type":"Feature","id":48644,"geometry":{"type":"Polygon","coordinates":[[[114.16324556446884,22.331472751917456],[114.16314953067821,22.331364400709393],[114.16318575204137,22.331335793618159],[114.16328281207305,22.331443839205772],[114.16324556446884,22.331472751917456]]]},"properties":{"OBJECTID":48644,"Shape__Length":41.036161122216143,"Shape__Area":77.018519275050934,"GeoRefNo":"3486021372","DateCreate":1114790400000,"BuildingBlockType":"Tower","BuildingCSUID":"3486021372T20050430","BuildingID":1108226272,"Status":"Active","BuildingNameEN":null,"BuildingNameTC":null,"BaseHeight":5.7000000000000002,"TopHeight":27.800000000000001,"Storeys":6,"StoreysInBasement":null,"DateStamp":1599580800000}},{"type":"Feature","id":48657,"geometry":{"type":"Polygon","coordinates":[[[114.16443611168143,22.331234755348184],[114.16440498802064,22.331199824302647],[114.16442265655424,22.331186094928512],[114.16435332746209,22.331110129413876],[114.16437129108523,22.33109628989482],[114.16443982961412,22.331172773425916],[114.1645074336426,22.331248215178771],[114.16448968036737,22.331261965506503],[114.16447232975379,22.331275403856431],[114.16443611168143,22.331234755348184]]]},"properties":{"OBJECTID":48657,"Shape__Length":53.289104377492208,"Shape__Area":76.960128126176542,"GeoRefNo":"3498721351","DateCreate":1114790400000,"BuildingBlockType":"Tower","BuildingCSUID":"3498721351T20050430","BuildingID":1108226398,"Status":"Active","BuildingNameEN":null,"BuildingNameTC":null,"BaseHeight":6,"TopHeight":21.100000000000001,"Storeys":4,"StoreysInBasement":null,"DateStamp":1599580800000}},{"type":"Feature","id":48702,"geometry":{"type":"Polygon","coordinates":[[[114.16126451387019,22.331362505062504],[114.16116912154472,22.33125774429433],[114.16119491867958,22.331237851873304],[114.16116891162501,22.331209584636973],[114.16118080471131,22.331200511496736],[114.16127996033426,22.331309611181879],[114.16130191558929,22.331333768194547],[114.16127995578593,22.331350640542198],[114.16126451387019,22.331362505062504]]]},"properties":{"OBJECTID":48702,"Shape__Length":48.681634118627862,"Shape__Area":82.570876062133749,"GeoRefNo":"3465521359","DateCreate":1114790400000,"BuildingBlockType":"Tower","BuildingCSUID":"3465521359T20050430","BuildingID":1108226352,"Status":"Active","BuildingNameEN":"HUNG YICK BUILDING","BuildingNameTC":"鴻益大廈","BaseHeight":4.5,"TopHeight":44.700000000000003,"Storeys":12,"StoreysInBasement":null,"DateStamp":1599580800000}},{"type":"Feature","id":48703,"geometry":{"type":"Polygon","coordinates":[[[114.16331811310599,22.331284458810742],[114.16338319719179,22.33123326642826],[114.1634542455636,22.331312369902889],[114.16337727629723,22.331372403891514],[114.1633088865798,22.331425725405918],[114.16324760043017,22.33135788942057],[114.16330266727407,22.331315643730726],[114.16330811502976,22.331321557500104],[114.16333336637108,22.331301462046959],[114.16331811310599,22.331284458810742]]]},"properties":{"OBJECTID":48703,"Shape__Length":63.639333357534248,"Shape__Area":202.47628841494466,"GeoRefNo":"3487721362","DateCreate":1114790400000,"BuildingBlockType":"Tower","BuildingCSUID":"3487721362T20050430","BuildingID":1108226310,"Status":"Active","BuildingNameEN":null,"BuildingNameTC":"懷德樓","BaseHeight":5.7000000000000002,"TopHeight":33.899999999999999,"Storeys":9,"StoreysInBasement":null,"DateStamp":1599580800000}},{"type":"Feature","id":48710,"geometry":{"type":"Polygon","coordinates":[[[114.16424319683956,22.331292258328123],[114.16425502062268,22.331283175565122],[114.16420825355158,22.331230814878033],[114.16422632429176,22.331216737337492],[114.16423452602243,22.331225588215574],[114.16424632176386,22.331216327006665],[114.16423823923418,22.331207455277795],[114.16425733653246,22.331192577974946],[114.16430465853489,22.331245065570663],[114.16431712805046,22.331235479217455],[114.16432357669039,22.331242732355545],[114.16433425823139,22.331254746380925],[114.16436527220424,22.331289629569298],[114.16440144396566,22.331330314031259],[114.16439456710359,22.331335640282244],[114.16432741241773,22.331387652977696],[114.16424319683956,22.331292258328123]]]},"properties":{"OBJECTID":48710,"Shape__Length":64.758995824855162,"Shape__Area":183.07056173754543,"GeoRefNo":"3497321361","DateCreate":1114790400000,"BuildingBlockType":"Tower","BuildingCSUID":"3497321361T20050430","BuildingID":1108226335,"Status":"Active","BuildingNameEN":null,"BuildingNameTC":null,"BaseHeight":5.9000000000000004,"TopHeight":35.200000000000003,"Storeys":9,"StoreysInBasement":null,"DateStamp":1599580800000}},{"type":"Feature","id":48711,"geometry":{"type":"Polygon","coordinates":[[[114.16429100231851,22.331415856371489],[114.16415943419889,22.331268846340983],[114.16416798580248,22.331262184427228],[114.16418918983072,22.331245665988977],[114.16419681698925,22.331239724190414],[114.16424319683956,22.331292258328123],[114.16432741241773,22.331387652977696],[114.16429100231851,22.331415856371489]]]},"properties":{"OBJECTID":48711,"Shape__Length":52.284941707835927,"Shape__Area":104.93470271923063,"GeoRefNo":"3496721365","DateCreate":1114790400000,"BuildingBlockType":"Tower","BuildingCSUID":"3496721365T20050430","BuildingID":1108226319,"Status":"Active","BuildingNameEN":null,"BuildingNameTC":null,"BaseHeight":5.9000000000000004,"TopHeight":25.800000000000001,"Storeys":6,"StoreysInBasement":null,"DateStamp":1599580800000}},{"type":"Feature","id":48769,"geometry":{"type":"Polygon","coordinates":[[[114.16394309777873,22.331340007058305],[114.16391850960937,22.331312426248683],[114.16384255951498,22.331227231818964],[114.16387827061907,22.33119957752875],[114.16391851583937,22.33124474267624],[114.16394426296397,22.331273637347177],[114.16397893409196,22.331312542398443],[114.1639625063259,22.33132513252438],[114.16399455711206,22.331360964076669],[114.16397968107066,22.331372490344108],[114.16394740168612,22.33133670852925],[114.16394309777873,22.331340007058305]]]},"properties":{"OBJECTID":48769,"Shape__Length":52.356373780565256,"Shape__Area":88.051785216573563,"GeoRefNo":"3493121357","DateCreate":1114790400000,"BuildingBlockType":"Tower","BuildingCSUID":"3493121357T20050430","BuildingID":1108226346,"Status":"Active","BuildingNameEN":null,"BuildingNameTC":null,"BaseHeight":5.7000000000000002,"TopHeight":35.100000000000001,"Storeys":9,"StoreysInBasement":null,"DateStamp":1599580800000}},{"type":"Feature","id":48772,"geometry":{"type":"Polygon","coordinates":[[[114.16118080471131,22.331200511496736],[114.1611939167806,22.33119050841368],[114.16122192297544,22.331168814961622],[114.16127996877752,22.331233446088675],[114.16134225403812,22.331302800774122],[114.16130191558929,22.331333768194547],[114.16127996033426,22.331309611181879],[114.16118080471131,22.331200511496736]]]},"properties":{"OBJECTID":48772,"Shape__Length":49.547278702184379,"Shape__Area":105.21064174075671,"GeoRefNo":"3465821355","DateCreate":1114790400000,"BuildingBlockType":"Tower","BuildingCSUID":"3465821355T20050430","BuildingID":1108226368,"Status":"Active","BuildingNameEN":"Lan Fong Building","BuildingNameTC":"蘭芳華廈","BaseHeight":4.5,"TopHeight":44.899999999999999,"Storeys":12,"StoreysInBasement":null,"DateStamp":1599580800000}},{"type":"Feature","id":48773,"geometry":{"type":"Polygon","coordinates":[[[114.16296952459999,22.331353071812295],[114.16286478832743,22.331236541053507],[114.16289693628599,22.331211613004996],[114.16302633919726,22.331356570502852],[114.16301329955367,22.331366624221122],[114.16298835059324,22.331338775753974],[114.16296952459999,22.331353071812295]]]},"properties":{"OBJECTID":48773,"Shape__Length":50.260719629155716,"Shape__Area":79.148125261380798,"GeoRefNo":"3483221360","DateCreate":1114790400000,"BuildingBlockType":"Tower","BuildingCSUID":"3483221360T20050430","BuildingID":1108226348,"Status":"Active","BuildingNameEN":null,"BuildingNameTC":null,"BaseHeight":5.5,"TopHeight":31.699999999999999,"Storeys":8,"StoreysInBasement":null,"DateStamp":1599580800000}},{"type":"Feature","id":48955,"geometry":{"type":"Polygon","coordinates":[[[114.16142375748636,22.331240218578969],[114.16130358644179,22.331105558708394],[114.16134190120768,22.331075880208715],[114.16136369208051,22.331100224131006],[114.1614624269511,22.331210526358547],[114.16142375748636,22.331240218578969]]]},"properties":{"OBJECTID":48955,"Shape__Length":49.085727193431282,"Shape__Area":99.884459899714003,"GeoRefNo":"3467221347","DateCreate":1114790400000,"BuildingBlockType":"Tower","BuildingCSUID":"3467221347T20050430","BuildingID":1108226423,"Status":"Active","BuildingNameEN":"Lan Fong Building","BuildingNameTC":"蘭芳華廈","BaseHeight":4.4000000000000004,"TopHeight":44.899999999999999,"Storeys":12,"StoreysInBasement":null,"DateStamp":1599580800000}},{"type":"Feature","id":49014,"geometry":{"type":"Polygon","coordinates":[[[114.16419221762821,22.33381232340469],[114.16418396515731,22.333818749191281],[114.16412912027067,22.333861025075844],[114.16410174798375,22.333882342226836],[114.16404088911125,22.333929730180181],[114.1640302532979,22.333938011825463],[114.16402351695528,22.333943257065741],[114.1640142328353,22.33395048612228],[114.16388427787275,22.333804487826832],[114.16382548591521,22.333738274892763],[114.163821982714,22.333740974212684],[114.16371813845751,22.333624330956841],[114.16364887902606,22.333546184103572],[114.16383100998264,22.333405939029333],[114.16383616512255,22.333401969419768],[114.16389610146076,22.333469549402668],[114.16389102981181,22.333473389161043],[114.16390736985419,22.333491752069474],[114.16416847427864,22.333785602418093],[114.16419221762821,22.33381232340469]]]},"properties":{"OBJECTID":49014,"Shape__Length":166.95515574550191,"Shape__Area":1415.9613442111352,"GeoRefNo":"3493421625","DateCreate":1549555200000,"BuildingBlockType":"Tower","BuildingCSUID":"3493421625T20190208","BuildingID":1810184561,"Status":"Active","BuildingNameEN":"Sham Shui Po District Council Po Leung Kuk Shek Kip Mei Community Services Centre","BuildingNameTC":"深水埗區議會保良局石硤尾社區服務中心","BaseHeight":10.199999999999999,"TopHeight":21,"Storeys":null,"StoreysInBasement":null,"DateStamp":1551110400000}},{"type":"Feature","id":49021,"geometry":{"type":"Polygon","coordinates":[[[114.15820640168889,22.330867414571276],[114.15827911894799,22.330945766273956],[114.15830413797737,22.330972723795188],[114.15818931310059,22.331062663615846],[114.15818892760677,22.331110426946957],[114.15826440888068,22.331198395547212],[114.1581503421006,22.331288970454903],[114.15807057626272,22.331200366276196],[114.15801855440068,22.331197467660914],[114.15791108601093,22.331281076253376],[114.1578114163239,22.331173508924387],[114.15792828914037,22.331083128558173],[114.15793750850354,22.331042315650979],[114.15785725015304,22.330952088692516],[114.15797180912416,22.330866946481038],[114.15804914835834,22.330953010579698],[114.15809506567562,22.330954197636025],[114.15820640168889,22.330867414571276]]]},"properties":{"OBJECTID":49021,"Shape__Length":192.86669378791814,"Shape__Area":1344.3131515935283,"GeoRefNo":"3432921338","DateCreate":1114790400000,"BuildingBlockType":"Tower","BuildingCSUID":"3432921338T20050430","BuildingID":1108226390,"Status":"Active","BuildingNameEN":"Lai Tak House","BuildingNameTC":"麗德樓","BaseHeight":5,"TopHeight":47.5,"Storeys":15,"StoreysInBasement":null,"DateStamp":1786636800000}},{"type":"Feature","id":49023,"geometry":{"type":"Polygon","coordinates":[[[114.16104817182537,22.331223453559662],[114.16103560113014,22.331233101330266],[114.16103217938607,22.331235727450956],[114.16103560038692,22.331239701962467],[114.16105321270177,22.331260163271963],[114.16103746985694,22.331272111454954],[114.161035596975,22.331270004166978],[114.16101610093433,22.33124806752641],[114.16092070916417,22.33114073262421],[114.16095292653965,22.331115968782726],[114.16103560381339,22.331209270530245],[114.16104817182537,22.331223453559662]]]},"properties":{"OBJECTID":49023,"Shape__Length":46.303282297102754,"Shape__Area":73.570601987160231,"GeoRefNo":"3463121348","DateCreate":1114790400000,"BuildingBlockType":"Tower","BuildingCSUID":"3463121348T20050430","BuildingID":1108226403,"Status":"Active","BuildingNameEN":null,"BuildingNameTC":null,"BaseHeight":4.5999999999999996,"TopHeight":36,"Storeys":9,"StoreysInBasement":null,"DateStamp":1599580800000}},{"type":"Feature","id":49024,"geometry":{"type":"Polygon","coordinates":[[[114.16313024020231,22.331151357016498],[114.1630667567082,22.331079905110705],[114.16317101274102,22.330999047603921],[114.16329505262949,22.331135123584833],[114.16330268824321,22.331143497196607],[114.16320804441149,22.331216458983793],[114.16314100459502,22.331142811835587],[114.16313024020231,22.331151357016498]]]},"properties":{"OBJECTID":49024,"Shape__Length":70.029081097470609,"Shape__Area":279.49371083228488,"GeoRefNo":"3485421336","DateCreate":1114790400000,"BuildingBlockType":"Tower","BuildingCSUID":"3485421336T20050430","BuildingID":1108226435,"Status":"Active","BuildingNameEN":null,"BuildingNameTC":"裕豐樓","BaseHeight":5.5,"TopHeight":41.100000000000001,"Storeys":10,"StoreysInBasement":null,"DateStamp":1599580800000}},{"type":"Feature","id":49083,"geometry":{"type":"Polygon","coordinates":[[[114.16218781582062,22.331004932958795],[114.16228801737341,22.33111815025033],[114.16227487568868,22.33112812831434],[114.16230651324317,22.331163245122564],[114.16228466647371,22.33118015021731],[114.16216668782586,22.331048050990564],[114.16215251837194,22.331032185595497],[114.16218781582062,22.331004932958795]]]},"properties":{"OBJECTID":49083,"Shape__Length":52.01713710211007,"Shape__Area":90.902955050021859,"GeoRefNo":"3475921337","DateCreate":1114790400000,"BuildingBlockType":"Tower","BuildingCSUID":"3475921337T20050430","BuildingID":1108226453,"Status":"Active","BuildingNameEN":null,"BuildingNameTC":null,"BaseHeight":4.7000000000000002,"TopHeight":24.300000000000001,"Storeys":6,"StoreysInBasement":null,"DateStamp":1599580800000}},{"type":"Feature","id":49085,"geometry":{"type":"Polygon","coordinates":[[[114.16323506104445,22.331289296952466],[114.16322068447204,22.331300697305906],[114.16321597185018,22.33130443430635],[114.16319924895141,22.331285839114987],[114.16318463221684,22.331297378967509],[114.16316539542882,22.33127609922073],[114.16331620269678,22.331158676744305],[114.16335096915583,22.331197384529823],[114.16323506104445,22.331289296952466]]]},"properties":{"OBJECTID":49085,"Shape__Length":51.858006717516574,"Shape__Area":109.66217468877619,"GeoRefNo":"3486621353","DateCreate":1114790400000,"BuildingBlockType":"Tower","BuildingCSUID":"3486621353T20050430","BuildingID":1108226383,"Status":"Active","BuildingNameEN":null,"BuildingNameTC":null,"BaseHeight":5.5999999999999996,"TopHeight":26.399999999999999,"Storeys":6,"StoreysInBasement":null,"DateStamp":1599580800000}},{"type":"Feature","id":49091,"geometry":{"type":"Polygon","coordinates":[[[114.16452710327114,22.330984962225372],[114.16458966201739,22.331054247866806],[114.16456844690883,22.331070693118999],[114.16457687324016,22.331079855461656],[114.1645980102023,22.331063493735332],[114.16465887660947,22.331130910704104],[114.1646021949901,22.331174814929383],[114.16447132164591,22.331030372684673],[114.16450684670799,22.331001423436266],[114.16452710327114,22.330984962225372]]]},"properties":{"OBJECTID":49091,"Shape__Length":62.936040735346296,"Shape__Area":156.26272793850796,"GeoRefNo":"3500121340","DateCreate":1114790400000,"BuildingBlockType":"Tower","BuildingCSUID":"3500121340T20050430","BuildingID":1108226455,"Status":"Active","BuildingNameEN":"Un Chau Centre","BuildingNameTC":"元洲中心","BaseHeight":5.7000000000000002,"TopHeight":28.899999999999999,"Storeys":7,"StoreysInBasement":null,"DateStamp":1599580800000}},{"type":"Feature","id":49092,"geometry":{"type":"Polygon","coordinates":[[[114.16087607984539,22.331270176739821],[114.16087252665672,22.331272897755582],[114.16082270231615,22.3312173509761],[114.16085880643614,22.331189035358356],[114.1608694865018,22.331180659191961],[114.16091960732382,22.33123679116807],[114.16091685229783,22.331238904324454],[114.16087607984539,22.331270176739821]]]},"properties":{"OBJECTID":49092,"Shape__Length":28.681642839510399,"Shape__Area":50.648386276708877,"GeoRefNo":"3461921353","DateCreate":1114790400000,"BuildingBlockType":"Tower","BuildingCSUID":"3461921353T20050430","BuildingID":1108226401,"Status":"Active","BuildingNameEN":null,"BuildingNameTC":null,"BaseHeight":4.5999999999999996,"TopHeight":33.899999999999999,"Storeys":10,"StoreysInBasement":null,"DateStamp":1599580800000}},{"type":"Feature","id":49093,"geometry":{"type":"Polygon","coordinates":[[[114.16112382942879,22.331165387229319],[114.16110021360971,22.331183512114684],[114.16112243575556,22.331207625560207],[114.16110697056023,22.331219363093471],[114.16108522611241,22.331195014806873],[114.16103561167313,22.33113946594532],[114.16098950883809,22.331087848604096],[114.16102794440233,22.331058307635864],[114.16103561984607,22.331066879308693],[114.16112382942879,22.331165387229319]]]},"properties":{"OBJECTID":49093,"Shape__Length":48.231125576727102,"Shape__Area":86.528617908512686,"GeoRefNo":"3463821343","DateCreate":1114790400000,"BuildingBlockType":"Tower","BuildingCSUID":"3463821343T20050430","BuildingID":1108226433,"Status":"Active","BuildingNameEN":null,"BuildingNameTC":null,"BaseHeight":4.5999999999999996,"TopHeight":36.600000000000001,"Storeys":10,"StoreysInBasement":null,"DateStamp":1599580800000}},{"type":"Feature","id":49415,"geometry":{"type":"Polygon","coordinates":[[[114.16401294471939,22.331220478769222],[114.16394669492291,22.331146597492388],[114.16397105067453,22.33112773923844],[114.16397913427548,22.331121504263297],[114.16408081718971,22.331234367467292],[114.16410199458723,22.331257873386548],[114.16409810509367,22.33126089688081],[114.16411244118248,22.331276571482967],[114.16409739488941,22.331288243411226],[114.16408081398248,22.331269655094843],[114.16402713063907,22.331209472244247],[114.16401294471939,22.331220478769222]]]},"properties":{"OBJECTID":49415,"Shape__Length":52.76179611855666,"Shape__Area":73.54504371649405,"GeoRefNo":"3494121347","DateCreate":1114790400000,"BuildingBlockType":"Tower","BuildingCSUID":"3494121347T20050430","BuildingID":1108226392,"Status":"Active","BuildingNameEN":null,"BuildingNameTC":null,"BaseHeight":5.9000000000000004,"TopHeight":26.899999999999999,"Storeys":7,"StoreysInBasement":null,"DateStamp":1599580800000}},{"type":"Feature","id":49468,"geometry":{"type":"Polygon","coordinates":[[[114.1641574636882,22.331098367868847],[114.16414634947301,22.331086056240071],[114.16413746807983,22.331076217990709],[114.16412623128389,22.331063770621306],[114.1640963915798,22.331030716080946],[114.16412931023542,22.331005222262487],[114.16424214825734,22.331129534398869],[114.16423812645721,22.331132666614469],[114.16426247685349,22.331160116685282],[114.16424821824717,22.331171193121978],[114.16418369695852,22.331099182218793],[114.1641754387169,22.331105706440049],[114.16416959523826,22.331099231779355],[114.16416291388705,22.331104405238495],[114.1641574636882,22.331098367868847]]]},"properties":{"OBJECTID":49468,"Shape__Length":52.810237594841858,"Shape__Area":73.833196018646348,"GeoRefNo":"3495721335","DateCreate":1114790400000,"BuildingBlockType":"Tower","BuildingCSUID":"3495721335T20050430","BuildingID":1108226458,"Status":"Active","BuildingNameEN":null,"BuildingNameTC":null,"BaseHeight":5.7000000000000002,"TopHeight":26,"Storeys":6,"StoreysInBasement":null,"DateStamp":1599580800000}},{"type":"Feature","id":49474,"geometry":{"type":"Polygon","coordinates":[[[114.16306972117827,22.331323116973248],[114.16294096333797,22.331177459965559],[114.16302632664559,22.331111259733412],[114.16315680571616,22.3312559770071],[114.16312657756703,22.331279282473954],[114.1631081372693,22.331258616957509],[114.16308035838787,22.331280330351088],[114.16309875755276,22.331300738314962],[114.16306972117827,22.331323116973248]]]},"properties":{"OBJECTID":49474,"Shape__Length":70.838991947681905,"Shape__Area":230.35014314186446,"GeoRefNo":"3484221351","DateCreate":1114790400000,"BuildingBlockType":"Tower","BuildingCSUID":"3484221351T20050430","BuildingID":1108226375,"Status":"Active","BuildingNameEN":null,"BuildingNameTC":null,"BaseHeight":5.4000000000000004,"TopHeight":34.399999999999999,"Storeys":10,"StoreysInBasement":null,"DateStamp":1599580800000}},{"type":"Feature","id":49481,"geometry":{"type":"Polygon","coordinates":[[[114.16118535201879,22.331159874591808],[114.16116855135871,22.331172625594537],[114.16116200422159,22.331165754676217],[114.16114567670861,22.331148619736609],[114.16112382942879,22.331165387229319],[114.16103561984607,22.331066879308693],[114.16102794440233,22.331058307635864],[114.16103562147555,22.331052407441224],[114.16106768144968,22.33102776800272],[114.16116200780569,22.331133666493294],[114.16116879141239,22.331141282276811],[114.16118535201879,22.331159874591808]]]},"properties":{"OBJECTID":49481,"Shape__Length":48.445674788034893,"Shape__Area":89.800240286801881,"GeoRefNo":"3464221339","DateCreate":1114790400000,"BuildingBlockType":"Tower","BuildingCSUID":"3464221339T20050430","BuildingID":1108226457,"Status":"Active","BuildingNameEN":null,"BuildingNameTC":null,"BaseHeight":4.5999999999999996,"TopHeight":38.5,"Storeys":10,"StoreysInBasement":null,"DateStamp":1599580800000}},{"type":"Feature","id":49552,"geometry":{"type":"Polygon","coordinates":[[[114.16264475601682,22.331189694046223],[114.16258347348152,22.331121032774405],[114.1625201143821,22.331050044475937],[114.16254666063071,22.331030343172994],[114.16260955677737,22.331100779200597],[114.16261768189227,22.331094474400281],[114.16267931389865,22.331162919859047],[114.16264475601682,22.331189694046223]]]},"properties":{"OBJECTID":49552,"Shape__Length":49.349144902739518,"Shape__Area":81.200667613990234,"GeoRefNo":"3479921342","DateCreate":1114790400000,"BuildingBlockType":"Tower","BuildingCSUID":"3479921342T20050430","BuildingID":1108226449,"Status":"Active","BuildingNameEN":null,"BuildingNameTC":null,"BaseHeight":5.4000000000000004,"TopHeight":26.5,"Storeys":6,"StoreysInBasement":null,"DateStamp":1599580800000}},{"type":"Feature","id":49819,"geometry":{"type":"Polygon","coordinates":[[[114.16123755048527,22.329721984495556],[114.1611621749289,22.329637351545308],[114.16114141679833,22.329614043860719],[114.16116217933244,22.329597923298678],[114.16117437575731,22.329588453743789],[114.16127069447097,22.329696308586662],[114.16125919718054,22.32970521822941],[114.16127431628784,22.329722027401747],[114.1612605001591,22.329732748537484],[114.16124508362009,22.329716114799503],[114.16123755048527,22.329721984495556]]]},"properties":{"OBJECTID":49819,"Shape__Length":44.739514247646056,"Shape__Area":73.36508980568702,"GeoRefNo":"3465421179","DateCreate":1114790400000,"BuildingBlockType":"Tower","BuildingCSUID":"3465421179T20050430","BuildingID":1108227597,"Status":"Active","BuildingNameEN":null,"BuildingNameTC":null,"BaseHeight":4.4000000000000004,"TopHeight":33.600000000000001,"Storeys":9,"StoreysInBasement":null,"DateStamp":1599580800000}},{"type":"Feature","id":49857,"geometry":{"type":"Polygon","coordinates":[[[114.16037699459156,22.329643817662227],[114.1604473421297,22.32958939611111],[114.16050469663968,22.329652704838779],[114.16040886390041,22.329727927136108],[114.16039602261392,22.329713221336768],[114.16038297613561,22.329723313044102],[114.16035417452589,22.329691405070196],[114.16037041159075,22.329678815649405],[114.16035451673861,22.329661205842999],[114.16037699459156,22.329643817662227]]]},"properties":{"OBJECTID":49857,"Shape__Length":47.706889665778149,"Shape__Area":125.64392344102022,"GeoRefNo":"3457321180","DateCreate":1114790400000,"BuildingBlockType":"Tower","BuildingCSUID":"3457321180T20050430","BuildingID":1108227600,"Status":"Active","BuildingNameEN":null,"BuildingNameTC":null,"BaseHeight":4.2999999999999998,"TopHeight":27.899999999999999,"Storeys":6,"StoreysInBasement":null,"DateStamp":1599580800000}},{"type":"Feature","id":49860,"geometry":{"type":"Polygon","coordinates":[[[114.16304924055304,22.329668773674587],[114.16295742441623,22.329567483068562],[114.16299094490046,22.329541435230979],[114.16308246621529,22.329643107335439],[114.16307035340284,22.329652464339365],[114.16309643595558,22.329681902729646],[114.16307988129999,22.32969488116332],[114.16305365169738,22.329665389296846],[114.16304924055304,22.329668773674587]]]},"properties":{"OBJECTID":49860,"Shape__Length":46.761899830662252,"Shape__Area":75.133738030626688,"GeoRefNo":"3484021174","DateCreate":1114790400000,"BuildingBlockType":"Tower","BuildingCSUID":"3484021174T20050430","BuildingID":1108227636,"Status":"Active","BuildingNameEN":null,"BuildingNameTC":null,"BaseHeight":4.2999999999999998,"TopHeight":32.799999999999997,"Storeys":9,"StoreysInBasement":null,"DateStamp":1599580800000}},{"type":"Feature","id":49996,"geometry":{"type":"Polygon","coordinates":[[[114.16319314986269,22.329599572931198],[114.1633160886948,22.329503655680377],[114.16339930284308,22.329597397339423],[114.16330579909426,22.32967028262291],[114.16327708020616,22.329692676791772],[114.16319314986269,22.329599572931198]]]},"properties":{"OBJECTID":49996,"Shape__Length":59.875788548752496,"Shape__Area":221.78306137924542,"GeoRefNo":"3486921173","DateCreate":1114790400000,"BuildingBlockType":"Tower","BuildingCSUID":"3486921173T20050430","BuildingID":1108227637,"Status":"Active","BuildingNameEN":"Nam Fong House","BuildingNameTC":"南方樓","BaseHeight":4.5,"TopHeight":26.800000000000001,"Storeys":6,"StoreysInBasement":null,"DateStamp":1599580800000}},{"type":"Feature","id":49997,"geometry":{"type":"Polygon","coordinates":[[[114.1606836300616,22.329597543825294],[114.16052725165399,22.329423043402183],[114.16068366410916,22.329301721074817],[114.16085798469412,22.329166507801229],[114.16093429366666,22.329251354833382],[114.16095086566428,22.329269113835405],[114.16103750500454,22.329202681861268],[114.16108518862225,22.32916369551214],[114.16105057616721,22.329127617674814],[114.16099208856858,22.32906259782024],[114.16125489850816,22.32885863649329],[114.1614920934141,22.329123318785395],[114.16076350577991,22.32968667575836],[114.1606836300616,22.329597543825294]]]},"properties":{"OBJECTID":49997,"Shape__Length":301.09381228565451,"Shape__Area":3449.1088604427896,"GeoRefNo":"3464621134","DateCreate":1114790400000,"BuildingBlockType":"Tower","BuildingCSUID":"3464621134T20050430","BuildingID":1108227642,"Status":"Active","BuildingNameEN":"Pei Ho Street Municipal Services Building","BuildingNameTC":"北河街市政大廈","BaseHeight":4.2000000000000002,"TopHeight":8.9000000000000004,"Storeys":1,"StoreysInBasement":null,"DateStamp":1788192000000}},{"type":"Feature","id":50055,"geometry":{"type":"Polygon","coordinates":[[[114.16156167468797,22.3297530331476],[114.16144688782644,22.329625348727305],[114.16146871601462,22.329608418003271],[114.16149229255443,22.329635074181919],[114.16150395038763,22.329626028085617],[114.16153108952946,22.329655808725523],[114.16157023751879,22.329698766834561],[114.16159567482471,22.329726679868955],[114.16156167468797,22.3297530331476]]]},"properties":{"OBJECTID":50055,"Shape__Length":45.918330268015922,"Shape__Area":77.029469017706731,"GeoRefNo":"3468621181","DateCreate":1114790400000,"BuildingBlockType":"Tower","BuildingCSUID":"3468621181T20050430","BuildingID":1108227574,"Status":"Active","BuildingNameEN":null,"BuildingNameTC":null,"BaseHeight":4.4000000000000004,"TopHeight":36.200000000000003,"Storeys":9,"StoreysInBasement":null,"DateStamp":1599580800000}},{"type":"Feature","id":50056,"geometry":{"type":"Polygon","coordinates":[[[114.16242790770281,22.329647830651336],[114.16250674182882,22.329586170496174],[114.16249052135731,22.329568501810126],[114.16247854275552,22.329577854808274],[114.16246772267532,22.329566039860627],[114.16251816257453,22.329526512132894],[114.16253349118023,22.329543381621324],[114.16255440412391,22.32954891072329],[114.16256406273806,22.329541357671694],[114.16255196370548,22.329529515254393],[114.16257816231355,22.329509287970684],[114.16258820668455,22.329520681385553],[114.16267474244766,22.329453953048283],[114.16273617455234,22.329523648584999],[114.16248975339875,22.329716308723047],[114.16242790770281,22.329647830651336]]]},"properties":{"OBJECTID":50056,"Shape__Length":100.86691647009923,"Shape__Area":362.73210338448678,"GeoRefNo":"3479421173","DateCreate":1114790400000,"BuildingBlockType":"Tower","BuildingCSUID":"3479421173T20050430","BuildingID":1108227611,"Status":"Active","BuildingNameEN":"Tung Shing Building","BuildingNameTC":"東成大廈","BaseHeight":4.2999999999999998,"TopHeight":45.399999999999999,"Storeys":14,"StoreysInBasement":null,"DateStamp":1599580800000}},{"type":"Feature","id":50059,"geometry":{"type":"Polygon","coordinates":[[[114.16037699459156,22.329643817662227],[114.16035126717128,22.329615463804807],[114.16034318019544,22.32962170130897],[114.16035933804923,22.329639680584439],[114.16031390972215,22.32967440947921],[114.1602702775735,22.329625437053334],[114.16028571083672,22.32961360089001],[114.16039401891217,22.329530536959098],[114.1604473421297,22.32958939611111],[114.16037699459156,22.329643817662227]]]},"properties":{"OBJECTID":50059,"Shape__Length":55.358147588881266,"Shape__Area":127.92556299549517,"GeoRefNo":"3456921172","DateCreate":1114790400000,"BuildingBlockType":"Tower","BuildingCSUID":"3456921172T20050430","BuildingID":1108227654,"Status":"Active","BuildingNameEN":null,"BuildingNameTC":null,"BaseHeight":4.2000000000000002,"TopHeight":24.5,"Storeys":6,"StoreysInBasement":null,"DateStamp":1599580800000}},{"type":"Feature","id":50193,"geometry":{"type":"Polygon","coordinates":[[[114.16383760497919,22.3291080543855],[114.16371897053892,22.328978027908743],[114.16375190005087,22.328952427239077],[114.1638548166014,22.329065003270227],[114.1638318640903,22.329082842071298],[114.16384753189618,22.329100353628448],[114.16383760497919,22.3291080543855]]]},"properties":{"OBJECTID":50193,"Shape__Length":46.608319006788733,"Shape__Area":75.867177024376289,"GeoRefNo":"3492021110","DateCreate":1114790400000,"BuildingBlockType":"Tower","BuildingCSUID":"3492021110T20050430","BuildingID":1108228128,"Status":"Active","BuildingNameEN":null,"BuildingNameTC":"錦城大廈","BaseHeight":4.7000000000000002,"TopHeight":37.5,"Storeys":9,"StoreysInBasement":null,"DateStamp":1599580800000}},{"type":"Feature","id":50195,"geometry":{"type":"Polygon","coordinates":[[[114.16211954483168,22.32905517364701],[114.16208842569908,22.329020494462696],[114.16200323914917,22.328925562164791],[114.16204030023812,22.328896824634739],[114.16212534439289,22.328991818940676],[114.16209798625243,22.329013059820412],[114.16212881445037,22.329048001585907],[114.16211954483168,22.32905517364701]]]},"properties":{"OBJECTID":50195,"Shape__Length":47.275931237167725,"Shape__Area":74.265333288651291,"GeoRefNo":"3474321103","DateCreate":1114790400000,"BuildingBlockType":"Tower","BuildingCSUID":"3474321103T20050430","BuildingID":1108228158,"Status":"Active","BuildingNameEN":null,"BuildingNameTC":null,"BaseHeight":4.2999999999999998,"TopHeight":33.100000000000001,"Storeys":9,"StoreysInBasement":null,"DateStamp":1599580800000}},{"type":"Feature","id":50197,"geometry":{"type":"Polygon","coordinates":[[[114.16072327938565,22.329060792756884],[114.16062400092453,22.328949450757172],[114.16061053054945,22.328934343410815],[114.16063007416707,22.328919199089984],[114.16063835849731,22.328928317556194],[114.16065403413133,22.328916420605101],[114.16076077963142,22.32903186212857],[114.16072327938565,22.329060792756884]]]},"properties":{"OBJECTID":50197,"Shape__Length":46.101307024248634,"Shape__Area":85.596285736673551,"GeoRefNo":"3459721102","DateCreate":1114790400000,"BuildingBlockType":"Tower","BuildingCSUID":"3459721102T20050430","BuildingID":1108228155,"Status":"Active","BuildingNameEN":"NAN BONG HOUSE","BuildingNameTC":"南邦樓","BaseHeight":4.2000000000000002,"TopHeight":24.199999999999999,"Storeys":6,"StoreysInBasement":null,"DateStamp":1599580800000}},{"type":"Feature","id":50199,"geometry":{"type":"Polygon","coordinates":[[[114.16282457232427,22.329101555680804],[114.16290363287861,22.329039235302439],[114.16293239611385,22.329071085388325],[114.16292855790584,22.329074118793375],[114.16285344784599,22.329133548202446],[114.16281827052546,22.329161381577272],[114.16280279421611,22.329144272340219],[114.16283771589622,22.329116100841564],[114.16282457232427,22.329101555680804]]]},"properties":{"OBJECTID":50199,"Shape__Length":40.05852034946804,"Shape__Area":61.172565334858056,"GeoRefNo":"3482521117","DateCreate":1114790400000,"BuildingBlockType":"Tower","BuildingCSUID":"3482521117T20050430","BuildingID":1108228086,"Status":"Active","BuildingNameEN":null,"BuildingNameTC":null,"BaseHeight":4.4000000000000004,"TopHeight":16.600000000000001,"Storeys":null,"StoreysInBasement":null,"DateStamp":1361808000000}},{"type":"Feature","id":50201,"geometry":{"type":"Polygon","coordinates":[[[114.16193182889089,22.328980932148514],[114.16201633997376,22.329076474347147],[114.16204702074843,22.329111159736208],[114.16204071480053,22.329116039017286],[114.16201002489693,22.329081402752617],[114.16198292979367,22.329102434217475],[114.16189780433972,22.329007318369289],[114.16193182889089,22.328980932148514]]]},"properties":{"OBJECTID":50201,"Shape__Length":46.395976747538647,"Shape__Area":66.210198157815356,"GeoRefNo":"3473221112","DateCreate":1114790400000,"BuildingBlockType":"Tower","BuildingCSUID":"3473221112T20050430","BuildingID":1108228116,"Status":"Active","BuildingNameEN":null,"BuildingNameTC":null,"BaseHeight":4.2999999999999998,"TopHeight":33.100000000000001,"Storeys":9,"StoreysInBasement":null,"DateStamp":1599580800000}},{"type":"Feature","id":50260,"geometry":{"type":"Polygon","coordinates":[[[114.16276048862784,22.329097445188587],[114.16287131399179,22.329010591755694],[114.16287509094329,22.329007630320447],[114.16290363287861,22.329039235302439],[114.16282457232427,22.329101555680804],[114.16280989294836,22.32908529168547],[114.16277437088338,22.329112806151212],[114.16276048862784,22.329097445188587]]]},"properties":{"OBJECTID":50260,"Shape__Length":40.019801928802131,"Shape__Area":59.606056039232186,"GeoRefNo":"3482221114","DateCreate":1114790400000,"BuildingBlockType":"Tower","BuildingCSUID":"3482221114T20050430","BuildingID":1108228122,"Status":"Active","BuildingNameEN":null,"BuildingNameTC":null,"BaseHeight":4.4000000000000004,"TopHeight":16.600000000000001,"Storeys":null,"StoreysInBasement":null,"DateStamp":1361808000000}},{"type":"Feature","id":50262,"geometry":{"type":"Polygon","coordinates":[[[114.15813019741086,22.329004599936106],[114.15810406438901,22.328975148186505],[114.15814583236792,22.328942661870574],[114.15818161732099,22.328914829127889],[114.15821679854261,22.328887465898234],[114.15824134296993,22.328914835988602],[114.15824679719134,22.328920918079884],[114.15825704966147,22.328932350799732],[114.15831492079553,22.328996884100182],[114.15838923106294,22.329079747451683],[114.15830731746061,22.329143434337038],[114.15829612918419,22.329131035692779],[114.15827706784975,22.329145822536944],[114.15825702440178,22.329123151219818],[114.15824777429106,22.329112688319164],[114.15825702671727,22.329105661057305],[114.15826664211031,22.3290983581328],[114.15825702909444,22.329087705187614],[114.15821814429033,22.329044613646769],[114.15820006225493,22.329058722758916],[114.15816680213089,22.329021102579439],[114.15815399508649,22.329031419719719],[114.15813019741086,22.329004599936106]]]},"properties":{"OBJECTID":50262,"Shape__Length":90.896507712173687,"Shape__Area":364.03341806614304,"GeoRefNo":"3434221104","DateCreate":1114790400000,"BuildingBlockType":"Tower","BuildingCSUID":"3434221104T20050430","BuildingID":1108228099,"Status":"Active","BuildingNameEN":null,"BuildingNameTC":"建新大樓","BaseHeight":3.7000000000000002,"TopHeight":46.899999999999999,"Storeys":13,"StoreysInBasement":null,"DateStamp":1599580800000}},{"type":"Feature","id":50263,"geometry":{"type":"Polygon","coordinates":[[[114.1604565088725,22.329021753364849],[114.16043898204931,22.329035382988113],[114.16037809627109,22.328967821823895],[114.16036184404628,22.328980441768447],[114.1603047703647,22.328917406279274],[114.16033830962391,22.328891395835051],[114.1604565088725,22.329021753364849]]]},"properties":{"OBJECTID":50263,"Shape__Length":46.807624122078721,"Shape__Area":63.907712058446904,"GeoRefNo":"3456621100","DateCreate":1114790400000,"BuildingBlockType":"Tower","BuildingCSUID":"3456621100T20050430","BuildingID":1108228162,"Status":"Active","BuildingNameEN":null,"BuildingNameTC":null,"BaseHeight":4.2000000000000002,"TopHeight":18.100000000000001,"Storeys":4,"StoreysInBasement":null,"DateStamp":1599580800000}}]}