{"type":"FeatureCollection","features":[{"type":"Feature","id":177450,"geometry":{"type":"Polygon","coordinates":[[[114.16044840563066,22.330612315195275],[114.16033590952283,22.330484280478942],[114.16036733053059,22.330460169672158],[114.16037166371538,22.330456844600462],[114.16038569022045,22.330472712395323],[114.16048443167627,22.330584419572908],[114.16044840563066,22.330612315195275]]]},"properties":{"OBJECTID":177450,"Shape__Length":46.20583755993961,"Shape__Area":87.876198824568888,"GeoRefNo":"3457121275","DateCreate":1114790400000,"BuildingBlockType":"Tower","BuildingCSUID":"3457121275T20050430","BuildingID":1108226784,"Status":"Active","BuildingNameEN":null,"BuildingNameTC":null,"BaseHeight":4.4000000000000004,"TopHeight":34.700000000000003,"Storeys":10,"StoreysInBasement":null,"DateStamp":1599580800000}},{"type":"Feature","id":177637,"geometry":{"type":"Polygon","coordinates":[[[114.16151533031415,22.329506754306195],[114.16141777057572,22.329399510858636],[114.16143362911566,22.329387196366362],[114.16145099532228,22.329373711110183],[114.16146302757758,22.329387199156365],[114.16154746413538,22.329481851172119],[114.16153770471477,22.329489410384756],[114.16155261941782,22.329506145913047],[114.16153924841997,22.329516521695016],[114.16152428333663,22.329499815419833],[114.16151533031415,22.329506754306195]]]},"properties":{"OBJECTID":177637,"Shape__Length":44.69624214718592,"Shape__Area":72.531858209736441,"GeoRefNo":"3468221156","DateCreate":1114790400000,"BuildingBlockType":"Tower","BuildingCSUID":"3468221156T20050430","BuildingID":1108227795,"Status":"Active","BuildingNameEN":null,"BuildingNameTC":null,"BaseHeight":4.2999999999999998,"TopHeight":33.600000000000001,"Storeys":9,"StoreysInBasement":null,"DateStamp":1599580800000}},{"type":"Feature","id":177638,"geometry":{"type":"Polygon","coordinates":[[[114.1624437236753,22.329485882006907],[114.16233901397135,22.329369479841613],[114.16237750939197,22.329339532537055],[114.16242464897168,22.329391710747121],[114.16251300240306,22.329489508050628],[114.16250313828274,22.329497226250414],[114.16248956330287,22.3294821493946],[114.16247731289658,22.329491748271508],[114.16249112619569,22.329506620335781],[114.16247424834766,22.329519815232636],[114.1624437236753,22.329485882006907]]]},"properties":{"OBJECTID":177638,"Shape__Length":58.175803359540467,"Shape__Area":109.13299696845702,"GeoRefNo":"3477921152","DateCreate":1114790400000,"BuildingBlockType":"Tower","BuildingCSUID":"3477921152T20050430","BuildingID":1108227791,"Status":"Active","BuildingNameEN":null,"BuildingNameTC":null,"BaseHeight":4.4000000000000004,"TopHeight":29,"Storeys":6,"StoreysInBasement":null,"DateStamp":1599580800000}},{"type":"Feature","id":177651,"geometry":{"type":"Polygon","coordinates":[[[114.16255072923485,22.330307431107958],[114.16255646684338,22.330303009969441],[114.16258826686351,22.330338191399459],[114.16253487974558,22.330379466122025],[114.16249625896229,22.330409324768592],[114.16243526809713,22.33045647823597],[114.16241392708817,22.330432661069022],[114.16243000089722,22.330419942562063],[114.16241942939443,22.330408596502284],[114.16255072923485,22.330307431107958]]]},"properties":{"OBJECTID":177651,"Shape__Length":51.185415043730423,"Shape__Area":100.99491671844689,"GeoRefNo":"3478321261","DateCreate":1114790400000,"BuildingBlockType":"Tower","BuildingCSUID":"3478321261T20050430","BuildingID":1108226917,"Status":"Active","BuildingNameEN":null,"BuildingNameTC":null,"BaseHeight":4.7999999999999998,"TopHeight":27.5,"Storeys":6,"StoreysInBasement":null,"DateStamp":1599580800000}},{"type":"Feature","id":177652,"geometry":{"type":"Polygon","coordinates":[[[114.16151287740857,22.33036047508962],[114.16156984828312,22.330424196818601],[114.1614922888873,22.330484504121674],[114.16143514467707,22.330420638853504],[114.16151287740857,22.33036047508962]]]},"properties":{"OBJECTID":177652,"Shape__Length":39.210477467692122,"Shape__Area":95.715852810278022,"GeoRefNo":"3468421263","DateCreate":1114790400000,"BuildingBlockType":"Tower","BuildingCSUID":"3468421263T20050430","BuildingID":1108226882,"Status":"Active","BuildingNameEN":"Ap Liu Street Public Toilet","BuildingNameTC":"鴨寮街公廁","BaseHeight":4.5,"TopHeight":13.199999999999999,"Storeys":3,"StoreysInBasement":null,"DateStamp":1783612800000}},{"type":"Feature","id":177659,"geometry":{"type":"Polygon","coordinates":[[[114.15952144265528,22.330365096798779],[114.15947370062186,22.330400256779086],[114.15940419100734,22.330319904232997],[114.15945058383903,22.330284400966011],[114.15952144265528,22.330365096798779]]]},"properties":{"OBJECTID":177659,"Shape__Length":35.421699047253881,"Shape__Area":71.52608550073117,"GeoRefNo":"3447421256","DateCreate":1151251200000,"BuildingBlockType":"Tower","BuildingCSUID":"3447421256T20060626","BuildingID":1108226965,"Status":"Active","BuildingNameEN":null,"BuildingNameTC":null,"BaseHeight":4.2000000000000002,"TopHeight":9.3000000000000007,"Storeys":null,"StoreysInBasement":null,"DateStamp":1361808000000}},{"type":"Feature","id":177871,"geometry":{"type":"Polygon","coordinates":[[[114.16199521726806,22.330535892142187],[114.16187850267198,22.330404666881368],[114.16194665416273,22.330351995421424],[114.16203381245147,22.330449151332424],[114.16206397462324,22.330482773133586],[114.16205652322411,22.330488529540776],[114.16204820989681,22.330479256994046],[114.16199845001555,22.330518305379933],[114.16200650605923,22.330527170807013],[114.16199521726806,22.330535892142187]]]},"properties":{"OBJECTID":177871,"Shape__Length":58.689838933094549,"Shape__Area":164.12656444769479,"GeoRefNo":"3473221267","DateCreate":1114790400000,"BuildingBlockType":"Tower","BuildingCSUID":"3473221267T20050430","BuildingID":1108226845,"Status":"Active","BuildingNameEN":null,"BuildingNameTC":null,"BaseHeight":4.5999999999999996,"TopHeight":26.800000000000001,"Storeys":6,"StoreysInBasement":null,"DateStamp":1599580800000}},{"type":"Feature","id":177876,"geometry":{"type":"Polygon","coordinates":[[[114.16227163226593,22.330582847786655],[114.16217975773291,22.330479915076726],[114.16221191356968,22.330455269729345],[114.16230472995026,22.330557312632237],[114.16228569564531,22.330571997721634],[114.16227163226593,22.330582847786655]]]},"properties":{"OBJECTID":177876,"Shape__Length":38.340107210117097,"Shape__Area":64.578795404372073,"GeoRefNo":"3475921274","DateCreate":1114790400000,"BuildingBlockType":"Tower","BuildingCSUID":"3475921274T20050430","BuildingID":1108226812,"Status":"Active","BuildingNameEN":null,"BuildingNameTC":null,"BaseHeight":4.7000000000000002,"TopHeight":27.100000000000001,"Storeys":6,"StoreysInBasement":null,"DateStamp":1599580800000}},{"type":"Feature","id":177877,"geometry":{"type":"Polygon","coordinates":[[[114.16052131887167,22.330555842400823],[114.16043167181395,22.330454308664667],[114.16043944712084,22.330448326690693],[114.16043022493191,22.330438502381121],[114.16045914960674,22.330416283391298],[114.1604760883579,22.330435253387122],[114.16055823264834,22.330527266938681],[114.16052131887167,22.330555842400823]]]},"properties":{"OBJECTID":177877,"Shape__Length":41.821576301276394,"Shape__Area":76.918985456865215,"GeoRefNo":"3457921270","DateCreate":1114790400000,"BuildingBlockType":"Tower","BuildingCSUID":"3457921270T20050430","BuildingID":1108226837,"Status":"Active","BuildingNameEN":null,"BuildingNameTC":null,"BaseHeight":4.5,"TopHeight":32.399999999999999,"Storeys":9,"StoreysInBasement":null,"DateStamp":1599580800000}},{"type":"Feature","id":177879,"geometry":{"type":"Polygon","coordinates":[[[114.16011317157927,22.330572365702789],[114.16020442285659,22.330501539928296],[114.16021068452085,22.330508553268807],[114.16020252136178,22.330514998822032],[114.16020983569726,22.330523042479328],[114.1601805512861,22.330548053101442],[114.16019465643357,22.330563665264961],[114.1601418359915,22.33060486213471],[114.16012102269067,22.330581264344577],[114.16011317157927,22.330572365702789]]]},"properties":{"OBJECTID":177879,"Shape__Length":33.631838881310784,"Shape__Area":43.320764157094914,"GeoRefNo":"3454521280","DateCreate":1114790400000,"BuildingBlockType":"Tower","BuildingCSUID":"3454521280T20050430","BuildingID":1108226793,"Status":"Active","BuildingNameEN":null,"BuildingNameTC":null,"BaseHeight":4.2999999999999998,"TopHeight":25.399999999999999,"Storeys":6,"StoreysInBasement":null,"DateStamp":1599580800000}},{"type":"Feature","id":177880,"geometry":{"type":"Polygon","coordinates":[[[114.16102644678394,22.330438459388944],[114.16099508386547,22.330403900715712],[114.16102752833241,22.330378787215096],[114.16110010125902,22.330322586668245],[114.16116209072921,22.330391239183641],[114.16120297363052,22.330436516327786],[114.16121087781889,22.330445265556275],[114.16116208044578,22.330483310299901],[114.16112235429931,22.330514282795193],[114.16104282781704,22.330425948301439],[114.16102644678394,22.330438459388944]]]},"properties":{"OBJECTID":177880,"Shape__Length":63.668274710215371,"Shape__Area":222.11167128301446,"GeoRefNo":"3463921261","DateCreate":1114790400000,"BuildingBlockType":"Tower","BuildingCSUID":"3463921261T20050430","BuildingID":1108226863,"Status":"Active","BuildingNameEN":null,"BuildingNameTC":null,"BaseHeight":4.4000000000000004,"TopHeight":32.5,"Storeys":9,"StoreysInBasement":null,"DateStamp":1599580800000}},{"type":"Feature","id":177891,"geometry":{"type":"Polygon","coordinates":[[[114.16317024025233,22.330463003229472],[114.16305588495851,22.330335181736949],[114.16319993070387,22.330223454187479],[114.1633317189403,22.330370333999433],[114.16329718595844,22.33039687841195],[114.16326635777982,22.330362690115024],[114.1631908491027,22.330421090151063],[114.16322106864777,22.330455441051772],[114.16318694809277,22.330481681596048],[114.16317024025233,22.330463003229472]]]},"properties":{"OBJECTID":177891,"Shape__Length":90.762471353908339,"Shape__Area":358.8751501380674,"GeoRefNo":"3485821254","DateCreate":1114790400000,"BuildingBlockType":"Tower","BuildingCSUID":"3485821254T20050430","BuildingID":1108226888,"Status":"Active","BuildingNameEN":"Happy Centre","BuildingNameTC":"雙喜中心","BaseHeight":4.9000000000000004,"TopHeight":45.5,"Storeys":11,"StoreysInBasement":null,"DateStamp":1599580800000}},{"type":"Feature","id":177893,"geometry":{"type":"Polygon","coordinates":[[[114.16244103272871,22.330333488181228],[114.16251886619894,22.330272597974442],[114.16255072923485,22.330307431107958],[114.16241942939443,22.330408596502284],[114.16240342366856,22.330420938890548],[114.16239817792898,22.330424985388529],[114.16239191207806,22.330418012589035],[114.16240175296122,22.33041040989599],[114.16239280847942,22.330401183547213],[114.16244275852253,22.33036248435943],[114.16243773460452,22.330356879714767],[114.16245196669027,22.330345649101268],[114.16244103272871,22.330333488181228]]]},"properties":{"OBJECTID":177893,"Shape__Length":50.831611748876384,"Shape__Area":76.199053712559618,"GeoRefNo":"3478521254","DateCreate":1114790400000,"BuildingBlockType":"Tower","BuildingCSUID":"3478521254T20050430","BuildingID":1108226947,"Status":"Active","BuildingNameEN":null,"BuildingNameTC":null,"BaseHeight":4.7999999999999998,"TopHeight":16.699999999999999,"Storeys":null,"StoreysInBasement":null,"DateStamp":1361808000000}},{"type":"Feature","id":177897,"geometry":{"type":"Polygon","coordinates":[[[114.1621373608991,22.33036916027195],[114.16205097113506,22.330271380472517],[114.16208469269306,22.330245310176341],[114.16213955689319,22.330306664508534],[114.16217171112099,22.33034262232113],[114.16215696046261,22.330354017219673],[114.16218731436672,22.330387491817159],[114.1621711030154,22.330400015227063],[114.1621406455333,22.330366620628187],[114.1621373608991,22.33036916027195]]]},"properties":{"OBJECTID":177897,"Shape__Length":46.83574303971475,"Shape__Area":74.454129931487742,"GeoRefNo":"3474821253","DateCreate":1114790400000,"BuildingBlockType":"Tower","BuildingCSUID":"3474821253T20050430","BuildingID":1108226967,"Status":"Active","BuildingNameEN":null,"BuildingNameTC":null,"BaseHeight":4.5,"TopHeight":33.899999999999999,"Storeys":8,"StoreysInBasement":null,"DateStamp":1599580800000}},{"type":"Feature","id":177899,"geometry":{"type":"Polygon","coordinates":[[[114.15742088379095,22.329901057192114],[114.15738749790542,22.329863937497073],[114.15741167015612,22.329845247089317],[114.1574450560436,22.329882366779504],[114.15742088379095,22.329901057192114]]]},"properties":{"OBJECTID":177899,"Shape__Length":17.195382307416132,"Shape__Area":17.354700000423193,"GeoRefNo":"3426321203","DateCreate":1114790400000,"BuildingBlockType":"Tower","BuildingCSUID":"3426321203T20050430","BuildingID":1108227421,"Status":"Active","BuildingNameEN":"KA LING SCHOOL OF THE PRECIOUS BLOOD","BuildingNameTC":"寶血會嘉靈學校","BaseHeight":4.7000000000000002,"TopHeight":9.1999999999999993,"Storeys":null,"StoreysInBasement":null,"DateStamp":1361808000000}},{"type":"Feature","id":177901,"geometry":{"type":"Polygon","coordinates":[[[114.16050737779064,22.329798100560311],[114.16058294650237,22.329739329174522],[114.16062205114225,22.329782153584077],[114.16063019829301,22.329791075711167],[114.16062204938126,22.329797395491532],[114.16050478055394,22.329888341284587],[114.16049501433866,22.329896008800304],[114.16045881833,22.329855559788026],[114.16050239188796,22.329821155316044],[114.16050727295963,22.329826454140782],[114.16052235026403,22.329814761505627],[114.16050737779064,22.329798100560311]]]},"properties":{"OBJECTID":177901,"Shape__Length":52.719296577423378,"Shape__Area":121.26665472370101,"GeoRefNo":"3458721194","DateCreate":1114790400000,"BuildingBlockType":"Tower","BuildingCSUID":"3458721194T20050430","BuildingID":1108227427,"Status":"Active","BuildingNameEN":null,"BuildingNameTC":null,"BaseHeight":4.4000000000000004,"TopHeight":24.699999999999999,"Storeys":6,"StoreysInBasement":null,"DateStamp":1599580800000}},{"type":"Feature","id":178094,"geometry":{"type":"Polygon","coordinates":[[[114.16116534968241,22.330621448084106],[114.16115688052687,22.33061207677251],[114.16116206651274,22.330608056407428],[114.16116719104934,22.330604083717716],[114.16116206758102,22.330598492028134],[114.16115482024561,22.330590582253542],[114.16114484031799,22.330598728407921],[114.16113591218699,22.330588877707513],[114.16114603127764,22.330581013140677],[114.1611620709256,22.330568547161217],[114.16125562528899,22.33049583687658],[114.16128504920849,22.330528359910282],[114.1611757248604,22.330613379539365],[114.16116534968241,22.330621448084106]]]},"properties":{"OBJECTID":178094,"Shape__Length":44.347637861514514,"Shape__Area":73.011596731195311,"GeoRefNo":"3465321279","DateCreate":1114790400000,"BuildingBlockType":"Tower","BuildingCSUID":"3465321279T20050430","BuildingID":1108226778,"Status":"Active","BuildingNameEN":null,"BuildingNameTC":"順興樓","BaseHeight":4.5,"TopHeight":26.5,"Storeys":6,"StoreysInBasement":null,"DateStamp":1599580800000}},{"type":"Feature","id":178095,"geometry":{"type":"Polygon","coordinates":[[[114.16287372491,22.330487938766371],[114.16289308142926,22.330473015860221],[114.16297846723195,22.330567115522079],[114.16295913448421,22.330582100028842],[114.16287372491,22.330487938766371]]]},"properties":{"OBJECTID":178095,"Shape__Length":32.462230940266302,"Shape__Area":35.341316534710373,"GeoRefNo":"3483121277","DateCreate":1114790400000,"BuildingBlockType":"Tower","BuildingCSUID":"3483121277T20050430","BuildingID":1108226814,"Status":"Active","BuildingNameEN":"MTR SHAM SHUI PO STATION","BuildingNameTC":"港鐵深水埗站","BaseHeight":4.9000000000000004,"TopHeight":8.1999999999999993,"Storeys":null,"StoreysInBasement":null,"DateStamp":1361808000000}},{"type":"Feature","id":178096,"geometry":{"type":"Polygon","coordinates":[[[114.16105333762027,22.330531804270212],[114.16096247717165,22.330429153896944],[114.16099508386547,22.330403900715712],[114.16102644678394,22.330438459388944],[114.16108732192184,22.330505506727722],[114.16105333762027,22.330531804270212]]]},"properties":{"OBJECTID":178096,"Shape__Length":38.376941612561616,"Shape__Area":65.706255834389893,"GeoRefNo":"3463521270","DateCreate":1114790400000,"BuildingBlockType":"Tower","BuildingCSUID":"3463521270T20050430","BuildingID":1108226847,"Status":"Active","BuildingNameEN":"SUM MING BUILDING","BuildingNameTC":"森明唐樓","BaseHeight":4.4000000000000004,"TopHeight":24.100000000000001,"Storeys":6,"StoreysInBasement":null,"DateStamp":1599580800000}},{"type":"Feature","id":178097,"geometry":{"type":"Polygon","coordinates":[[[114.16098627605606,22.330583698287814],[114.16089416178755,22.330482047078551],[114.1609272445654,22.330456430386704],[114.16101866329078,22.330558634723079],[114.16098627605606,22.330583698287814]]]},"properties":{"OBJECTID":178097,"Shape__Length":38.220738418285464,"Shape__Area":64.592098149940682,"GeoRefNo":"3462821275","DateCreate":1114790400000,"BuildingBlockType":"Tower","BuildingCSUID":"3462821275T20050430","BuildingID":1108226810,"Status":"Active","BuildingNameEN":"SUM MING BUILDING","BuildingNameTC":"森明唐樓","BaseHeight":4.4000000000000004,"TopHeight":24.100000000000001,"Storeys":6,"StoreysInBasement":null,"DateStamp":1599580800000}},{"type":"Feature","id":178103,"geometry":{"type":"Polygon","coordinates":[[[114.16506884331639,22.330510684868706],[114.16505647049792,22.330520280047327],[114.16503263578579,22.330493868557785],[114.16500421048539,22.330515714714892],[114.16503746397125,22.330553257447573],[114.16499697325807,22.330584530110535],[114.1648664210522,22.330437893676123],[114.16494731915841,22.330375252222279],[114.16506884331639,22.330510684868706]]]},"properties":{"OBJECTID":178103,"Shape__Length":71.548784828400144,"Shape__Area":206.39045554511551,"GeoRefNo":"3504021268","DateCreate":1114790400000,"BuildingBlockType":"Tower","BuildingCSUID":"3504021268T20050430","BuildingID":1108226809,"Status":"Active","BuildingNameEN":null,"BuildingNameTC":"榮華大廈","BaseHeight":5.5,"TopHeight":39.899999999999999,"Storeys":11,"StoreysInBasement":null,"DateStamp":1599580800000}},{"type":"Feature","id":178104,"geometry":{"type":"Polygon","coordinates":[[[114.16095210028307,22.330610142085494],[114.1608602246327,22.330508323002142],[114.16089416178755,22.330482047078551],[114.16098627605606,22.330583698287814],[114.16095210028307,22.330610142085494]]]},"properties":{"OBJECTID":178104,"Shape__Length":38.571938702190458,"Shape__Area":67.190067689912752,"GeoRefNo":"3462421278","DateCreate":1114790400000,"BuildingBlockType":"Tower","BuildingCSUID":"3462421278T20050430","BuildingID":1108226787,"Status":"Active","BuildingNameEN":"SUM MING BUILDING","BuildingNameTC":"森明唐樓","BaseHeight":4.4000000000000004,"TopHeight":24.100000000000001,"Storeys":6,"StoreysInBasement":null,"DateStamp":1599580800000}},{"type":"Feature","id":178114,"geometry":{"type":"Polygon","coordinates":[[[114.16278816705349,22.3299232712852],[114.16267030911783,22.329790591568294],[114.16270328745077,22.329764965200891],[114.16279648305894,22.329869060424969],[114.16278573640749,22.329877623014958],[114.1628045082164,22.329898635916365],[114.16281073232643,22.329905603188077],[114.16280450703248,22.329910477448244],[114.16278816705349,22.3299232712852]]]},"properties":{"OBJECTID":178114,"Shape__Length":47.013518931208935,"Shape__Area":79.145547163898698,"GeoRefNo":"3481121199","DateCreate":1114790400000,"BuildingBlockType":"Tower","BuildingCSUID":"3481121199T20050430","BuildingID":1108227399,"Status":"Active","BuildingNameEN":null,"BuildingNameTC":null,"BaseHeight":4.5999999999999996,"TopHeight":34.600000000000001,"Storeys":9,"StoreysInBasement":null,"DateStamp":1599580800000}},{"type":"Feature","id":178115,"geometry":{"type":"Polygon","coordinates":[[[114.16017110162041,22.329863565973167],[114.16008457501778,22.329767465968764],[114.16012144292772,22.329739138849245],[114.16020795546756,22.329835204155426],[114.16017110162041,22.329863565973167]]]},"properties":{"OBJECTID":178115,"Shape__Length":37.613210345370362,"Shape__Area":68.380610674267132,"GeoRefNo":"3454521196","DateCreate":1114790400000,"BuildingBlockType":"Tower","BuildingCSUID":"3454521196T20050430","BuildingID":1108227452,"Status":"Active","BuildingNameEN":null,"BuildingNameTC":null,"BaseHeight":4.2000000000000002,"TopHeight":23.699999999999999,"Storeys":2,"StoreysInBasement":null,"DateStamp":1599580800000}},{"type":"Feature","id":178118,"geometry":{"type":"Polygon","coordinates":[[[114.16321135398483,22.32985621874748],[114.16311703689237,22.329750779464518],[114.16315002904855,22.329724808851712],[114.16324412876283,22.329830792641726],[114.16321135398483,22.32985621874748]]]},"properties":{"OBJECTID":178118,"Shape__Length":39.261003484875623,"Shape__Area":67.2754074030276,"GeoRefNo":"3485621193","DateCreate":1114790400000,"BuildingBlockType":"Tower","BuildingCSUID":"3485621193T20050430","BuildingID":1108227468,"Status":"Active","BuildingNameEN":null,"BuildingNameTC":null,"BaseHeight":4.5999999999999996,"TopHeight":24.300000000000001,"Storeys":6,"StoreysInBasement":null,"DateStamp":1599580800000}},{"type":"Feature","id":178326,"geometry":{"type":"Polygon","coordinates":[[[114.16033590952283,22.330484280478942],[114.16044840563066,22.330612315195275],[114.16041206047959,22.330640470677317],[114.16040295081569,22.330630351077797],[114.16038614480389,22.330611681806602],[114.16030396913854,22.330520395578969],[114.16029777947689,22.330513519604576],[114.16033590952283,22.330484280478942]]]},"properties":{"OBJECTID":178326,"Shape__Length":46.611770291491425,"Shape__Area":91.281141421301015,"GeoRefNo":"3456721278","DateCreate":1114790400000,"BuildingBlockType":"Tower","BuildingCSUID":"3456721278T20050430","BuildingID":1108226770,"Status":"Active","BuildingNameEN":null,"BuildingNameTC":null,"BaseHeight":4.4000000000000004,"TopHeight":34.299999999999997,"Storeys":10,"StoreysInBasement":null,"DateStamp":1599580800000}},{"type":"Feature","id":178327,"geometry":{"type":"Polygon","coordinates":[[[114.16230472995026,22.330557312632237],[114.16221191356968,22.330455269729345],[114.16218557902147,22.330426317202672],[114.16229707520614,22.330340024856444],[114.16241499444067,22.330472331607339],[114.16230472995026,22.330557312632237]]]},"properties":{"OBJECTID":178327,"Shape__Length":67.727407667470942,"Shape__Area":282.3316874778676,"GeoRefNo":"3476521269","DateCreate":1114790400000,"BuildingBlockType":"Tower","BuildingCSUID":"3476521269T20050430","BuildingID":1108226834,"Status":"Active","BuildingNameEN":null,"BuildingNameTC":null,"BaseHeight":4.7000000000000002,"TopHeight":24.5,"Storeys":6,"StoreysInBasement":null,"DateStamp":1599580800000}},{"type":"Feature","id":178330,"geometry":{"type":"Polygon","coordinates":[[[114.16029862004524,22.330048431981542],[114.16021498255216,22.329957122706187],[114.16024091511821,22.329936978313814],[114.16024918792525,22.32993055200453],[114.16033218908956,22.3300223785598],[114.16032099148164,22.330031069174485],[114.16029862004524,22.330048431981542]]]},"properties":{"OBJECTID":178330,"Shape__Length":35.664846901176766,"Shape__Area":60.409030529098956,"GeoRefNo":"3455621214","DateCreate":1114790400000,"BuildingBlockType":"Tower","BuildingCSUID":"3455621214T20050430","BuildingID":1108227297,"Status":"Active","BuildingNameEN":null,"BuildingNameTC":null,"BaseHeight":4.2999999999999998,"TopHeight":30.5,"Storeys":8,"StoreysInBasement":null,"DateStamp":1599580800000}},{"type":"Feature","id":178331,"geometry":{"type":"Polygon","coordinates":[[[114.16127982708298,22.329971413608988],[114.1611654932254,22.329843625004063],[114.16120025773455,22.329816657261116],[114.16128011598433,22.329905466363353],[114.16131494592351,22.329944200153744],[114.16127982708298,22.329971413608988]]]},"properties":{"OBJECTID":178331,"Shape__Length":46.197209426282996,"Shape__Area":86.279689692220174,"GeoRefNo":"3465621204","DateCreate":1114790400000,"BuildingBlockType":"Tower","BuildingCSUID":"3465621204T20050430","BuildingID":1108227362,"Status":"Active","BuildingNameEN":null,"BuildingNameTC":null,"BaseHeight":4.4000000000000004,"TopHeight":33.100000000000001,"Storeys":8,"StoreysInBasement":null,"DateStamp":1599580800000}},{"type":"Feature","id":178346,"geometry":{"type":"Polygon","coordinates":[[[114.16425004729149,22.329694862880007],[114.16438387800009,22.329844280320998],[114.16434982851622,22.329871158767101],[114.1642371320888,22.32974544632539],[114.16425017852052,22.329734972133441],[114.16422859907105,22.329711599489379],[114.16425004729149,22.329694862880007]]]},"properties":{"OBJECTID":178346,"Shape__Length":52.335770544998532,"Shape__Area":93.242544609133674,"GeoRefNo":"3497421195","DateCreate":1114790400000,"BuildingBlockType":"Tower","BuildingCSUID":"3497421195T20050430","BuildingID":1108227448,"Status":"Active","BuildingNameEN":null,"BuildingNameTC":null,"BaseHeight":5,"TopHeight":34.600000000000001,"Storeys":9,"StoreysInBasement":null,"DateStamp":1599580800000}},{"type":"Feature","id":178349,"geometry":{"type":"Polygon","coordinates":[[[114.16317344668427,22.329885626539816],[114.16305510601507,22.329754703419333],[114.16309382987622,22.329724835886104],[114.16310642126997,22.329738912109342],[114.16311703689237,22.329750779464518],[114.16321135398483,22.32985621874748],[114.16317344668427,22.329885626539816]]]},"properties":{"OBJECTID":178349,"Shape__Length":48.137176489262536,"Shape__Area":97.202088743048066,"GeoRefNo":"3485221196","DateCreate":1114790400000,"BuildingBlockType":"Tower","BuildingCSUID":"3485221196T20050430","BuildingID":1108227435,"Status":"Active","BuildingNameEN":null,"BuildingNameTC":null,"BaseHeight":4.5999999999999996,"TopHeight":25.100000000000001,"Storeys":6,"StoreysInBasement":null,"DateStamp":1599580800000}},{"type":"Feature","id":178532,"geometry":{"type":"Polygon","coordinates":[[[114.1624472784392,22.329968841770473],[114.16245955047178,22.329982602847871],[114.16252400529707,22.33005490648981],[114.16250094603529,22.330073078590068],[114.16242411163262,22.32998700202042],[114.1624472784392,22.329968841770473]]]},"properties":{"OBJECTID":178532,"Shape__Length":31.005970877388965,"Shape__Area":38.608780017674619,"GeoRefNo":"3478521220","DateCreate":1114790400000,"BuildingBlockType":"Tower","BuildingCSUID":"3478521220T20050430","BuildingID":1108227272,"Status":"Active","BuildingNameEN":"MTR SHAM SHUI PO STATION","BuildingNameTC":"港鐵深水埗站","BaseHeight":4.2999999999999998,"TopHeight":7.7000000000000002,"Storeys":null,"StoreysInBasement":null,"DateStamp":1361808000000}},{"type":"Feature","id":178542,"geometry":{"type":"Polygon","coordinates":[[[114.16417802093963,22.32994632757492],[114.16429120693938,22.329857522758545],[114.16430023557224,22.329850438964712],[114.16433133930947,22.329885266002186],[114.16432240211473,22.329892330750244],[114.16427457666263,22.32993013593433],[114.16420983450583,22.329981298547857],[114.16417802093963,22.32994632757492]]]},"properties":{"OBJECTID":178542,"Shape__Length":42.982609305633133,"Shape__Area":82.959588099068654,"GeoRefNo":"3496421210","DateCreate":1114790400000,"BuildingBlockType":"Tower","BuildingCSUID":"3496421210T20050430","BuildingID":1108227354,"Status":"Active","BuildingNameEN":null,"BuildingNameTC":null,"BaseHeight":5.2000000000000002,"TopHeight":27.199999999999999,"Storeys":6,"StoreysInBasement":null,"DateStamp":1599580800000}},{"type":"Feature","id":178544,"geometry":{"type":"Polygon","coordinates":[[[114.16173845922924,22.330047244049197],[114.16162604544834,22.329921343701809],[114.16166174448767,22.329894016982117],[114.16176295697078,22.330007857998503],[114.16174389260308,22.330022448652862],[114.16175474502582,22.330034748232187],[114.16173845922924,22.330047244049197]]]},"properties":{"OBJECTID":178544,"Shape__Length":45.726659120060589,"Shape__Area":81.477191776035852,"GeoRefNo":"3470321212","DateCreate":1114790400000,"BuildingBlockType":"Tower","BuildingCSUID":"3470321212T20050430","BuildingID":1108227299,"Status":"Active","BuildingNameEN":null,"BuildingNameTC":null,"BaseHeight":4.4000000000000004,"TopHeight":35.700000000000003,"Storeys":9,"StoreysInBasement":null,"DateStamp":1599580800000}},{"type":"Feature","id":178750,"geometry":{"type":"Polygon","coordinates":[[[114.16116462363273,22.330060667564045],[114.16104839761744,22.329929129648718],[114.16105752639029,22.32992210989163],[114.16106276492428,22.329927940725984],[114.16107425321793,22.329919033444487],[114.16111800533753,22.329968761975287],[114.161135326806,22.329955236744119],[114.16116213609813,22.329985029694225],[114.16120326344254,22.330030734010673],[114.16116462363273,22.330060667564045]]]},"properties":{"OBJECTID":178750,"Shape__Length":47.987062786340957,"Shape__Area":76.583439087335591,"GeoRefNo":"3464621216","DateCreate":1114790400000,"BuildingBlockType":"Tower","BuildingCSUID":"3464621216T20050430","BuildingID":1108227289,"Status":"Active","BuildingNameEN":null,"BuildingNameTC":null,"BaseHeight":4.4000000000000004,"TopHeight":15.199999999999999,"Storeys":null,"StoreysInBasement":null,"DateStamp":1361808000000}},{"type":"Feature","id":178761,"geometry":{"type":"Polygon","coordinates":[[[114.16036419354977,22.329997539585435],[114.16028161106993,22.329905365772806],[114.16025573740315,22.329876487119048],[114.16027895531516,22.329858495423895],[114.16028875030109,22.329869510393216],[114.16030097496322,22.32985999557377],[114.16039996405522,22.329969777606337],[114.16036419354977,22.329997539585435]]]},"properties":{"OBJECTID":178761,"Shape__Length":44.455639946426118,"Shape__Area":80.672074061987274,"GeoRefNo":"3456321207","DateCreate":1114790400000,"BuildingBlockType":"Tower","BuildingCSUID":"3456321207T20050430","BuildingID":1108227342,"Status":"Active","BuildingNameEN":"Ki Lung Building","BuildingNameTC":"基隆樓","BaseHeight":4.4000000000000004,"TopHeight":26.899999999999999,"Storeys":6,"StoreysInBasement":null,"DateStamp":1599580800000}},{"type":"Feature","id":178768,"geometry":{"type":"Polygon","coordinates":[[[114.16494503853836,22.329752276512611],[114.16500707641738,22.329703547238932],[114.16507469782684,22.329778748827323],[114.16492168459217,22.329896953854202],[114.16487533667944,22.3298456773224],[114.16489331313618,22.3298313668896],[114.16487296177273,22.3298088899849],[114.16494503853836,22.329752276512611]]]},"properties":{"OBJECTID":178768,"Shape__Length":62.539986833909417,"Shape__Area":212.93874623076633,"GeoRefNo":"3504421192","DateCreate":1114790400000,"BuildingBlockType":"Tower","BuildingCSUID":"3504421192T20050430","BuildingID":1108227425,"Status":"Active","BuildingNameEN":null,"BuildingNameTC":null,"BaseHeight":5.2000000000000002,"TopHeight":36.700000000000003,"Storeys":10,"StoreysInBasement":null,"DateStamp":1599580800000}},{"type":"Feature","id":178773,"geometry":{"type":"Polygon","coordinates":[[[114.16310176769457,22.329941227831483],[114.16298480659914,22.329808925084979],[114.16299345397522,22.329802255383562],[114.1630054600277,22.329815598010317],[114.1630114971847,22.32981082667499],[114.16302609802545,22.329827194676266],[114.16303486890013,22.329820216408173],[114.16302695890609,22.329811468260825],[114.16303863482777,22.329802206405521],[114.16313777343628,22.329913298201841],[114.16310176769457,22.329941227831483]]]},"properties":{"OBJECTID":178773,"Shape__Length":50.078830995158803,"Shape__Area":79.428287668381131,"GeoRefNo":"3484521202","DateCreate":1114790400000,"BuildingBlockType":"Tower","BuildingCSUID":"3484521202T20050430","BuildingID":1108227385,"Status":"Active","BuildingNameEN":null,"BuildingNameTC":null,"BaseHeight":4.5,"TopHeight":34.100000000000001,"Storeys":9,"StoreysInBasement":null,"DateStamp":1599580800000}},{"type":"Feature","id":178856,"geometry":{"type":"Polygon","coordinates":[[[114.15968752571013,22.328166406130354],[114.15971313380847,22.328194896537489],[114.15975089937528,22.328236406441388],[114.159715139811,22.328263782227026],[114.15971312567407,22.328261569521182],[114.15958193481039,22.328117158015079],[114.15961707499361,22.328088937652296],[114.15968752571013,22.328166406130354]]]},"properties":{"OBJECTID":178856,"Shape__Length":52.184115977190984,"Shape__Area":101.86514038369238,"GeoRefNo":"3450121022","DateCreate":1114790400000,"BuildingBlockType":"Tower","BuildingCSUID":"3450121022T20050430","BuildingID":1108228784,"Status":"Active","BuildingNameEN":null,"BuildingNameTC":null,"BaseHeight":4,"TopHeight":24.399999999999999,"Storeys":6,"StoreysInBasement":null,"DateStamp":1599580800000}},{"type":"Feature","id":179242,"geometry":{"type":"Polygon","coordinates":[[[114.16058294650237,22.329739329174522],[114.16050737779064,22.329798100560311],[114.16047199554973,22.3298256142619],[114.16045237420867,22.329803545600313],[114.16042899783322,22.329822235368411],[114.16040074079623,22.32979065797759],[114.16042442019668,22.32977210713452],[114.1604088699974,22.329754618558947],[114.1605185805543,22.329668840366097],[114.16058294650237,22.329739329174522]]]},"properties":{"OBJECTID":179242,"Shape__Length":56.503010323410876,"Shape__Area":166.03299582223045,"GeoRefNo":"3458221190","DateCreate":1114790400000,"BuildingBlockType":"Tower","BuildingCSUID":"3458221190T20050430","BuildingID":1108227499,"Status":"Active","BuildingNameEN":"Kwok Po House","BuildingNameTC":null,"BaseHeight":4.2999999999999998,"TopHeight":23.699999999999999,"Storeys":4,"StoreysInBasement":null,"DateStamp":1599580800000}},{"type":"Feature","id":179246,"geometry":{"type":"Polygon","coordinates":[[[114.16032991760734,22.329781541273057],[114.16022178480273,22.329662041893378],[114.16023179630731,22.329654349675224],[114.1602569764533,22.329635002602895],[114.16034128377419,22.329730951570657],[114.1603236219094,22.329744741639932],[114.16034577909922,22.329769240524353],[114.16032991760734,22.329781541273057]]]},"properties":{"OBJECTID":179246,"Shape__Length":43.771073184115934,"Shape__Area":70.782948876722799,"GeoRefNo":"3455821185","DateCreate":1114790400000,"BuildingBlockType":"Tower","BuildingCSUID":"3455821185T20050430","BuildingID":1108227540,"Status":"Active","BuildingNameEN":null,"BuildingNameTC":null,"BaseHeight":4.2999999999999998,"TopHeight":23.899999999999999,"Storeys":6,"StoreysInBasement":null,"DateStamp":1599580800000}},{"type":"Feature","id":179247,"geometry":{"type":"Polygon","coordinates":[[[114.16290383031667,22.329796011458011],[114.16280301858113,22.329687467260957],[114.1628250815384,22.329670322801345],[114.16283216534255,22.3296648181894],[114.16295216944414,22.329794860773386],[114.16292355598486,22.329817264550982],[114.16290383031667,22.329796011458011]]]},"properties":{"OBJECTID":179247,"Shape__Length":45.738985071680034,"Shape__Area":73.703672015296775,"GeoRefNo":"3482421188","DateCreate":1114790400000,"BuildingBlockType":"Tower","BuildingCSUID":"3482421188T20050430","BuildingID":1108227505,"Status":"Active","BuildingNameEN":null,"BuildingNameTC":null,"BaseHeight":4.4000000000000004,"TopHeight":24.800000000000001,"Storeys":6,"StoreysInBasement":null,"DateStamp":1599580800000}},{"type":"Feature","id":179249,"geometry":{"type":"Polygon","coordinates":[[[114.16298111750957,22.329772194951754],[114.16286212664482,22.32964153622919],[114.16289393749283,22.32961681693423],[114.16300200979414,22.329736726954604],[114.16298369098206,22.329751179289843],[114.16299389123304,22.329762193317812],[114.16298111750957,22.329772194951754]]]},"properties":{"OBJECTID":179249,"Shape__Length":46.366142129370715,"Shape__Area":76.040486397125576,"GeoRefNo":"3483121182","DateCreate":1114790400000,"BuildingBlockType":"Tower","BuildingCSUID":"3483121182T20050430","BuildingID":1108227550,"Status":"Active","BuildingNameEN":null,"BuildingNameTC":null,"BaseHeight":4.4000000000000004,"TopHeight":30.300000000000001,"Storeys":8,"StoreysInBasement":null,"DateStamp":1599580800000}},{"type":"Feature","id":179252,"geometry":{"type":"Polygon","coordinates":[[[114.16330579909426,22.32967028262291],[114.16339930284308,22.329597397339423],[114.16340200392905,22.329595266887495],[114.16343220205178,22.329629006741264],[114.16346246832263,22.329662822813003],[114.16342315038354,22.329692979093174],[114.16339475266517,22.329714761487409],[114.16335253674733,22.329747137046596],[114.1633369556892,22.329759096124882],[114.16329299027699,22.329710319003674],[114.16332152914141,22.329687569734521],[114.16330579909426,22.32967028262291]]]},"properties":{"OBJECTID":179252,"Shape__Length":52.85426793434965,"Shape__Area":152.36934654221204,"GeoRefNo":"3487921179","DateCreate":1114790400000,"BuildingBlockType":"Tower","BuildingCSUID":"3487921179T20050430","BuildingID":1108227560,"Status":"Active","BuildingNameEN":null,"BuildingNameTC":null,"BaseHeight":4.5999999999999996,"TopHeight":26.600000000000001,"Storeys":6,"StoreysInBasement":null,"DateStamp":1599580800000}},{"type":"Feature","id":179256,"geometry":{"type":"Polygon","coordinates":[[[114.16321430571178,22.328475856396302],[114.16314849425056,22.328401802502373],[114.1631232746398,22.328373424289151],[114.16313906137027,22.328361174010361],[114.16311780091378,22.328337530594968],[114.16313970150345,22.328320558198779],[114.16325231183203,22.328446366328755],[114.1632164576321,22.32847418655113],[114.16321430571178,22.328475856396302]]]},"properties":{"OBJECTID":179256,"Shape__Length":46.413539851683105,"Shape__Area":84.66458419450511,"GeoRefNo":"3485821041","DateCreate":1114790400000,"BuildingBlockType":"Tower","BuildingCSUID":"3485821041T20050430","BuildingID":1108228610,"Status":"Active","BuildingNameEN":null,"BuildingNameTC":null,"BaseHeight":4.5,"TopHeight":28.899999999999999,"Storeys":6,"StoreysInBasement":null,"DateStamp":1599580800000}},{"type":"Feature","id":179257,"geometry":{"type":"Polygon","coordinates":[[[114.1619569884478,22.328466662847834],[114.16196731788776,22.328458681029893],[114.1619757470081,22.328452167590715],[114.16200662016421,22.328486416920732],[114.16198755203277,22.328501160945585],[114.1619569884478,22.328466662847834]]]},"properties":{"OBJECTID":179257,"Shape__Length":14.966894025193048,"Shape__Area":12.540046508181479,"GeoRefNo":"3473421049","DateCreate":1114790400000,"BuildingBlockType":"Tower","BuildingCSUID":"3473421049T20050430","BuildingID":1108228585,"Status":"Active","BuildingNameEN":null,"BuildingNameTC":null,"BaseHeight":4.2999999999999998,"TopHeight":31.600000000000001,"Storeys":8,"StoreysInBasement":null,"DateStamp":1599580800000}},{"type":"Feature","id":179406,"geometry":{"type":"Polygon","coordinates":[[[114.15997435153257,22.32942163830846],[114.15998538505382,22.329413088306186],[114.15999635120323,22.329404590492913],[114.16000503761546,22.329414146112924],[114.16001699183414,22.329427271228756],[114.1600296504006,22.329417449795656],[114.16010183117027,22.329498065148044],[114.16012281370803,22.329521500320347],[114.1600879677158,22.329548529864766],[114.15997435153257,22.32942163830846]]]},"properties":{"OBJECTID":179406,"Shape__Length":45.896302986080364,"Shape__Area":79.841676416881356,"GeoRefNo":"3453421158","DateCreate":1114790400000,"BuildingBlockType":"Tower","BuildingCSUID":"3453421158T20050430","BuildingID":1109609235,"Status":"Active","BuildingNameEN":null,"BuildingNameTC":"昌利大厦","BaseHeight":4.2000000000000002,"TopHeight":26.5,"Storeys":6,"StoreysInBasement":null,"DateStamp":1599580800000}},{"type":"Feature","id":179471,"geometry":{"type":"Polygon","coordinates":[[[114.16241958485546,22.329771168707822],[114.16233091449178,22.329673315158136],[114.16240116555157,22.329618221055444],[114.16242790770281,22.329647830651336],[114.16248975339875,22.329716308723047],[114.16241958485546,22.329771168707822]]]},"properties":{"OBJECTID":179471,"Shape__Length":47.267809009751304,"Shape__Area":134.05750621525442,"GeoRefNo":"3477721183","DateCreate":1114790400000,"BuildingBlockType":"Tower","BuildingCSUID":"3477721183T20050430","BuildingID":1108227553,"Status":"Active","BuildingNameEN":null,"BuildingNameTC":null,"BaseHeight":4.2999999999999998,"TopHeight":24.100000000000001,"Storeys":6,"StoreysInBasement":null,"DateStamp":1599580800000}},{"type":"Feature","id":179472,"geometry":{"type":"Polygon","coordinates":[[[114.16328050012649,22.329802576289612],[114.16318517905583,22.329697139580514],[114.16316240090089,22.329671947211747],[114.1631995457099,22.329643297474501],[114.16331720871145,22.329774093464856],[114.16328050012649,22.329802576289612]]]},"properties":{"OBJECTID":179472,"Shape__Length":47.683788676432997,"Shape__Area":93.478678543741182,"GeoRefNo":"3486321187","DateCreate":1114790400000,"BuildingBlockType":"Tower","BuildingCSUID":"3486321187T20050430","BuildingID":1108227518,"Status":"Active","BuildingNameEN":null,"BuildingNameTC":null,"BaseHeight":4.5,"TopHeight":24.600000000000001,"Storeys":6,"StoreysInBasement":null,"DateStamp":1599580800000}},{"type":"Feature","id":179473,"geometry":{"type":"Polygon","coordinates":[[[114.16116761487254,22.329776181567166],[114.16107127529521,22.329668494089113],[114.16110666562571,22.32964101619859],[114.16116216771779,22.329701918043995],[114.16120408380927,22.32974791195851],[114.16119032106505,22.329758582070568],[114.16120561072488,22.329775314144502],[114.16119248770225,22.329785504704152],[114.16117739636876,22.329768608381862],[114.16116761487254,22.329776181567166]]]},"properties":{"OBJECTID":179473,"Shape__Length":45.564896677748479,"Shape__Area":79.035186032082095,"GeoRefNo":"3464621185","DateCreate":1114790400000,"BuildingBlockType":"Tower","BuildingCSUID":"3464621185T20050430","BuildingID":1108227533,"Status":"Active","BuildingNameEN":null,"BuildingNameTC":null,"BaseHeight":4.4000000000000004,"TopHeight":33.600000000000001,"Storeys":9,"StoreysInBasement":null,"DateStamp":1599580800000}},{"type":"Feature","id":179475,"geometry":{"type":"Polygon","coordinates":[[[114.16300200979414,22.329736726954604],[114.16289393749283,22.32961681693423],[114.16292505153092,22.329592639137211],[114.16301628445366,22.329694231694255],[114.16304287493686,22.329723840001574],[114.16302057337622,22.329741301805083],[114.16301050700591,22.329730023194109],[114.16300200979414,22.329736726954604]]]},"properties":{"OBJECTID":179475,"Shape__Length":46.210849205898327,"Shape__Area":76.927608012165209,"GeoRefNo":"3483521180","DateCreate":1114790400000,"BuildingBlockType":"Tower","BuildingCSUID":"3483521180T20050430","BuildingID":1108227587,"Status":"Active","BuildingNameEN":null,"BuildingNameTC":null,"BaseHeight":4.4000000000000004,"TopHeight":30.300000000000001,"Storeys":8,"StoreysInBasement":null,"DateStamp":1599580800000}},{"type":"Feature","id":179481,"geometry":{"type":"Polygon","coordinates":[[[114.16374444596843,22.328466154437692],[114.16364507210012,22.328355361253987],[114.16373302337614,22.328286966223565],[114.16384465895453,22.328411046222964],[114.16381052374631,22.328437587351747],[114.16379847639504,22.328424136050838],[114.16378939774508,22.328431194528331],[114.1638013510327,22.328444715267544],[114.1637851352864,22.32845731740781],[114.16377322276767,22.328443789175324],[114.16375734949337,22.328456115094827],[114.16376946460068,22.328469510595188],[114.16375649603752,22.328479589126484],[114.16374444596843,22.328466154437692]]]},"properties":{"OBJECTID":179481,"Shape__Length":67.246656769200754,"Shape__Area":205.36115663284426,"GeoRefNo":"3491421039","DateCreate":1114790400000,"BuildingBlockType":"Tower","BuildingCSUID":"3491421039T20050430","BuildingID":1108228605,"Status":"Active","BuildingNameEN":null,"BuildingNameTC":null,"BaseHeight":4.9000000000000004,"TopHeight":27,"Storeys":4,"StoreysInBasement":null,"DateStamp":1599580800000}},{"type":"Feature","id":179484,"geometry":{"type":"Polygon","coordinates":[[[114.16328784422009,22.328418795767135],[114.16319573659128,22.3283171853029],[114.16317440972755,22.328293658112862],[114.16321034057408,22.328265812890873],[114.16332320671606,22.328391358384589],[114.16328784422009,22.328418795767135]]]},"properties":{"OBJECTID":179484,"Shape__Length":45.812494727400598,"Shape__Area":86.652574023542627,"GeoRefNo":"3486621035","DateCreate":1114790400000,"BuildingBlockType":"Tower","BuildingCSUID":"3486621035T20050430","BuildingID":1108228658,"Status":"Active","BuildingNameEN":"Mee King Building","BuildingNameTC":null,"BaseHeight":4.5,"TopHeight":26.399999999999999,"Storeys":6,"StoreysInBasement":null,"DateStamp":1599580800000}},{"type":"Feature","id":179489,"geometry":{"type":"Polygon","coordinates":[[[114.16037816205831,22.328501182759563],[114.16024798119598,22.328356212724973],[114.16026435258813,22.328343317008983],[114.16027524427263,22.328355485298783],[114.16029355192364,22.3283410150243],[114.16029989794544,22.328348010491215],[114.16041377831506,22.328473545739723],[114.16037816205831,22.328501182759563]]]},"properties":{"OBJECTID":179489,"Shape__Length":51.338649904059352,"Shape__Area":94.609820519922039,"GeoRefNo":"3456221044","DateCreate":1114790400000,"BuildingBlockType":"Tower","BuildingCSUID":"3456221044T20050430","BuildingID":1108228584,"Status":"Active","BuildingNameEN":null,"BuildingNameTC":null,"BaseHeight":4.2000000000000002,"TopHeight":26.300000000000001,"Storeys":6,"StoreysInBasement":null,"DateStamp":1599580800000}},{"type":"Feature","id":179490,"geometry":{"type":"Polygon","coordinates":[[[114.1604800580358,22.328422109716815],[114.16036672339152,22.328295416487375],[114.16038981786838,22.328277276207071],[114.16037259432392,22.328258161137235],[114.16038296724827,22.328249997909765],[114.16042933256354,22.328300746996163],[114.16051525605512,22.328394794211302],[114.1604800580358,22.328422109716815]]]},"properties":{"OBJECTID":179490,"Shape__Length":51.293788946514191,"Shape__Area":88.414705781831429,"GeoRefNo":"3457521034","DateCreate":1114790400000,"BuildingBlockType":"Tower","BuildingCSUID":"3457521034T20050430","BuildingID":1108228655,"Status":"Active","BuildingNameEN":null,"BuildingNameTC":null,"BaseHeight":4.2000000000000002,"TopHeight":25.800000000000001,"Storeys":6,"StoreysInBasement":null,"DateStamp":1599580800000}},{"type":"Feature","id":179492,"geometry":{"type":"Polygon","coordinates":[[[114.16140239047172,22.328386179207662],[114.16149019964347,22.328482420607106],[114.16145189163069,22.328512144576166],[114.16133483244704,22.328381452567189],[114.16134485293117,22.328373689931599],[114.16137493623509,22.3284075082769],[114.16139287428794,22.328393572273033],[114.16140239047172,22.328386179207662]]]},"properties":{"OBJECTID":179492,"Shape__Length":47.845606776829428,"Shape__Area":77.430569337165636,"GeoRefNo":"3467721046","DateCreate":1114790400000,"BuildingBlockType":"Tower","BuildingCSUID":"3467721046T20050430","BuildingID":1108228571,"Status":"Active","BuildingNameEN":null,"BuildingNameTC":null,"BaseHeight":4.2000000000000002,"TopHeight":31.199999999999999,"Storeys":9,"StoreysInBasement":null,"DateStamp":1599580800000}},{"type":"Feature","id":179518,"geometry":{"type":"Polygon","coordinates":[[[114.16022021946539,22.328202204465658],[114.160158685642,22.328133958447033],[114.16019273458568,22.328107478131155],[114.16032955162692,22.328259218938516],[114.16031104042816,22.328273817340445],[114.16026458168497,22.328222290948137],[114.16024918659876,22.328234331297008],[114.16022021946539,22.328202204465658]]]},"properties":{"OBJECTID":179518,"Shape__Length":53.031155650069998,"Shape__Area":84.905421118658666,"GeoRefNo":"3455121014","DateCreate":1114790400000,"BuildingBlockType":"Tower","BuildingCSUID":"3455121014T20050430","BuildingID":1108228775,"Status":"Active","BuildingNameEN":null,"BuildingNameTC":null,"BaseHeight":4.2000000000000002,"TopHeight":23.5,"Storeys":5,"StoreysInBasement":null,"DateStamp":1599580800000}},{"type":"Feature","id":179665,"geometry":{"type":"Polygon","coordinates":[[[114.16453124385501,22.329724303120898],[114.16439623752449,22.329572742390631],[114.16441538067239,22.329558065006697],[114.16448138258765,22.329632540841452],[114.16449900500841,22.3296187579014],[114.16456810787265,22.329695685558864],[114.16453124385501,22.329724303120898]]]},"properties":{"OBJECTID":179665,"Shape__Length":53.461354770625775,"Shape__Area":81.816951749945488,"GeoRefNo":"3499421179","DateCreate":1114790400000,"BuildingBlockType":"Tower","BuildingCSUID":"3499421179T20050430","BuildingID":1108227603,"Status":"Active","BuildingNameEN":null,"BuildingNameTC":null,"BaseHeight":5,"TopHeight":20.800000000000001,"Storeys":null,"StoreysInBasement":null,"DateStamp":1361808000000}},{"type":"Feature","id":179680,"geometry":{"type":"Polygon","coordinates":[[[114.16171238483511,22.328310124300078],[114.16159449528131,22.32818028298864],[114.16160310981482,22.328173612724814],[114.16163303507538,22.328206901635376],[114.16166021411622,22.328185877007403],[114.16174798427636,22.328282516605011],[114.16171238483511,22.328310124300078]]]},"properties":{"OBJECTID":179680,"Shape__Length":47.207557448210011,"Shape__Area":72.382980380284351,"GeoRefNo":"3470221023","DateCreate":1114790400000,"BuildingBlockType":"Tower","BuildingCSUID":"3470221023T20050430","BuildingID":1108228750,"Status":"Active","BuildingNameEN":null,"BuildingNameTC":null,"BaseHeight":4.2000000000000002,"TopHeight":31.199999999999999,"Storeys":9,"StoreysInBasement":null,"DateStamp":1599580800000}},{"type":"Feature","id":179681,"geometry":{"type":"Polygon","coordinates":[[[114.16478827806549,22.32821136986303],[114.16483428505718,22.32826307788585],[114.16480661089764,22.328284779400111],[114.16483227512602,22.32831402919739],[114.16482406135694,22.328320362460442],[114.16471702572638,22.32819943713838],[114.16474937410082,22.328174164481791],[114.16475279531653,22.328171490148517],[114.16478827806549,22.32821136986303]]]},"properties":{"OBJECTID":179681,"Shape__Length":44.333624319549315,"Shape__Area":68.224322931844583,"GeoRefNo":"3502121023","DateCreate":1114790400000,"BuildingBlockType":"Tower","BuildingCSUID":"3502121023T20050430","BuildingID":1108228742,"Status":"Active","BuildingNameEN":null,"BuildingNameTC":null,"BaseHeight":5.2000000000000002,"TopHeight":33.399999999999999,"Storeys":8,"StoreysInBasement":null,"DateStamp":1599580800000}},{"type":"Feature","id":179683,"geometry":{"type":"Polygon","coordinates":[[[114.16167794259863,22.328336837977261],[114.16159053064563,22.328240013971513],[114.16161698825542,22.328219459054079],[114.16158686847399,22.328186190350824],[114.16159449528131,22.32818028298864],[114.16171238483511,22.328310124300078],[114.16167794259863,22.328336837977261]]]},"properties":{"OBJECTID":179683,"Shape__Length":46.832949183222333,"Shape__Area":69.357260655153809,"GeoRefNo":"3469921026","DateCreate":1114790400000,"BuildingBlockType":"Tower","BuildingCSUID":"3469921026T20050430","BuildingID":1108228721,"Status":"Active","BuildingNameEN":null,"BuildingNameTC":null,"BaseHeight":4.2000000000000002,"TopHeight":31.199999999999999,"Storeys":9,"StoreysInBasement":null,"DateStamp":1599580800000}},{"type":"Feature","id":179721,"geometry":{"type":"Polygon","coordinates":[[[114.15938615351666,22.328146356873731],[114.15948240467446,22.328070219509669],[114.15949544170282,22.328084825797795],[114.15951132413659,22.32807254572009],[114.15952602825027,22.32808889788615],[114.15941409739214,22.328177558470621],[114.15938615351666,22.328146356873731]]]},"properties":{"OBJECTID":179721,"Shape__Length":39.248650734184167,"Shape__Area":63.519626245280151,"GeoRefNo":"3447121010","DateCreate":1114790400000,"BuildingBlockType":"Tower","BuildingCSUID":"3447121010T20050430","BuildingID":1108228861,"Status":"Active","BuildingNameEN":null,"BuildingNameTC":null,"BaseHeight":4,"TopHeight":24.300000000000001,"Storeys":6,"StoreysInBasement":null,"DateStamp":1599580800000}},{"type":"Feature","id":179724,"geometry":{"type":"Polygon","coordinates":[[[114.16155319957227,22.32826901633301],[114.16154356662457,22.328276497625133],[114.16152648502349,22.328257417458971],[114.16151356995373,22.32824299123515],[114.16153254840636,22.32822829024272],[114.16156278747623,22.328261573054821],[114.16155319957227,22.32826901633301]]]},"properties":{"OBJECTID":179724,"Shape__Length":14.778002714977816,"Shape__Area":12.365833658878202,"GeoRefNo":"3468821024","DateCreate":1114790400000,"BuildingBlockType":"Tower","BuildingCSUID":"3468821024T20050430","BuildingID":1108228772,"Status":"Active","BuildingNameEN":null,"BuildingNameTC":null,"BaseHeight":4.2000000000000002,"TopHeight":33.600000000000001,"Storeys":9,"StoreysInBasement":null,"DateStamp":1599580800000}},{"type":"Feature","id":179727,"geometry":{"type":"Polygon","coordinates":[[[114.15978268540493,22.32821172324045],[114.15971314106366,22.328135429598287],[114.1596445114365,22.32806002092957],[114.1596620517488,22.328047636167721],[114.1597131449343,22.328103703800998],[114.15973495183982,22.328127379689182],[114.15974941886307,22.328116547493138],[114.15981341485583,22.328187896021703],[114.15978876355435,22.328207032671664],[114.15978268540493,22.32821172324045]]]},"properties":{"OBJECTID":179727,"Shape__Length":52.204520332754505,"Shape__Area":69.390093193197345,"GeoRefNo":"3450421012","DateCreate":1114790400000,"BuildingBlockType":"Tower","BuildingCSUID":"3450421012T20050430","BuildingID":1108228835,"Status":"Active","BuildingNameEN":null,"BuildingNameTC":null,"BaseHeight":4.0999999999999996,"TopHeight":24.399999999999999,"Storeys":6,"StoreysInBasement":null,"DateStamp":1599580800000}},{"type":"Feature","id":179729,"geometry":{"type":"Polygon","coordinates":[[[114.16401013250012,22.328177008773324],[114.16395280966239,22.328113287404875],[114.16399087155098,22.328083635158468],[114.16410848527457,22.328214231290321],[114.16410275730934,22.328218690775422],[114.1640913467907,22.328206382276068],[114.16405943710998,22.328231818199043],[114.16401013250012,22.328177008773324]]]},"properties":{"OBJECTID":179729,"Shape__Length":47.995461303921886,"Shape__Area":88.882218618673647,"GeoRefNo":"3494521015","DateCreate":1114790400000,"BuildingBlockType":"Tower","BuildingCSUID":"3494521015T20050430","BuildingID":1108228810,"Status":"Active","BuildingNameEN":null,"BuildingNameTC":"萬興大廈","BaseHeight":4.9000000000000004,"TopHeight":35.200000000000003,"Storeys":10,"StoreysInBasement":null,"DateStamp":1599580800000}},{"type":"Feature","id":179730,"geometry":{"type":"Polygon","coordinates":[[[114.16410848527457,22.328214231290321],[114.16399087155098,22.328083635158468],[114.16402914028517,22.328053821723422],[114.16413579437808,22.328170948575682],[114.16411466387082,22.328187777851891],[114.16412598077535,22.328200563789299],[114.16410848527457,22.328214231290321]]]},"properties":{"OBJECTID":179730,"Shape__Length":48.061039368101916,"Shape__Area":92.649104977522299,"GeoRefNo":"3494921012","DateCreate":1114790400000,"BuildingBlockType":"Tower","BuildingCSUID":"3494921012T20050430","BuildingID":1108228834,"Status":"Active","BuildingNameEN":null,"BuildingNameTC":"萬興大廈","BaseHeight":4.9000000000000004,"TopHeight":37.299999999999997,"Storeys":10,"StoreysInBasement":null,"DateStamp":1599580800000}},{"type":"Feature","id":179732,"geometry":{"type":"Polygon","coordinates":[[[114.16147546142068,22.328215622972188],[114.16136464218383,22.328094184759529],[114.16139977878846,22.328066950059185],[114.16146480264453,22.328138355559311],[114.16145539200733,22.328145602523733],[114.16150283700982,22.32819758552597],[114.16149112421255,22.328207056868862],[114.16149975640204,22.328216527698153],[114.16148600111332,22.328227172642798],[114.16147546142068,22.328215622972188]]]},"properties":{"OBJECTID":179732,"Shape__Length":48.020137615953843,"Shape__Area":77.370739251587381,"GeoRefNo":"3467621011","DateCreate":1114790400000,"BuildingBlockType":"Tower","BuildingCSUID":"3467621011T20050430","BuildingID":1108228814,"Status":"Active","BuildingNameEN":null,"BuildingNameTC":null,"BaseHeight":4.0999999999999996,"TopHeight":23.5,"Storeys":6,"StoreysInBasement":null,"DateStamp":1599580800000}},{"type":"Feature","id":179948,"geometry":{"type":"Polygon","coordinates":[[[114.1632082696289,22.328204303329318],[114.16310558799002,22.328090453403153],[114.16313827938762,22.328064983146479],[114.16325431061253,22.328193597822008],[114.16323851245845,22.328205835197604],[114.16322501666666,22.328191412402589],[114.1632082696289,22.328204303329318]]]},"properties":{"OBJECTID":179948,"Shape__Length":45.918940807888156,"Shape__Area":76.889974556858959,"GeoRefNo":"3485721012","DateCreate":1114790400000,"BuildingBlockType":"Tower","BuildingCSUID":"3485721012T20050430","BuildingID":1108228840,"Status":"Active","BuildingNameEN":null,"BuildingNameTC":null,"BaseHeight":4.5,"TopHeight":24.300000000000001,"Storeys":6,"StoreysInBasement":null,"DateStamp":1599580800000}},{"type":"Feature","id":179953,"geometry":{"type":"Polygon","coordinates":[[[114.16258763358768,22.328168860657129],[114.16265634028268,22.328114443771955],[114.16266721195167,22.32812676695487],[114.16272207522256,22.328084518718022],[114.16277031434291,22.328137844899057],[114.16276074165383,22.328145286444038],[114.16272226402077,22.32817520160658],[114.16264641097307,22.328234186737649],[114.16258763358768,22.328168860657129]]]},"properties":{"OBJECTID":179953,"Shape__Length":52.186356712329257,"Shape__Area":144.76842426062817,"GeoRefNo":"3480721012","DateCreate":1114790400000,"BuildingBlockType":"Tower","BuildingCSUID":"3480721012T20050430","BuildingID":1108228806,"Status":"Active","BuildingNameEN":null,"BuildingNameTC":null,"BaseHeight":4.2000000000000002,"TopHeight":33.799999999999997,"Storeys":9,"StoreysInBasement":null,"DateStamp":1599580800000}},{"type":"Feature","id":179954,"geometry":{"type":"Polygon","coordinates":[[[114.16139422369176,22.328192481066221],[114.16132934675399,22.32812152861673],[114.16136464218383,22.328094184759529],[114.16147546142068,22.328215622972188],[114.16145395738839,22.328232282542455],[114.16140796189245,22.328181909094816],[114.16139422369176,22.328192481066221]]]},"properties":{"OBJECTID":179954,"Shape__Length":44.726209360298881,"Shape__Area":69.885666837344772,"GeoRefNo":"3467321013","DateCreate":1114790400000,"BuildingBlockType":"Tower","BuildingCSUID":"3467321013T20050430","BuildingID":1108228808,"Status":"Active","BuildingNameEN":null,"BuildingNameTC":null,"BaseHeight":4.0999999999999996,"TopHeight":23.399999999999999,"Storeys":5,"StoreysInBasement":null,"DateStamp":1599580800000}},{"type":"Feature","id":179955,"geometry":{"type":"Polygon","coordinates":[[[114.15981341485583,22.328187896021703],[114.15974941886307,22.328116547493138],[114.15972061396666,22.328084433232036],[114.1597375239343,22.32807122263889],[114.15971315211274,22.32804486566074],[114.15970171230633,22.328032435026639],[114.15969734070565,22.328027319009401],[114.15971315588015,22.328013985938547],[114.15973013128576,22.328032438027265],[114.15973777475928,22.328025748434605],[114.15972119471159,22.32800721619682],[114.15973155025193,22.327998490945379],[114.15976278669569,22.328032441469045],[114.15977302471357,22.328043472231776],[114.15978720792906,22.328032444038669],[114.15979324266868,22.328039055783393],[114.15988062629089,22.328135718296831],[114.15985322341942,22.328157002864398],[114.15983818108731,22.328168669525663],[114.15981341485583,22.328187896021703]]]},"properties":{"OBJECTID":179955,"Shape__Length":66.093685937281293,"Shape__Area":162.2449364103507,"GeoRefNo":"3450821007","DateCreate":1114790400000,"BuildingBlockType":"Tower","BuildingCSUID":"3450821007T20050430","BuildingID":1108228854,"Status":"Active","BuildingNameEN":null,"BuildingNameTC":null,"BaseHeight":4.0999999999999996,"TopHeight":30.100000000000001,"Storeys":8,"StoreysInBasement":null,"DateStamp":1599580800000}},{"type":"Feature","id":179956,"geometry":{"type":"Polygon","coordinates":[[[114.15941409739214,22.328177558470621],[114.15952602825027,22.32808889788615],[114.1595424241851,22.328107130218356],[114.15952620562628,22.328119291149758],[114.15953802048381,22.328132528538202],[114.15951942341906,22.328147081055725],[114.15944144722251,22.328208097876395],[114.15941409739214,22.328177558470621]]]},"properties":{"OBJECTID":179956,"Shape__Length":39.230768298741516,"Shape__Area":63.323167383234654,"GeoRefNo":"3447421014","DateCreate":1114790400000,"BuildingBlockType":"Tower","BuildingCSUID":"3447421014T20050430","BuildingID":1108228837,"Status":"Active","BuildingNameEN":null,"BuildingNameTC":null,"BaseHeight":4,"TopHeight":25.300000000000001,"Storeys":6,"StoreysInBasement":null,"DateStamp":1599580800000}},{"type":"Feature","id":179961,"geometry":{"type":"Polygon","coordinates":[[[114.16176384822937,22.328105363751224],[114.16177322924733,22.328098075676937],[114.16179831058876,22.328078590003454],[114.16188552928027,22.328175850871272],[114.16185157286716,22.32820218688126],[114.16176384822937,22.328105363751224]]]},"properties":{"OBJECTID":179961,"Shape__Length":37.228839411893539,"Shape__Area":64.371458151340036,"GeoRefNo":"3471621011","DateCreate":1114790400000,"BuildingBlockType":"Tower","BuildingCSUID":"3471621011T20050430","BuildingID":1108228843,"Status":"Active","BuildingNameEN":null,"BuildingNameTC":null,"BaseHeight":4.2000000000000002,"TopHeight":31.199999999999999,"Storeys":9,"StoreysInBasement":null,"DateStamp":1599580800000}},{"type":"Feature","id":179962,"geometry":{"type":"Polygon","coordinates":[[[114.16178298407787,22.328255377262753],[114.16169582829674,22.328158208368261],[114.16170390765828,22.328151931511666],[114.16173037222414,22.328131371248062],[114.16181777845813,22.328228391955601],[114.16178298407787,22.328255377262753]]]},"properties":{"OBJECTID":179962,"Shape__Length":37.335800155960399,"Shape__Area":65.198375103791236,"GeoRefNo":"3470921017","DateCreate":1114790400000,"BuildingBlockType":"Tower","BuildingCSUID":"3470921017T20050430","BuildingID":1108228794,"Status":"Active","BuildingNameEN":null,"BuildingNameTC":null,"BaseHeight":4.2000000000000002,"TopHeight":31.199999999999999,"Storeys":9,"StoreysInBasement":null,"DateStamp":1599580800000}},{"type":"Feature","id":180111,"geometry":{"type":"Polygon","coordinates":[[[114.16294052877511,22.329215660397708],[114.16300829678796,22.329162609707662],[114.16301225225934,22.329159511471165],[114.16309074719837,22.329246430103709],[114.16304766014723,22.329280121357815],[114.16304335180992,22.329283489579577],[114.1629738264272,22.329337843607618],[114.16296338514118,22.329346006000609],[114.16290694364442,22.329283477919031],[114.16289759687545,22.329273123281219],[114.16295300916924,22.329229651465806],[114.16294052877511,22.329215660397708]]]},"properties":{"OBJECTID":180111,"Shape__Length":59.387061358127092,"Shape__Area":200.27308771378239,"GeoRefNo":"3483821132","DateCreate":1114790400000,"BuildingBlockType":"Tower","BuildingCSUID":"3483821132T20050430","BuildingID":1108227943,"Status":"Active","BuildingNameEN":"WAH TANG BUILDING","BuildingNameTC":"華登大廈","BaseHeight":4.5,"TopHeight":45.399999999999999,"Storeys":13,"StoreysInBasement":null,"DateStamp":1599580800000}},{"type":"Feature","id":180114,"geometry":{"type":"Polygon","coordinates":[[[114.16263769090774,22.329394845454562],[114.16253947405377,22.329286365974649],[114.16250078313986,22.329243632186618],[114.1625685325635,22.329190926827959],[114.16257288187298,22.3291875432704],[114.16267543434901,22.329302810496404],[114.16270832114051,22.329339754500907],[114.16269392280526,22.329350985033575],[114.16268455341782,22.32934076123475],[114.16264034229093,22.329375563043772],[114.16264954911021,22.329385596195284],[114.16263769090774,22.329394845454562]]]},"properties":{"OBJECTID":180114,"Shape__Length":65.901709116673445,"Shape__Area":201.06542464359339,"GeoRefNo":"3479721139","DateCreate":1114790400000,"BuildingBlockType":"Tower","BuildingCSUID":"3479721139T20050430","BuildingID":1108227904,"Status":"Active","BuildingNameEN":null,"BuildingNameTC":null,"BaseHeight":4.5,"TopHeight":26.600000000000001,"Storeys":6,"StoreysInBasement":null,"DateStamp":1599580800000}},{"type":"Feature","id":180116,"geometry":{"type":"Polygon","coordinates":[[[114.16287559917424,22.329414641463895],[114.1628071847279,22.329339427869396],[114.16282064250356,22.329328913009384],[114.16280456695424,22.32931112751098],[114.1627996950441,22.329305737366319],[114.16280456787555,22.329301912162105],[114.16282039008755,22.32928949178266],[114.16290867893642,22.32938877837061],[114.16287559917424,22.329414641463895]]]},"properties":{"OBJECTID":180116,"Shape__Length":37.584776699340573,"Shape__Area":58.547213420398826,"GeoRefNo":"3482321145","DateCreate":1114790400000,"BuildingBlockType":"Tower","BuildingCSUID":"3482321145T20050430","BuildingID":1108227889,"Status":"Active","BuildingNameEN":null,"BuildingNameTC":null,"BaseHeight":4.5999999999999996,"TopHeight":25.899999999999999,"Storeys":6,"StoreysInBasement":null,"DateStamp":1599580800000}},{"type":"Feature","id":180161,"geometry":{"type":"Polygon","coordinates":[[[114.16478827806549,22.32821136986303],[114.16475279531653,22.328171490148517],[114.16482823918604,22.32811251519848],[114.16494826388718,22.328245052565396],[114.16488016975076,22.328298033520124],[114.16488006755023,22.328297918462962],[114.16482753018886,22.328238796311542],[114.16483656051452,22.328231948094427],[114.16481566405695,22.328208565731479],[114.16480676273117,22.328215425967688],[114.16479707601552,22.328204525062439],[114.16478827806549,22.32821136986303]]]},"properties":{"OBJECTID":180161,"Shape__Length":61.238087231419108,"Shape__Area":176.46362891402498,"GeoRefNo":"3502821020","DateCreate":1114790400000,"BuildingBlockType":"Tower","BuildingCSUID":"3502821020T20050430","BuildingID":1108228760,"Status":"Active","BuildingNameEN":null,"BuildingNameTC":null,"BaseHeight":5.2000000000000002,"TopHeight":26.100000000000001,"Storeys":6,"StoreysInBasement":null,"DateStamp":1599580800000}},{"type":"Feature","id":180162,"geometry":{"type":"Polygon","coordinates":[[[114.15811257443046,22.328213071112984],[114.1581537644403,22.328257182592271],[114.15811453425263,22.3282868100329],[114.15810984374058,22.328281716964213],[114.15808204781837,22.32830319164141],[114.15805833487097,22.328276022190515],[114.15804704879707,22.328263969026608],[114.15805833765097,22.328255244803312],[114.15810601414852,22.328218118271273],[114.15811257443046,22.328213071112984]]]},"properties":{"OBJECTID":180162,"Shape__Length":30.58090664940956,"Shape__Area":53.999871730011257,"GeoRefNo":"3433321026","DateCreate":1114790400000,"BuildingBlockType":"Tower","BuildingCSUID":"3433321026T20050430","BuildingID":1108228755,"Status":"Active","BuildingNameEN":null,"BuildingNameTC":null,"BaseHeight":3.7000000000000002,"TopHeight":21.899999999999999,"Storeys":5,"StoreysInBasement":null,"DateStamp":1599580800000}},{"type":"Feature","id":180164,"geometry":{"type":"Polygon","coordinates":[[[114.16147220678781,22.32833193929908],[114.16144169147634,22.328298642898261],[114.16145867798173,22.328285506906322],[114.16148902584816,22.328318872643052],[114.16147923446842,22.328326479531732],[114.16147220678781,22.32833193929908]]]},"properties":{"OBJECTID":180164,"Shape__Length":14.21851031034279,"Shape__Area":10.975638254054273,"GeoRefNo":"3468021030","DateCreate":1114790400000,"BuildingBlockType":"Tower","BuildingCSUID":"3468021030T20050430","BuildingID":1108228727,"Status":"Active","BuildingNameEN":null,"BuildingNameTC":null,"BaseHeight":4.2999999999999998,"TopHeight":32.799999999999997,"Storeys":9,"StoreysInBasement":null,"DateStamp":1599580800000}},{"type":"Feature","id":180165,"geometry":{"type":"Polygon","coordinates":[[[114.16339599815899,22.328334871898321],[114.16328227755335,22.328210060840441],[114.16332415776712,22.328177606428245],[114.16333660929075,22.328191472482885],[114.16343689086335,22.328303146234102],[114.16339599815899,22.328334871898321]]]},"properties":{"OBJECTID":180165,"Shape__Length":47.33393926166481,"Shape__Area":100.55229466806875,"GeoRefNo":"3487721027","DateCreate":1114790400000,"BuildingBlockType":"Tower","BuildingCSUID":"3487721027T20050430","BuildingID":1108228724,"Status":"Active","BuildingNameEN":"Mee King Building","BuildingNameTC":null,"BaseHeight":4.5999999999999996,"TopHeight":26.600000000000001,"Storeys":6,"StoreysInBasement":null,"DateStamp":1599580800000}},{"type":"Feature","id":180172,"geometry":{"type":"Polygon","coordinates":[[[114.16325431061253,22.328193597822008],[114.16313827938762,22.328064983146479],[114.16317239900876,22.328038400074224],[114.16326068953266,22.328135886328855],[114.16327568633544,22.328152442360903],[114.16325715170717,22.32816671879613],[114.16327025980945,22.328181243421081],[114.16325431061253,22.328193597822008]]]},"properties":{"OBJECTID":180172,"Shape__Length":46.409892813791316,"Shape__Area":80.411216589869994,"GeoRefNo":"3486021008","DateCreate":1114790400000,"BuildingBlockType":"Tower","BuildingCSUID":"3486021008T20050430","BuildingID":1108228851,"Status":"Active","BuildingNameEN":null,"BuildingNameTC":null,"BaseHeight":4.5999999999999996,"TopHeight":24.300000000000001,"Storeys":6,"StoreysInBasement":null,"DateStamp":1599580800000}},{"type":"Feature","id":180173,"geometry":{"type":"Polygon","coordinates":[[[114.15975089937528,22.328236406441388],[114.15971313380847,22.328194896537489],[114.15968752571013,22.328166406130354],[114.15970184725521,22.328155445418009],[114.15962769422136,22.328073516257206],[114.1596445114365,22.32806002092957],[114.15971314106366,22.328135429598287],[114.15978268540493,22.32821172324045],[114.15977177485739,22.328220222130078],[114.15975089937528,22.328236406441388]]]},"properties":{"OBJECTID":180173,"Shape__Length":52.478202631265354,"Shape__Area":70.460820581076007,"GeoRefNo":"3450121017","DateCreate":1114790400000,"BuildingBlockType":"Tower","BuildingCSUID":"3450121017T20050430","BuildingID":1108228805,"Status":"Active","BuildingNameEN":null,"BuildingNameTC":null,"BaseHeight":4.0999999999999996,"TopHeight":24.399999999999999,"Storeys":6,"StoreysInBasement":null,"DateStamp":1599580800000}},{"type":"Feature","id":180325,"geometry":{"type":"Polygon","coordinates":[[[114.16496031811205,22.329308425108398],[114.16500651676806,22.329359893779138],[114.16499269203399,22.329370566377559],[114.16496222831805,22.329394083852169],[114.16493280496211,22.329361397124615],[114.1649172008442,22.329344088233533],[114.16488881660517,22.329312558482197],[114.16487308671088,22.329295120711105],[114.16486275165822,22.329283634130029],[114.16484112758194,22.329259600704841],[114.16483028560356,22.329247560328767],[114.16486242556441,22.32922274612023],[114.1649174755312,22.329283638161442],[114.16494862291076,22.329318091039351],[114.16496031811205,22.329308425108398]]]},"properties":{"OBJECTID":180325,"Shape__Length":54.231383803615699,"Shape__Area":103.34019946898724,"GeoRefNo":"3504021145","DateCreate":1114790400000,"BuildingBlockType":"Tower","BuildingCSUID":"3504021145T20050430","BuildingID":1108227905,"Status":"Active","BuildingNameEN":null,"BuildingNameTC":null,"BaseHeight":5.2000000000000002,"TopHeight":25.899999999999999,"Storeys":6,"StoreysInBasement":null,"DateStamp":1599580800000}},{"type":"Feature","id":180362,"geometry":{"type":"Polygon","coordinates":[[[114.16476306507307,22.328318132704513],[114.16468176585848,22.328226875736572],[114.16471526551393,22.328200812364855],[114.16471702572638,22.32819943713838],[114.16482406135694,22.328320362460442],[114.16482229163252,22.328321726940953],[114.16481467349735,22.328327608537819],[114.16478873611763,22.328298466633001],[114.16476306507307,22.328318132704513]]]},"properties":{"OBJECTID":180362,"Shape__Length":44.079929918563593,"Shape__Area":67.253128608124456,"GeoRefNo":"3501821025","DateCreate":1114790400000,"BuildingBlockType":"Tower","BuildingCSUID":"3501821025T20050430","BuildingID":1108228733,"Status":"Active","BuildingNameEN":null,"BuildingNameTC":null,"BaseHeight":5.0999999999999996,"TopHeight":33.399999999999999,"Storeys":8,"StoreysInBasement":null,"DateStamp":1599580800000}},{"type":"Feature","id":180364,"geometry":{"type":"Polygon","coordinates":[[[114.16401013250012,22.328177008773324],[114.16399803316429,22.328186473764855],[114.16403456075842,22.328226916874158],[114.1640410103447,22.328222112028563],[114.16405119330346,22.328232977256956],[114.16404466584241,22.328238087691766],[114.16405844391497,22.328253338816243],[114.1639933045072,22.32830424331905],[114.16397954050368,22.328289075271616],[114.16394100965643,22.328246613565032],[114.1638993336384,22.328200685930774],[114.16389631189986,22.328197353133099],[114.1638750308438,22.328173881305673],[114.16395280966239,22.328113287404875],[114.16401013250012,22.328177008773324]]]},"properties":{"OBJECTID":180364,"Shape__Length":60.318324321504477,"Shape__Area":182.34604534361688,"GeoRefNo":"3493821022","DateCreate":1114790400000,"BuildingBlockType":"Tower","BuildingCSUID":"3493821022T20050430","BuildingID":1108228753,"Status":"Active","BuildingNameEN":null,"BuildingNameTC":"宇宙大廈","BaseHeight":4.9000000000000004,"TopHeight":42.100000000000001,"Storeys":12,"StoreysInBasement":null,"DateStamp":1599580800000}},{"type":"Feature","id":180365,"geometry":{"type":"Polygon","coordinates":[[[114.16016408899947,22.328332521503992],[114.16005667161842,22.328213387083384],[114.16009058761904,22.32818691914737],[114.16015227904657,22.328255339949408],[114.16019015593797,22.328297348521374],[114.16017900106914,22.328306054123313],[114.16019888540234,22.328328107406605],[114.16019516714462,22.328331009274194],[114.16020821981738,22.328345485646377],[114.16019709590579,22.328354225749525],[114.16017195430071,22.328326341690403],[114.16016408899947,22.328332521503992]]]},"properties":{"OBJECTID":180365,"Shape__Length":51.611742574806676,"Shape__Area":83.642276201260046,"GeoRefNo":"3454221024","DateCreate":1114790400000,"BuildingBlockType":"Tower","BuildingCSUID":"3454221024T20050430","BuildingID":1108228713,"Status":"Active","BuildingNameEN":null,"BuildingNameTC":null,"BaseHeight":4.0999999999999996,"TopHeight":30,"Storeys":8,"StoreysInBasement":null,"DateStamp":1599580800000}},{"type":"Feature","id":180368,"geometry":{"type":"Polygon","coordinates":[[[114.16174798427636,22.328282516605011],[114.16166021411622,22.328185877007403],[114.1616882099384,22.328164127114576],[114.16169582829674,22.328158208368261],[114.16178298407787,22.328255377262753],[114.16174798427636,22.328282516605011]]]},"properties":{"OBJECTID":180368,"Shape__Length":37.498477742527996,"Shape__Area":66.375671466846853,"GeoRefNo":"3470621020","DateCreate":1114790400000,"BuildingBlockType":"Tower","BuildingCSUID":"3470621020T20050430","BuildingID":1108228765,"Status":"Active","BuildingNameEN":null,"BuildingNameTC":null,"BaseHeight":4.0999999999999996,"TopHeight":31.199999999999999,"Storeys":9,"StoreysInBasement":null,"DateStamp":1599580800000}},{"type":"Feature","id":180369,"geometry":{"type":"Polygon","coordinates":[[[114.16008446510411,22.328371480177829],[114.15998931553706,22.328265951555355],[114.16002417115079,22.328238750357308],[114.16012382591963,22.328348534364437],[114.16016116421584,22.328389667733273],[114.1601537483677,22.328395494406408],[114.16014005707447,22.328380411470132],[114.16013115801735,22.328387403476707],[114.1601032827015,22.328356694990788],[114.16008446510411,22.328371480177829]]]},"properties":{"OBJECTID":180369,"Shape__Length":53.188252663081215,"Shape__Area":83.815242801708621,"GeoRefNo":"3453621031","DateCreate":1114790400000,"BuildingBlockType":"Tower","BuildingCSUID":"3453621031T20050430","BuildingID":1108228680,"Status":"Active","BuildingNameEN":null,"BuildingNameTC":null,"BaseHeight":4.0999999999999996,"TopHeight":17.300000000000001,"Storeys":null,"StoreysInBasement":null,"DateStamp":1361808000000}},{"type":"Feature","id":180370,"geometry":{"type":"Polygon","coordinates":[[[114.16132549538391,22.328351618597519],[114.16131477885438,22.328339949425093],[114.16133377956963,22.328325242768972],[114.16135208746277,22.32831107228056],[114.16136297368497,22.328322554443361],[114.16132549538391,22.328351618597519]]]},"properties":{"OBJECTID":180370,"Shape__Length":13.421494384074331,"Shape__Area":8.5079758441602316,"GeoRefNo":"3466821033","DateCreate":1114790400000,"BuildingBlockType":"Tower","BuildingCSUID":"3466821033T20050430","BuildingID":1108228715,"Status":"Active","BuildingNameEN":null,"BuildingNameTC":null,"BaseHeight":4.2999999999999998,"TopHeight":7.2000000000000002,"Storeys":null,"StoreysInBasement":null,"DateStamp":1361808000000}},{"type":"Feature","id":180371,"geometry":{"type":"Polygon","coordinates":[[[114.16335925783503,22.328363385086273],[114.16324701653906,22.328237392836279],[114.16328227755335,22.328210060840441],[114.16339599815899,22.328334871898321],[114.16335925783503,22.328363385086273]]]},"properties":{"OBJECTID":180371,"Shape__Length":45.896662255912759,"Shape__Area":87.492630510039518,"GeoRefNo":"3487121026","DateCreate":1114790400000,"BuildingBlockType":"Tower","BuildingCSUID":"3487121026T20050430","BuildingID":1108228702,"Status":"Active","BuildingNameEN":"Mee King Building","BuildingNameTC":null,"BaseHeight":4.5999999999999996,"TopHeight":24.199999999999999,"Storeys":6,"StoreysInBasement":null,"DateStamp":1599580800000}},{"type":"Feature","id":180372,"geometry":{"type":"Polygon","coordinates":[[[114.16333660929075,22.328191472482885],[114.16337104761038,22.32816550076631],[114.16347134518327,22.328276412045678],[114.16343689086335,22.328303146234102],[114.16333660929075,22.328191472482885]]]},"properties":{"OBJECTID":180372,"Shape__Length":41.353410611917823,"Shape__Area":73.885843932865583,"GeoRefNo":"3487921020","DateCreate":1114790400000,"BuildingBlockType":"Tower","BuildingCSUID":"3487921020T20050430","BuildingID":1108228756,"Status":"Active","BuildingNameEN":"Mee King Building","BuildingNameTC":null,"BaseHeight":4.7000000000000002,"TopHeight":27.600000000000001,"Storeys":6,"StoreysInBasement":null,"DateStamp":1599580800000}},{"type":"Feature","id":180373,"geometry":{"type":"Polygon","coordinates":[[[114.16012382591963,22.328348534364437],[114.16002417115079,22.328238750357308],[114.16005667161842,22.328213387083384],[114.16016408899947,22.328332521503992],[114.16015880035745,22.328336676834972],[114.16018404097819,22.328364483062646],[114.16017069239697,22.328374971075934],[114.16013717459889,22.328338046354983],[114.16012382591963,22.328348534364437]]]},"properties":{"OBJECTID":180373,"Shape__Length":51.196983045448931,"Shape__Area":79.668119819851285,"GeoRefNo":"3453921027","DateCreate":1114790400000,"BuildingBlockType":"Tower","BuildingCSUID":"3453921027T20050430","BuildingID":1108228691,"Status":"Active","BuildingNameEN":null,"BuildingNameTC":null,"BaseHeight":4.2000000000000002,"TopHeight":30,"Storeys":8,"StoreysInBasement":null,"DateStamp":1599580800000}},{"type":"Feature","id":180374,"geometry":{"type":"Polygon","coordinates":[[[114.15944144722251,22.328208097876395],[114.15951942341906,22.328147081055725],[114.1596004535554,22.328236787322918],[114.15963497090682,22.328210044474705],[114.15969719938346,22.328279244575089],[114.15958398690321,22.32836725656275],[114.15944144722251,22.328208097876395]]]},"properties":{"OBJECTID":180374,"Shape__Length":76.231053709594164,"Shape__Area":288.23593453198112,"GeoRefNo":"3448021024","DateCreate":1114790400000,"BuildingBlockType":"Tower","BuildingCSUID":"3448021024T20050430","BuildingID":1108228698,"Status":"Active","BuildingNameEN":"Kweilin Mansion","BuildingNameTC":"桂林大廈","BaseHeight":4,"TopHeight":34.600000000000001,"Storeys":8,"StoreysInBasement":null,"DateStamp":1599580800000}},{"type":"Feature","id":180538,"geometry":{"type":"Polygon","coordinates":[[[114.1615167274884,22.330252846628433],[114.16163041301188,22.330380594552025],[114.16159443589891,22.330408289413793],[114.16150756471713,22.330312539445252],[114.1615227723488,22.330300873912105],[114.16151157192293,22.330288729520444],[114.16149630122753,22.330300124400068],[114.16147947374346,22.330281559632919],[114.1615167274884,22.330252846628433]]]},"properties":{"OBJECTID":180538,"Shape__Length":50.543340512658389,"Shape__Area":86.330587706139909,"GeoRefNo":"3469021254","DateCreate":1114790400000,"BuildingBlockType":"Tower","BuildingCSUID":"3469021254T20050430","BuildingID":1108226959,"Status":"Active","BuildingNameEN":null,"BuildingNameTC":null,"BaseHeight":4.4000000000000004,"TopHeight":24.699999999999999,"Storeys":6,"StoreysInBasement":null,"DateStamp":1599580800000}},{"type":"Feature","id":180539,"geometry":{"type":"Polygon","coordinates":[[[114.16210313802731,22.330395595278326],[114.16201570665385,22.330298626944177],[114.16205097113506,22.330271380472517],[114.1621373608991,22.33036916027195],[114.16213349031976,22.330372147959999],[114.16213954933056,22.330378880988803],[114.1621637086082,22.330405727484884],[114.16214694072079,22.33041868087831],[114.16213954602787,22.330410418399687],[114.16211682018825,22.330385025773239],[114.16210313802731,22.330395595278326]]]},"properties":{"OBJECTID":180539,"Shape__Length":47.048530109385283,"Shape__Area":76.06369989541038,"GeoRefNo":"3474421256","DateCreate":1114790400000,"BuildingBlockType":"Tower","BuildingCSUID":"3474421256T20050430","BuildingID":1108226954,"Status":"Active","BuildingNameEN":null,"BuildingNameTC":null,"BaseHeight":4.5,"TopHeight":32,"Storeys":8,"StoreysInBasement":null,"DateStamp":1599580800000}},{"type":"Feature","id":180542,"geometry":{"type":"Polygon","coordinates":[[[114.16203381245147,22.330449151332424],[114.16194665416273,22.330351995421424],[114.1619818464481,22.33032479266636],[114.1620692572355,22.330421767067083],[114.16206516658342,22.330424928210896],[114.16209520188029,22.330458647163855],[114.16207931309324,22.330470923697693],[114.16204922139707,22.330437246458011],[114.16203381245147,22.330449151332424]]]},"properties":{"OBJECTID":180542,"Shape__Length":47.179423067644876,"Shape__Area":76.623084462778706,"GeoRefNo":"3473721261","DateCreate":1114790400000,"BuildingBlockType":"Tower","BuildingCSUID":"3473721261T20050430","BuildingID":1108226901,"Status":"Active","BuildingNameEN":null,"BuildingNameTC":null,"BaseHeight":4.5,"TopHeight":31.5,"Storeys":8,"StoreysInBasement":null,"DateStamp":1599580800000}},{"type":"Feature","id":180570,"geometry":{"type":"Polygon","coordinates":[[[114.16125470366991,22.328380621388167],[114.16116911009937,22.328286608099909],[114.16114725171344,22.328262599442347],[114.16116911466993,22.328245663250435],[114.1611841610723,22.328234007483431],[114.16128098781171,22.328339831317965],[114.16130576961376,22.328366915873687],[114.161293820068,22.328376182275463],[114.16128034717772,22.328360843078045],[114.16125470366991,22.328380621388167]]]},"properties":{"OBJECTID":180570,"Shape__Length":48.631269622073461,"Shape__Area":88.594985730192803,"GeoRefNo":"3465621031","DateCreate":1114790400000,"BuildingBlockType":"Tower","BuildingCSUID":"3465621031T20050430","BuildingID":1108228687,"Status":"Active","BuildingNameEN":null,"BuildingNameTC":null,"BaseHeight":4.2000000000000002,"TopHeight":26.5,"Storeys":6,"StoreysInBasement":null,"DateStamp":1599580800000}},{"type":"Feature","id":180574,"geometry":{"type":"Polygon","coordinates":[[[114.16139287428794,22.328393572273033],[114.16136218106489,22.328360233035578],[114.16138182906424,22.328345062444228],[114.16141280983271,22.328378084460944],[114.16140239047172,22.328386179207662],[114.16139287428794,22.328393572273033]]]},"properties":{"OBJECTID":180574,"Shape__Length":15.020824523905706,"Shape__Area":12.884546459048224,"GeoRefNo":"3467221037","DateCreate":1114790400000,"BuildingBlockType":"Tower","BuildingCSUID":"3467221037T20050430","BuildingID":1108228679,"Status":"Active","BuildingNameEN":null,"BuildingNameTC":null,"BaseHeight":4.2999999999999998,"TopHeight":33.399999999999999,"Storeys":9,"StoreysInBasement":null,"DateStamp":1599580800000}},{"type":"Feature","id":180575,"geometry":{"type":"Polygon","coordinates":[[[114.161354971826,22.328282445242529],[114.16125900348796,22.32817603463624],[114.16129312231222,22.328149586515732],[114.16139573188254,22.328260575699161],[114.16138149692961,22.328271672389324],[114.16136024340871,22.328288293861831],[114.161354971826,22.328282445242529]]]},"properties":{"OBJECTID":180575,"Shape__Length":41.787111985810263,"Shape__Area":75.805647207467089,"GeoRefNo":"3466721020","DateCreate":1114790400000,"BuildingBlockType":"Tower","BuildingCSUID":"3466721020T20050430","BuildingID":1108228764,"Status":"Active","BuildingNameEN":null,"BuildingNameTC":null,"BaseHeight":4.2000000000000002,"TopHeight":32.799999999999997,"Storeys":9,"StoreysInBasement":null,"DateStamp":1599580800000}}]}