{"type":"FeatureCollection","features":[{"type":"Feature","id":"amenity_point.153442","geometry":{"type":"Point","coordinates":[114.19933774000003,22.29231217000006,10.419999999998254]},"geometry_name":"shape","properties":{"amenity_id":"8f105727-b4b9-4cb4-bd61-a7103f70a293","amenity_category":"unspecified","amenity_name_en":"Corridor","amenity_name_zh":"走廊","amenity_alt_name":null,"amenity_accessibility":null,"amenity_phone":null,"amenity_website":null,"amenity_hours":null,"amenity_correlation_id":null,"unit_id":"adcc370f-1254-457d-a6c6-bc4fbe72c74a","level_id":"c87a78b8-6eaf-4a89-bdca-146145005890","level_floorpolyid":"F3857917042P2006071001000300","level_ordinal":3,"level_z_value":10.42,"level_name_en":"1st Floor","level_name_zh":"一樓","level_short_name_en":"1/F","venue_id":"6f2c1899-c5f1-4f42-8415-b18ae840b57a","building_id":"1a428993-96e1-4cd8-a6a6-f9d822f2701c","bbox":[114.19933774000003,22.29231217000006,114.19933774000003,22.29231217000006]}},{"type":"Feature","id":"amenity_point.153443","geometry":{"type":"Point","coordinates":[114.19882657000005,22.292190090000076,10.419999999998254]},"geometry_name":"shape","properties":{"amenity_id":"e70c9456-cbb1-4099-8d6e-9742dadcede0","amenity_category":"stairs","amenity_name_en":"Staircase No.4","amenity_name_zh":null,"amenity_alt_name":null,"amenity_accessibility":null,"amenity_phone":null,"amenity_website":null,"amenity_hours":null,"amenity_correlation_id":null,"unit_id":"918ce056-d298-4773-b633-25d48d7c0fce","level_id":"c87a78b8-6eaf-4a89-bdca-146145005890","level_floorpolyid":"F3857917042P2006071001000300","level_ordinal":3,"level_z_value":10.42,"level_name_en":"1st Floor","level_name_zh":"一樓","level_short_name_en":"1/F","venue_id":"6f2c1899-c5f1-4f42-8415-b18ae840b57a","building_id":"1a428993-96e1-4cd8-a6a6-f9d822f2701c","bbox":[114.19882657000005,22.292190090000076,114.19882657000005,22.292190090000076]}},{"type":"Feature","id":"amenity_point.153444","geometry":{"type":"Point","coordinates":[114.19884696000008,22.29218213000007,10.419999999998254]},"geometry_name":"shape","properties":{"amenity_id":"0e80e057-d1d6-4956-ab93-0cb5c73e5c6a","amenity_category":"unspecified","amenity_name_en":"P.d.","amenity_name_zh":null,"amenity_alt_name":null,"amenity_accessibility":null,"amenity_phone":null,"amenity_website":null,"amenity_hours":null,"amenity_correlation_id":null,"unit_id":"f5f8b35f-0759-4ab1-b6c6-649adc58e3dc","level_id":"c87a78b8-6eaf-4a89-bdca-146145005890","level_floorpolyid":"F3857917042P2006071001000300","level_ordinal":3,"level_z_value":10.42,"level_name_en":"1st Floor","level_name_zh":"一樓","level_short_name_en":"1/F","venue_id":"6f2c1899-c5f1-4f42-8415-b18ae840b57a","building_id":"1a428993-96e1-4cd8-a6a6-f9d822f2701c","bbox":[114.19884696000008,22.29218213000007,114.19884696000008,22.29218213000007]}},{"type":"Feature","id":"amenity_point.153445","geometry":{"type":"Point","coordinates":[114.19881730000009,22.292242180000073,10.419999999998254]},"geometry_name":"shape","properties":{"amenity_id":"25dd15c1-2516-4f04-a3af-27e5be0268ba","amenity_category":"stairs","amenity_name_en":"Staircase No.7","amenity_name_zh":null,"amenity_alt_name":null,"amenity_accessibility":null,"amenity_phone":null,"amenity_website":null,"amenity_hours":null,"amenity_correlation_id":null,"unit_id":"311a0529-42f1-4d5f-a083-3e6a9983e9ef","level_id":"c87a78b8-6eaf-4a89-bdca-146145005890","level_floorpolyid":"F3857917042P2006071001000300","level_ordinal":3,"level_z_value":10.42,"level_name_en":"1st Floor","level_name_zh":"一樓","level_short_name_en":"1/F","venue_id":"6f2c1899-c5f1-4f42-8415-b18ae840b57a","building_id":"1a428993-96e1-4cd8-a6a6-f9d822f2701c","bbox":[114.19881730000009,22.292242180000073,114.19881730000009,22.292242180000073]}},{"type":"Feature","id":"amenity_point.153446","geometry":{"type":"Point","coordinates":[114.19909853000001,22.29219616000006,10.419999999998254]},"geometry_name":"shape","properties":{"amenity_id":"90f15965-1fe8-4891-b67d-f61d25259798","amenity_category":"stairs","amenity_name_en":"Staircase No.6","amenity_name_zh":null,"amenity_alt_name":null,"amenity_accessibility":null,"amenity_phone":null,"amenity_website":null,"amenity_hours":null,"amenity_correlation_id":null,"unit_id":"34194232-1c4b-4081-a698-efa24734b2e4","level_id":"c87a78b8-6eaf-4a89-bdca-146145005890","level_floorpolyid":"F3857917042P2006071001000300","level_ordinal":3,"level_z_value":10.42,"level_name_en":"1st Floor","level_name_zh":"一樓","level_short_name_en":"1/F","venue_id":"6f2c1899-c5f1-4f42-8415-b18ae840b57a","building_id":"1a428993-96e1-4cd8-a6a6-f9d822f2701c","bbox":[114.19909853000001,22.29219616000006,114.19909853000001,22.29219616000006]}},{"type":"Feature","id":"amenity_point.153447","geometry":{"type":"Point","coordinates":[114.19906235000008,22.29218861000004,10.419999999998254]},"geometry_name":"shape","properties":{"amenity_id":"9f7903bb-543e-46c6-b037-1962cde60a5b","amenity_category":"unspecified","amenity_name_en":"E.M. Room","amenity_name_zh":null,"amenity_alt_name":null,"amenity_accessibility":null,"amenity_phone":null,"amenity_website":null,"amenity_hours":null,"amenity_correlation_id":null,"unit_id":"05451445-3a99-46b8-829d-0dd16a7ab2e8","level_id":"c87a78b8-6eaf-4a89-bdca-146145005890","level_floorpolyid":"F3857917042P2006071001000300","level_ordinal":3,"level_z_value":10.42,"level_name_en":"1st Floor","level_name_zh":"一樓","level_short_name_en":"1/F","venue_id":"6f2c1899-c5f1-4f42-8415-b18ae840b57a","building_id":"1a428993-96e1-4cd8-a6a6-f9d822f2701c","bbox":[114.19906235000008,22.29218861000004,114.19906235000008,22.29218861000004]}},{"type":"Feature","id":"amenity_point.153448","geometry":{"type":"Point","coordinates":[114.19923768000001,22.29234075000005,10.419999999998254]},"geometry_name":"shape","properties":{"amenity_id":"ed2df747-b531-4cd0-b241-71b8065d2ab4","amenity_category":"ramp","amenity_name_en":"Ramp","amenity_name_zh":"斜道","amenity_alt_name":null,"amenity_accessibility":null,"amenity_phone":null,"amenity_website":null,"amenity_hours":null,"amenity_correlation_id":null,"unit_id":"83e1f0d1-261a-470b-876c-ff88246e6cca","level_id":"c87a78b8-6eaf-4a89-bdca-146145005890","level_floorpolyid":"F3857917042P2006071001000300","level_ordinal":3,"level_z_value":10.42,"level_name_en":"1st Floor","level_name_zh":"一樓","level_short_name_en":"1/F","venue_id":"6f2c1899-c5f1-4f42-8415-b18ae840b57a","building_id":"1a428993-96e1-4cd8-a6a6-f9d822f2701c","bbox":[114.19923768000001,22.29234075000005,114.19923768000001,22.29234075000005]}},{"type":"Feature","id":"amenity_point.153449","geometry":{"type":"Point","coordinates":[114.19918426000004,22.292361250000056,10.419999999998254]},"geometry_name":"shape","properties":{"amenity_id":"f4dd3c45-faf9-4eaa-bdb7-f9eb990fd7b0","amenity_category":"restroom.male","amenity_name_en":"M. Toilet","amenity_name_zh":null,"amenity_alt_name":null,"amenity_accessibility":null,"amenity_phone":null,"amenity_website":null,"amenity_hours":null,"amenity_correlation_id":null,"unit_id":"2e7c14cb-7ae1-4d09-a942-2ad966cbcb0e","level_id":"c87a78b8-6eaf-4a89-bdca-146145005890","level_floorpolyid":"F3857917042P2006071001000300","level_ordinal":3,"level_z_value":10.42,"level_name_en":"1st Floor","level_name_zh":"一樓","level_short_name_en":"1/F","venue_id":"6f2c1899-c5f1-4f42-8415-b18ae840b57a","building_id":"1a428993-96e1-4cd8-a6a6-f9d822f2701c","bbox":[114.19918426000004,22.292361250000056,114.19918426000004,22.292361250000056]}},{"type":"Feature","id":"amenity_point.153450","geometry":{"type":"Point","coordinates":[114.19915661000005,22.292365930000074,10.419999999998254]},"geometry_name":"shape","properties":{"amenity_id":"0a9c7d27-1fdb-4695-9e14-ca6d4d07b0d2","amenity_category":"restroom.wheelchair","amenity_name_en":"Disabled Toilet","amenity_name_zh":null,"amenity_alt_name":null,"amenity_accessibility":null,"amenity_phone":null,"amenity_website":null,"amenity_hours":null,"amenity_correlation_id":null,"unit_id":"9e86adc3-78fe-4787-95a9-0dfe09cfcb9a","level_id":"c87a78b8-6eaf-4a89-bdca-146145005890","level_floorpolyid":"F3857917042P2006071001000300","level_ordinal":3,"level_z_value":10.42,"level_name_en":"1st Floor","level_name_zh":"一樓","level_short_name_en":"1/F","venue_id":"6f2c1899-c5f1-4f42-8415-b18ae840b57a","building_id":"1a428993-96e1-4cd8-a6a6-f9d822f2701c","bbox":[114.19915661000005,22.292365930000074,114.19915661000005,22.292365930000074]}},{"type":"Feature","id":"amenity_point.153451","geometry":{"type":"Point","coordinates":[114.19923442000004,22.292386580000027,10.419999999998254]},"geometry_name":"shape","properties":{"amenity_id":"f3789592-b28a-4379-9138-fe77f53b5bfc","amenity_category":"stairs","amenity_name_en":"Staircase No.3","amenity_name_zh":null,"amenity_alt_name":null,"amenity_accessibility":null,"amenity_phone":null,"amenity_website":null,"amenity_hours":null,"amenity_correlation_id":null,"unit_id":"9ac5a1e4-bb8a-4532-9dbf-3932da525823","level_id":"c87a78b8-6eaf-4a89-bdca-146145005890","level_floorpolyid":"F3857917042P2006071001000300","level_ordinal":3,"level_z_value":10.42,"level_name_en":"1st Floor","level_name_zh":"一樓","level_short_name_en":"1/F","venue_id":"6f2c1899-c5f1-4f42-8415-b18ae840b57a","building_id":"1a428993-96e1-4cd8-a6a6-f9d822f2701c","bbox":[114.19923442000004,22.292386580000027,114.19923442000004,22.292386580000027]}},{"type":"Feature","id":"amenity_point.153452","geometry":{"type":"Point","coordinates":[114.19924815000002,22.29236269000006,10.419999999998254]},"geometry_name":"shape","properties":{"amenity_id":"bb28826c-d9c4-4c82-9c0a-8a63254d78fb","amenity_category":"unspecified","amenity_name_en":"P.d.","amenity_name_zh":null,"amenity_alt_name":null,"amenity_accessibility":null,"amenity_phone":null,"amenity_website":null,"amenity_hours":null,"amenity_correlation_id":null,"unit_id":"6e1f3c48-a9ce-49f1-a423-f4dff724bac7","level_id":"c87a78b8-6eaf-4a89-bdca-146145005890","level_floorpolyid":"F3857917042P2006071001000300","level_ordinal":3,"level_z_value":10.42,"level_name_en":"1st Floor","level_name_zh":"一樓","level_short_name_en":"1/F","venue_id":"6f2c1899-c5f1-4f42-8415-b18ae840b57a","building_id":"1a428993-96e1-4cd8-a6a6-f9d822f2701c","bbox":[114.19924815000002,22.29236269000006,114.19924815000002,22.29236269000006]}},{"type":"Feature","id":"amenity_point.153453","geometry":{"type":"Point","coordinates":[114.19929000000002,22.29238532000005,10.419999999998254]},"geometry_name":"shape","properties":{"amenity_id":"a3493330-1f38-4d84-8115-ab0b5cd770f0","amenity_category":"restroom.female","amenity_name_en":"F. Toilet","amenity_name_zh":null,"amenity_alt_name":null,"amenity_accessibility":null,"amenity_phone":null,"amenity_website":null,"amenity_hours":null,"amenity_correlation_id":null,"unit_id":"1e09884f-9ed4-46ab-ad13-544ba42dd58e","level_id":"c87a78b8-6eaf-4a89-bdca-146145005890","level_floorpolyid":"F3857917042P2006071001000300","level_ordinal":3,"level_z_value":10.42,"level_name_en":"1st Floor","level_name_zh":"一樓","level_short_name_en":"1/F","venue_id":"6f2c1899-c5f1-4f42-8415-b18ae840b57a","building_id":"1a428993-96e1-4cd8-a6a6-f9d822f2701c","bbox":[114.19929000000002,22.29238532000005,114.19929000000002,22.29238532000005]}},{"type":"Feature","id":"amenity_point.153454","geometry":{"type":"Point","coordinates":[114.19946448000007,22.292288520000056,10.419999999998254]},"geometry_name":"shape","properties":{"amenity_id":"db65dc4d-f447-46f6-8578-1b0eec1d41a9","amenity_category":"unspecified","amenity_name_en":"Office","amenity_name_zh":"辦公室","amenity_alt_name":null,"amenity_accessibility":null,"amenity_phone":null,"amenity_website":null,"amenity_hours":null,"amenity_correlation_id":null,"unit_id":"5bbaf5b0-c159-4866-b27e-76403f002760","level_id":"c87a78b8-6eaf-4a89-bdca-146145005890","level_floorpolyid":"F3857917042P2006071001000300","level_ordinal":3,"level_z_value":10.42,"level_name_en":"1st Floor","level_name_zh":"一樓","level_short_name_en":"1/F","venue_id":"6f2c1899-c5f1-4f42-8415-b18ae840b57a","building_id":"1a428993-96e1-4cd8-a6a6-f9d822f2701c","bbox":[114.19946448000007,22.292288520000056,114.19946448000007,22.292288520000056]}},{"type":"Feature","id":"amenity_point.153455","geometry":{"type":"Point","coordinates":[114.19940577000011,22.292252760000054,10.419999999998254]},"geometry_name":"shape","properties":{"amenity_id":"d87ff106-a592-4ede-bb97-04808f4d2e4f","amenity_category":"unspecified","amenity_name_en":"Lift Shaft","amenity_name_zh":"升降機槽","amenity_alt_name":null,"amenity_accessibility":null,"amenity_phone":null,"amenity_website":null,"amenity_hours":null,"amenity_correlation_id":null,"unit_id":"8c70ca1b-dda6-4efb-ad67-6b2824a36688","level_id":"c87a78b8-6eaf-4a89-bdca-146145005890","level_floorpolyid":"F3857917042P2006071001000300","level_ordinal":3,"level_z_value":10.42,"level_name_en":"1st Floor","level_name_zh":"一樓","level_short_name_en":"1/F","venue_id":"6f2c1899-c5f1-4f42-8415-b18ae840b57a","building_id":"1a428993-96e1-4cd8-a6a6-f9d822f2701c","bbox":[114.19940577000011,22.292252760000054,114.19940577000011,22.292252760000054]}},{"type":"Feature","id":"amenity_point.153456","geometry":{"type":"Point","coordinates":[114.19939881000005,22.292282030000024,10.419999999998254]},"geometry_name":"shape","properties":{"amenity_id":"428483fe-6d51-4bb1-ba19-5a1304b412f5","amenity_category":"elevator","amenity_name_en":"Lift 3","amenity_name_zh":null,"amenity_alt_name":null,"amenity_accessibility":null,"amenity_phone":null,"amenity_website":null,"amenity_hours":null,"amenity_correlation_id":null,"unit_id":"742881d0-5cd6-4a77-9859-7308d3921b1f","level_id":"c87a78b8-6eaf-4a89-bdca-146145005890","level_floorpolyid":"F3857917042P2006071001000300","level_ordinal":3,"level_z_value":10.42,"level_name_en":"1st Floor","level_name_zh":"一樓","level_short_name_en":"1/F","venue_id":"6f2c1899-c5f1-4f42-8415-b18ae840b57a","building_id":"1a428993-96e1-4cd8-a6a6-f9d822f2701c","bbox":[114.19939881000005,22.292282030000024,114.19939881000005,22.292282030000024]}},{"type":"Feature","id":"amenity_point.153457","geometry":{"type":"Point","coordinates":[114.19938045000004,22.292285020000065,10.419999999998254]},"geometry_name":"shape","properties":{"amenity_id":"96c23469-5427-430a-92a7-dd867ce9221f","amenity_category":"unspecified","amenity_name_en":"P.d.","amenity_name_zh":null,"amenity_alt_name":null,"amenity_accessibility":null,"amenity_phone":null,"amenity_website":null,"amenity_hours":null,"amenity_correlation_id":null,"unit_id":"797442b1-e39f-41fc-8e46-3efed557df63","level_id":"c87a78b8-6eaf-4a89-bdca-146145005890","level_floorpolyid":"F3857917042P2006071001000300","level_ordinal":3,"level_z_value":10.42,"level_name_en":"1st Floor","level_name_zh":"一樓","level_short_name_en":"1/F","venue_id":"6f2c1899-c5f1-4f42-8415-b18ae840b57a","building_id":"1a428993-96e1-4cd8-a6a6-f9d822f2701c","bbox":[114.19938045000004,22.292285020000065,114.19938045000004,22.292285020000065]}},{"type":"Feature","id":"amenity_point.153458","geometry":{"type":"Point","coordinates":[114.19942698000011,22.292278620000047,10.419999999998254]},"geometry_name":"shape","properties":{"amenity_id":"9902c703-c905-468b-a633-4ea65f0c497a","amenity_category":"unspecified","amenity_name_en":"Lift Lobby","amenity_name_zh":"升降機大堂","amenity_alt_name":null,"amenity_accessibility":null,"amenity_phone":null,"amenity_website":null,"amenity_hours":null,"amenity_correlation_id":null,"unit_id":"99852eb1-ee84-4a83-a707-f66ef2b3e25b","level_id":"c87a78b8-6eaf-4a89-bdca-146145005890","level_floorpolyid":"F3857917042P2006071001000300","level_ordinal":3,"level_z_value":10.42,"level_name_en":"1st Floor","level_name_zh":"一樓","level_short_name_en":"1/F","venue_id":"6f2c1899-c5f1-4f42-8415-b18ae840b57a","building_id":"1a428993-96e1-4cd8-a6a6-f9d822f2701c","bbox":[114.19942698000011,22.292278620000047,114.19942698000011,22.292278620000047]}},{"type":"Feature","id":"amenity_point.153459","geometry":{"type":"Point","coordinates":[114.19944180000005,22.29226034000004,10.419999999998254]},"geometry_name":"shape","properties":{"amenity_id":"98c08ce9-cce1-4d36-9d9a-29633a28044b","amenity_category":"unspecified","amenity_name_en":"Store","amenity_name_zh":"貯存室","amenity_alt_name":null,"amenity_accessibility":null,"amenity_phone":null,"amenity_website":null,"amenity_hours":null,"amenity_correlation_id":null,"unit_id":"730f3880-9dfd-46d1-8904-d06cf18fc29b","level_id":"c87a78b8-6eaf-4a89-bdca-146145005890","level_floorpolyid":"F3857917042P2006071001000300","level_ordinal":3,"level_z_value":10.42,"level_name_en":"1st Floor","level_name_zh":"一樓","level_short_name_en":"1/F","venue_id":"6f2c1899-c5f1-4f42-8415-b18ae840b57a","building_id":"1a428993-96e1-4cd8-a6a6-f9d822f2701c","bbox":[114.19944180000005,22.29226034000004,114.19944180000005,22.29226034000004]}},{"type":"Feature","id":"amenity_point.153460","geometry":{"type":"Point","coordinates":[114.19950735000009,22.292287670000064,10.419999999998254]},"geometry_name":"shape","properties":{"amenity_id":"c853cd13-2311-4d57-93d7-db9670f2f8ed","amenity_category":"stairs","amenity_name_en":"Staircase No.1","amenity_name_zh":null,"amenity_alt_name":null,"amenity_accessibility":null,"amenity_phone":null,"amenity_website":null,"amenity_hours":null,"amenity_correlation_id":null,"unit_id":"64415144-b31f-4abf-adee-3af5ff58a359","level_id":"c87a78b8-6eaf-4a89-bdca-146145005890","level_floorpolyid":"F3857917042P2006071001000300","level_ordinal":3,"level_z_value":10.42,"level_name_en":"1st Floor","level_name_zh":"一樓","level_short_name_en":"1/F","venue_id":"6f2c1899-c5f1-4f42-8415-b18ae840b57a","building_id":"1a428993-96e1-4cd8-a6a6-f9d822f2701c","bbox":[114.19950735000009,22.292287670000064,114.19950735000009,22.292287670000064]}},{"type":"Feature","id":"amenity_point.153461","geometry":{"type":"Point","coordinates":[114.19947959000001,22.292260930000054,10.419999999998254]},"geometry_name":"shape","properties":{"amenity_id":"3b1cea98-3ea0-40ce-9523-cc6e33355ee3","amenity_category":"unspecified","amenity_name_en":"Roof","amenity_name_zh":"天台","amenity_alt_name":null,"amenity_accessibility":null,"amenity_phone":null,"amenity_website":null,"amenity_hours":null,"amenity_correlation_id":null,"unit_id":"9fdc7c97-f25b-4c91-80bb-b5a43bf43351","level_id":"c87a78b8-6eaf-4a89-bdca-146145005890","level_floorpolyid":"F3857917042P2006071001000300","level_ordinal":3,"level_z_value":10.42,"level_name_en":"1st Floor","level_name_zh":"一樓","level_short_name_en":"1/F","venue_id":"6f2c1899-c5f1-4f42-8415-b18ae840b57a","building_id":"1a428993-96e1-4cd8-a6a6-f9d822f2701c","bbox":[114.19947959000001,22.292260930000054,114.19947959000001,22.292260930000054]}},{"type":"Feature","id":"amenity_point.153462","geometry":{"type":"Point","coordinates":[114.19946100000004,22.29225710000003,10.419999999998254]},"geometry_name":"shape","properties":{"amenity_id":"6948f0b5-5509-40bd-b892-d304f0178b47","amenity_category":"restroom.female","amenity_name_en":"W.","amenity_name_zh":null,"amenity_alt_name":null,"amenity_accessibility":null,"amenity_phone":null,"amenity_website":null,"amenity_hours":null,"amenity_correlation_id":null,"unit_id":"a425ead3-ab8b-4f5b-b9f6-2308119c8348","level_id":"c87a78b8-6eaf-4a89-bdca-146145005890","level_floorpolyid":"F3857917042P2006071001000300","level_ordinal":3,"level_z_value":10.42,"level_name_en":"1st Floor","level_name_zh":"一樓","level_short_name_en":"1/F","venue_id":"6f2c1899-c5f1-4f42-8415-b18ae840b57a","building_id":"1a428993-96e1-4cd8-a6a6-f9d822f2701c","bbox":[114.19946100000004,22.29225710000003,114.19946100000004,22.29225710000003]}},{"type":"Feature","id":"amenity_point.153463","geometry":{"type":"Point","coordinates":[114.19948919000001,22.292287130000034,10.419999999998254]},"geometry_name":"shape","properties":{"amenity_id":"4f7a60c8-d909-4740-b5a5-22bacd590cef","amenity_category":"unspecified","amenity_name_en":"P.d.","amenity_name_zh":null,"amenity_alt_name":null,"amenity_accessibility":null,"amenity_phone":null,"amenity_website":null,"amenity_hours":null,"amenity_correlation_id":null,"unit_id":"4a33729b-2176-46ce-b272-d4e17273f3ae","level_id":"c87a78b8-6eaf-4a89-bdca-146145005890","level_floorpolyid":"F3857917042P2006071001000300","level_ordinal":3,"level_z_value":10.42,"level_name_en":"1st Floor","level_name_zh":"一樓","level_short_name_en":"1/F","venue_id":"6f2c1899-c5f1-4f42-8415-b18ae840b57a","building_id":"1a428993-96e1-4cd8-a6a6-f9d822f2701c","bbox":[114.19948919000001,22.292287130000034,114.19948919000001,22.292287130000034]}},{"type":"Feature","id":"amenity_point.153464","geometry":{"type":"Point","coordinates":[114.19957316000011,22.292291050000074,10.419999999998254]},"geometry_name":"shape","properties":{"amenity_id":"44589d1d-cd1c-454f-9d79-956433d1e634","amenity_category":"elevator","amenity_name_en":"Goods Lifts 2","amenity_name_zh":null,"amenity_alt_name":null,"amenity_accessibility":null,"amenity_phone":null,"amenity_website":null,"amenity_hours":null,"amenity_correlation_id":null,"unit_id":"74250d69-8aea-46ce-a587-4ef7bb023913","level_id":"c87a78b8-6eaf-4a89-bdca-146145005890","level_floorpolyid":"F3857917042P2006071001000300","level_ordinal":3,"level_z_value":10.42,"level_name_en":"1st Floor","level_name_zh":"一樓","level_short_name_en":"1/F","venue_id":"6f2c1899-c5f1-4f42-8415-b18ae840b57a","building_id":"1a428993-96e1-4cd8-a6a6-f9d822f2701c","bbox":[114.19957316000011,22.292291050000074,114.19957316000011,22.292291050000074]}},{"type":"Feature","id":"amenity_point.153465","geometry":{"type":"Point","coordinates":[114.19954005000011,22.292284180000024,10.419999999998254]},"geometry_name":"shape","properties":{"amenity_id":"30e799d0-284b-4654-b064-70b20cddf260","amenity_category":"elevator","amenity_name_en":"Goods Lifts 1","amenity_name_zh":null,"amenity_alt_name":null,"amenity_accessibility":null,"amenity_phone":null,"amenity_website":null,"amenity_hours":null,"amenity_correlation_id":null,"unit_id":"413dc187-eda0-4a91-9830-d46f157ad15c","level_id":"c87a78b8-6eaf-4a89-bdca-146145005890","level_floorpolyid":"F3857917042P2006071001000300","level_ordinal":3,"level_z_value":10.42,"level_name_en":"1st Floor","level_name_zh":"一樓","level_short_name_en":"1/F","venue_id":"6f2c1899-c5f1-4f42-8415-b18ae840b57a","building_id":"1a428993-96e1-4cd8-a6a6-f9d822f2701c","bbox":[114.19954005000011,22.292284180000024,114.19954005000011,22.292284180000024]}},{"type":"Feature","id":"amenity_point.153466","geometry":{"type":"Point","coordinates":[114.19960235000008,22.292308900000023,10.419999999998254]},"geometry_name":"shape","properties":{"amenity_id":"5c59f516-f97a-41ae-a069-b40ddb4f543e","amenity_category":"stairs","amenity_name_en":"Staircase No.5","amenity_name_zh":null,"amenity_alt_name":null,"amenity_accessibility":null,"amenity_phone":null,"amenity_website":null,"amenity_hours":null,"amenity_correlation_id":null,"unit_id":"dd172d63-b264-4e6a-9d7a-0ac7d6b3803c","level_id":"c87a78b8-6eaf-4a89-bdca-146145005890","level_floorpolyid":"F3857917042P2006071001000300","level_ordinal":3,"level_z_value":10.42,"level_name_en":"1st Floor","level_name_zh":"一樓","level_short_name_en":"1/F","venue_id":"6f2c1899-c5f1-4f42-8415-b18ae840b57a","building_id":"1a428993-96e1-4cd8-a6a6-f9d822f2701c","bbox":[114.19960235000008,22.292308900000023,114.19960235000008,22.292308900000023]}},{"type":"Feature","id":"amenity_point.153467","geometry":{"type":"Point","coordinates":[114.19962914000007,22.292314390000058,10.419999999998254]},"geometry_name":"shape","properties":{"amenity_id":"574d4005-60c3-45e0-aacd-498356446b77","amenity_category":"unspecified","amenity_name_en":"E.SW. Room","amenity_name_zh":null,"amenity_alt_name":null,"amenity_accessibility":null,"amenity_phone":null,"amenity_website":null,"amenity_hours":null,"amenity_correlation_id":null,"unit_id":"aea60c6f-cf94-41e4-b448-a0f7eeeb7508","level_id":"c87a78b8-6eaf-4a89-bdca-146145005890","level_floorpolyid":"F3857917042P2006071001000300","level_ordinal":3,"level_z_value":10.42,"level_name_en":"1st Floor","level_name_zh":"一樓","level_short_name_en":"1/F","venue_id":"6f2c1899-c5f1-4f42-8415-b18ae840b57a","building_id":"1a428993-96e1-4cd8-a6a6-f9d822f2701c","bbox":[114.19962914000007,22.292314390000058,114.19962914000007,22.292314390000058]}},{"type":"Feature","id":"amenity_point.153468","geometry":{"type":"Point","coordinates":[114.19965978000005,22.29230048000005,10.419999999998254]},"geometry_name":"shape","properties":{"amenity_id":"bebf19d0-220f-494e-8127-4170e28bfd92","amenity_category":"unspecified","amenity_name_en":"E&M Room","amenity_name_zh":null,"amenity_alt_name":null,"amenity_accessibility":null,"amenity_phone":null,"amenity_website":null,"amenity_hours":null,"amenity_correlation_id":null,"unit_id":"bd65af64-12e8-4392-959d-c8e0e8e7b549","level_id":"c87a78b8-6eaf-4a89-bdca-146145005890","level_floorpolyid":"F3857917042P2006071001000300","level_ordinal":3,"level_z_value":10.42,"level_name_en":"1st Floor","level_name_zh":"一樓","level_short_name_en":"1/F","venue_id":"6f2c1899-c5f1-4f42-8415-b18ae840b57a","building_id":"1a428993-96e1-4cd8-a6a6-f9d822f2701c","bbox":[114.19965978000005,22.29230048000005,114.19965978000005,22.29230048000005]}},{"type":"Feature","id":"amenity_point.153469","geometry":{"type":"Point","coordinates":[114.19988420000004,22.292385210000077,10.419999999998254]},"geometry_name":"shape","properties":{"amenity_id":"f1e88d47-0763-43a6-b551-f540eb208d30","amenity_category":"unspecified","amenity_name_en":"Store","amenity_name_zh":"貯存室","amenity_alt_name":null,"amenity_accessibility":null,"amenity_phone":null,"amenity_website":null,"amenity_hours":null,"amenity_correlation_id":null,"unit_id":"144e0366-1f44-4992-91ba-542fbf1a0c86","level_id":"c87a78b8-6eaf-4a89-bdca-146145005890","level_floorpolyid":"F3857917042P2006071001000300","level_ordinal":3,"level_z_value":10.42,"level_name_en":"1st Floor","level_name_zh":"一樓","level_short_name_en":"1/F","venue_id":"6f2c1899-c5f1-4f42-8415-b18ae840b57a","building_id":"1a428993-96e1-4cd8-a6a6-f9d822f2701c","bbox":[114.19988420000004,22.292385210000077,114.19988420000004,22.292385210000077]}},{"type":"Feature","id":"amenity_point.153470","geometry":{"type":"Point","coordinates":[114.19991154000002,22.29245394000003,10.419999999998254]},"geometry_name":"shape","properties":{"amenity_id":"04767bf6-da65-40ae-beec-7dc97d67d4e8","amenity_category":"stairs","amenity_name_en":"Stair","amenity_name_zh":"樓梯","amenity_alt_name":null,"amenity_accessibility":null,"amenity_phone":null,"amenity_website":null,"amenity_hours":null,"amenity_correlation_id":null,"unit_id":"2da2674d-934b-4594-ae24-f731cb59de6f","level_id":"c87a78b8-6eaf-4a89-bdca-146145005890","level_floorpolyid":"F3857917042P2006071001000300","level_ordinal":3,"level_z_value":10.42,"level_name_en":"1st Floor","level_name_zh":"一樓","level_short_name_en":"1/F","venue_id":"6f2c1899-c5f1-4f42-8415-b18ae840b57a","building_id":"1a428993-96e1-4cd8-a6a6-f9d822f2701c","bbox":[114.19991154000002,22.29245394000003,114.19991154000002,22.29245394000003]}},{"type":"Feature","id":"amenity_point.153471","geometry":{"type":"Point","coordinates":[114.19989407000003,22.29244362000003,10.419999999998254]},"geometry_name":"shape","properties":{"amenity_id":"fbaaf2b9-9ff6-48de-a757-047ad37c4401","amenity_category":"unspecified","amenity_name_en":"P.d.","amenity_name_zh":null,"amenity_alt_name":null,"amenity_accessibility":null,"amenity_phone":null,"amenity_website":null,"amenity_hours":null,"amenity_correlation_id":null,"unit_id":"861ab720-e09c-4cc1-a852-202e93659b91","level_id":"c87a78b8-6eaf-4a89-bdca-146145005890","level_floorpolyid":"F3857917042P2006071001000300","level_ordinal":3,"level_z_value":10.42,"level_name_en":"1st Floor","level_name_zh":"一樓","level_short_name_en":"1/F","venue_id":"6f2c1899-c5f1-4f42-8415-b18ae840b57a","building_id":"1a428993-96e1-4cd8-a6a6-f9d822f2701c","bbox":[114.19989407000003,22.29244362000003,114.19989407000003,22.29244362000003]}},{"type":"Feature","id":"amenity_point.153472","geometry":{"type":"Point","coordinates":[114.19990025000004,22.292503800000077,10.419999999998254]},"geometry_name":"shape","properties":{"amenity_id":"d9536138-a2c7-420e-9000-aa259e26f1ae","amenity_category":"unspecified","amenity_name_en":"Refuse Room","amenity_name_zh":null,"amenity_alt_name":null,"amenity_accessibility":null,"amenity_phone":null,"amenity_website":null,"amenity_hours":null,"amenity_correlation_id":null,"unit_id":"9bb6a9b1-fe96-4702-96a6-115240dd6ffb","level_id":"c87a78b8-6eaf-4a89-bdca-146145005890","level_floorpolyid":"F3857917042P2006071001000300","level_ordinal":3,"level_z_value":10.42,"level_name_en":"1st Floor","level_name_zh":"一樓","level_short_name_en":"1/F","venue_id":"6f2c1899-c5f1-4f42-8415-b18ae840b57a","building_id":"1a428993-96e1-4cd8-a6a6-f9d822f2701c","bbox":[114.19990025000004,22.292503800000077,114.19990025000004,22.292503800000077]}},{"type":"Feature","id":"amenity_point.153473","geometry":{"type":"Point","coordinates":[114.19955453000011,22.29244386000005,4.419999999998254]},"geometry_name":"shape","properties":{"amenity_id":"c1851c5a-0839-4993-9a41-e0ea1a02b00e","amenity_category":"parking","amenity_name_en":"Parking Space (General)","amenity_name_zh":"停車位(一般)","amenity_alt_name":null,"amenity_accessibility":null,"amenity_phone":null,"amenity_website":null,"amenity_hours":null,"amenity_correlation_id":null,"unit_id":"79aa7eb2-fa60-41bc-891b-d8d6cc9c3f8a","level_id":"581c6490-1c5b-4ec8-8437-46cfdd169af7","level_floorpolyid":"F3857917042P2006071002000000","level_ordinal":0,"level_z_value":4.42,"level_name_en":"Ground Floor","level_name_zh":"底層","level_short_name_en":"G/F","venue_id":"6f2c1899-c5f1-4f42-8415-b18ae840b57a","building_id":"1a428993-96e1-4cd8-a6a6-f9d822f2701c","bbox":[114.19955453000011,22.29244386000005,114.19955453000011,22.29244386000005]}},{"type":"Feature","id":"amenity_point.153474","geometry":{"type":"Point","coordinates":[114.1995606800001,22.29241669000004,4.419999999998254]},"geometry_name":"shape","properties":{"amenity_id":"4e8e9445-d7a0-4bc5-be35-f37186c8b92c","amenity_category":"parking","amenity_name_en":"Parking Space (General)","amenity_name_zh":"停車位(一般)","amenity_alt_name":null,"amenity_accessibility":null,"amenity_phone":null,"amenity_website":null,"amenity_hours":null,"amenity_correlation_id":null,"unit_id":"79aa7eb2-fa60-41bc-891b-d8d6cc9c3f8a","level_id":"581c6490-1c5b-4ec8-8437-46cfdd169af7","level_floorpolyid":"F3857917042P2006071002000000","level_ordinal":0,"level_z_value":4.42,"level_name_en":"Ground Floor","level_name_zh":"底層","level_short_name_en":"G/F","venue_id":"6f2c1899-c5f1-4f42-8415-b18ae840b57a","building_id":"1a428993-96e1-4cd8-a6a6-f9d822f2701c","bbox":[114.1995606800001,22.29241669000004,114.1995606800001,22.29241669000004]}},{"type":"Feature","id":"amenity_point.153475","geometry":{"type":"Point","coordinates":[114.19956673000002,22.29238932000004,4.419999999998254]},"geometry_name":"shape","properties":{"amenity_id":"c941c2b0-c4d0-43a2-8b00-c7ca3e928070","amenity_category":"parking","amenity_name_en":"Parking Space (General)","amenity_name_zh":"停車位(一般)","amenity_alt_name":null,"amenity_accessibility":null,"amenity_phone":null,"amenity_website":null,"amenity_hours":null,"amenity_correlation_id":null,"unit_id":"79aa7eb2-fa60-41bc-891b-d8d6cc9c3f8a","level_id":"581c6490-1c5b-4ec8-8437-46cfdd169af7","level_floorpolyid":"F3857917042P2006071002000000","level_ordinal":0,"level_z_value":4.42,"level_name_en":"Ground Floor","level_name_zh":"底層","level_short_name_en":"G/F","venue_id":"6f2c1899-c5f1-4f42-8415-b18ae840b57a","building_id":"1a428993-96e1-4cd8-a6a6-f9d822f2701c","bbox":[114.19956673000002,22.29238932000004,114.19956673000002,22.29238932000004]}},{"type":"Feature","id":"amenity_point.153476","geometry":{"type":"Point","coordinates":[114.19957330000011,22.29236202000004,4.419999999998254]},"geometry_name":"shape","properties":{"amenity_id":"81cfc63e-554b-4838-9738-58d1af53f1a5","amenity_category":"parking","amenity_name_en":"Parking Space (General)","amenity_name_zh":"停車位(一般)","amenity_alt_name":null,"amenity_accessibility":null,"amenity_phone":null,"amenity_website":null,"amenity_hours":null,"amenity_correlation_id":null,"unit_id":"79aa7eb2-fa60-41bc-891b-d8d6cc9c3f8a","level_id":"581c6490-1c5b-4ec8-8437-46cfdd169af7","level_floorpolyid":"F3857917042P2006071002000000","level_ordinal":0,"level_z_value":4.42,"level_name_en":"Ground Floor","level_name_zh":"底層","level_short_name_en":"G/F","venue_id":"6f2c1899-c5f1-4f42-8415-b18ae840b57a","building_id":"1a428993-96e1-4cd8-a6a6-f9d822f2701c","bbox":[114.19957330000011,22.29236202000004,114.19957330000011,22.29236202000004]}},{"type":"Feature","id":"amenity_point.153477","geometry":{"type":"Point","coordinates":[114.1997995700001,22.29242012000003,4.419999999998254]},"geometry_name":"shape","properties":{"amenity_id":"04cba202-a9dd-4535-b34b-3cb85eedb635","amenity_category":"parking","amenity_name_en":"Parking Space (General)","amenity_name_zh":"停車位(一般)","amenity_alt_name":null,"amenity_accessibility":null,"amenity_phone":null,"amenity_website":null,"amenity_hours":null,"amenity_correlation_id":null,"unit_id":"62e62b94-6fe5-47aa-9fa8-44a6109032de","level_id":"581c6490-1c5b-4ec8-8437-46cfdd169af7","level_floorpolyid":"F3857917042P2006071002000000","level_ordinal":0,"level_z_value":4.42,"level_name_en":"Ground Floor","level_name_zh":"底層","level_short_name_en":"G/F","venue_id":"6f2c1899-c5f1-4f42-8415-b18ae840b57a","building_id":"1a428993-96e1-4cd8-a6a6-f9d822f2701c","bbox":[114.1997995700001,22.29242012000003,114.1997995700001,22.29242012000003]}},{"type":"Feature","id":"amenity_point.153478","geometry":{"type":"Point","coordinates":[114.19969226,22.292426470000066,4.419999999998254]},"geometry_name":"shape","properties":{"amenity_id":"b6ba4353-41ad-4746-a0ee-2ebd9e53b054","amenity_category":"unspecified","amenity_name_en":"Loading/Unloading Platform","amenity_name_zh":"上落客貨平台","amenity_alt_name":null,"amenity_accessibility":null,"amenity_phone":null,"amenity_website":null,"amenity_hours":null,"amenity_correlation_id":null,"unit_id":"1b26a1fa-d55b-4b3d-80c6-05432acd5b28","level_id":"581c6490-1c5b-4ec8-8437-46cfdd169af7","level_floorpolyid":"F3857917042P2006071002000000","level_ordinal":0,"level_z_value":4.42,"level_name_en":"Ground Floor","level_name_zh":"底層","level_short_name_en":"G/F","venue_id":"6f2c1899-c5f1-4f42-8415-b18ae840b57a","building_id":"1a428993-96e1-4cd8-a6a6-f9d822f2701c","bbox":[114.19969226,22.292426470000066,114.19969226,22.292426470000066]}},{"type":"Feature","id":"amenity_point.153479","geometry":{"type":"Point","coordinates":[114.19882427000005,22.29219334000004,4.419999999998254]},"geometry_name":"shape","properties":{"amenity_id":"92360db4-7da2-48c3-bf10-e6f1e4eee839","amenity_category":"stairs","amenity_name_en":"Stair","amenity_name_zh":"樓梯","amenity_alt_name":null,"amenity_accessibility":null,"amenity_phone":null,"amenity_website":null,"amenity_hours":null,"amenity_correlation_id":null,"unit_id":"284f7403-26c0-4c1b-a080-1f31f595f05d","level_id":"581c6490-1c5b-4ec8-8437-46cfdd169af7","level_floorpolyid":"F3857917042P2006071002000000","level_ordinal":0,"level_z_value":4.42,"level_name_en":"Ground Floor","level_name_zh":"底層","level_short_name_en":"G/F","venue_id":"6f2c1899-c5f1-4f42-8415-b18ae840b57a","building_id":"1a428993-96e1-4cd8-a6a6-f9d822f2701c","bbox":[114.19882427000005,22.29219334000004,114.19882427000005,22.29219334000004]}},{"type":"Feature","id":"amenity_point.153480","geometry":{"type":"Point","coordinates":[114.19881189000012,22.292247950000046,4.419999999998254]},"geometry_name":"shape","properties":{"amenity_id":"eb1618f1-3621-4c97-9760-38c4ca7df2d6","amenity_category":"unspecified","amenity_name_en":"Store","amenity_name_zh":"貯存室","amenity_alt_name":null,"amenity_accessibility":null,"amenity_phone":null,"amenity_website":null,"amenity_hours":null,"amenity_correlation_id":null,"unit_id":"3cb0d055-dbc1-441c-b819-223bc08d1bd5","level_id":"581c6490-1c5b-4ec8-8437-46cfdd169af7","level_floorpolyid":"F3857917042P2006071002000000","level_ordinal":0,"level_z_value":4.42,"level_name_en":"Ground Floor","level_name_zh":"底層","level_short_name_en":"G/F","venue_id":"6f2c1899-c5f1-4f42-8415-b18ae840b57a","building_id":"1a428993-96e1-4cd8-a6a6-f9d822f2701c","bbox":[114.19881189000012,22.292247950000046,114.19881189000012,22.292247950000046]}},{"type":"Feature","id":"amenity_point.153481","geometry":{"type":"Point","coordinates":[114.19880383000009,22.292278070000066,4.419999999998254]},"geometry_name":"shape","properties":{"amenity_id":"b2205603-44df-461a-8682-cc407ef720c8","amenity_category":"unspecified","amenity_name_en":"Goods Store","amenity_name_zh":null,"amenity_alt_name":null,"amenity_accessibility":null,"amenity_phone":null,"amenity_website":null,"amenity_hours":null,"amenity_correlation_id":null,"unit_id":"eeb240ad-8476-4e26-8f6e-3dc151812245","level_id":"581c6490-1c5b-4ec8-8437-46cfdd169af7","level_floorpolyid":"F3857917042P2006071002000000","level_ordinal":0,"level_z_value":4.42,"level_name_en":"Ground Floor","level_name_zh":"底層","level_short_name_en":"G/F","venue_id":"6f2c1899-c5f1-4f42-8415-b18ae840b57a","building_id":"1a428993-96e1-4cd8-a6a6-f9d822f2701c","bbox":[114.19880383000009,22.292278070000066,114.19880383000009,22.292278070000066]}},{"type":"Feature","id":"amenity_point.153482","geometry":{"type":"Point","coordinates":[114.19879233000006,22.292299240000034,4.419999999998254]},"geometry_name":"shape","properties":{"amenity_id":"887d3c39-ecce-44cb-bad8-a38d4a294708","amenity_category":"unspecified","amenity_name_en":"Goods Store","amenity_name_zh":null,"amenity_alt_name":null,"amenity_accessibility":null,"amenity_phone":null,"amenity_website":null,"amenity_hours":null,"amenity_correlation_id":null,"unit_id":"db1998d3-c2c0-4580-81b2-6f88a9893917","level_id":"581c6490-1c5b-4ec8-8437-46cfdd169af7","level_floorpolyid":"F3857917042P2006071002000000","level_ordinal":0,"level_z_value":4.42,"level_name_en":"Ground Floor","level_name_zh":"底層","level_short_name_en":"G/F","venue_id":"6f2c1899-c5f1-4f42-8415-b18ae840b57a","building_id":"1a428993-96e1-4cd8-a6a6-f9d822f2701c","bbox":[114.19879233000006,22.292299240000034,114.19879233000006,22.292299240000034]}},{"type":"Feature","id":"amenity_point.153483","geometry":{"type":"Point","coordinates":[114.19880811000007,22.292298220000077,4.419999999998254]},"geometry_name":"shape","properties":{"amenity_id":"05800ed9-6b61-4c68-bb93-e10be6205249","amenity_category":"unspecified","amenity_name_en":"Goods Store","amenity_name_zh":null,"amenity_alt_name":null,"amenity_accessibility":null,"amenity_phone":null,"amenity_website":null,"amenity_hours":null,"amenity_correlation_id":null,"unit_id":"0f9dc490-0b8c-45e7-bff4-fce3d8db9eb2","level_id":"581c6490-1c5b-4ec8-8437-46cfdd169af7","level_floorpolyid":"F3857917042P2006071002000000","level_ordinal":0,"level_z_value":4.42,"level_name_en":"Ground Floor","level_name_zh":"底層","level_short_name_en":"G/F","venue_id":"6f2c1899-c5f1-4f42-8415-b18ae840b57a","building_id":"1a428993-96e1-4cd8-a6a6-f9d822f2701c","bbox":[114.19880811000007,22.292298220000077,114.19880811000007,22.292298220000077]}},{"type":"Feature","id":"amenity_point.153484","geometry":{"type":"Point","coordinates":[114.19892840000011,22.292291110000065,4.419999999998254]},"geometry_name":"shape","properties":{"amenity_id":"0d5d6e3a-c348-4f74-870e-ccf966772296","amenity_category":"unspecified","amenity_name_en":"Corridor","amenity_name_zh":"走廊","amenity_alt_name":null,"amenity_accessibility":null,"amenity_phone":null,"amenity_website":null,"amenity_hours":null,"amenity_correlation_id":null,"unit_id":"bee7bbf7-8cce-4937-9b76-0560eeb6fb95","level_id":"581c6490-1c5b-4ec8-8437-46cfdd169af7","level_floorpolyid":"F3857917042P2006071002000000","level_ordinal":0,"level_z_value":4.42,"level_name_en":"Ground Floor","level_name_zh":"底層","level_short_name_en":"G/F","venue_id":"6f2c1899-c5f1-4f42-8415-b18ae840b57a","building_id":"1a428993-96e1-4cd8-a6a6-f9d822f2701c","bbox":[114.19892840000011,22.292291110000065,114.19892840000011,22.292291110000065]}},{"type":"Feature","id":"amenity_point.153485","geometry":{"type":"Point","coordinates":[114.19895211000005,22.292185880000034,4.419999999998254]},"geometry_name":"shape","properties":{"amenity_id":"1967b490-1aaf-490e-a899-01f4af34c16e","amenity_category":"unspecified","amenity_name_en":"Corridor","amenity_name_zh":"走廊","amenity_alt_name":null,"amenity_accessibility":null,"amenity_phone":null,"amenity_website":null,"amenity_hours":null,"amenity_correlation_id":null,"unit_id":"f65a7f47-e614-4690-8e92-bf1cfb8f73aa","level_id":"581c6490-1c5b-4ec8-8437-46cfdd169af7","level_floorpolyid":"F3857917042P2006071002000000","level_ordinal":0,"level_z_value":4.42,"level_name_en":"Ground Floor","level_name_zh":"底層","level_short_name_en":"G/F","venue_id":"6f2c1899-c5f1-4f42-8415-b18ae840b57a","building_id":"1a428993-96e1-4cd8-a6a6-f9d822f2701c","bbox":[114.19895211000005,22.292185880000034,114.19895211000005,22.292185880000034]}},{"type":"Feature","id":"amenity_point.153486","geometry":{"type":"Point","coordinates":[114.19901113000003,22.292308610000077,4.419999999998254]},"geometry_name":"shape","properties":{"amenity_id":"bc1f18dc-c0e0-4d63-9d83-12e1b9fb5a79","amenity_category":"unspecified","amenity_name_en":"Corridor","amenity_name_zh":"走廊","amenity_alt_name":null,"amenity_accessibility":null,"amenity_phone":null,"amenity_website":null,"amenity_hours":null,"amenity_correlation_id":null,"unit_id":"3a004cce-2b3b-4f1b-90a2-b8579b88a84d","level_id":"581c6490-1c5b-4ec8-8437-46cfdd169af7","level_floorpolyid":"F3857917042P2006071002000000","level_ordinal":0,"level_z_value":4.42,"level_name_en":"Ground Floor","level_name_zh":"底層","level_short_name_en":"G/F","venue_id":"6f2c1899-c5f1-4f42-8415-b18ae840b57a","building_id":"1a428993-96e1-4cd8-a6a6-f9d822f2701c","bbox":[114.19901113000003,22.292308610000077,114.19901113000003,22.292308610000077]}},{"type":"Feature","id":"amenity_point.153487","geometry":{"type":"Point","coordinates":[114.19903628000009,22.292203420000078,4.419999999998254]},"geometry_name":"shape","properties":{"amenity_id":"36352f31-a1dd-4313-ac6d-e9023532ac3a","amenity_category":"unspecified","amenity_name_en":"Corridor","amenity_name_zh":"走廊","amenity_alt_name":null,"amenity_accessibility":null,"amenity_phone":null,"amenity_website":null,"amenity_hours":null,"amenity_correlation_id":null,"unit_id":"7d46bf68-b097-475e-95a7-cb87e16f8464","level_id":"581c6490-1c5b-4ec8-8437-46cfdd169af7","level_floorpolyid":"F3857917042P2006071002000000","level_ordinal":0,"level_z_value":4.42,"level_name_en":"Ground Floor","level_name_zh":"底層","level_short_name_en":"G/F","venue_id":"6f2c1899-c5f1-4f42-8415-b18ae840b57a","building_id":"1a428993-96e1-4cd8-a6a6-f9d822f2701c","bbox":[114.19903628000009,22.292203420000078,114.19903628000009,22.292203420000078]}},{"type":"Feature","id":"amenity_point.153488","geometry":{"type":"Point","coordinates":[114.19909751000012,22.292199440000047,4.419999999998254]},"geometry_name":"shape","properties":{"amenity_id":"b073c217-4112-40c3-b011-d36d2eece0f3","amenity_category":"stairs","amenity_name_en":"Staircase No.6","amenity_name_zh":null,"amenity_alt_name":null,"amenity_accessibility":null,"amenity_phone":null,"amenity_website":null,"amenity_hours":null,"amenity_correlation_id":null,"unit_id":"bab3243e-11d2-465b-8d92-ef3ac15af522","level_id":"581c6490-1c5b-4ec8-8437-46cfdd169af7","level_floorpolyid":"F3857917042P2006071002000000","level_ordinal":0,"level_z_value":4.42,"level_name_en":"Ground Floor","level_name_zh":"底層","level_short_name_en":"G/F","venue_id":"6f2c1899-c5f1-4f42-8415-b18ae840b57a","building_id":"1a428993-96e1-4cd8-a6a6-f9d822f2701c","bbox":[114.19909751000012,22.292199440000047,114.19909751000012,22.292199440000047]}},{"type":"Feature","id":"amenity_point.153489","geometry":{"type":"Point","coordinates":[114.19906514000002,22.292180190000067,4.419999999998254]},"geometry_name":"shape","properties":{"amenity_id":"91d4abb9-54af-4276-b3d4-71ff0f9e189a","amenity_category":"unspecified","amenity_name_en":"Water Meter Room","amenity_name_zh":null,"amenity_alt_name":null,"amenity_accessibility":null,"amenity_phone":null,"amenity_website":null,"amenity_hours":null,"amenity_correlation_id":null,"unit_id":"f12bc778-5ad9-49fa-ab72-67ceb7809ba0","level_id":"581c6490-1c5b-4ec8-8437-46cfdd169af7","level_floorpolyid":"F3857917042P2006071002000000","level_ordinal":0,"level_z_value":4.42,"level_name_en":"Ground Floor","level_name_zh":"底層","level_short_name_en":"G/F","venue_id":"6f2c1899-c5f1-4f42-8415-b18ae840b57a","building_id":"1a428993-96e1-4cd8-a6a6-f9d822f2701c","bbox":[114.19906514000002,22.292180190000067,114.19906514000002,22.292180190000067]}},{"type":"Feature","id":"amenity_point.153490","geometry":{"type":"Point","coordinates":[114.1990602300001,22.292201300000045,4.419999999998254]},"geometry_name":"shape","properties":{"amenity_id":"5eeb4255-f4b2-487d-9f2b-5b9eee77d0f8","amenity_category":"unspecified","amenity_name_en":"MDF Room","amenity_name_zh":"主配線架房","amenity_alt_name":null,"amenity_accessibility":null,"amenity_phone":null,"amenity_website":null,"amenity_hours":null,"amenity_correlation_id":null,"unit_id":"38580c35-9472-409b-9ca8-52d410415700","level_id":"581c6490-1c5b-4ec8-8437-46cfdd169af7","level_floorpolyid":"F3857917042P2006071002000000","level_ordinal":0,"level_z_value":4.42,"level_name_en":"Ground Floor","level_name_zh":"底層","level_short_name_en":"G/F","venue_id":"6f2c1899-c5f1-4f42-8415-b18ae840b57a","building_id":"1a428993-96e1-4cd8-a6a6-f9d822f2701c","bbox":[114.1990602300001,22.292201300000045,114.1990602300001,22.292201300000045]}},{"type":"Feature","id":"amenity_point.153491","geometry":{"type":"Point","coordinates":[114.19907526000009,22.292344850000063,4.419999999998254]},"geometry_name":"shape","properties":{"amenity_id":"d7e26587-87ca-4435-bd78-92ce72151004","amenity_category":"restroom.female","amenity_name_en":"F Toilet","amenity_name_zh":null,"amenity_alt_name":null,"amenity_accessibility":null,"amenity_phone":null,"amenity_website":null,"amenity_hours":null,"amenity_correlation_id":null,"unit_id":"4926e5dc-ad8f-45fc-a7e8-4cf62b42b683","level_id":"581c6490-1c5b-4ec8-8437-46cfdd169af7","level_floorpolyid":"F3857917042P2006071002000000","level_ordinal":0,"level_z_value":4.42,"level_name_en":"Ground Floor","level_name_zh":"底層","level_short_name_en":"G/F","venue_id":"6f2c1899-c5f1-4f42-8415-b18ae840b57a","building_id":"1a428993-96e1-4cd8-a6a6-f9d822f2701c","bbox":[114.19907526000009,22.292344850000063,114.19907526000009,22.292344850000063]}},{"type":"Feature","id":"amenity_point.153492","geometry":{"type":"Point","coordinates":[114.19909888000007,22.292359590000046,4.419999999998254]},"geometry_name":"shape","properties":{"amenity_id":"139fbda5-b183-4bc5-a123-f0d7b17ce9c1","amenity_category":"restroom.wheelchair","amenity_name_en":"Disabled Toilet","amenity_name_zh":null,"amenity_alt_name":null,"amenity_accessibility":null,"amenity_phone":null,"amenity_website":null,"amenity_hours":null,"amenity_correlation_id":null,"unit_id":"039087fa-3fd5-4552-a086-c1a1508e6aa2","level_id":"581c6490-1c5b-4ec8-8437-46cfdd169af7","level_floorpolyid":"F3857917042P2006071002000000","level_ordinal":0,"level_z_value":4.42,"level_name_en":"Ground Floor","level_name_zh":"底層","level_short_name_en":"G/F","venue_id":"6f2c1899-c5f1-4f42-8415-b18ae840b57a","building_id":"1a428993-96e1-4cd8-a6a6-f9d822f2701c","bbox":[114.19909888000007,22.292359590000046,114.19909888000007,22.292359590000046]}},{"type":"Feature","id":"amenity_point.153493","geometry":{"type":"Point","coordinates":[114.19913241000006,22.292357820000063,4.419999999998254]},"geometry_name":"shape","properties":{"amenity_id":"784df665-8f16-49cb-bc95-728f38a55be9","amenity_category":"restroom.male","amenity_name_en":"M toilet","amenity_name_zh":null,"amenity_alt_name":null,"amenity_accessibility":null,"amenity_phone":null,"amenity_website":null,"amenity_hours":null,"amenity_correlation_id":null,"unit_id":"e3e5ec53-e75a-4375-a77d-bf765af68403","level_id":"581c6490-1c5b-4ec8-8437-46cfdd169af7","level_floorpolyid":"F3857917042P2006071002000000","level_ordinal":0,"level_z_value":4.42,"level_name_en":"Ground Floor","level_name_zh":"底層","level_short_name_en":"G/F","venue_id":"6f2c1899-c5f1-4f42-8415-b18ae840b57a","building_id":"1a428993-96e1-4cd8-a6a6-f9d822f2701c","bbox":[114.19913241000006,22.292357820000063,114.19913241000006,22.292357820000063]}},{"type":"Feature","id":"amenity_point.153494","geometry":{"type":"Point","coordinates":[114.19910842000002,22.292338530000052,4.419999999998254]},"geometry_name":"shape","properties":{"amenity_id":"305ca1c8-ed34-4e25-961b-e9a3a3fb294e","amenity_category":"unspecified","amenity_name_en":"Corridor","amenity_name_zh":"走廊","amenity_alt_name":null,"amenity_accessibility":null,"amenity_phone":null,"amenity_website":null,"amenity_hours":null,"amenity_correlation_id":null,"unit_id":"bbf823e8-3b15-4da1-b854-cce6890ca164","level_id":"581c6490-1c5b-4ec8-8437-46cfdd169af7","level_floorpolyid":"F3857917042P2006071002000000","level_ordinal":0,"level_z_value":4.42,"level_name_en":"Ground Floor","level_name_zh":"底層","level_short_name_en":"G/F","venue_id":"6f2c1899-c5f1-4f42-8415-b18ae840b57a","building_id":"1a428993-96e1-4cd8-a6a6-f9d822f2701c","bbox":[114.19910842000002,22.292338530000052,114.19910842000002,22.292338530000052]}},{"type":"Feature","id":"amenity_point.153495","geometry":{"type":"Point","coordinates":[114.1991157000001,22.292307280000045,4.419999999998254]},"geometry_name":"shape","properties":{"amenity_id":"31a47437-7058-40f2-9f5e-b3c775d0a630","amenity_category":"unspecified","amenity_name_en":"Corridor","amenity_name_zh":"走廊","amenity_alt_name":null,"amenity_accessibility":null,"amenity_phone":null,"amenity_website":null,"amenity_hours":null,"amenity_correlation_id":null,"unit_id":"1ec3344f-bede-41b6-9cbd-d6e36e61ad38","level_id":"581c6490-1c5b-4ec8-8437-46cfdd169af7","level_floorpolyid":"F3857917042P2006071002000000","level_ordinal":0,"level_z_value":4.42,"level_name_en":"Ground Floor","level_name_zh":"底層","level_short_name_en":"G/F","venue_id":"6f2c1899-c5f1-4f42-8415-b18ae840b57a","building_id":"1a428993-96e1-4cd8-a6a6-f9d822f2701c","bbox":[114.1991157000001,22.292307280000045,114.1991157000001,22.292307280000045]}},{"type":"Feature","id":"amenity_point.153496","geometry":{"type":"Point","coordinates":[114.19917880000003,22.29236609000003,4.419999999998254]},"geometry_name":"shape","properties":{"amenity_id":"a72c8f33-fa10-4c15-a995-74d1a6ed0c85","amenity_category":"unspecified","amenity_name_en":"F.S. Pump Room","amenity_name_zh":null,"amenity_alt_name":null,"amenity_accessibility":null,"amenity_phone":null,"amenity_website":null,"amenity_hours":null,"amenity_correlation_id":null,"unit_id":"cfd326c9-274e-44b6-97e5-df27fd0c7abe","level_id":"581c6490-1c5b-4ec8-8437-46cfdd169af7","level_floorpolyid":"F3857917042P2006071002000000","level_ordinal":0,"level_z_value":4.42,"level_name_en":"Ground Floor","level_name_zh":"底層","level_short_name_en":"G/F","venue_id":"6f2c1899-c5f1-4f42-8415-b18ae840b57a","building_id":"1a428993-96e1-4cd8-a6a6-f9d822f2701c","bbox":[114.19917880000003,22.29236609000003,114.19917880000003,22.29236609000003]}},{"type":"Feature","id":"amenity_point.153497","geometry":{"type":"Point","coordinates":[114.19924085000002,22.292387400000052,4.419999999998254]},"geometry_name":"shape","properties":{"amenity_id":"e4e23d43-a2e1-410e-80f6-7ea843a24bc1","amenity_category":"stairs","amenity_name_en":"Staircase No.3","amenity_name_zh":null,"amenity_alt_name":null,"amenity_accessibility":null,"amenity_phone":null,"amenity_website":null,"amenity_hours":null,"amenity_correlation_id":null,"unit_id":"fdd4bbe3-fb6c-4aab-af08-4211358f5814","level_id":"581c6490-1c5b-4ec8-8437-46cfdd169af7","level_floorpolyid":"F3857917042P2006071002000000","level_ordinal":0,"level_z_value":4.42,"level_name_en":"Ground Floor","level_name_zh":"底層","level_short_name_en":"G/F","venue_id":"6f2c1899-c5f1-4f42-8415-b18ae840b57a","building_id":"1a428993-96e1-4cd8-a6a6-f9d822f2701c","bbox":[114.19924085000002,22.292387400000052,114.19924085000002,22.292387400000052]}},{"type":"Feature","id":"amenity_point.153498","geometry":{"type":"Point","coordinates":[114.19923688000006,22.292363270000067,4.419999999998254]},"geometry_name":"shape","properties":{"amenity_id":"31ac6dc1-9b28-420f-baef-f2ef3ac0520d","amenity_category":"unspecified","amenity_name_en":"Gas Meter Room","amenity_name_zh":null,"amenity_alt_name":null,"amenity_accessibility":null,"amenity_phone":null,"amenity_website":null,"amenity_hours":null,"amenity_correlation_id":null,"unit_id":"68202d69-b6d7-4bed-b7dd-7c9fda624913","level_id":"581c6490-1c5b-4ec8-8437-46cfdd169af7","level_floorpolyid":"F3857917042P2006071002000000","level_ordinal":0,"level_z_value":4.42,"level_name_en":"Ground Floor","level_name_zh":"底層","level_short_name_en":"G/F","venue_id":"6f2c1899-c5f1-4f42-8415-b18ae840b57a","building_id":"1a428993-96e1-4cd8-a6a6-f9d822f2701c","bbox":[114.19923688000006,22.292363270000067,114.19923688000006,22.292363270000067]}},{"type":"Feature","id":"amenity_point.153499","geometry":{"type":"Point","coordinates":[114.19928318000007,22.292387830000052,4.419999999998254]},"geometry_name":"shape","properties":{"amenity_id":"aa3067ca-1c5d-4eb5-8a1f-d9e0c3888bef","amenity_category":"unspecified","amenity_name_en":"Ice Store","amenity_name_zh":null,"amenity_alt_name":null,"amenity_accessibility":null,"amenity_phone":null,"amenity_website":null,"amenity_hours":null,"amenity_correlation_id":null,"unit_id":"c4e2a0ea-ff8c-479b-8163-15d67e1c2ea7","level_id":"581c6490-1c5b-4ec8-8437-46cfdd169af7","level_floorpolyid":"F3857917042P2006071002000000","level_ordinal":0,"level_z_value":4.42,"level_name_en":"Ground Floor","level_name_zh":"底層","level_short_name_en":"G/F","venue_id":"6f2c1899-c5f1-4f42-8415-b18ae840b57a","building_id":"1a428993-96e1-4cd8-a6a6-f9d822f2701c","bbox":[114.19928318000007,22.292387830000052,114.19928318000007,22.292387830000052]}},{"type":"Feature","id":"amenity_point.153500","geometry":{"type":"Point","coordinates":[114.19930969000006,22.292389710000066,4.419999999998254]},"geometry_name":"shape","properties":{"amenity_id":"e267e310-7738-48e4-9579-d786122540d2","amenity_category":"unspecified","amenity_name_en":"Store","amenity_name_zh":"貯存室","amenity_alt_name":null,"amenity_accessibility":null,"amenity_phone":null,"amenity_website":null,"amenity_hours":null,"amenity_correlation_id":null,"unit_id":"09a4c872-0d98-4294-a277-6a99781923ce","level_id":"581c6490-1c5b-4ec8-8437-46cfdd169af7","level_floorpolyid":"F3857917042P2006071002000000","level_ordinal":0,"level_z_value":4.42,"level_name_en":"Ground Floor","level_name_zh":"底層","level_short_name_en":"G/F","venue_id":"6f2c1899-c5f1-4f42-8415-b18ae840b57a","building_id":"1a428993-96e1-4cd8-a6a6-f9d822f2701c","bbox":[114.19930969000006,22.292389710000066,114.19930969000006,22.292389710000066]}},{"type":"Feature","id":"amenity_point.153501","geometry":{"type":"Point","coordinates":[114.19933627000012,22.292348700000048,4.419999999998254]},"geometry_name":"shape","properties":{"amenity_id":"67a1eef1-95d9-4fb5-a5a4-a6acefb600a3","amenity_category":"unspecified","amenity_name_en":"Corridor","amenity_name_zh":"走廊","amenity_alt_name":null,"amenity_accessibility":null,"amenity_phone":null,"amenity_website":null,"amenity_hours":null,"amenity_correlation_id":null,"unit_id":"46a50faa-818b-46ef-9381-f9131c60af97","level_id":"581c6490-1c5b-4ec8-8437-46cfdd169af7","level_floorpolyid":"F3857917042P2006071002000000","level_ordinal":0,"level_z_value":4.42,"level_name_en":"Ground Floor","level_name_zh":"底層","level_short_name_en":"G/F","venue_id":"6f2c1899-c5f1-4f42-8415-b18ae840b57a","building_id":"1a428993-96e1-4cd8-a6a6-f9d822f2701c","bbox":[114.19933627000012,22.292348700000048,114.19933627000012,22.292348700000048]}},{"type":"Feature","id":"amenity_point.153502","geometry":{"type":"Point","coordinates":[114.19946016000006,22.292409320000047,4.419999999998254]},"geometry_name":"shape","properties":{"amenity_id":"81c8917f-477e-484c-8965-1eb5cf2e6da0","amenity_category":"unspecified","amenity_name_en":"Corridor","amenity_name_zh":"走廊","amenity_alt_name":null,"amenity_accessibility":null,"amenity_phone":null,"amenity_website":null,"amenity_hours":null,"amenity_correlation_id":null,"unit_id":"547d6ddc-30d3-4d16-9f3e-2568f78a584b","level_id":"581c6490-1c5b-4ec8-8437-46cfdd169af7","level_floorpolyid":"F3857917042P2006071002000000","level_ordinal":0,"level_z_value":4.42,"level_name_en":"Ground Floor","level_name_zh":"底層","level_short_name_en":"G/F","venue_id":"6f2c1899-c5f1-4f42-8415-b18ae840b57a","building_id":"1a428993-96e1-4cd8-a6a6-f9d822f2701c","bbox":[114.19946016000006,22.292409320000047,114.19946016000006,22.292409320000047]}},{"type":"Feature","id":"amenity_point.153503","geometry":{"type":"Point","coordinates":[114.19949603000009,22.29243538000003,4.419999999998254]},"geometry_name":"shape","properties":{"amenity_id":"ad18cc3f-a631-4b31-8e95-b5ca5c5dde9d","amenity_category":"unspecified","amenity_name_en":"Seized Goods Store","amenity_name_zh":null,"amenity_alt_name":null,"amenity_accessibility":null,"amenity_phone":null,"amenity_website":null,"amenity_hours":null,"amenity_correlation_id":null,"unit_id":"e9e539b7-87d2-47b8-8ff1-8e0fe69b113f","level_id":"581c6490-1c5b-4ec8-8437-46cfdd169af7","level_floorpolyid":"F3857917042P2006071002000000","level_ordinal":0,"level_z_value":4.42,"level_name_en":"Ground Floor","level_name_zh":"底層","level_short_name_en":"G/F","venue_id":"6f2c1899-c5f1-4f42-8415-b18ae840b57a","building_id":"1a428993-96e1-4cd8-a6a6-f9d822f2701c","bbox":[114.19949603000009,22.29243538000003,114.19949603000009,22.29243538000003]}},{"type":"Feature","id":"amenity_point.153504","geometry":{"type":"Point","coordinates":[114.19914699000003,22.29223151000008,4.419999999998254]},"geometry_name":"shape","properties":{"amenity_id":"0d6d2b79-c46d-4b00-b32d-1c0027978e5b","amenity_category":"unspecified","amenity_name_en":"Corridor","amenity_name_zh":"走廊","amenity_alt_name":null,"amenity_accessibility":null,"amenity_phone":null,"amenity_website":null,"amenity_hours":null,"amenity_correlation_id":null,"unit_id":"5e97cb4b-ae6c-4884-b43e-fe5afdc3c09c","level_id":"581c6490-1c5b-4ec8-8437-46cfdd169af7","level_floorpolyid":"F3857917042P2006071002000000","level_ordinal":0,"level_z_value":4.42,"level_name_en":"Ground Floor","level_name_zh":"底層","level_short_name_en":"G/F","venue_id":"6f2c1899-c5f1-4f42-8415-b18ae840b57a","building_id":"1a428993-96e1-4cd8-a6a6-f9d822f2701c","bbox":[114.19914699000003,22.29223151000008,114.19914699000003,22.29223151000008]}},{"type":"Feature","id":"amenity_point.153505","geometry":{"type":"Point","coordinates":[114.19911545000002,22.292273100000045,4.419999999998254]},"geometry_name":"shape","properties":{"amenity_id":"e78fe584-22ba-4906-8a2a-c34897a132d1","amenity_category":"unspecified","amenity_name_en":"Corridor","amenity_name_zh":"走廊","amenity_alt_name":null,"amenity_accessibility":null,"amenity_phone":null,"amenity_website":null,"amenity_hours":null,"amenity_correlation_id":null,"unit_id":"a6a78748-efb3-472c-aebc-1ed3302774f6","level_id":"581c6490-1c5b-4ec8-8437-46cfdd169af7","level_floorpolyid":"F3857917042P2006071002000000","level_ordinal":0,"level_z_value":4.42,"level_name_en":"Ground Floor","level_name_zh":"底層","level_short_name_en":"G/F","venue_id":"6f2c1899-c5f1-4f42-8415-b18ae840b57a","building_id":"1a428993-96e1-4cd8-a6a6-f9d822f2701c","bbox":[114.19911545000002,22.292273100000045,114.19911545000002,22.292273100000045]}},{"type":"Feature","id":"amenity_point.153506","geometry":{"type":"Point","coordinates":[114.19935751000003,22.292274950000035,4.419999999998254]},"geometry_name":"shape","properties":{"amenity_id":"44bd2d05-b86b-41b1-82bd-ec6580aed523","amenity_category":"unspecified","amenity_name_en":"Corridor","amenity_name_zh":"走廊","amenity_alt_name":null,"amenity_accessibility":null,"amenity_phone":null,"amenity_website":null,"amenity_hours":null,"amenity_correlation_id":null,"unit_id":"ea4f1d68-7677-4880-af45-88672d780e57","level_id":"581c6490-1c5b-4ec8-8437-46cfdd169af7","level_floorpolyid":"F3857917042P2006071002000000","level_ordinal":0,"level_z_value":4.42,"level_name_en":"Ground Floor","level_name_zh":"底層","level_short_name_en":"G/F","venue_id":"6f2c1899-c5f1-4f42-8415-b18ae840b57a","building_id":"1a428993-96e1-4cd8-a6a6-f9d822f2701c","bbox":[114.19935751000003,22.292274950000035,114.19935751000003,22.292274950000035]}},{"type":"Feature","id":"amenity_point.153507","geometry":{"type":"Point","coordinates":[114.19938032000005,22.29228474000007,4.419999999998254]},"geometry_name":"shape","properties":{"amenity_id":"93ed86bc-8b2d-475c-937a-7ce4fe90e0f7","amenity_category":"unspecified","amenity_name_en":"Pipe Duct","amenity_name_zh":null,"amenity_alt_name":null,"amenity_accessibility":null,"amenity_phone":null,"amenity_website":null,"amenity_hours":null,"amenity_correlation_id":null,"unit_id":"aee3b73c-0224-4bbb-9ed9-1c11f2ae772c","level_id":"581c6490-1c5b-4ec8-8437-46cfdd169af7","level_floorpolyid":"F3857917042P2006071002000000","level_ordinal":0,"level_z_value":4.42,"level_name_en":"Ground Floor","level_name_zh":"底層","level_short_name_en":"G/F","venue_id":"6f2c1899-c5f1-4f42-8415-b18ae840b57a","building_id":"1a428993-96e1-4cd8-a6a6-f9d822f2701c","bbox":[114.19938032000005,22.29228474000007,114.19938032000005,22.29228474000007]}},{"type":"Feature","id":"amenity_point.153508","geometry":{"type":"Point","coordinates":[114.19941630000005,22.292307220000055,4.419999999998254]},"geometry_name":"shape","properties":{"amenity_id":"4c9f6a54-a307-4392-af87-f6e53b41f378","amenity_category":"ramp","amenity_name_en":"Ramp Down","amenity_name_zh":null,"amenity_alt_name":null,"amenity_accessibility":null,"amenity_phone":null,"amenity_website":null,"amenity_hours":null,"amenity_correlation_id":null,"unit_id":"2a3eca68-7ba8-4182-837b-22b2fdebcd7c","level_id":"581c6490-1c5b-4ec8-8437-46cfdd169af7","level_floorpolyid":"F3857917042P2006071002000000","level_ordinal":0,"level_z_value":4.42,"level_name_en":"Ground Floor","level_name_zh":"底層","level_short_name_en":"G/F","venue_id":"6f2c1899-c5f1-4f42-8415-b18ae840b57a","building_id":"1a428993-96e1-4cd8-a6a6-f9d822f2701c","bbox":[114.19941630000005,22.292307220000055,114.19941630000005,22.292307220000055]}},{"type":"Feature","id":"amenity_point.153509","geometry":{"type":"Point","coordinates":[114.19940100000008,22.292281510000066,4.419999999998254]},"geometry_name":"shape","properties":{"amenity_id":"89574354-7a9a-4078-8557-1d46eb1a3188","amenity_category":"elevator","amenity_name_en":"Lift 3","amenity_name_zh":null,"amenity_alt_name":null,"amenity_accessibility":null,"amenity_phone":null,"amenity_website":null,"amenity_hours":null,"amenity_correlation_id":null,"unit_id":"01410d59-5238-4cc4-93c8-5e5f12b7b0fc","level_id":"581c6490-1c5b-4ec8-8437-46cfdd169af7","level_floorpolyid":"F3857917042P2006071002000000","level_ordinal":0,"level_z_value":4.42,"level_name_en":"Ground Floor","level_name_zh":"底層","level_short_name_en":"G/F","venue_id":"6f2c1899-c5f1-4f42-8415-b18ae840b57a","building_id":"1a428993-96e1-4cd8-a6a6-f9d822f2701c","bbox":[114.19940100000008,22.292281510000066,114.19940100000008,22.292281510000066]}},{"type":"Feature","id":"amenity_point.153510","geometry":{"type":"Point","coordinates":[114.1994075,22.29225363000006,4.419999999998254]},"geometry_name":"shape","properties":{"amenity_id":"981fa2af-b429-4748-a88b-ebcfb48e9c69","amenity_category":"elevator","amenity_name_en":"Lift 4","amenity_name_zh":null,"amenity_alt_name":null,"amenity_accessibility":null,"amenity_phone":null,"amenity_website":null,"amenity_hours":null,"amenity_correlation_id":null,"unit_id":"6984e310-8b70-4b30-b7e1-b777dabda1d8","level_id":"581c6490-1c5b-4ec8-8437-46cfdd169af7","level_floorpolyid":"F3857917042P2006071002000000","level_ordinal":0,"level_z_value":4.42,"level_name_en":"Ground Floor","level_name_zh":"底層","level_short_name_en":"G/F","venue_id":"6f2c1899-c5f1-4f42-8415-b18ae840b57a","building_id":"1a428993-96e1-4cd8-a6a6-f9d822f2701c","bbox":[114.1994075,22.29225363000006,114.1994075,22.29225363000006]}},{"type":"Feature","id":"amenity_point.153511","geometry":{"type":"Point","coordinates":[114.19957290000002,22.292292090000046,4.419999999998254]},"geometry_name":"shape","properties":{"amenity_id":"956174e2-9466-497c-9a59-da78d21fb115","amenity_category":"elevator","amenity_name_en":"Goods LIft 2","amenity_name_zh":null,"amenity_alt_name":null,"amenity_accessibility":null,"amenity_phone":null,"amenity_website":null,"amenity_hours":null,"amenity_correlation_id":null,"unit_id":"cecd18c3-018f-430a-a592-48422c18c292","level_id":"581c6490-1c5b-4ec8-8437-46cfdd169af7","level_floorpolyid":"F3857917042P2006071002000000","level_ordinal":0,"level_z_value":4.42,"level_name_en":"Ground Floor","level_name_zh":"底層","level_short_name_en":"G/F","venue_id":"6f2c1899-c5f1-4f42-8415-b18ae840b57a","building_id":"1a428993-96e1-4cd8-a6a6-f9d822f2701c","bbox":[114.19957290000002,22.292292090000046,114.19957290000002,22.292292090000046]}},{"type":"Feature","id":"amenity_point.153512","geometry":{"type":"Point","coordinates":[114.19953964000001,22.292285100000072,4.419999999998254]},"geometry_name":"shape","properties":{"amenity_id":"a7668e5f-6100-41c8-8752-05f71b0b49e1","amenity_category":"elevator","amenity_name_en":"Goods LIft 1","amenity_name_zh":null,"amenity_alt_name":null,"amenity_accessibility":null,"amenity_phone":null,"amenity_website":null,"amenity_hours":null,"amenity_correlation_id":null,"unit_id":"66fa09ec-8108-48e1-a904-f83e9bd8d6f3","level_id":"581c6490-1c5b-4ec8-8437-46cfdd169af7","level_floorpolyid":"F3857917042P2006071002000000","level_ordinal":0,"level_z_value":4.42,"level_name_en":"Ground Floor","level_name_zh":"底層","level_short_name_en":"G/F","venue_id":"6f2c1899-c5f1-4f42-8415-b18ae840b57a","building_id":"1a428993-96e1-4cd8-a6a6-f9d822f2701c","bbox":[114.19953964000001,22.292285100000072,114.19953964000001,22.292285100000072]}},{"type":"Feature","id":"amenity_point.153513","geometry":{"type":"Point","coordinates":[114.19977151,22.292345100000034,4.419999999998254]},"geometry_name":"shape","properties":{"amenity_id":"c0b0c46b-01fc-47cc-973f-0a324d59d0ea","amenity_category":"unspecified","amenity_name_en":"Transformer Room","amenity_name_zh":"電力變壓房","amenity_alt_name":null,"amenity_accessibility":null,"amenity_phone":null,"amenity_website":null,"amenity_hours":null,"amenity_correlation_id":null,"unit_id":"7e322d52-e163-4737-b1ea-dbbe9b1ea59e","level_id":"581c6490-1c5b-4ec8-8437-46cfdd169af7","level_floorpolyid":"F3857917042P2006071002000000","level_ordinal":0,"level_z_value":4.42,"level_name_en":"Ground Floor","level_name_zh":"底層","level_short_name_en":"G/F","venue_id":"6f2c1899-c5f1-4f42-8415-b18ae840b57a","building_id":"1a428993-96e1-4cd8-a6a6-f9d822f2701c","bbox":[114.19977151,22.292345100000034,114.19977151,22.292345100000034]}},{"type":"Feature","id":"amenity_point.153514","geometry":{"type":"Point","coordinates":[114.19960201000004,22.29230989000007,4.419999999998254]},"geometry_name":"shape","properties":{"amenity_id":"36935ac6-2397-47d0-8284-d6c38c759561","amenity_category":"stairs","amenity_name_en":"Staircase No.5","amenity_name_zh":null,"amenity_alt_name":null,"amenity_accessibility":null,"amenity_phone":null,"amenity_website":null,"amenity_hours":null,"amenity_correlation_id":null,"unit_id":"3aa9fa17-90a5-466a-88cc-02c720248c6e","level_id":"581c6490-1c5b-4ec8-8437-46cfdd169af7","level_floorpolyid":"F3857917042P2006071002000000","level_ordinal":0,"level_z_value":4.42,"level_name_en":"Ground Floor","level_name_zh":"底層","level_short_name_en":"G/F","venue_id":"6f2c1899-c5f1-4f42-8415-b18ae840b57a","building_id":"1a428993-96e1-4cd8-a6a6-f9d822f2701c","bbox":[114.19960201000004,22.29230989000007,114.19960201000004,22.29230989000007]}},{"type":"Feature","id":"amenity_point.153515","geometry":{"type":"Point","coordinates":[114.19963972000005,22.292317810000043,4.419999999998254]},"geometry_name":"shape","properties":{"amenity_id":"bedc0997-b2d3-4fb2-b6b0-f502b738846d","amenity_category":"unspecified","amenity_name_en":"Emergency Generator Room","amenity_name_zh":null,"amenity_alt_name":null,"amenity_accessibility":null,"amenity_phone":null,"amenity_website":null,"amenity_hours":null,"amenity_correlation_id":null,"unit_id":"f0015ce1-3da9-4618-bbed-08af7e339af2","level_id":"581c6490-1c5b-4ec8-8437-46cfdd169af7","level_floorpolyid":"F3857917042P2006071002000000","level_ordinal":0,"level_z_value":4.42,"level_name_en":"Ground Floor","level_name_zh":"底層","level_short_name_en":"G/F","venue_id":"6f2c1899-c5f1-4f42-8415-b18ae840b57a","building_id":"1a428993-96e1-4cd8-a6a6-f9d822f2701c","bbox":[114.19963972000005,22.292317810000043,114.19963972000005,22.292317810000043]}},{"type":"Feature","id":"amenity_point.153516","geometry":{"type":"Point","coordinates":[114.19967770000005,22.29230823000006,4.419999999998254]},"geometry_name":"shape","properties":{"amenity_id":"0dba021b-8d10-4a31-8a15-572b58c4a3da","amenity_category":"unspecified","amenity_name_en":"Fuel Tank Room","amenity_name_zh":null,"amenity_alt_name":null,"amenity_accessibility":null,"amenity_phone":null,"amenity_website":null,"amenity_hours":null,"amenity_correlation_id":null,"unit_id":"4992c611-2953-4b1c-a921-4dae7f46c03d","level_id":"581c6490-1c5b-4ec8-8437-46cfdd169af7","level_floorpolyid":"F3857917042P2006071002000000","level_ordinal":0,"level_z_value":4.42,"level_name_en":"Ground Floor","level_name_zh":"底層","level_short_name_en":"G/F","venue_id":"6f2c1899-c5f1-4f42-8415-b18ae840b57a","building_id":"1a428993-96e1-4cd8-a6a6-f9d822f2701c","bbox":[114.19967770000005,22.29230823000006,114.19967770000005,22.29230823000006]}},{"type":"Feature","id":"amenity_point.153517","geometry":{"type":"Point","coordinates":[114.19969170000002,22.29233179000005,4.419999999998254]},"geometry_name":"shape","properties":{"amenity_id":"3786996b-aee8-4f38-84d0-b52dd2be37a6","amenity_category":"unspecified","amenity_name_en":"Switch Room","amenity_name_zh":"電掣房","amenity_alt_name":null,"amenity_accessibility":null,"amenity_phone":null,"amenity_website":null,"amenity_hours":null,"amenity_correlation_id":null,"unit_id":"d31156fa-ae32-425d-b524-931b1a1c1d39","level_id":"581c6490-1c5b-4ec8-8437-46cfdd169af7","level_floorpolyid":"F3857917042P2006071002000000","level_ordinal":0,"level_z_value":4.42,"level_name_en":"Ground Floor","level_name_zh":"底層","level_short_name_en":"G/F","venue_id":"6f2c1899-c5f1-4f42-8415-b18ae840b57a","building_id":"1a428993-96e1-4cd8-a6a6-f9d822f2701c","bbox":[114.19969170000002,22.29233179000005,114.19969170000002,22.29233179000005]}},{"type":"Feature","id":"amenity_point.153518","geometry":{"type":"Point","coordinates":[114.19944983000005,22.29228298000004,4.419999999998254]},"geometry_name":"shape","properties":{"amenity_id":"1f47e956-9044-451a-b3dd-2b9a556c5ee6","amenity_category":"unspecified","amenity_name_en":"Lift Hall","amenity_name_zh":null,"amenity_alt_name":null,"amenity_accessibility":null,"amenity_phone":null,"amenity_website":null,"amenity_hours":null,"amenity_correlation_id":null,"unit_id":"34be6c30-dcef-4d35-a963-b68300c9388e","level_id":"581c6490-1c5b-4ec8-8437-46cfdd169af7","level_floorpolyid":"F3857917042P2006071002000000","level_ordinal":0,"level_z_value":4.42,"level_name_en":"Ground Floor","level_name_zh":"底層","level_short_name_en":"G/F","venue_id":"6f2c1899-c5f1-4f42-8415-b18ae840b57a","building_id":"1a428993-96e1-4cd8-a6a6-f9d822f2701c","bbox":[114.19944983000005,22.29228298000004,114.19944983000005,22.29228298000004]}},{"type":"Feature","id":"amenity_point.153519","geometry":{"type":"Point","coordinates":[114.1995004900001,22.292277470000045,4.419999999998254]},"geometry_name":"shape","properties":{"amenity_id":"c42dfea6-24ec-4e42-b8eb-a2e472d472f8","amenity_category":"security","amenity_name_en":"Control Room","amenity_name_zh":"控制室","amenity_alt_name":null,"amenity_accessibility":null,"amenity_phone":null,"amenity_website":null,"amenity_hours":null,"amenity_correlation_id":null,"unit_id":"dcbd2dd8-7361-4c23-ba16-ae97532c1679","level_id":"581c6490-1c5b-4ec8-8437-46cfdd169af7","level_floorpolyid":"F3857917042P2006071002000000","level_ordinal":0,"level_z_value":4.42,"level_name_en":"Ground Floor","level_name_zh":"底層","level_short_name_en":"G/F","venue_id":"6f2c1899-c5f1-4f42-8415-b18ae840b57a","building_id":"1a428993-96e1-4cd8-a6a6-f9d822f2701c","bbox":[114.1995004900001,22.292277470000045,114.1995004900001,22.292277470000045]}},{"type":"Feature","id":"amenity_point.153520","geometry":{"type":"Point","coordinates":[114.1995033500001,22.292309600000067,4.419999999998254]},"geometry_name":"shape","properties":{"amenity_id":"fe42e51d-1f20-43af-9dae-92db9456b094","amenity_category":"unspecified","amenity_name_en":"Lobby","amenity_name_zh":"大堂","amenity_alt_name":null,"amenity_accessibility":null,"amenity_phone":null,"amenity_website":null,"amenity_hours":null,"amenity_correlation_id":null,"unit_id":"583c2692-5144-4cde-ac44-f0866453a25b","level_id":"581c6490-1c5b-4ec8-8437-46cfdd169af7","level_floorpolyid":"F3857917042P2006071002000000","level_ordinal":0,"level_z_value":4.42,"level_name_en":"Ground Floor","level_name_zh":"底層","level_short_name_en":"G/F","venue_id":"6f2c1899-c5f1-4f42-8415-b18ae840b57a","building_id":"1a428993-96e1-4cd8-a6a6-f9d822f2701c","bbox":[114.1995033500001,22.292309600000067,114.1995033500001,22.292309600000067]}},{"type":"Feature","id":"amenity_point.153521","geometry":{"type":"Point","coordinates":[114.1995142500001,22.292289090000054,4.419999999998254]},"geometry_name":"shape","properties":{"amenity_id":"0d0143e0-239b-49c3-bdca-2683e2251a6b","amenity_category":"stairs","amenity_name_en":"Staircase No.1","amenity_name_zh":null,"amenity_alt_name":null,"amenity_accessibility":null,"amenity_phone":null,"amenity_website":null,"amenity_hours":null,"amenity_correlation_id":null,"unit_id":"e625b056-63f8-4a05-8246-8c5379a8851a","level_id":"581c6490-1c5b-4ec8-8437-46cfdd169af7","level_floorpolyid":"F3857917042P2006071002000000","level_ordinal":0,"level_z_value":4.42,"level_name_en":"Ground Floor","level_name_zh":"底層","level_short_name_en":"G/F","venue_id":"6f2c1899-c5f1-4f42-8415-b18ae840b57a","building_id":"1a428993-96e1-4cd8-a6a6-f9d822f2701c","bbox":[114.1995142500001,22.292289090000054,114.1995142500001,22.292289090000054]}},{"type":"Feature","id":"amenity_point.153522","geometry":{"type":"Point","coordinates":[114.19981220000011,22.29248682000008,4.419999999998254]},"geometry_name":"shape","properties":{"amenity_id":"5536f700-7d1d-4dc8-ae07-3d9175fef013","amenity_category":"unspecified","amenity_name_en":"Locker (Room)","amenity_name_zh":"貯物室","amenity_alt_name":null,"amenity_accessibility":null,"amenity_phone":null,"amenity_website":null,"amenity_hours":null,"amenity_correlation_id":null,"unit_id":"b102f966-0d06-48f6-bdcd-88815ed294ce","level_id":"581c6490-1c5b-4ec8-8437-46cfdd169af7","level_floorpolyid":"F3857917042P2006071002000000","level_ordinal":0,"level_z_value":4.42,"level_name_en":"Ground Floor","level_name_zh":"底層","level_short_name_en":"G/F","venue_id":"6f2c1899-c5f1-4f42-8415-b18ae840b57a","building_id":"1a428993-96e1-4cd8-a6a6-f9d822f2701c","bbox":[114.19981220000011,22.29248682000008,114.19981220000011,22.29248682000008]}},{"type":"Feature","id":"amenity_point.153523","geometry":{"type":"Point","coordinates":[114.19974973000001,22.292487600000072,4.419999999998254]},"geometry_name":"shape","properties":{"amenity_id":"2b5cdc30-6a6e-4a6d-a44d-ccb58d5d4867","amenity_category":"unspecified","amenity_name_en":"Office","amenity_name_zh":"辦公室","amenity_alt_name":null,"amenity_accessibility":null,"amenity_phone":null,"amenity_website":null,"amenity_hours":null,"amenity_correlation_id":null,"unit_id":"688867de-e3fa-4d31-8a5e-8cbcdf567627","level_id":"581c6490-1c5b-4ec8-8437-46cfdd169af7","level_floorpolyid":"F3857917042P2006071002000000","level_ordinal":0,"level_z_value":4.42,"level_name_en":"Ground Floor","level_name_zh":"底層","level_short_name_en":"G/F","venue_id":"6f2c1899-c5f1-4f42-8415-b18ae840b57a","building_id":"1a428993-96e1-4cd8-a6a6-f9d822f2701c","bbox":[114.19974973000001,22.292487600000072,114.19974973000001,22.292487600000072]}},{"type":"Feature","id":"amenity_point.153524","geometry":{"type":"Point","coordinates":[114.19976982000003,22.29249789000005,4.419999999998254]},"geometry_name":"shape","properties":{"amenity_id":"df85d143-f5bf-4de7-9a23-525637a52b26","amenity_category":"unspecified","amenity_name_en":"Locker (Room)","amenity_name_zh":"貯物室","amenity_alt_name":null,"amenity_accessibility":null,"amenity_phone":null,"amenity_website":null,"amenity_hours":null,"amenity_correlation_id":null,"unit_id":"872200aa-ba52-4e70-9a51-fa849d0f59b7","level_id":"581c6490-1c5b-4ec8-8437-46cfdd169af7","level_floorpolyid":"F3857917042P2006071002000000","level_ordinal":0,"level_z_value":4.42,"level_name_en":"Ground Floor","level_name_zh":"底層","level_short_name_en":"G/F","venue_id":"6f2c1899-c5f1-4f42-8415-b18ae840b57a","building_id":"1a428993-96e1-4cd8-a6a6-f9d822f2701c","bbox":[114.19976982000003,22.29249789000005,114.19976982000003,22.29249789000005]}},{"type":"Feature","id":"amenity_point.153525","geometry":{"type":"Point","coordinates":[114.19980009000005,22.292504020000024,4.419999999998254]},"geometry_name":"shape","properties":{"amenity_id":"37776714-8ba1-4240-be08-c484f50e8ed2","amenity_category":"restroom.female","amenity_name_en":"F Toilet","amenity_name_zh":null,"amenity_alt_name":null,"amenity_accessibility":null,"amenity_phone":null,"amenity_website":null,"amenity_hours":null,"amenity_correlation_id":null,"unit_id":"85b7d8c8-cc02-4cf2-9f97-c9ff69e642d6","level_id":"581c6490-1c5b-4ec8-8437-46cfdd169af7","level_floorpolyid":"F3857917042P2006071002000000","level_ordinal":0,"level_z_value":4.42,"level_name_en":"Ground Floor","level_name_zh":"底層","level_short_name_en":"G/F","venue_id":"6f2c1899-c5f1-4f42-8415-b18ae840b57a","building_id":"1a428993-96e1-4cd8-a6a6-f9d822f2701c","bbox":[114.19980009000005,22.292504020000024,114.19980009000005,22.292504020000024]}},{"type":"Feature","id":"amenity_point.153526","geometry":{"type":"Point","coordinates":[114.19978485000001,22.292500950000033,4.419999999998254]},"geometry_name":"shape","properties":{"amenity_id":"34b48b4f-06fc-446d-adcd-4ad292466a76","amenity_category":"restroom.male","amenity_name_en":"M Toilet","amenity_name_zh":null,"amenity_alt_name":null,"amenity_accessibility":null,"amenity_phone":null,"amenity_website":null,"amenity_hours":null,"amenity_correlation_id":null,"unit_id":"231f7288-40a4-4e73-a410-f4dd791897b2","level_id":"581c6490-1c5b-4ec8-8437-46cfdd169af7","level_floorpolyid":"F3857917042P2006071002000000","level_ordinal":0,"level_z_value":4.42,"level_name_en":"Ground Floor","level_name_zh":"底層","level_short_name_en":"G/F","venue_id":"6f2c1899-c5f1-4f42-8415-b18ae840b57a","building_id":"1a428993-96e1-4cd8-a6a6-f9d822f2701c","bbox":[114.19978485000001,22.292500950000033,114.19978485000001,22.292500950000033]}},{"type":"Feature","id":"amenity_point.153527","geometry":{"type":"Point","coordinates":[114.19981551000001,22.29250717000008,4.419999999998254]},"geometry_name":"shape","properties":{"amenity_id":"edb0dc53-10de-449a-a9cd-612bd155e2a4","amenity_category":"unspecified","amenity_name_en":"Locker (Room)","amenity_name_zh":"貯物室","amenity_alt_name":null,"amenity_accessibility":null,"amenity_phone":null,"amenity_website":null,"amenity_hours":null,"amenity_correlation_id":null,"unit_id":"27eb4405-7653-4529-a6e2-cf7e20653666","level_id":"581c6490-1c5b-4ec8-8437-46cfdd169af7","level_floorpolyid":"F3857917042P2006071002000000","level_ordinal":0,"level_z_value":4.42,"level_name_en":"Ground Floor","level_name_zh":"底層","level_short_name_en":"G/F","venue_id":"6f2c1899-c5f1-4f42-8415-b18ae840b57a","building_id":"1a428993-96e1-4cd8-a6a6-f9d822f2701c","bbox":[114.19981551000001,22.29250717000008,114.19981551000001,22.29250717000008]}},{"type":"Feature","id":"amenity_point.153528","geometry":{"type":"Point","coordinates":[114.19978187000004,22.292480700000056,4.419999999998254]},"geometry_name":"shape","properties":{"amenity_id":"0a31dd40-f265-4385-875a-29ec80319479","amenity_category":"unspecified","amenity_name_en":"Locker (Room)","amenity_name_zh":"貯物室","amenity_alt_name":null,"amenity_accessibility":null,"amenity_phone":null,"amenity_website":null,"amenity_hours":null,"amenity_correlation_id":null,"unit_id":"3a1ed92a-8822-44f2-accb-909f4974bd19","level_id":"581c6490-1c5b-4ec8-8437-46cfdd169af7","level_floorpolyid":"F3857917042P2006071002000000","level_ordinal":0,"level_z_value":4.42,"level_name_en":"Ground Floor","level_name_zh":"底層","level_short_name_en":"G/F","venue_id":"6f2c1899-c5f1-4f42-8415-b18ae840b57a","building_id":"1a428993-96e1-4cd8-a6a6-f9d822f2701c","bbox":[114.19978187000004,22.292480700000056,114.19978187000004,22.292480700000056]}},{"type":"Feature","id":"amenity_point.153529","geometry":{"type":"Point","coordinates":[114.19987922000007,22.292359560000023,4.419999999998254]},"geometry_name":"shape","properties":{"amenity_id":"f65cf140-3a60-4041-9fa1-84a7e837e2d6","amenity_category":"unspecified","amenity_name_en":"Store","amenity_name_zh":"貯存室","amenity_alt_name":null,"amenity_accessibility":null,"amenity_phone":null,"amenity_website":null,"amenity_hours":null,"amenity_correlation_id":null,"unit_id":"ddd15054-638a-495a-a3c8-0315255d8bd2","level_id":"581c6490-1c5b-4ec8-8437-46cfdd169af7","level_floorpolyid":"F3857917042P2006071002000000","level_ordinal":0,"level_z_value":4.42,"level_name_en":"Ground Floor","level_name_zh":"底層","level_short_name_en":"G/F","venue_id":"6f2c1899-c5f1-4f42-8415-b18ae840b57a","building_id":"1a428993-96e1-4cd8-a6a6-f9d822f2701c","bbox":[114.19987922000007,22.292359560000023,114.19987922000007,22.292359560000023]}},{"type":"Feature","id":"amenity_point.153530","geometry":{"type":"Point","coordinates":[114.19984540000007,22.292377180000074,4.419999999998254]},"geometry_name":"shape","properties":{"amenity_id":"db99fbc7-6d61-41c7-bab1-50002edcc0b0","amenity_category":"unspecified","amenity_name_en":"Store","amenity_name_zh":"貯存室","amenity_alt_name":null,"amenity_accessibility":null,"amenity_phone":null,"amenity_website":null,"amenity_hours":null,"amenity_correlation_id":null,"unit_id":"de02b24a-7a00-44f9-b55c-1102ed7ed556","level_id":"581c6490-1c5b-4ec8-8437-46cfdd169af7","level_floorpolyid":"F3857917042P2006071002000000","level_ordinal":0,"level_z_value":4.42,"level_name_en":"Ground Floor","level_name_zh":"底層","level_short_name_en":"G/F","venue_id":"6f2c1899-c5f1-4f42-8415-b18ae840b57a","building_id":"1a428993-96e1-4cd8-a6a6-f9d822f2701c","bbox":[114.19984540000007,22.292377180000074,114.19984540000007,22.292377180000074]}},{"type":"Feature","id":"amenity_point.153531","geometry":{"type":"Point","coordinates":[114.19984317000001,22.292355230000055,4.419999999998254]},"geometry_name":"shape","properties":{"amenity_id":"deccbb87-fae8-458c-a37b-6f10fa7d957f","amenity_category":"unspecified","amenity_name_en":"F.S. Pump Room","amenity_name_zh":null,"amenity_alt_name":null,"amenity_accessibility":null,"amenity_phone":null,"amenity_website":null,"amenity_hours":null,"amenity_correlation_id":null,"unit_id":"7f8f6b4c-20b4-47ff-ac5b-4481eadc861d","level_id":"581c6490-1c5b-4ec8-8437-46cfdd169af7","level_floorpolyid":"F3857917042P2006071002000000","level_ordinal":0,"level_z_value":4.42,"level_name_en":"Ground Floor","level_name_zh":"底層","level_short_name_en":"G/F","venue_id":"6f2c1899-c5f1-4f42-8415-b18ae840b57a","building_id":"1a428993-96e1-4cd8-a6a6-f9d822f2701c","bbox":[114.19984317000001,22.292355230000055,114.19984317000001,22.292355230000055]}},{"type":"Feature","id":"amenity_point.153532","geometry":{"type":"Point","coordinates":[114.19982963000007,22.292452970000056,4.419999999998254]},"geometry_name":"shape","properties":{"amenity_id":"0f77b708-c50f-4394-a88c-8d94b17c216e","amenity_category":"unspecified","amenity_name_en":"Corridor","amenity_name_zh":"走廊","amenity_alt_name":null,"amenity_accessibility":null,"amenity_phone":null,"amenity_website":null,"amenity_hours":null,"amenity_correlation_id":null,"unit_id":"90a644bf-49d5-44dc-a511-10fc74510243","level_id":"581c6490-1c5b-4ec8-8437-46cfdd169af7","level_floorpolyid":"F3857917042P2006071002000000","level_ordinal":0,"level_z_value":4.42,"level_name_en":"Ground Floor","level_name_zh":"底層","level_short_name_en":"G/F","venue_id":"6f2c1899-c5f1-4f42-8415-b18ae840b57a","building_id":"1a428993-96e1-4cd8-a6a6-f9d822f2701c","bbox":[114.19982963000007,22.292452970000056,114.19982963000007,22.292452970000056]}},{"type":"Feature","id":"amenity_point.153533","geometry":{"type":"Point","coordinates":[114.19989208000004,22.292450690000067,4.419999999998254]},"geometry_name":"shape","properties":{"amenity_id":"8b68795e-4cd8-4e02-9b73-dcabb34dd112","amenity_category":"unspecified","amenity_name_en":"Duct Room","amenity_name_zh":null,"amenity_alt_name":null,"amenity_accessibility":null,"amenity_phone":null,"amenity_website":null,"amenity_hours":null,"amenity_correlation_id":null,"unit_id":"9d66c62f-818f-475a-83d1-1fbd9f8554ec","level_id":"581c6490-1c5b-4ec8-8437-46cfdd169af7","level_floorpolyid":"F3857917042P2006071002000000","level_ordinal":0,"level_z_value":4.42,"level_name_en":"Ground Floor","level_name_zh":"底層","level_short_name_en":"G/F","venue_id":"6f2c1899-c5f1-4f42-8415-b18ae840b57a","building_id":"1a428993-96e1-4cd8-a6a6-f9d822f2701c","bbox":[114.19989208000004,22.292450690000067,114.19989208000004,22.292450690000067]}},{"type":"Feature","id":"amenity_point.153534","geometry":{"type":"Point","coordinates":[114.19991398000002,22.292452240000046,4.419999999998254]},"geometry_name":"shape","properties":{"amenity_id":"75c218de-f00b-41ce-af32-7c2d23461ce9","amenity_category":"stairs","amenity_name_en":"Staircase No.2","amenity_name_zh":null,"amenity_alt_name":null,"amenity_accessibility":null,"amenity_phone":null,"amenity_website":null,"amenity_hours":null,"amenity_correlation_id":null,"unit_id":"d86ce054-1a56-40ef-936c-a0207fb454e2","level_id":"581c6490-1c5b-4ec8-8437-46cfdd169af7","level_floorpolyid":"F3857917042P2006071002000000","level_ordinal":0,"level_z_value":4.42,"level_name_en":"Ground Floor","level_name_zh":"底層","level_short_name_en":"G/F","venue_id":"6f2c1899-c5f1-4f42-8415-b18ae840b57a","building_id":"1a428993-96e1-4cd8-a6a6-f9d822f2701c","bbox":[114.19991398000002,22.292452240000046,114.19991398000002,22.292452240000046]}},{"type":"Feature","id":"amenity_point.153535","geometry":{"type":"Point","coordinates":[114.19948005000003,22.292320510000025,4.419999999998254]},"geometry_name":"shape","properties":{"amenity_id":"f1f37156-d518-4f7d-ba07-f361c7b45ea8","amenity_category":"ramp","amenity_name_en":"Ramp Down","amenity_name_zh":null,"amenity_alt_name":null,"amenity_accessibility":null,"amenity_phone":null,"amenity_website":null,"amenity_hours":null,"amenity_correlation_id":null,"unit_id":"cd19ff76-817d-489d-867e-212273c205ec","level_id":"581c6490-1c5b-4ec8-8437-46cfdd169af7","level_floorpolyid":"F3857917042P2006071002000000","level_ordinal":0,"level_z_value":4.42,"level_name_en":"Ground Floor","level_name_zh":"底層","level_short_name_en":"G/F","venue_id":"6f2c1899-c5f1-4f42-8415-b18ae840b57a","building_id":"1a428993-96e1-4cd8-a6a6-f9d822f2701c","bbox":[114.19948005000003,22.292320510000025,114.19948005000003,22.292320510000025]}},{"type":"Feature","id":"amenity_point.153536","geometry":{"type":"Point","coordinates":[114.19885764000003,22.292276790000074,4.419999999998254]},"geometry_name":"shape","properties":{"amenity_id":"59a13062-6f3f-469b-8fa9-982207067cb6","amenity_category":"unspecified","amenity_name_en":"Corridor","amenity_name_zh":"走廊","amenity_alt_name":null,"amenity_accessibility":null,"amenity_phone":null,"amenity_website":null,"amenity_hours":null,"amenity_correlation_id":null,"unit_id":"db1f8278-88cf-4cef-8c1a-18b043440502","level_id":"581c6490-1c5b-4ec8-8437-46cfdd169af7","level_floorpolyid":"F3857917042P2006071002000000","level_ordinal":0,"level_z_value":4.42,"level_name_en":"Ground Floor","level_name_zh":"底層","level_short_name_en":"G/F","venue_id":"6f2c1899-c5f1-4f42-8415-b18ae840b57a","building_id":"1a428993-96e1-4cd8-a6a6-f9d822f2701c","bbox":[114.19885764000003,22.292276790000074,114.19885764000003,22.292276790000074]}},{"type":"Feature","id":"amenity_point.153537","geometry":{"type":"Point","coordinates":[114.19920688000002,22.29239055000005,4.419999999998254]},"geometry_name":"shape","properties":{"amenity_id":"49e0075b-83dc-4eb5-8377-b7c96e1fb957","amenity_category":"unspecified","amenity_name_en":"Corridor","amenity_name_zh":"走廊","amenity_alt_name":null,"amenity_accessibility":null,"amenity_phone":null,"amenity_website":null,"amenity_hours":null,"amenity_correlation_id":null,"unit_id":"c3e8a29d-53f7-4eeb-b49b-da2f36bcd650","level_id":"581c6490-1c5b-4ec8-8437-46cfdd169af7","level_floorpolyid":"F3857917042P2006071002000000","level_ordinal":0,"level_z_value":4.42,"level_name_en":"Ground Floor","level_name_zh":"底層","level_short_name_en":"G/F","venue_id":"6f2c1899-c5f1-4f42-8415-b18ae840b57a","building_id":"1a428993-96e1-4cd8-a6a6-f9d822f2701c","bbox":[114.19920688000002,22.29239055000005,114.19920688000002,22.29239055000005]}}]}