{"type":"FeatureCollection","features":[{"type":"Feature","id":"level_polygon.6387","geometry":{"type":"Polygon","coordinates":[[[114.19992993000005,22.29242804000006,4.419999999998254],[114.19992743000012,22.292424810000057,4.419999999998254],[114.19992527000011,22.29242288000006,4.419999999998254],[114.19992126000011,22.292420970000023,4.419999999998254],[114.19991663000008,22.292420450000066,4.419999999998254],[114.19991215000005,22.29242122000005,4.419999999998254],[114.19990865000011,22.292422800000054,4.419999999998254],[114.19990459000007,22.29242639000006,4.419999999998254],[114.19989308000004,22.292424260000075,4.419999999998254],[114.19989117000011,22.292423860000042,4.419999999998254],[114.1998977400001,22.292394880000074,4.419999999998254],[114.19990441000004,22.29239615000006,4.419999999998254],[114.19990991000009,22.292373680000026,4.419999999998254],[114.19991642000002,22.292346870000074,4.419999999998254],[114.19991359000005,22.292346390000034,4.419999999998254],[114.19983467000009,22.29232975000008,4.419999999998254],[114.19972201000007,22.292305990000045,4.419999999998254],[114.19969043000003,22.292299340000056,4.419999999998254],[114.19967020000001,22.292295070000023,4.419999999998254],[114.19962242000008,22.29228500000005,4.419999999998254],[114.19959451000011,22.292279110000038,4.419999999998254],[114.1995591000001,22.292271650000032,4.419999999998254],[114.19952817000001,22.292265130000033,4.419999999998254],[114.19948992000002,22.292257310000025,4.419999999998254],[114.19948666000005,22.292270580000036,4.419999999998254],[114.1994817100001,22.29226958000004,4.419999999998254],[114.19945903000007,22.292265180000072,4.419999999998254],[114.19945673000007,22.292264550000027,4.419999999998254],[114.19945383000004,22.292263630000036,4.419999999998254],[114.19945187000008,22.29226244000006,4.419999999998254],[114.1994496000001,22.29225959000007,4.419999999998254],[114.1994470300001,22.292255890000035,4.419999999998254],[114.19944462000001,22.292252580000024,4.419999999998254],[114.19944179000004,22.292249150000032,4.419999999998254],[114.19943865000005,22.292246840000075,4.419999999998254],[114.19943494000006,22.292245300000047,4.419999999998254],[114.1994301200001,22.292244210000035,4.419999999998254],[114.19942503000004,22.29224338000006,4.419999999998254],[114.19939628000009,22.292237320000027,4.419999999998254],[114.19935633000011,22.292228900000055,4.419999999998254],[114.19916737000005,22.292189060000055,4.419999999998254],[114.19913056000007,22.29218130000004,4.419999999998254],[114.1990752700001,22.292169640000054,4.419999999998254],[114.19906058000004,22.29216654000004,4.419999999998254],[114.19903063000004,22.292160230000036,4.419999999998254],[114.19899555000006,22.292152830000077,4.419999999998254],[114.19897336000008,22.29214815000006,4.419999999998254],[114.19894977000001,22.29214318000004,4.419999999998254],[114.19892928000002,22.292138860000023,4.419999999998254],[114.1989060200001,22.292133960000058,4.419999999998254],[114.19887634000008,22.292127700000037,4.419999999998254],[114.19886744000007,22.292125820000024,4.419999999998254],[114.19886563000011,22.29213216000005,4.419999999998254],[114.19885450000004,22.29212971000004,4.419999999998254],[114.19884657000011,22.292166020000025,4.419999999998254],[114.19881668000005,22.292159690000062,4.419999999998254],[114.19880117000002,22.292226350000078,4.419999999998254],[114.19879129000003,22.29226883000007,4.419999999998254],[114.19878682000001,22.292288060000033,4.419999999998254],[114.1987823500001,22.292307280000045,4.419999999998254],[114.1987978200001,22.292310480000026,4.419999999998254],[114.19881209000005,22.292313430000036,4.419999999998254],[114.19883185000003,22.292317510000032,4.419999999998254],[114.19886282000004,22.29232391000005,4.419999999998254],[114.19888499000001,22.292328490000045,4.419999999998254],[114.19890608000003,22.292332850000037,4.419999999998254],[114.1989301000001,22.292337820000057,4.419999999998254],[114.1989513200001,22.292342200000064,4.419999999998254],[114.19898697000008,22.292349570000056,4.419999999998254],[114.19901503000006,22.292355370000053,4.419999999998254],[114.1990519200001,22.292362990000072,4.419999999998254],[114.19908843000007,22.292370530000028,4.419999999998254],[114.19910355000002,22.292373660000067,4.419999999998254],[114.19914835000009,22.292382920000023,4.419999999998254],[114.1991988100001,22.292393340000046,4.419999999998254],[114.1992128500001,22.292396240000073,4.419999999998254],[114.19926237000004,22.292406480000068,4.419999999998254],[114.19929389000004,22.29241299000006,4.419999999998254],[114.19931398000006,22.292417140000055,4.419999999998254],[114.1993530100001,22.292425210000033,4.419999999998254],[114.1993940000001,22.292433680000045,4.419999999998254],[114.19943849000003,22.29244287000006,4.419999999998254],[114.19946868000011,22.292449110000064,4.419999999998254],[114.19951487000003,22.29245865000007,4.419999999998254],[114.19961639000007,22.29247963000006,4.419999999998254],[114.19962592000002,22.29248160000003,4.419999999998254],[114.19971318000012,22.292499630000066,4.419999999998254],[114.19973134000008,22.292503390000036,4.419999999998254],[114.19975941000007,22.292509190000033,4.419999999998254],[114.19977428000004,22.292512260000024,4.419999999998254],[114.19978953000009,22.292515410000078,4.419999999998254],[114.19980478000002,22.292518560000076,4.419999999998254],[114.19982043000005,22.29252180000003,4.419999999998254],[114.19990947000008,22.292540200000076,4.419999999998254],[114.19992237000008,22.29248362000004,4.419999999998254],[114.19993350000004,22.292434790000073,4.419999999998254],[114.19993399000009,22.292432620000056,4.419999999998254],[114.19993147000002,22.292432100000042,4.419999999998254],[114.19992993000005,22.29242804000006,4.419999999998254]]]},"geometry_name":"shape","properties":{"level_id":"581c6490-1c5b-4ec8-8437-46cfdd169af7","level_floorpolyid":"F3857917042P2006071002000000","level_ordinal":0,"level_z_value":4.42,"level_name_en":"Ground Floor","level_name_zh":"底層","level_short_name_en":"G/F","level_category":"unspecified","level_restriction":null,"level_outdoor":0,"venue_id":"6f2c1899-c5f1-4f42-8415-b18ae840b57a","venue_category":"governmentfacility","venue_name_en":"Java Road Municipal Services Building","venue_name_zh":"渣華道市政大廈","venue_alt_name":null,"venue_restriction":null,"venue_hours":null,"venue_website":null,"venue_phone":null,"address_address":"99 JAVA ROAD","address_unit":null,"address_locality":"EASTERN DISTRICT","building_id":"1a428993-96e1-4cd8-a6a6-f9d822f2701c","building_category":"unspecified","building_name_en":"Java Road Municipal Services Building Podium","building_name_zh":"渣華道市政大廈平台","building_alt_name":null,"building_restriction":"","bbox":[114.1987823500001,22.292125820000024,114.19993399000009,22.292540200000076]}},{"type":"Feature","id":"level_polygon.6392","geometry":{"type":"Polygon","coordinates":[[[114.1999299900001,22.292428140000027,10.419999999998254],[114.19992825000008,22.292426070000033,10.419999999998254],[114.19992636000006,22.292424340000025,10.419999999998254],[114.19992423000008,22.292422980000026,10.419999999998254],[114.19992152000009,22.29242185000004,10.419999999998254],[114.19991814000002,22.29242112000003,10.419999999998254],[114.19991533000007,22.29242117000007,10.419999999998254],[114.19991274000006,22.292421570000045,10.419999999998254],[114.19991025000002,22.29242239000007,10.419999999998254],[114.1999079200001,22.292423530000065,10.419999999998254],[114.19990588000007,22.292425060000028,10.419999999998254],[114.19990445000008,22.292426480000074,10.419999999998254],[114.19989811000005,22.292425070000036,10.419999999998254],[114.19990363000011,22.292401600000062,10.419999999998254],[114.19990915000005,22.292378120000024,10.419999999998254],[114.19991725000011,22.292343680000045,10.419999999998254],[114.19983667000008,22.292326940000066,10.419999999998254],[114.19980825000005,22.292321040000047,10.419999999998254],[114.19978092000008,22.292315360000032,10.419999999998254],[114.1997535800001,22.292309680000074,10.419999999998254],[114.19972745000007,22.29230425000003,10.419999999998254],[114.19970156000011,22.292298870000025,10.419999999998254],[114.19967542000006,22.292293440000037,10.419999999998254],[114.19964865000009,22.29228788000006,10.419999999998254],[114.19962283000007,22.292282510000064,10.419999999998254],[114.19959505000008,22.292276740000034,10.419999999998254],[114.19955940000011,22.292269340000075,10.419999999998254],[114.19952880000005,22.292262980000032,10.419999999998254],[114.19949172000008,22.292255270000055,10.419999999998254],[114.19947114000001,22.29225100000008,10.419999999998254],[114.19945464000011,22.29224757000003,10.419999999998254],[114.19943597000008,22.292243690000078,10.419999999998254],[114.19942186000003,22.292240760000027,10.419999999998254],[114.19939662000002,22.292235520000077,10.419999999998254],[114.19933513000001,22.292222740000057,10.419999999998254],[114.19918349000011,22.292191240000022,10.419999999998254],[114.19913181000004,22.29218050000003,10.419999999998254],[114.1990754200001,22.292168780000054,10.419999999998254],[114.19905940000001,22.292165450000027,10.419999999998254],[114.19903155000009,22.292159670000046,10.419999999998254],[114.19900370000005,22.292153880000058,10.419999999998254],[114.19897527,22.29214798000004,10.419999999998254],[114.19894765000004,22.292142240000032,10.419999999998254],[114.19891919000008,22.292136320000054,10.419999999998254],[114.1988914000001,22.292130550000024,10.419999999998254],[114.19886284000006,22.29212462000004,10.419999999998254],[114.19885822000003,22.292144240000027,10.419999999998254],[114.19885289000001,22.29216690000004,10.419999999998254],[114.19884719000004,22.292165690000047,10.419999999998254],[114.19881698000006,22.292159280000078,10.419999999998254],[114.1988047000001,22.292212160000076,10.419999999998254],[114.19879250000008,22.292264670000066,10.419999999998254],[114.19879028000003,22.29227424000004,10.419999999998254],[114.19878381000001,22.29230210000003,10.419999999998254],[114.19878268000002,22.292306950000068,10.419999999998254],[114.19885137000006,22.292321190000052,10.419999999998254],[114.19887834000008,22.292326780000053,10.419999999998254],[114.19890499000007,22.292332300000055,10.419999999998254],[114.19893122000008,22.29233774000005,10.419999999998254],[114.19895769000004,22.292343220000078,10.419999999998254],[114.19898438000007,22.29234875000003,10.419999999998254],[114.19901049000009,22.29235416000006,10.419999999998254],[114.19903734000002,22.292359730000044,10.419999999998254],[114.19906354000011,22.29236516000003,10.419999999998254],[114.19909014000007,22.292370670000025,10.419999999998254],[114.19911642000011,22.292376110000077,10.419999999998254],[114.19914270000004,22.292381560000024,10.419999999998254],[114.19916205000004,22.29238557000008,10.419999999998254],[114.19919980000009,22.29239339000003,10.419999999998254],[114.19926281000005,22.292406450000044,10.419999999998254],[114.19930514000009,22.292415220000066,10.419999999998254],[114.19932827000002,22.292420020000066,10.419999999998254],[114.1993533100001,22.292425210000033,10.419999999998254],[114.1993766700001,22.292430050000064,10.419999999998254],[114.19940047000011,22.292434980000053,10.419999999998254],[114.19942374000004,22.292439800000068,10.419999999998254],[114.19944720000001,22.292444660000058,10.419999999998254],[114.19947136000008,22.292449670000053,10.419999999998254],[114.19949755000005,22.29245510000004,10.419999999998254],[114.19952328000011,22.292460430000062,10.419999999998254],[114.1995486400001,22.29246569000003,10.419999999998254],[114.19957542000009,22.292471240000054,10.419999999998254],[114.1996026700001,22.292476880000038,10.419999999998254],[114.19962941000006,22.292482420000056,10.419999999998254],[114.19965610000008,22.292487950000066,10.419999999998254],[114.19968322000011,22.292493570000033,10.419999999998254],[114.19970939000007,22.292499000000078,10.419999999998254],[114.19973701000004,22.292504720000068,10.419999999998254],[114.19976469000005,22.292510460000074,10.419999999998254],[114.19979237000007,22.29251619000007,10.419999999998254],[114.19987959000002,22.292534270000033,10.419999999998254],[114.19989363000002,22.292537180000068,10.419999999998254],[114.1999095000001,22.292540470000063,10.419999999998254],[114.19991486000004,22.292517090000047,10.419999999998254],[114.19992260000004,22.292483400000037,10.419999999998254],[114.19993423000005,22.292432720000022,10.419999999998254],[114.19993178000004,22.292432290000022,10.419999999998254],[114.19993103000002,22.292430000000024,10.419999999998254],[114.1999299900001,22.292428140000027,10.419999999998254]]]},"geometry_name":"shape","properties":{"level_id":"c87a78b8-6eaf-4a89-bdca-146145005890","level_floorpolyid":"F3857917042P2006071001000300","level_ordinal":3,"level_z_value":10.42,"level_name_en":"1st Floor","level_name_zh":"一樓","level_short_name_en":"1/F","level_category":"unspecified","level_restriction":null,"level_outdoor":0,"venue_id":"6f2c1899-c5f1-4f42-8415-b18ae840b57a","venue_category":"governmentfacility","venue_name_en":"Java Road Municipal Services Building","venue_name_zh":"渣華道市政大廈","venue_alt_name":null,"venue_restriction":null,"venue_hours":null,"venue_website":null,"venue_phone":null,"address_address":"99 JAVA ROAD","address_unit":null,"address_locality":"EASTERN DISTRICT","building_id":"1a428993-96e1-4cd8-a6a6-f9d822f2701c","building_category":"unspecified","building_name_en":"Java Road Municipal Services Building Podium","building_name_zh":"渣華道市政大廈平台","building_alt_name":null,"building_restriction":"","bbox":[114.19878268000002,22.29212462000004,114.19993423000005,22.292540470000063]}}]}