{"type":"FeatureCollection","features":[{"type":"Feature","id":"amenity_point.81168","geometry":{"type":"Point","coordinates":[114.17054254000004,22.320607420000044,6.085999999995693]},"geometry_name":"shape","properties":{"amenity_id":"0b45a594-eb42-422f-b18e-c06aef71d514","amenity_category":"elevator","amenity_name_en":"FIREMAN'S LIFT","amenity_name_zh":"升降機(消防員專用)","amenity_alt_name":null,"amenity_accessibility":null,"amenity_phone":null,"amenity_website":null,"amenity_hours":null,"amenity_correlation_id":null,"unit_id":"9be69d4b-30bc-474c-bc8c-4fb29c20c814","level_id":"a5992741-7dee-4280-a70d-ac3d48052270","level_floorpolyid":"F3560920209P2006082502000000","level_ordinal":0,"level_z_value":6.086,"level_name_en":"GRD. FLOOR","level_name_zh":null,"level_short_name_en":"G/F","venue_id":"5a8bfe7d-bfd8-4a4d-bc61-e0a431abf6a3","building_id":"3252e24c-8428-4080-bba6-a9e92fd5acb9","bbox":[114.17054254000004,22.320607420000044,114.17054254000004,22.320607420000044]}},{"type":"Feature","id":"amenity_point.81169","geometry":{"type":"Point","coordinates":[114.17054254000004,22.320607420000044,11.5]},"geometry_name":"shape","properties":{"amenity_id":"9eda571d-9b01-48e0-bf2d-df8df6168d2e","amenity_category":"elevator","amenity_name_en":"FIREMAN'S LIFT","amenity_name_zh":"升降機(消防員專用)","amenity_alt_name":null,"amenity_accessibility":null,"amenity_phone":null,"amenity_website":null,"amenity_hours":null,"amenity_correlation_id":null,"unit_id":"d6f8cf2d-ad01-4ff0-8fb5-16a7e29e900e","level_id":"2d3afd8b-1b50-4843-bc0f-6169db82926d","level_floorpolyid":"F3560920209P2006082501000100","level_ordinal":1,"level_z_value":11.5,"level_name_en":"1st FLOOR","level_name_zh":null,"level_short_name_en":"1/F","venue_id":"5a8bfe7d-bfd8-4a4d-bc61-e0a431abf6a3","building_id":"3252e24c-8428-4080-bba6-a9e92fd5acb9","bbox":[114.17054254000004,22.320607420000044,114.17054254000004,22.320607420000044]}},{"type":"Feature","id":"amenity_point.81182","geometry":{"type":"Point","coordinates":[114.17056977000004,22.320612190000077,6.085999999995693]},"geometry_name":"shape","properties":{"amenity_id":"33abf621-188c-409f-88f1-d6315f8afbca","amenity_category":"elevator","amenity_name_en":"L4","amenity_name_zh":"升降機","amenity_alt_name":null,"amenity_accessibility":null,"amenity_phone":null,"amenity_website":null,"amenity_hours":null,"amenity_correlation_id":null,"unit_id":"11672c84-8d32-44ea-8447-f73fa9e43299","level_id":"a5992741-7dee-4280-a70d-ac3d48052270","level_floorpolyid":"F3560920209P2006082502000000","level_ordinal":0,"level_z_value":6.086,"level_name_en":"GRD. FLOOR","level_name_zh":null,"level_short_name_en":"G/F","venue_id":"5a8bfe7d-bfd8-4a4d-bc61-e0a431abf6a3","building_id":"3252e24c-8428-4080-bba6-a9e92fd5acb9","bbox":[114.17056977000004,22.320612190000077,114.17056977000004,22.320612190000077]}},{"type":"Feature","id":"amenity_point.81183","geometry":{"type":"Point","coordinates":[114.17056976000003,22.320612200000028,11.5]},"geometry_name":"shape","properties":{"amenity_id":"7015d741-e9ab-4389-b82e-66eb43d5856c","amenity_category":"elevator","amenity_name_en":"L4","amenity_name_zh":"升降機","amenity_alt_name":null,"amenity_accessibility":null,"amenity_phone":null,"amenity_website":null,"amenity_hours":null,"amenity_correlation_id":null,"unit_id":"04f8bad4-1b60-4fff-a119-2990421b5cb6","level_id":"2d3afd8b-1b50-4843-bc0f-6169db82926d","level_floorpolyid":"F3560920209P2006082501000100","level_ordinal":1,"level_z_value":11.5,"level_name_en":"1st FLOOR","level_name_zh":null,"level_short_name_en":"1/F","venue_id":"5a8bfe7d-bfd8-4a4d-bc61-e0a431abf6a3","building_id":"3252e24c-8428-4080-bba6-a9e92fd5acb9","bbox":[114.17056976000003,22.320612200000028,114.17056976000003,22.320612200000028]}},{"type":"Feature","id":"amenity_point.81196","geometry":{"type":"Point","coordinates":[114.17063191000011,22.320671830000038,6.085999999995693]},"geometry_name":"shape","properties":{"amenity_id":"dc40ac22-ee16-43e3-aa0c-f4373ee07c5d","amenity_category":"elevator","amenity_name_en":"L3","amenity_name_zh":"升降機","amenity_alt_name":null,"amenity_accessibility":null,"amenity_phone":null,"amenity_website":null,"amenity_hours":null,"amenity_correlation_id":null,"unit_id":"11dbe1e9-9117-4d7a-96ca-f8f0bfdedb17","level_id":"a5992741-7dee-4280-a70d-ac3d48052270","level_floorpolyid":"F3560920209P2006082502000000","level_ordinal":0,"level_z_value":6.086,"level_name_en":"GRD. FLOOR","level_name_zh":null,"level_short_name_en":"G/F","venue_id":"5a8bfe7d-bfd8-4a4d-bc61-e0a431abf6a3","building_id":"3252e24c-8428-4080-bba6-a9e92fd5acb9","bbox":[114.17063191000011,22.320671830000038,114.17063191000011,22.320671830000038]}},{"type":"Feature","id":"amenity_point.81208","geometry":{"type":"Point","coordinates":[114.17064139000001,22.32062594000007,6.085999999995693]},"geometry_name":"shape","properties":{"amenity_id":"65885f2d-f7a3-4fb1-9736-52f70a541b49","amenity_category":"elevator","amenity_name_en":"L1","amenity_name_zh":"升降機","amenity_alt_name":null,"amenity_accessibility":null,"amenity_phone":null,"amenity_website":null,"amenity_hours":null,"amenity_correlation_id":null,"unit_id":"05c669e2-7acc-4f1d-9b90-3e675e1c47bb","level_id":"a5992741-7dee-4280-a70d-ac3d48052270","level_floorpolyid":"F3560920209P2006082502000000","level_ordinal":0,"level_z_value":6.086,"level_name_en":"GRD. FLOOR","level_name_zh":null,"level_short_name_en":"G/F","venue_id":"5a8bfe7d-bfd8-4a4d-bc61-e0a431abf6a3","building_id":"3252e24c-8428-4080-bba6-a9e92fd5acb9","bbox":[114.17064139000001,22.32062594000007,114.17064139000001,22.32062594000007]}},{"type":"Feature","id":"amenity_point.81220","geometry":{"type":"Point","coordinates":[114.17063655000004,22.320649520000075,6.085999999995693]},"geometry_name":"shape","properties":{"amenity_id":"c7cb82d3-93fb-4b8a-a351-8f4120db3420","amenity_category":"elevator","amenity_name_en":"L2","amenity_name_zh":"升降機","amenity_alt_name":null,"amenity_accessibility":null,"amenity_phone":null,"amenity_website":null,"amenity_hours":null,"amenity_correlation_id":null,"unit_id":"ab71494f-1b77-4100-b5e0-236e6b27bdc8","level_id":"a5992741-7dee-4280-a70d-ac3d48052270","level_floorpolyid":"F3560920209P2006082502000000","level_ordinal":0,"level_z_value":6.086,"level_name_en":"GRD. FLOOR","level_name_zh":null,"level_short_name_en":"G/F","venue_id":"5a8bfe7d-bfd8-4a4d-bc61-e0a431abf6a3","building_id":"3252e24c-8428-4080-bba6-a9e92fd5acb9","bbox":[114.17063655000004,22.320649520000075,114.17063655000004,22.320649520000075]}},{"type":"Feature","id":"amenity_point.81232","geometry":{"type":"Point","coordinates":[114.17051448000007,22.320602610000037,6.085999999995693]},"geometry_name":"shape","properties":{"amenity_id":"467ac8a6-cbe0-4d82-9887-c506821d50b3","amenity_category":"elevator","amenity_name_en":"L6","amenity_name_zh":"升降機","amenity_alt_name":null,"amenity_accessibility":null,"amenity_phone":null,"amenity_website":null,"amenity_hours":null,"amenity_correlation_id":null,"unit_id":"f035def2-d358-4a56-85d9-919d0b41203e","level_id":"a5992741-7dee-4280-a70d-ac3d48052270","level_floorpolyid":"F3560920209P2006082502000000","level_ordinal":0,"level_z_value":6.086,"level_name_en":"GRD. FLOOR","level_name_zh":null,"level_short_name_en":"G/F","venue_id":"5a8bfe7d-bfd8-4a4d-bc61-e0a431abf6a3","building_id":"3252e24c-8428-4080-bba6-a9e92fd5acb9","bbox":[114.17051448000007,22.320602610000037,114.17051448000007,22.320602610000037]}},{"type":"Feature","id":"amenity_point.81233","geometry":{"type":"Point","coordinates":[114.17051447000006,22.320602610000037,11.5]},"geometry_name":"shape","properties":{"amenity_id":"8063ee62-5c6c-48a7-98b2-d987939c6eb8","amenity_category":"elevator","amenity_name_en":"LIFT 6","amenity_name_zh":"升降機","amenity_alt_name":null,"amenity_accessibility":null,"amenity_phone":null,"amenity_website":null,"amenity_hours":null,"amenity_correlation_id":null,"unit_id":"e21a9a6f-5cbc-4834-931c-6f450c23ba89","level_id":"2d3afd8b-1b50-4843-bc0f-6169db82926d","level_floorpolyid":"F3560920209P2006082501000100","level_ordinal":1,"level_z_value":11.5,"level_name_en":"1st FLOOR","level_name_zh":null,"level_short_name_en":"1/F","venue_id":"5a8bfe7d-bfd8-4a4d-bc61-e0a431abf6a3","building_id":"3252e24c-8428-4080-bba6-a9e92fd5acb9","bbox":[114.17051447000006,22.320602610000037,114.17051447000006,22.320602610000037]}},{"type":"Feature","id":"amenity_point.81235","geometry":{"type":"Point","coordinates":[114.17035710000005,22.320906050000076,6.085999999995693]},"geometry_name":"shape","properties":{"amenity_id":"e7231925-dd2c-4a84-91d9-4eb46c463358","amenity_category":"stairs","amenity_name_en":"Stair","amenity_name_zh":"樓梯","amenity_alt_name":null,"amenity_accessibility":null,"amenity_phone":null,"amenity_website":null,"amenity_hours":null,"amenity_correlation_id":null,"unit_id":"0488be3f-40dd-4444-ad93-47c364561914","level_id":"a5992741-7dee-4280-a70d-ac3d48052270","level_floorpolyid":"F3560920209P2006082502000000","level_ordinal":0,"level_z_value":6.086,"level_name_en":"GRD. FLOOR","level_name_zh":null,"level_short_name_en":"G/F","venue_id":"5a8bfe7d-bfd8-4a4d-bc61-e0a431abf6a3","building_id":"3252e24c-8428-4080-bba6-a9e92fd5acb9","bbox":[114.17035710000005,22.320906050000076,114.17035710000005,22.320906050000076]}},{"type":"Feature","id":"amenity_point.81236","geometry":{"type":"Point","coordinates":[114.17035793000002,22.32090695000005,11.5]},"geometry_name":"shape","properties":{"amenity_id":"42e703ff-a43b-4ebf-ac24-b7bec930481e","amenity_category":"stairs","amenity_name_en":"Stair","amenity_name_zh":"樓梯","amenity_alt_name":null,"amenity_accessibility":null,"amenity_phone":null,"amenity_website":null,"amenity_hours":null,"amenity_correlation_id":null,"unit_id":"b18bc9a4-0aca-4215-9781-02ebe59fe33b","level_id":"2d3afd8b-1b50-4843-bc0f-6169db82926d","level_floorpolyid":"F3560920209P2006082501000100","level_ordinal":1,"level_z_value":11.5,"level_name_en":"1st FLOOR","level_name_zh":null,"level_short_name_en":"1/F","venue_id":"5a8bfe7d-bfd8-4a4d-bc61-e0a431abf6a3","building_id":"3252e24c-8428-4080-bba6-a9e92fd5acb9","bbox":[114.17035793000002,22.32090695000005,114.17035793000002,22.32090695000005]}},{"type":"Feature","id":"amenity_point.81239","geometry":{"type":"Point","coordinates":[114.17068660000007,22.320964550000042,6.085999999995693]},"geometry_name":"shape","properties":{"amenity_id":"a6233a35-1b7d-49c6-9bd6-fc801506aa75","amenity_category":"stairs","amenity_name_en":"Stair","amenity_name_zh":"樓梯","amenity_alt_name":null,"amenity_accessibility":null,"amenity_phone":null,"amenity_website":null,"amenity_hours":null,"amenity_correlation_id":null,"unit_id":"c64339cd-b2f0-441f-9f05-f35271eda5c5","level_id":"a5992741-7dee-4280-a70d-ac3d48052270","level_floorpolyid":"F3560920209P2006082502000000","level_ordinal":0,"level_z_value":6.086,"level_name_en":"GRD. FLOOR","level_name_zh":null,"level_short_name_en":"G/F","venue_id":"5a8bfe7d-bfd8-4a4d-bc61-e0a431abf6a3","building_id":"3252e24c-8428-4080-bba6-a9e92fd5acb9","bbox":[114.17068660000007,22.320964550000042,114.17068660000007,22.320964550000042]}},{"type":"Feature","id":"amenity_point.81240","geometry":{"type":"Point","coordinates":[114.17068571000004,22.320965020000074,11.5]},"geometry_name":"shape","properties":{"amenity_id":"acb89444-0ea2-4ad3-8c2d-fff9dc02f273","amenity_category":"stairs","amenity_name_en":"Stair","amenity_name_zh":"樓梯","amenity_alt_name":null,"amenity_accessibility":null,"amenity_phone":null,"amenity_website":null,"amenity_hours":null,"amenity_correlation_id":null,"unit_id":"7a0ddb67-bbc3-4544-a4d6-7ee144110eee","level_id":"2d3afd8b-1b50-4843-bc0f-6169db82926d","level_floorpolyid":"F3560920209P2006082501000100","level_ordinal":1,"level_z_value":11.5,"level_name_en":"1st FLOOR","level_name_zh":null,"level_short_name_en":"1/F","venue_id":"5a8bfe7d-bfd8-4a4d-bc61-e0a431abf6a3","building_id":"3252e24c-8428-4080-bba6-a9e92fd5acb9","bbox":[114.17068571000004,22.320965020000074,114.17068571000004,22.320965020000074]}},{"type":"Feature","id":"amenity_point.81244","geometry":{"type":"Point","coordinates":[114.17070466000007,22.320820930000025,11.5]},"geometry_name":"shape","properties":{"amenity_id":"68bb9daa-22fb-4f52-953a-99e678945402","amenity_category":"escalator","amenity_name_en":"Escalator","amenity_name_zh":"扶手電梯","amenity_alt_name":null,"amenity_accessibility":null,"amenity_phone":null,"amenity_website":null,"amenity_hours":null,"amenity_correlation_id":null,"unit_id":"8e8dcd11-77ef-456e-861c-9256e96d0bd0","level_id":"2d3afd8b-1b50-4843-bc0f-6169db82926d","level_floorpolyid":"F3560920209P2006082501000100","level_ordinal":1,"level_z_value":11.5,"level_name_en":"1st FLOOR","level_name_zh":null,"level_short_name_en":"1/F","venue_id":"5a8bfe7d-bfd8-4a4d-bc61-e0a431abf6a3","building_id":"3252e24c-8428-4080-bba6-a9e92fd5acb9","bbox":[114.17070466000007,22.320820930000025,114.17070466000007,22.320820930000025]}},{"type":"Feature","id":"amenity_point.81247","geometry":{"type":"Point","coordinates":[114.17071847000011,22.320823070000074,11.5]},"geometry_name":"shape","properties":{"amenity_id":"6873918a-3061-44e7-8994-05502de8bed7","amenity_category":"escalator","amenity_name_en":"Escalator","amenity_name_zh":"扶手電梯","amenity_alt_name":null,"amenity_accessibility":null,"amenity_phone":null,"amenity_website":null,"amenity_hours":null,"amenity_correlation_id":null,"unit_id":"372764a9-2ff3-483b-a80f-d9e4e04ab25e","level_id":"2d3afd8b-1b50-4843-bc0f-6169db82926d","level_floorpolyid":"F3560920209P2006082501000100","level_ordinal":1,"level_z_value":11.5,"level_name_en":"1st FLOOR","level_name_zh":null,"level_short_name_en":"1/F","venue_id":"5a8bfe7d-bfd8-4a4d-bc61-e0a431abf6a3","building_id":"3252e24c-8428-4080-bba6-a9e92fd5acb9","bbox":[114.17071847000011,22.320823070000074,114.17071847000011,22.320823070000074]}},{"type":"Feature","id":"amenity_point.81250","geometry":{"type":"Point","coordinates":[114.17057178000005,22.320577410000055,6.085999999995693]},"geometry_name":"shape","properties":{"amenity_id":"5f2011ae-e283-48a4-ba9b-27e4e14ffb56","amenity_category":"stairs","amenity_name_en":"Stair","amenity_name_zh":"樓梯","amenity_alt_name":null,"amenity_accessibility":null,"amenity_phone":null,"amenity_website":null,"amenity_hours":null,"amenity_correlation_id":null,"unit_id":"f676812d-3ed3-4307-a3d2-1ba9254454cf","level_id":"a5992741-7dee-4280-a70d-ac3d48052270","level_floorpolyid":"F3560920209P2006082502000000","level_ordinal":0,"level_z_value":6.086,"level_name_en":"GRD. FLOOR","level_name_zh":null,"level_short_name_en":"G/F","venue_id":"5a8bfe7d-bfd8-4a4d-bc61-e0a431abf6a3","building_id":"3252e24c-8428-4080-bba6-a9e92fd5acb9","bbox":[114.17057178000005,22.320577410000055,114.17057178000005,22.320577410000055]}},{"type":"Feature","id":"amenity_point.81251","geometry":{"type":"Point","coordinates":[114.17057609000005,22.32058205000004,11.5]},"geometry_name":"shape","properties":{"amenity_id":"126025f7-b302-465d-bb8f-0dc09ee17fca","amenity_category":"stairs","amenity_name_en":"Stair","amenity_name_zh":"樓梯","amenity_alt_name":null,"amenity_accessibility":null,"amenity_phone":null,"amenity_website":null,"amenity_hours":null,"amenity_correlation_id":null,"unit_id":"66ca4a54-09e2-474e-890e-bb9bb2f4a55f","level_id":"2d3afd8b-1b50-4843-bc0f-6169db82926d","level_floorpolyid":"F3560920209P2006082501000100","level_ordinal":1,"level_z_value":11.5,"level_name_en":"1st FLOOR","level_name_zh":null,"level_short_name_en":"1/F","venue_id":"5a8bfe7d-bfd8-4a4d-bc61-e0a431abf6a3","building_id":"3252e24c-8428-4080-bba6-a9e92fd5acb9","bbox":[114.17057609000005,22.32058205000004,114.17057609000005,22.32058205000004]}},{"type":"Feature","id":"amenity_point.81254","geometry":{"type":"Point","coordinates":[114.17060434000007,22.320579700000053,6.085999999995693]},"geometry_name":"shape","properties":{"amenity_id":"4c189b8e-aed9-4f9d-8fbd-06e238580f4c","amenity_category":"ramp","amenity_name_en":"RAMP","amenity_name_zh":"斜道","amenity_alt_name":null,"amenity_accessibility":null,"amenity_phone":null,"amenity_website":null,"amenity_hours":null,"amenity_correlation_id":null,"unit_id":"b4807a38-9bb7-424d-b6ae-a96f68fd3a54","level_id":"a5992741-7dee-4280-a70d-ac3d48052270","level_floorpolyid":"F3560920209P2006082502000000","level_ordinal":0,"level_z_value":6.086,"level_name_en":"GRD. FLOOR","level_name_zh":null,"level_short_name_en":"G/F","venue_id":"5a8bfe7d-bfd8-4a4d-bc61-e0a431abf6a3","building_id":"3252e24c-8428-4080-bba6-a9e92fd5acb9","bbox":[114.17060434000007,22.320579700000053,114.17060434000007,22.320579700000053]}},{"type":"Feature","id":"amenity_point.81255","geometry":{"type":"Point","coordinates":[114.17064541000002,22.320598720000078,6.085999999995693]},"geometry_name":"shape","properties":{"amenity_id":"4df3f29c-102f-4cc5-a570-a6a02bf6a7a1","amenity_category":"restroom.unisex","amenity_name_en":"TOILET","amenity_name_zh":"洗手間(女性及男性)","amenity_alt_name":null,"amenity_accessibility":null,"amenity_phone":null,"amenity_website":null,"amenity_hours":null,"amenity_correlation_id":null,"unit_id":"0ab9d31a-17a4-455e-b782-548fa3512fe0","level_id":"a5992741-7dee-4280-a70d-ac3d48052270","level_floorpolyid":"F3560920209P2006082502000000","level_ordinal":0,"level_z_value":6.086,"level_name_en":"GRD. FLOOR","level_name_zh":null,"level_short_name_en":"G/F","venue_id":"5a8bfe7d-bfd8-4a4d-bc61-e0a431abf6a3","building_id":"3252e24c-8428-4080-bba6-a9e92fd5acb9","bbox":[114.17064541000002,22.320598720000078,114.17064541000002,22.320598720000078]}},{"type":"Feature","id":"amenity_point.81256","geometry":{"type":"Point","coordinates":[114.17066366000006,22.32059122000004,6.085999999995693]},"geometry_name":"shape","properties":{"amenity_id":"ea10e56b-6b8c-4071-9e2f-16157fc8c1fe","amenity_category":"restroom.wheelchair","amenity_name_en":"W.C.","amenity_name_zh":"洗手間(殘疾人士)","amenity_alt_name":null,"amenity_accessibility":null,"amenity_phone":null,"amenity_website":null,"amenity_hours":null,"amenity_correlation_id":null,"unit_id":"96a001f0-8c5b-4d37-b18b-727bc7ee8ff9","level_id":"a5992741-7dee-4280-a70d-ac3d48052270","level_floorpolyid":"F3560920209P2006082502000000","level_ordinal":0,"level_z_value":6.086,"level_name_en":"GRD. FLOOR","level_name_zh":null,"level_short_name_en":"G/F","venue_id":"5a8bfe7d-bfd8-4a4d-bc61-e0a431abf6a3","building_id":"3252e24c-8428-4080-bba6-a9e92fd5acb9","bbox":[114.17066366000006,22.32059122000004,114.17066366000006,22.32059122000004]}},{"type":"Feature","id":"amenity_point.81257","geometry":{"type":"Point","coordinates":[114.17066699000009,22.320641330000058,6.085999999995693]},"geometry_name":"shape","properties":{"amenity_id":"67ef97ee-0a1c-44ac-862c-dfc4e227b7b2","amenity_category":"stairs","amenity_name_en":"Stair","amenity_name_zh":"樓梯","amenity_alt_name":null,"amenity_accessibility":null,"amenity_phone":null,"amenity_website":null,"amenity_hours":null,"amenity_correlation_id":null,"unit_id":"12f76714-9caa-4008-86a5-dbce02fce244","level_id":"a5992741-7dee-4280-a70d-ac3d48052270","level_floorpolyid":"F3560920209P2006082502000000","level_ordinal":0,"level_z_value":6.086,"level_name_en":"GRD. FLOOR","level_name_zh":null,"level_short_name_en":"G/F","venue_id":"5a8bfe7d-bfd8-4a4d-bc61-e0a431abf6a3","building_id":"3252e24c-8428-4080-bba6-a9e92fd5acb9","bbox":[114.17066699000009,22.320641330000058,114.17066699000009,22.320641330000058]}},{"type":"Feature","id":"amenity_point.81258","geometry":{"type":"Point","coordinates":[114.17065625000009,22.320639510000035,6.085999999995693]},"geometry_name":"shape","properties":{"amenity_id":"721eeb58-614e-4883-a428-efd053e8c5ff","amenity_category":"ramp","amenity_name_en":"RAMP","amenity_name_zh":"斜道","amenity_alt_name":null,"amenity_accessibility":null,"amenity_phone":null,"amenity_website":null,"amenity_hours":null,"amenity_correlation_id":null,"unit_id":"905f4d26-9836-4e1b-bd63-c89f41944c53","level_id":"a5992741-7dee-4280-a70d-ac3d48052270","level_floorpolyid":"F3560920209P2006082502000000","level_ordinal":0,"level_z_value":6.086,"level_name_en":"GRD. FLOOR","level_name_zh":null,"level_short_name_en":"G/F","venue_id":"5a8bfe7d-bfd8-4a4d-bc61-e0a431abf6a3","building_id":"3252e24c-8428-4080-bba6-a9e92fd5acb9","bbox":[114.17065625000009,22.320639510000035,114.17065625000009,22.320639510000035]}},{"type":"Feature","id":"amenity_point.81259","geometry":{"type":"Point","coordinates":[114.17053634000001,22.320638190000068,6.085999999995693]},"geometry_name":"shape","properties":{"amenity_id":"f49576c9-c8e1-4cce-946b-ee4c7a62c02f","amenity_category":"parking","amenity_name_en":"LOADING / UNLOADING BAY","amenity_name_zh":"上落客貨處","amenity_alt_name":null,"amenity_accessibility":null,"amenity_phone":null,"amenity_website":null,"amenity_hours":null,"amenity_correlation_id":null,"unit_id":"9f4468cd-0ea1-4bd2-a8ba-dc8ac289b835","level_id":"a5992741-7dee-4280-a70d-ac3d48052270","level_floorpolyid":"F3560920209P2006082502000000","level_ordinal":0,"level_z_value":6.086,"level_name_en":"GRD. FLOOR","level_name_zh":null,"level_short_name_en":"G/F","venue_id":"5a8bfe7d-bfd8-4a4d-bc61-e0a431abf6a3","building_id":"3252e24c-8428-4080-bba6-a9e92fd5acb9","bbox":[114.17053634000001,22.320638190000068,114.17053634000001,22.320638190000068]}},{"type":"Feature","id":"amenity_point.81260","geometry":{"type":"Point","coordinates":[114.17045171000007,22.32081633000007,6.085999999995693]},"geometry_name":"shape","properties":{"amenity_id":"a5925a11-15d1-4525-9926-773f6d8d2426","amenity_category":"escalator","amenity_name_en":"Escalator","amenity_name_zh":"扶手電梯","amenity_alt_name":null,"amenity_accessibility":null,"amenity_phone":null,"amenity_website":null,"amenity_hours":null,"amenity_correlation_id":null,"unit_id":"23d39b0c-5084-4cd1-896d-3be9226db230","level_id":"a5992741-7dee-4280-a70d-ac3d48052270","level_floorpolyid":"F3560920209P2006082502000000","level_ordinal":0,"level_z_value":6.086,"level_name_en":"GRD. FLOOR","level_name_zh":null,"level_short_name_en":"G/F","venue_id":"5a8bfe7d-bfd8-4a4d-bc61-e0a431abf6a3","building_id":"3252e24c-8428-4080-bba6-a9e92fd5acb9","bbox":[114.17045171000007,22.32081633000007,114.17045171000007,22.32081633000007]}},{"type":"Feature","id":"amenity_point.81261","geometry":{"type":"Point","coordinates":[114.17044876000011,22.320831070000054,6.085999999995693]},"geometry_name":"shape","properties":{"amenity_id":"9e9c1f8b-6e0c-4d2d-a00f-e2fed141baf3","amenity_category":"escalator","amenity_name_en":"Escalator","amenity_name_zh":"扶手電梯","amenity_alt_name":null,"amenity_accessibility":null,"amenity_phone":null,"amenity_website":null,"amenity_hours":null,"amenity_correlation_id":null,"unit_id":"9143c50c-b957-4b61-a694-288826aeb720","level_id":"a5992741-7dee-4280-a70d-ac3d48052270","level_floorpolyid":"F3560920209P2006082502000000","level_ordinal":0,"level_z_value":6.086,"level_name_en":"GRD. FLOOR","level_name_zh":null,"level_short_name_en":"G/F","venue_id":"5a8bfe7d-bfd8-4a4d-bc61-e0a431abf6a3","building_id":"3252e24c-8428-4080-bba6-a9e92fd5acb9","bbox":[114.17044876000011,22.320831070000054,114.17044876000011,22.320831070000054]}},{"type":"Feature","id":"amenity_point.81262","geometry":{"type":"Point","coordinates":[114.17034586000011,22.320861070000035,6.085999999995693]},"geometry_name":"shape","properties":{"amenity_id":"6c3377a6-991e-4408-8055-1d258a716dbf","amenity_category":"stairs","amenity_name_en":"Stair","amenity_name_zh":"樓梯","amenity_alt_name":null,"amenity_accessibility":null,"amenity_phone":null,"amenity_website":null,"amenity_hours":null,"amenity_correlation_id":null,"unit_id":"7d0d95de-1650-4aab-8404-f7969ec2d42a","level_id":"a5992741-7dee-4280-a70d-ac3d48052270","level_floorpolyid":"F3560920209P2006082502000000","level_ordinal":0,"level_z_value":6.086,"level_name_en":"GRD. FLOOR","level_name_zh":null,"level_short_name_en":"G/F","venue_id":"5a8bfe7d-bfd8-4a4d-bc61-e0a431abf6a3","building_id":"3252e24c-8428-4080-bba6-a9e92fd5acb9","bbox":[114.17034586000011,22.320861070000035,114.17034586000011,22.320861070000035]}},{"type":"Feature","id":"amenity_point.81263","geometry":{"type":"Point","coordinates":[114.17071552000004,22.320768720000046,6.085999999995693]},"geometry_name":"shape","properties":{"amenity_id":"f4cfc83f-d0db-4afd-a0c5-d0fd14cd3047","amenity_category":"escalator","amenity_name_en":"Escalator","amenity_name_zh":"扶手電梯","amenity_alt_name":null,"amenity_accessibility":null,"amenity_phone":null,"amenity_website":null,"amenity_hours":null,"amenity_correlation_id":null,"unit_id":"5c3b9f2d-fb40-4c1a-ab96-e6e195d309f4","level_id":"a5992741-7dee-4280-a70d-ac3d48052270","level_floorpolyid":"F3560920209P2006082502000000","level_ordinal":0,"level_z_value":6.086,"level_name_en":"GRD. FLOOR","level_name_zh":null,"level_short_name_en":"G/F","venue_id":"5a8bfe7d-bfd8-4a4d-bc61-e0a431abf6a3","building_id":"3252e24c-8428-4080-bba6-a9e92fd5acb9","bbox":[114.17071552000004,22.320768720000046,114.17071552000004,22.320768720000046]}},{"type":"Feature","id":"amenity_point.81264","geometry":{"type":"Point","coordinates":[114.1707183100001,22.320823870000027,6.085999999995693]},"geometry_name":"shape","properties":{"amenity_id":"8edc6f8a-67bd-4c5b-bb81-65d65c4020b3","amenity_category":"escalator","amenity_name_en":"Escalator","amenity_name_zh":"扶手電梯","amenity_alt_name":null,"amenity_accessibility":null,"amenity_phone":null,"amenity_website":null,"amenity_hours":null,"amenity_correlation_id":null,"unit_id":"4cad799c-cee4-454c-a8ff-2cf6c9bb78d0","level_id":"a5992741-7dee-4280-a70d-ac3d48052270","level_floorpolyid":"F3560920209P2006082502000000","level_ordinal":0,"level_z_value":6.086,"level_name_en":"GRD. FLOOR","level_name_zh":null,"level_short_name_en":"G/F","venue_id":"5a8bfe7d-bfd8-4a4d-bc61-e0a431abf6a3","building_id":"3252e24c-8428-4080-bba6-a9e92fd5acb9","bbox":[114.1707183100001,22.320823870000027,114.1707183100001,22.320823870000027]}},{"type":"Feature","id":"amenity_point.81265","geometry":{"type":"Point","coordinates":[114.17052582000008,22.320853260000035,6.085999999995693]},"geometry_name":"shape","properties":{"amenity_id":"d4399bd4-7b44-4d2a-ab71-44706aac0890","amenity_category":"ramp","amenity_name_en":"RAMP","amenity_name_zh":"斜道","amenity_alt_name":null,"amenity_accessibility":null,"amenity_phone":null,"amenity_website":null,"amenity_hours":null,"amenity_correlation_id":null,"unit_id":"15bba05a-fdab-4db6-9a94-b8c7e9079b82","level_id":"a5992741-7dee-4280-a70d-ac3d48052270","level_floorpolyid":"F3560920209P2006082502000000","level_ordinal":0,"level_z_value":6.086,"level_name_en":"GRD. FLOOR","level_name_zh":null,"level_short_name_en":"G/F","venue_id":"5a8bfe7d-bfd8-4a4d-bc61-e0a431abf6a3","building_id":"3252e24c-8428-4080-bba6-a9e92fd5acb9","bbox":[114.17052582000008,22.320853260000035,114.17052582000008,22.320853260000035]}},{"type":"Feature","id":"amenity_point.81266","geometry":{"type":"Point","coordinates":[114.17056530000002,22.32095195000005,6.085999999995693]},"geometry_name":"shape","properties":{"amenity_id":"e2e68a46-faa1-444c-a72e-13a86f165225","amenity_category":"ramp","amenity_name_en":"RAMP","amenity_name_zh":"斜道","amenity_alt_name":null,"amenity_accessibility":null,"amenity_phone":null,"amenity_website":null,"amenity_hours":null,"amenity_correlation_id":null,"unit_id":"1175bcd0-257a-4df9-8977-cc01f8d49248","level_id":"a5992741-7dee-4280-a70d-ac3d48052270","level_floorpolyid":"F3560920209P2006082502000000","level_ordinal":0,"level_z_value":6.086,"level_name_en":"GRD. FLOOR","level_name_zh":null,"level_short_name_en":"G/F","venue_id":"5a8bfe7d-bfd8-4a4d-bc61-e0a431abf6a3","building_id":"3252e24c-8428-4080-bba6-a9e92fd5acb9","bbox":[114.17056530000002,22.32095195000005,114.17056530000002,22.32095195000005]}},{"type":"Feature","id":"amenity_point.81267","geometry":{"type":"Point","coordinates":[114.17053394000004,22.320932500000026,6.085999999995693]},"geometry_name":"shape","properties":{"amenity_id":"0d2ae988-645a-4b4c-bea9-13f202ceac89","amenity_category":"security","amenity_name_en":"F.S. CONTROL","amenity_name_zh":"保安/控制室","amenity_alt_name":null,"amenity_accessibility":null,"amenity_phone":null,"amenity_website":null,"amenity_hours":null,"amenity_correlation_id":null,"unit_id":"5f9c4958-aa34-4802-8020-b8214930ff19","level_id":"a5992741-7dee-4280-a70d-ac3d48052270","level_floorpolyid":"F3560920209P2006082502000000","level_ordinal":0,"level_z_value":6.086,"level_name_en":"GRD. FLOOR","level_name_zh":null,"level_short_name_en":"G/F","venue_id":"5a8bfe7d-bfd8-4a4d-bc61-e0a431abf6a3","building_id":"3252e24c-8428-4080-bba6-a9e92fd5acb9","bbox":[114.17053394000004,22.320932500000026,114.17053394000004,22.320932500000026]}},{"type":"Feature","id":"amenity_point.81268","geometry":{"type":"Point","coordinates":[114.17052234000005,22.320573660000036,11.5]},"geometry_name":"shape","properties":{"amenity_id":"ffb89542-b4b6-4f45-98f4-2dbe1bd9f24f","amenity_category":"restroom.male","amenity_name_en":"MALE","amenity_name_zh":"洗手間(男性)","amenity_alt_name":null,"amenity_accessibility":null,"amenity_phone":null,"amenity_website":null,"amenity_hours":null,"amenity_correlation_id":null,"unit_id":"63e530fa-3f50-4fdb-9704-b1a81c7029c8","level_id":"2d3afd8b-1b50-4843-bc0f-6169db82926d","level_floorpolyid":"F3560920209P2006082501000100","level_ordinal":1,"level_z_value":11.5,"level_name_en":"1st FLOOR","level_name_zh":null,"level_short_name_en":"1/F","venue_id":"5a8bfe7d-bfd8-4a4d-bc61-e0a431abf6a3","building_id":"3252e24c-8428-4080-bba6-a9e92fd5acb9","bbox":[114.17052234000005,22.320573660000036,114.17052234000005,22.320573660000036]}},{"type":"Feature","id":"amenity_point.81269","geometry":{"type":"Point","coordinates":[114.17050351000012,22.32083779000004,11.5]},"geometry_name":"shape","properties":{"amenity_id":"a712a964-596c-4f25-8d14-0388f2efacc2","amenity_category":"escalator","amenity_name_en":"Escalator","amenity_name_zh":"扶手電梯","amenity_alt_name":null,"amenity_accessibility":null,"amenity_phone":null,"amenity_website":null,"amenity_hours":null,"amenity_correlation_id":null,"unit_id":"dbd96b05-4992-4cb3-82db-fb52a3c4ac4f","level_id":"2d3afd8b-1b50-4843-bc0f-6169db82926d","level_floorpolyid":"F3560920209P2006082501000100","level_ordinal":1,"level_z_value":11.5,"level_name_en":"1st FLOOR","level_name_zh":null,"level_short_name_en":"1/F","venue_id":"5a8bfe7d-bfd8-4a4d-bc61-e0a431abf6a3","building_id":"3252e24c-8428-4080-bba6-a9e92fd5acb9","bbox":[114.17050351000012,22.32083779000004,114.17050351000012,22.32083779000004]}},{"type":"Feature","id":"amenity_point.81270","geometry":{"type":"Point","coordinates":[114.17050586000005,22.320826040000043,11.5]},"geometry_name":"shape","properties":{"amenity_id":"96aba253-8bba-4e9f-b417-446c190cd104","amenity_category":"escalator","amenity_name_en":"Escalator","amenity_name_zh":"扶手電梯","amenity_alt_name":null,"amenity_accessibility":null,"amenity_phone":null,"amenity_website":null,"amenity_hours":null,"amenity_correlation_id":null,"unit_id":"c7a8034a-8739-48d8-a9d6-16e98f39477a","level_id":"2d3afd8b-1b50-4843-bc0f-6169db82926d","level_floorpolyid":"F3560920209P2006082501000100","level_ordinal":1,"level_z_value":11.5,"level_name_en":"1st FLOOR","level_name_zh":null,"level_short_name_en":"1/F","venue_id":"5a8bfe7d-bfd8-4a4d-bc61-e0a431abf6a3","building_id":"3252e24c-8428-4080-bba6-a9e92fd5acb9","bbox":[114.17050586000005,22.320826040000043,114.17050586000005,22.320826040000043]}},{"type":"Feature","id":"amenity_point.81271","geometry":{"type":"Point","coordinates":[114.17044993000002,22.320828490000054,11.5]},"geometry_name":"shape","properties":{"amenity_id":"62e1e7cd-f296-4bbb-8b48-76688165302d","amenity_category":"escalator","amenity_name_en":"Escalator","amenity_name_zh":"扶手電梯","amenity_alt_name":null,"amenity_accessibility":null,"amenity_phone":null,"amenity_website":null,"amenity_hours":null,"amenity_correlation_id":null,"unit_id":"fe86488d-7e51-4794-8a7c-a01fab12c0bd","level_id":"2d3afd8b-1b50-4843-bc0f-6169db82926d","level_floorpolyid":"F3560920209P2006082501000100","level_ordinal":1,"level_z_value":11.5,"level_name_en":"1st FLOOR","level_name_zh":null,"level_short_name_en":"1/F","venue_id":"5a8bfe7d-bfd8-4a4d-bc61-e0a431abf6a3","building_id":"3252e24c-8428-4080-bba6-a9e92fd5acb9","bbox":[114.17044993000002,22.320828490000054,114.17044993000002,22.320828490000054]}},{"type":"Feature","id":"amenity_point.81272","geometry":{"type":"Point","coordinates":[114.17045229000007,22.320816750000063,11.5]},"geometry_name":"shape","properties":{"amenity_id":"ce02b9fc-3078-47df-a438-73f713c43fc5","amenity_category":"escalator","amenity_name_en":"Escalator","amenity_name_zh":"扶手電梯","amenity_alt_name":null,"amenity_accessibility":null,"amenity_phone":null,"amenity_website":null,"amenity_hours":null,"amenity_correlation_id":null,"unit_id":"6485ca13-adf6-4bc3-bb25-44649bfd01e3","level_id":"2d3afd8b-1b50-4843-bc0f-6169db82926d","level_floorpolyid":"F3560920209P2006082501000100","level_ordinal":1,"level_z_value":11.5,"level_name_en":"1st FLOOR","level_name_zh":null,"level_short_name_en":"1/F","venue_id":"5a8bfe7d-bfd8-4a4d-bc61-e0a431abf6a3","building_id":"3252e24c-8428-4080-bba6-a9e92fd5acb9","bbox":[114.17045229000007,22.320816750000063,114.17045229000007,22.320816750000063]}},{"type":"Feature","id":"amenity_point.81273","geometry":{"type":"Point","coordinates":[114.17071568000006,22.32076791000003,11.5]},"geometry_name":"shape","properties":{"amenity_id":"bb87913d-522a-48d5-9f42-c5f27ce1bca5","amenity_category":"escalator","amenity_name_en":"Escalator","amenity_name_zh":"扶手電梯","amenity_alt_name":null,"amenity_accessibility":null,"amenity_phone":null,"amenity_website":null,"amenity_hours":null,"amenity_correlation_id":null,"unit_id":"80499176-a6e4-4b73-80f5-12c6adca418e","level_id":"2d3afd8b-1b50-4843-bc0f-6169db82926d","level_floorpolyid":"F3560920209P2006082501000100","level_ordinal":1,"level_z_value":11.5,"level_name_en":"1st FLOOR","level_name_zh":null,"level_short_name_en":"1/F","venue_id":"5a8bfe7d-bfd8-4a4d-bc61-e0a431abf6a3","building_id":"3252e24c-8428-4080-bba6-a9e92fd5acb9","bbox":[114.17071568000006,22.32076791000003,114.17071568000006,22.32076791000003]}},{"type":"Feature","id":"amenity_point.81274","geometry":{"type":"Point","coordinates":[114.17072911000002,22.32077000000004,11.5]},"geometry_name":"shape","properties":{"amenity_id":"d65f5e3e-21b1-41a5-9234-1587cfee5d6c","amenity_category":"escalator","amenity_name_en":"Escalator","amenity_name_zh":"扶手電梯","amenity_alt_name":null,"amenity_accessibility":null,"amenity_phone":null,"amenity_website":null,"amenity_hours":null,"amenity_correlation_id":null,"unit_id":"0eb162e6-d189-4f13-9ec6-6cf43926272a","level_id":"2d3afd8b-1b50-4843-bc0f-6169db82926d","level_floorpolyid":"F3560920209P2006082501000100","level_ordinal":1,"level_z_value":11.5,"level_name_en":"1st FLOOR","level_name_zh":null,"level_short_name_en":"1/F","venue_id":"5a8bfe7d-bfd8-4a4d-bc61-e0a431abf6a3","building_id":"3252e24c-8428-4080-bba6-a9e92fd5acb9","bbox":[114.17072911000002,22.32077000000004,114.17072911000002,22.32077000000004]}},{"type":"Feature","id":"amenity_point.81275","geometry":{"type":"Point","coordinates":[114.17049535000001,22.32059945000003,11.5]},"geometry_name":"shape","properties":{"amenity_id":"95091924-4239-41a7-825b-b01ed3d07593","amenity_category":"parking","amenity_name_en":"Parking Space (General)","amenity_name_zh":"停車位( 一般)","amenity_alt_name":null,"amenity_accessibility":null,"amenity_phone":null,"amenity_website":null,"amenity_hours":null,"amenity_correlation_id":null,"unit_id":"c67372ca-7acd-4432-acd5-1902b2d97828","level_id":"2d3afd8b-1b50-4843-bc0f-6169db82926d","level_floorpolyid":"F3560920209P2006082501000100","level_ordinal":1,"level_z_value":11.5,"level_name_en":"1st FLOOR","level_name_zh":null,"level_short_name_en":"1/F","venue_id":"5a8bfe7d-bfd8-4a4d-bc61-e0a431abf6a3","building_id":"3252e24c-8428-4080-bba6-a9e92fd5acb9","bbox":[114.17049535000001,22.32059945000003,114.17049535000001,22.32059945000003]}},{"type":"Feature","id":"amenity_point.81286","geometry":{"type":"Point","coordinates":[114.17056050000008,22.320700930000044,6.085999999995693]},"geometry_name":"shape","properties":{"amenity_id":"8cfe6cb7-291d-4d24-990e-f088d765dbed","amenity_category":"ramp","amenity_name_en":"RAMP","amenity_name_zh":"斜道","amenity_alt_name":null,"amenity_accessibility":null,"amenity_phone":null,"amenity_website":null,"amenity_hours":null,"amenity_correlation_id":null,"unit_id":"8df7f9b3-9d91-4a27-9723-79f54323d47f","level_id":"a5992741-7dee-4280-a70d-ac3d48052270","level_floorpolyid":"F3560920209P2006082502000000","level_ordinal":0,"level_z_value":6.086,"level_name_en":"GRD. FLOOR","level_name_zh":null,"level_short_name_en":"G/F","venue_id":"5a8bfe7d-bfd8-4a4d-bc61-e0a431abf6a3","building_id":"3252e24c-8428-4080-bba6-a9e92fd5acb9","bbox":[114.17056050000008,22.320700930000044,114.17056050000008,22.320700930000044]}}]}