{"type":"FeatureCollection","features":[{"type":"Feature","id":"level_polygon.12068","geometry":{"type":"Polygon","coordinates":[[[114.1668625100001,22.445796010000038,6],[114.16686071000004,22.44579691000007,6],[114.16684831000009,22.44577331000005,6],[114.16684501000009,22.445766810000066,6],[114.16683561000002,22.445771010000044,6],[114.16682901000001,22.445774010000036,6],[114.16682561000005,22.44576741000003,6],[114.16682551000008,22.445767310000065,6],[114.16679351000005,22.44570631000005,6],[114.16678531000002,22.445690610000042,6],[114.16678531000002,22.445690510000077,6],[114.16678401000001,22.445688010000026,6],[114.16678231000003,22.445684810000046,6],[114.16678071000001,22.445681810000053,6],[114.16675471000008,22.445632110000076,6],[114.16672611000001,22.44564531000003,6],[114.16671401000008,22.44565091000004,6],[114.16670381000006,22.44565551000005,6],[114.16664881000008,22.445680810000056,6],[114.1666438100001,22.44568311000006,6],[114.16663821000009,22.445685710000078,6],[114.16663301000006,22.44568811000005,6],[114.16661371000009,22.445696910000038,6],[114.16655891000005,22.445722110000077,6],[114.16655781000009,22.445722610000075,6],[114.16654731000006,22.44572751000004,6],[114.16649971000004,22.445749310000053,6],[114.16647111000009,22.445762510000066,6],[114.16644311000005,22.445775310000045,6],[114.1664254100001,22.44578351000007,6],[114.16642131000003,22.445785410000042,6],[114.16641601000003,22.44578781000007,6],[114.16640951000011,22.445790810000062,6],[114.16638701000011,22.445801110000048,6],[114.16636271000004,22.445812310000065,6],[114.16636001000006,22.445813610000073,6],[114.16634851000003,22.44582211000005,6],[114.16633611000009,22.44583141000004,6],[114.16633371000012,22.445833210000046,6],[114.16632311000001,22.44584111000006,6],[114.16631731000007,22.44584541000006,6],[114.1663116100001,22.44584971000006,6],[114.1663023100001,22.445856610000078,6],[114.1662216100001,22.44591691000005,6],[114.16624471000011,22.445961010000076,6],[114.16626171000007,22.44599351000005,6],[114.16626931000008,22.44600791000005,6],[114.16627741000002,22.446023410000066,6],[114.16625891000001,22.446031710000057,6],[114.16624271,22.446039110000072,6],[114.16623721000008,22.446041610000066,6],[114.16623181000011,22.446044010000037,6],[114.16622561000008,22.44604681000004,6],[114.16622541000004,22.446046910000064,6],[114.16622351000001,22.446047710000073,6],[114.1662186100001,22.44605001000008,6],[114.16621251000004,22.44605271000006,6],[114.16620561000002,22.446055810000075,6],[114.16619971000011,22.446058510000057,6],[114.16618881000011,22.446063510000045,6],[114.16618081000001,22.446067110000058,6],[114.16617171000007,22.44607121000007,6],[114.16616391000002,22.44607471000006,6],[114.16614441000002,22.44608351000005,6],[114.16613611000002,22.446087310000053,6],[114.16610961000003,22.446099310000022,6],[114.16610621000007,22.44610091000004,6],[114.16610571000001,22.44610111000003,6],[114.16610471000001,22.446101510000062,6],[114.16608471000006,22.446110610000062,6],[114.16607851000003,22.446113410000066,6],[114.16605621000008,22.446123510000064,6],[114.16604861000008,22.446126910000032,6],[114.16604021,22.446130710000034,6],[114.1660396100001,22.446131010000045,6],[114.16603051000004,22.446135110000057,6],[114.16602741000008,22.44613651000003,6],[114.16601321000007,22.44614301000007,6],[114.16600331000006,22.446147410000037,6],[114.16599531000008,22.446151110000073,6],[114.16599291000011,22.44615211000007,6],[114.16598021000004,22.446157910000068,6],[114.16597071000001,22.446162210000068,6],[114.16593091000004,22.446180210000023,6],[114.1659327100001,22.44618361000005,6],[114.16593821000004,22.44619411000008,6],[114.16593921000003,22.446196110000074,6],[114.16593931000011,22.44619631000006,6],[114.1659420100001,22.44620141000007,6],[114.16594491000001,22.446206910000058,6],[114.16594611000005,22.446209210000063,6],[114.16595181000002,22.44622011000007,6],[114.16595411000003,22.446224510000036,6],[114.16595841000003,22.44623271000006,6],[114.16596331000005,22.44624211000007,6],[114.16597091000006,22.446256610000034,6],[114.16597531000002,22.44626511000007,6],[114.16597961000002,22.446273210000072,6],[114.1659840100001,22.446281610000028,6],[114.16598681000005,22.446286910000026,6],[114.16598801000009,22.44628921000003,6],[114.16599071000007,22.446294410000064,6],[114.16599371000007,22.44630021000006,6],[114.16600491000008,22.446321510000075,6],[114.16601301000003,22.446337010000036,6],[114.16602191000004,22.446354110000073,6],[114.1660280100001,22.446365710000066,6],[114.16603931000009,22.446387310000034,6],[114.16604321000011,22.44639471000005,6],[114.16605691000007,22.446420810000063,6],[114.16607331000012,22.446452210000075,6],[114.16607491000002,22.446455210000067,6],[114.16608521,22.44647501000003,6],[114.16609181000001,22.446487610000077,6],[114.16609201000006,22.44648791000003,6],[114.16609541000003,22.44649441000007,6],[114.16610921000006,22.446520810000038,6],[114.16611221000005,22.446526410000047,6],[114.16611681000006,22.446535210000036,6],[114.16612341000007,22.446547810000027,6],[114.16612461000011,22.446550110000032,6],[114.1661266100001,22.446554010000057,6],[114.16613021,22.446560910000073,6],[114.16613181000002,22.446563910000066,6],[114.16613341000004,22.446566910000058,6],[114.1661359100001,22.446571710000057,6],[114.1661392100001,22.446578010000053,6],[114.16613961000007,22.446578910000028,6],[114.16614091000008,22.446581310000056,6],[114.16614221000009,22.446583710000027,6],[114.16614521000008,22.446589510000024,6],[114.16614731000004,22.446593610000036,6],[114.16615001000002,22.446598710000046,6],[114.16616611000006,22.44662941000007,6],[114.16616671000008,22.446630610000057,6],[114.16617121000002,22.446639110000035,6],[114.16617391000011,22.446644310000067,6],[114.16617501000007,22.44664651000005,6],[114.16618201000006,22.446643410000036,6],[114.16618381,22.446642610000026,6],[114.16620261000003,22.44663421000007,6],[114.16620301000012,22.446634010000025,6],[114.1662037100001,22.446635310000033,6],[114.16621051000004,22.446648310000057,6],[114.16621841000006,22.446663410000042,6],[114.16621941000005,22.446665410000037,6],[114.16627131000007,22.44664221000005,6],[114.16628001000004,22.446638310000026,6],[114.16629911000007,22.446629710000025,6],[114.16630901000008,22.44662531000006,6],[114.16632161000007,22.44661971000005,6],[114.16632921000007,22.446598110000025,6],[114.16633071000001,22.446593910000047,6],[114.16633611000009,22.446578610000074,6],[114.16633801000012,22.446573310000076,6],[114.16633901000012,22.446570510000072,6],[114.16633951000006,22.44656911000004,6],[114.16634081000007,22.446565210000074,6],[114.16634091000003,22.44656501000003,6],[114.16634101000011,22.446564710000075,6],[114.16634181000006,22.44656241000007,6],[114.16634211000007,22.44656161000006,6],[114.16634341000008,22.446558010000047,6],[114.16634721000003,22.446559310000055,6],[114.16635051000003,22.44656051000004,6],[114.16635101000008,22.446560610000063,6],[114.16635351000002,22.446561510000038,6],[114.16635581000003,22.446562010000036,6],[114.16635721000011,22.446562310000047,6],[114.16636051000012,22.446563110000056,6],[114.16636711000001,22.446564610000053,6],[114.16638401000012,22.446566910000058,6],[114.16638941000008,22.446567310000034,6],[114.16639871000007,22.446567910000056,6],[114.16639971000006,22.446567910000056,6],[114.16641391000007,22.44656721000007,6],[114.16641651000009,22.446566810000036,6],[114.16642691000004,22.44656531000004,6],[114.16642901000012,22.446564610000053,6],[114.1664340100001,22.446563110000056,6],[114.16643941000007,22.446561410000072,6],[114.16645081000001,22.44655711000007,6],[114.16646011000012,22.44655301000006,6],[114.16646211000011,22.446556910000027,6],[114.16646331000004,22.446556310000062,6],[114.1664737100001,22.44655161000003,6],[114.16649311000003,22.446543010000028,6],[114.16649681000001,22.446541310000043,6],[114.16651201000002,22.44653451000005,6],[114.16653071000007,22.44652621000006,6],[114.16665921000003,22.446468710000033,6],[114.16668641000001,22.446456510000075,6],[114.16669061000005,22.446454610000046,6],[114.16669481000008,22.44645281000004,6],[114.1666987100001,22.446451010000033,6],[114.16671611000004,22.44644321000004,6],[114.1667414100001,22.446431910000058,6],[114.16676281000002,22.44642231000006,6],[114.16676871000004,22.446419710000043,6],[114.16679581000005,22.44640761000005,6],[114.16679791000001,22.446406710000076,6],[114.16683751000005,22.446388910000053,6],[114.16691331000004,22.446355010000048,6],[114.16692301,22.446350710000047,6],[114.16693751000003,22.446344210000063,6],[114.16696681000008,22.446331110000074,6],[114.1669846100001,22.446323110000037,6],[114.16699561000007,22.446318210000072,6],[114.1670319100001,22.446302010000068,6],[114.1670349100001,22.44630071000006,6],[114.16706541000008,22.44628701000005,6],[114.16707621,22.44628221000005,6],[114.16710741000009,22.44626831000005,6],[114.16709581000009,22.446246210000027,6],[114.16708351000011,22.446222610000063,6],[114.16706871000008,22.44622921000007,6],[114.16706761000012,22.44622971000007,6],[114.1670597100001,22.44621471000005,6],[114.16705831000002,22.446212010000067,6],[114.16705171000001,22.446199410000077,6],[114.16704761000005,22.446191510000062,6],[114.16704871000002,22.446191010000064,6],[114.16705961000002,22.446186110000042,6],[114.16707301000008,22.446180110000057,6],[114.16706111000008,22.446157910000068,6],[114.16705661000003,22.446149610000077,6],[114.16705351000007,22.446143810000024,6],[114.16702361000011,22.446088210000028,6],[114.16700761000004,22.446058410000035,6],[114.16700341,22.446050710000065,6],[114.16700061000006,22.446045510000033,6],[114.16699991000007,22.446044310000048,6],[114.16695891000006,22.44596801000006,6],[114.16695471000003,22.445960110000044,6],[114.16695101000005,22.445953210000027,6],[114.16694651000012,22.445944910000037,6],[114.16694321000011,22.44593881000003,6],[114.16694031000009,22.44593351000003,6],[114.16693061000001,22.445937810000032,6],[114.16692561000002,22.445928310000056,6],[114.16693521000002,22.445924010000056,6],[114.1669416100001,22.44592111000003,6],[114.16691971000012,22.445879310000066,6],[114.1669128100001,22.445882410000024,6],[114.16690991000007,22.445876910000038,6],[114.16690711000001,22.445871710000063,6],[114.1669065100001,22.445870610000043,6],[114.16688681000005,22.445833910000033,6],[114.16686561000006,22.44579471000003,6],[114.1668625100001,22.445796010000038,6]]]},"geometry_name":"shape","properties":{"level_id":"7b7942d1-29a9-4f5f-929f-4c21cc329f49","level_floorpolyid":"F3518934094P2006031102000000","level_ordinal":0,"level_z_value":6,"level_name_en":"Ground Floor","level_name_zh":null,"level_short_name_en":"G/F","level_category":"unspecified","level_restriction":null,"level_outdoor":0,"venue_id":"7abc627a-9f72-4547-a021-f6dcb814138c","venue_category":"governmentfacility","venue_name_en":"Tai Po Hui Market and Cooked Food Centre","venue_name_zh":"大埔墟街市及熟食中心","venue_alt_name":null,"venue_restriction":null,"venue_hours":null,"venue_website":null,"venue_phone":null,"address_address":"8 HEUNG SZE WUI STREET","address_unit":null,"address_locality":"TAI PO DISTRICT","building_id":"4df88246-dcd7-4056-b2da-39b806c61a29","building_category":"unspecified","building_name_en":"Tai Po Hui Market and Cooked Food Centre","building_name_zh":"大埔墟街市及熟食中心","building_alt_name":null,"building_restriction":"","bbox":[114.16593091000004,22.445632110000076,114.16710741000009,22.446665410000037]}},{"type":"Feature","id":"level_polygon.12069","geometry":{"type":"Polygon","coordinates":[[[114.16646011000012,22.44655301000006,12.10000000000582],[114.16646211000011,22.446556910000027,12.10000000000582],[114.16646331000004,22.446556310000062,12.10000000000582],[114.1664737100001,22.44655161000003,12.10000000000582],[114.16649311000003,22.446543010000028,12.10000000000582],[114.16649681000001,22.446541310000043,12.10000000000582],[114.16651201000002,22.44653451000005,12.10000000000582],[114.16653071000007,22.44652621000006,12.10000000000582],[114.16665921000003,22.446468710000033,12.10000000000582],[114.16668641000001,22.446456510000075,12.10000000000582],[114.16669061000005,22.446454610000046,12.10000000000582],[114.16669481000008,22.44645281000004,12.10000000000582],[114.1666987100001,22.446451010000033,12.10000000000582],[114.16671611000004,22.44644321000004,12.10000000000582],[114.1667414100001,22.446431910000058,12.10000000000582],[114.16676281000002,22.44642231000006,12.10000000000582],[114.16676871000004,22.446419710000043,12.10000000000582],[114.16679581000005,22.44640761000005,12.10000000000582],[114.16679791000001,22.446406710000076,12.10000000000582],[114.16683751000005,22.446388910000053,12.10000000000582],[114.16691331000004,22.446355010000048,12.10000000000582],[114.16692301,22.446350710000047,12.10000000000582],[114.16693751000003,22.446344210000063,12.10000000000582],[114.16696681000008,22.446331110000074,12.10000000000582],[114.1669846100001,22.446323110000037,12.10000000000582],[114.16699561000007,22.446318210000072,12.10000000000582],[114.1670319100001,22.446302010000068,12.10000000000582],[114.1670349100001,22.44630071000006,12.10000000000582],[114.16706541000008,22.44628701000005,12.10000000000582],[114.16707621,22.44628221000005,12.10000000000582],[114.16710741000009,22.44626831000005,12.10000000000582],[114.16709581000009,22.446246210000027,12.10000000000582],[114.16708351000011,22.446222610000063,12.10000000000582],[114.16706871000008,22.44622921000007,12.10000000000582],[114.16706761000012,22.44622971000007,12.10000000000582],[114.1670597100001,22.44621471000005,12.10000000000582],[114.16705831000002,22.446212010000067,12.10000000000582],[114.16705451000007,22.446213710000052,12.10000000000582],[114.16704791000006,22.44620111000006,12.10000000000582],[114.16704381000011,22.446193210000047,12.10000000000582],[114.16704761000005,22.446191510000062,12.10000000000582],[114.16704871000002,22.446191010000064,12.10000000000582],[114.16704081000012,22.446175710000034,12.10000000000582],[114.16703711000002,22.44616871000005,12.10000000000582],[114.16702981000003,22.446154810000053,12.10000000000582],[114.1670296100001,22.446154510000042,12.10000000000582],[114.16700301000003,22.446103610000023,12.10000000000582],[114.16700041000001,22.446098610000035,12.10000000000582],[114.16698471000007,22.446068710000077,12.10000000000582],[114.16697791000001,22.446055710000053,12.10000000000582],[114.16697721000003,22.446054410000045,12.10000000000582],[114.16693711000005,22.445977810000045,12.10000000000582],[114.16693541000006,22.445974510000042,12.10000000000582],[114.16693111000006,22.445966310000074,12.10000000000582],[114.16692931000011,22.44596291000005,12.10000000000582],[114.16692491000003,22.445954510000035,12.10000000000582],[114.16692281000007,22.445950410000023,12.10000000000582],[114.16691741000011,22.445940110000038,12.10000000000582],[114.16688641000007,22.44588101000005,12.10000000000582],[114.16688581000005,22.44587991000003,12.10000000000582],[114.1668688100001,22.445847410000056,12.10000000000582],[114.1668605100001,22.445831610000027,12.10000000000582],[114.16686601000004,22.445829110000034,12.10000000000582],[114.16685771000004,22.445813310000062,12.10000000000582],[114.16685131000008,22.445801110000048,12.10000000000582],[114.16683851000005,22.445776610000053,12.10000000000582],[114.16683561000002,22.445771010000044,12.10000000000582],[114.16683211000009,22.445764410000038,12.10000000000582],[114.16676131000008,22.445629110000027,12.10000000000582],[114.16675471000008,22.445632110000076,12.10000000000582],[114.16672611000001,22.44564531000003,12.10000000000582],[114.16671401000008,22.44565091000004,12.10000000000582],[114.16670381000006,22.44565551000005,12.10000000000582],[114.16664881000008,22.445680810000056,12.10000000000582],[114.1666438100001,22.44568311000006,12.10000000000582],[114.16663821000009,22.445685710000078,12.10000000000582],[114.16663301000006,22.44568811000005,12.10000000000582],[114.16661371000009,22.445696910000038,12.10000000000582],[114.16655891000005,22.445722110000077,12.10000000000582],[114.16655781000009,22.445722610000075,12.10000000000582],[114.16654731000006,22.44572751000004,12.10000000000582],[114.16649971000004,22.445749310000053,12.10000000000582],[114.16647111000009,22.445762510000066,12.10000000000582],[114.16644311000005,22.445775310000045,12.10000000000582],[114.1664254100001,22.44578351000007,12.10000000000582],[114.16642131000003,22.445785410000042,12.10000000000582],[114.16641601000003,22.44578781000007,12.10000000000582],[114.16640951000011,22.445790810000062,12.10000000000582],[114.16638701000011,22.445801110000048,12.10000000000582],[114.16636271000004,22.445812310000065,12.10000000000582],[114.16636001000006,22.445813610000073,12.10000000000582],[114.16634851000003,22.44582211000005,12.10000000000582],[114.16633611000009,22.44583141000004,12.10000000000582],[114.16633371000012,22.445833210000046,12.10000000000582],[114.16632311000001,22.44584111000006,12.10000000000582],[114.16631731000007,22.44584541000006,12.10000000000582],[114.1663116100001,22.44584971000006,12.10000000000582],[114.1663023100001,22.445856610000078,12.10000000000582],[114.1662216100001,22.44591691000005,12.10000000000582],[114.16624471000011,22.445961010000076,12.10000000000582],[114.16626171000007,22.44599351000005,12.10000000000582],[114.16626931000008,22.44600791000005,12.10000000000582],[114.16627741000002,22.446023410000066,12.10000000000582],[114.16625891000001,22.446031710000057,12.10000000000582],[114.16624271,22.446039110000072,12.10000000000582],[114.16623721000008,22.446041610000066,12.10000000000582],[114.16623181000011,22.446044010000037,12.10000000000582],[114.16622561000008,22.44604681000004,12.10000000000582],[114.16622541000004,22.446046910000064,12.10000000000582],[114.16622351000001,22.446047710000073,12.10000000000582],[114.1662186100001,22.44605001000008,12.10000000000582],[114.16621251000004,22.44605271000006,12.10000000000582],[114.16620561000002,22.446055810000075,12.10000000000582],[114.16619971000011,22.446058510000057,12.10000000000582],[114.16618881000011,22.446063510000045,12.10000000000582],[114.16618081000001,22.446067110000058,12.10000000000582],[114.16617171000007,22.44607121000007,12.10000000000582],[114.16616391000002,22.44607471000006,12.10000000000582],[114.16614441000002,22.44608351000005,12.10000000000582],[114.16613611000002,22.446087310000053,12.10000000000582],[114.16610961000003,22.446099310000022,12.10000000000582],[114.16610621000007,22.44610091000004,12.10000000000582],[114.16610571000001,22.44610111000003,12.10000000000582],[114.16610471000001,22.446101510000062,12.10000000000582],[114.16608471000006,22.446110610000062,12.10000000000582],[114.16607851000003,22.446113410000066,12.10000000000582],[114.16605621000008,22.446123510000064,12.10000000000582],[114.16604861000008,22.446126910000032,12.10000000000582],[114.16604021,22.446130710000034,12.10000000000582],[114.1660396100001,22.446131010000045,12.10000000000582],[114.16603051000004,22.446135110000057,12.10000000000582],[114.16602741000008,22.44613651000003,12.10000000000582],[114.16601321000007,22.44614301000007,12.10000000000582],[114.16600331000006,22.446147410000037,12.10000000000582],[114.16599531000008,22.446151110000073,12.10000000000582],[114.16599291000011,22.44615211000007,12.10000000000582],[114.16598021000004,22.446157910000068,12.10000000000582],[114.16597071000001,22.446162210000068,12.10000000000582],[114.16593091000004,22.446180210000023,12.10000000000582],[114.1659327100001,22.44618361000005,12.10000000000582],[114.16593821000004,22.44619411000008,12.10000000000582],[114.16593921000003,22.446196110000074,12.10000000000582],[114.16593931000011,22.44619631000006,12.10000000000582],[114.1659420100001,22.44620141000007,12.10000000000582],[114.16594491000001,22.446206910000058,12.10000000000582],[114.16594611000005,22.446209210000063,12.10000000000582],[114.16595181000002,22.44622011000007,12.10000000000582],[114.16595411000003,22.446224510000036,12.10000000000582],[114.16595841000003,22.44623271000006,12.10000000000582],[114.16596331000005,22.44624211000007,12.10000000000582],[114.16597091000006,22.446256610000034,12.10000000000582],[114.16597531000002,22.44626511000007,12.10000000000582],[114.16597961000002,22.446273210000072,12.10000000000582],[114.1659840100001,22.446281610000028,12.10000000000582],[114.16598681000005,22.446286910000026,12.10000000000582],[114.16598801000009,22.44628921000003,12.10000000000582],[114.16599071000007,22.446294410000064,12.10000000000582],[114.16599371000007,22.44630021000006,12.10000000000582],[114.16600491000008,22.446321510000075,12.10000000000582],[114.16601301000003,22.446337010000036,12.10000000000582],[114.16602191000004,22.446354110000073,12.10000000000582],[114.1660280100001,22.446365710000066,12.10000000000582],[114.16603931000009,22.446387310000034,12.10000000000582],[114.16604321000011,22.44639471000005,12.10000000000582],[114.16605691000007,22.446420810000063,12.10000000000582],[114.16607331000012,22.446452210000075,12.10000000000582],[114.16607491000002,22.446455210000067,12.10000000000582],[114.16608521,22.44647501000003,12.10000000000582],[114.16609181000001,22.446487610000077,12.10000000000582],[114.16609201000006,22.44648791000003,12.10000000000582],[114.16609541000003,22.44649441000007,12.10000000000582],[114.16610921000006,22.446520810000038,12.10000000000582],[114.16611221000005,22.446526410000047,12.10000000000582],[114.16611681000006,22.446535210000036,12.10000000000582],[114.16612341000007,22.446547810000027,12.10000000000582],[114.16612461000011,22.446550110000032,12.10000000000582],[114.1661266100001,22.446554010000057,12.10000000000582],[114.16613021,22.446560910000073,12.10000000000582],[114.16613181000002,22.446563910000066,12.10000000000582],[114.16613341000004,22.446566910000058,12.10000000000582],[114.1661359100001,22.446571710000057,12.10000000000582],[114.1661392100001,22.446578010000053,12.10000000000582],[114.16613961000007,22.446578910000028,12.10000000000582],[114.16614091000008,22.446581310000056,12.10000000000582],[114.16614221000009,22.446583710000027,12.10000000000582],[114.16614521000008,22.446589510000024,12.10000000000582],[114.16614731000004,22.446593610000036,12.10000000000582],[114.16615001000002,22.446598710000046,12.10000000000582],[114.16616611000006,22.44662941000007,12.10000000000582],[114.16616671000008,22.446630610000057,12.10000000000582],[114.16617121000002,22.446639110000035,12.10000000000582],[114.16617391000011,22.446644310000067,12.10000000000582],[114.16617501000007,22.44664651000005,12.10000000000582],[114.16618261000008,22.44666101000007,12.10000000000582],[114.16619041000001,22.446675910000067,12.10000000000582],[114.16619151000009,22.446677910000062,12.10000000000582],[114.16621941000005,22.446665410000037,12.10000000000582],[114.16627131000007,22.44664221000005,12.10000000000582],[114.16628001000004,22.446638310000026,12.10000000000582],[114.16629911000007,22.446629710000025,12.10000000000582],[114.16630901000008,22.44662531000006,12.10000000000582],[114.16632161000007,22.44661971000005,12.10000000000582],[114.16632921000007,22.446598110000025,12.10000000000582],[114.16633071000001,22.446593910000047,12.10000000000582],[114.16633611000009,22.446578610000074,12.10000000000582],[114.16633801000012,22.446573310000076,12.10000000000582],[114.16633901000012,22.446570510000072,12.10000000000582],[114.16633951000006,22.44656911000004,12.10000000000582],[114.16634081000007,22.446565210000074,12.10000000000582],[114.16634091000003,22.44656501000003,12.10000000000582],[114.16634101000011,22.446564710000075,12.10000000000582],[114.16634181000006,22.44656241000007,12.10000000000582],[114.16634211000007,22.44656161000006,12.10000000000582],[114.16634341000008,22.446558010000047,12.10000000000582],[114.16634721000003,22.446559310000055,12.10000000000582],[114.16635051000003,22.44656051000004,12.10000000000582],[114.16635101000008,22.446560610000063,12.10000000000582],[114.16635351000002,22.446561510000038,12.10000000000582],[114.16635581000003,22.446562010000036,12.10000000000582],[114.16635721000011,22.446562310000047,12.10000000000582],[114.16636051000012,22.446563110000056,12.10000000000582],[114.16636711000001,22.446564610000053,12.10000000000582],[114.16638401000012,22.446566910000058,12.10000000000582],[114.16638941000008,22.446567310000034,12.10000000000582],[114.16639871000007,22.446567910000056,12.10000000000582],[114.16639971000006,22.446567910000056,12.10000000000582],[114.16641391000007,22.44656721000007,12.10000000000582],[114.16641651000009,22.446566810000036,12.10000000000582],[114.16642691000004,22.44656531000004,12.10000000000582],[114.16642901000012,22.446564610000053,12.10000000000582],[114.1664340100001,22.446563110000056,12.10000000000582],[114.16643941000007,22.446561410000072,12.10000000000582],[114.16645081000001,22.44655711000007,12.10000000000582],[114.16646011000012,22.44655301000006,12.10000000000582]]]},"geometry_name":"shape","properties":{"level_id":"0b551810-02a6-4a6b-a5e7-0a8819e2f38d","level_floorpolyid":"F3518934094P2006031101000100","level_ordinal":1,"level_z_value":12.1,"level_name_en":"First Floor","level_name_zh":null,"level_short_name_en":"1/F","level_category":"unspecified","level_restriction":null,"level_outdoor":0,"venue_id":"7abc627a-9f72-4547-a021-f6dcb814138c","venue_category":"governmentfacility","venue_name_en":"Tai Po Hui Market and Cooked Food Centre","venue_name_zh":"大埔墟街市及熟食中心","venue_alt_name":null,"venue_restriction":null,"venue_hours":null,"venue_website":null,"venue_phone":null,"address_address":"8 HEUNG SZE WUI STREET","address_unit":null,"address_locality":"TAI PO DISTRICT","building_id":"4df88246-dcd7-4056-b2da-39b806c61a29","building_category":"unspecified","building_name_en":"Tai Po Hui Market and Cooked Food Centre","building_name_zh":"大埔墟街市及熟食中心","building_alt_name":null,"building_restriction":"","bbox":[114.16593091000004,22.445629110000027,114.16710741000009,22.446677910000062]}}]}