{"type":"FeatureCollection","features":[{"type":"Feature","id":51276,"geometry":{"type":"Polygon","coordinates":[[[114.16326293019496,22.32892786440668],[114.16338762875378,22.328831241861756],[114.16339255532661,22.328827424590987],[114.16340860954638,22.328845149525471],[114.16335608404744,22.328885143880456],[114.16337136811347,22.328902190828575],[114.16329361672487,22.328962097128763],[114.16326293019496,22.32892786440668]]]},"properties":{"OBJECTID":51276,"Shape__Length":44.733213919465385,"Shape__Area":69.205870675612914,"GeoRefNo":"3487221096","DateCreate":1114790400000,"BuildingBlockType":"Tower","BuildingCSUID":"3487221096T20050430","BuildingID":1108228206,"Status":"Active","BuildingNameEN":null,"BuildingNameTC":"富順樓","BaseHeight":4.4000000000000004,"TopHeight":16.5,"Storeys":null,"StoreysInBasement":null,"DateStamp":1361808000000}},{"type":"Feature","id":51279,"geometry":{"type":"Polygon","coordinates":[[[114.165098855097,22.328920403935776],[114.16501099035222,22.328822078877742],[114.16505222889636,22.328790094377702],[114.1651660443025,22.328917720109263],[114.16512476704268,22.3289494006655],[114.165098855097,22.328920403935776]]]},"properties":{"OBJECTID":51279,"Shape__Length":47.742568342619855,"Shape__Area":101.32412423409586,"GeoRefNo":"3505521090","DateCreate":1114790400000,"BuildingBlockType":"Tower","BuildingCSUID":"3505521090T20050430","BuildingID":1108228221,"Status":"Active","BuildingNameEN":null,"BuildingNameTC":"永崇樓","BaseHeight":5.0999999999999996,"TopHeight":24.800000000000001,"Storeys":6,"StoreysInBasement":null,"DateStamp":1599580800000}},{"type":"Feature","id":51281,"geometry":{"type":"Polygon","coordinates":[[[114.16323393138263,22.328895514425987],[114.16333162067941,22.328819111661538],[114.1633444827099,22.328833433251315],[114.16337116459077,22.328812890168596],[114.16338762875378,22.328831241861756],[114.16326293019496,22.32892786440668],[114.16323393138263,22.328895514425987]]]},"properties":{"OBJECTID":51281,"Shape__Length":42.812910985059702,"Shape__Area":71.197686943592558,"GeoRefNo":"3486921092","DateCreate":1114790400000,"BuildingBlockType":"Tower","BuildingCSUID":"3486921092T20050430","BuildingID":1108228233,"Status":"Active","BuildingNameEN":null,"BuildingNameTC":null,"BaseHeight":4.4000000000000004,"TopHeight":26.600000000000001,"Storeys":6,"StoreysInBasement":null,"DateStamp":1599580800000}},{"type":"Feature","id":51282,"geometry":{"type":"Polygon","coordinates":[[[114.164012592194,22.328972253037527],[114.16389592899411,22.328840445561337],[114.16393270059753,22.328811843665886],[114.16393636961348,22.328815950796411],[114.16399955343493,22.328886679188361],[114.16405004535169,22.328943200182476],[114.164012592194,22.328972253037527]]]},"properties":{"OBJECTID":51282,"Shape__Length":47.782641186671327,"Shape__Area":94.18858422156741,"GeoRefNo":"3493821094","DateCreate":1114790400000,"BuildingBlockType":"Tower","BuildingCSUID":"3493821094T20050430","BuildingID":1108228202,"Status":"Active","BuildingNameEN":null,"BuildingNameTC":null,"BaseHeight":4.9000000000000004,"TopHeight":26.800000000000001,"Storeys":6,"StoreysInBasement":null,"DateStamp":1599580800000}},{"type":"Feature","id":51284,"geometry":{"type":"Polygon","coordinates":[[[114.1651660443025,22.328917720109263],[114.16505222889636,22.328790094377702],[114.16508830209963,22.328762107693649],[114.16515903267197,22.328841295760874],[114.16518918135617,22.328875049465019],[114.16520238026655,22.328889826524499],[114.1651660443025,22.328917720109263]]]},"properties":{"OBJECTID":51284,"Shape__Length":46.444478248423295,"Shape__Area":89.05229770130353,"GeoRefNo":"3505621087","DateCreate":1114790400000,"BuildingBlockType":"Tower","BuildingCSUID":"3505621087T20050430","BuildingID":1108228246,"Status":"Active","BuildingNameEN":null,"BuildingNameTC":"永崇樓","BaseHeight":5.0999999999999996,"TopHeight":24.800000000000001,"Storeys":6,"StoreysInBasement":null,"DateStamp":1599580800000}},{"type":"Feature","id":51286,"geometry":{"type":"Polygon","coordinates":[[[114.16409067753847,22.328919191781686],[114.16397261675483,22.328787336116953],[114.16398160641248,22.328780239332772],[114.16400691319673,22.328760255119654],[114.16407074615906,22.328831516520765],[114.16405551015369,22.328843326421151],[114.16411021059429,22.328903962513937],[114.16409067753847,22.328919191781686]]]},"properties":{"OBJECTID":51286,"Shape__Length":47.344351180066724,"Shape__Area":70.398783049947056,"GeoRefNo":"3494421086","DateCreate":1114790400000,"BuildingBlockType":"Tower","BuildingCSUID":"3494421086T20050430","BuildingID":1108228241,"Status":"Active","BuildingNameEN":null,"BuildingNameTC":null,"BaseHeight":5,"TopHeight":25.800000000000001,"Storeys":6,"StoreysInBasement":null,"DateStamp":1599580800000}},{"type":"Feature","id":51333,"geometry":{"type":"Polygon","coordinates":[[[114.1639320167165,22.329019317298215],[114.16382249485522,22.328897536633956],[114.16385706263496,22.32887065255726],[114.16397435757982,22.329001928299963],[114.16395888730864,22.329013935851926],[114.16395076040482,22.32900469023668],[114.1639320167165,22.329019317298215]]]},"properties":{"OBJECTID":51333,"Shape__Length":47.046808503588366,"Shape__Area":83.845885173350311,"GeoRefNo":"3493121101","DateCreate":1114790400000,"BuildingBlockType":"Tower","BuildingCSUID":"3493121101T20050430","BuildingID":1108228175,"Status":"Active","BuildingNameEN":null,"BuildingNameTC":null,"BaseHeight":4.7999999999999998,"TopHeight":26.800000000000001,"Storeys":6,"StoreysInBasement":null,"DateStamp":1599580800000}},{"type":"Feature","id":51336,"geometry":{"type":"Polygon","coordinates":[[[114.16397435757982,22.329001928299963],[114.16385706263496,22.32887065255726],[114.16389592899411,22.328840445561337],[114.164012592194,22.328972253037527],[114.16397435757982,22.329001928299963]]]},"properties":{"OBJECTID":51336,"Shape__Length":48.158020734695995,"Shape__Area":97.807666570384555,"GeoRefNo":"3493421098","DateCreate":1114790400000,"BuildingBlockType":"Tower","BuildingCSUID":"3493421098T20050430","BuildingID":1108228188,"Status":"Active","BuildingNameEN":null,"BuildingNameTC":null,"BaseHeight":4.9000000000000004,"TopHeight":24.5,"Storeys":6,"StoreysInBasement":null,"DateStamp":1599580800000}},{"type":"Feature","id":51387,"geometry":{"type":"Polygon","coordinates":[[[114.16343126427671,22.328772392166861],[114.1635443235125,22.328896844904722],[114.16353646445391,22.328902908477886],[114.16350746271623,22.32892528469571],[114.1634028611056,22.328810512155012],[114.16343500567652,22.328785772369727],[114.16342624344863,22.328776282307871],[114.16343126427671,22.328772392166861]]]},"properties":{"OBJECTID":51387,"Shape__Length":45.996973654997049,"Shape__Area":83.332090634008097,"GeoRefNo":"3488721090","DateCreate":1114790400000,"BuildingBlockType":"Tower","BuildingCSUID":"3488721090T20050430","BuildingID":1108228237,"Status":"Active","BuildingNameEN":null,"BuildingNameTC":null,"BaseHeight":4.5,"TopHeight":28.399999999999999,"Storeys":8,"StoreysInBasement":null,"DateStamp":1599580800000}},{"type":"Feature","id":51394,"geometry":{"type":"Polygon","coordinates":[[[114.16508612489567,22.328979059273749],[114.16497220161007,22.328852165498265],[114.16501099035222,22.328822078877742],[114.165098855097,22.328920403935776],[114.16508123061465,22.328933897060409],[114.16510710751312,22.328962955017719],[114.16508612489567,22.328979059273749]]]},"properties":{"OBJECTID":51394,"Shape__Length":47.002870084283416,"Shape__Area":85.102046904396957,"GeoRefNo":"3504921096","DateCreate":1114790400000,"BuildingBlockType":"Tower","BuildingCSUID":"3504921096T20050430","BuildingID":1108228200,"Status":"Active","BuildingNameEN":null,"BuildingNameTC":null,"BaseHeight":5.0999999999999996,"TopHeight":24.800000000000001,"Storeys":6,"StoreysInBasement":null,"DateStamp":1599580800000}},{"type":"Feature","id":51396,"geometry":{"type":"Polygon","coordinates":[[[114.16320315743464,22.328861184335299],[114.16332705458068,22.328763723369384],[114.16334481442681,22.328783519165295],[114.16331797793484,22.328803920902221],[114.16333162067941,22.328819111661538],[114.16323393138263,22.328895514425987],[114.16320315743464,22.328861184335299]]]},"properties":{"OBJECTID":51396,"Shape__Length":43.43096863956292,"Shape__Area":75.406074141039838,"GeoRefNo":"3486721088","DateCreate":1114790400000,"BuildingBlockType":"Tower","BuildingCSUID":"3486721088T20050430","BuildingID":1108228260,"Status":"Active","BuildingNameEN":null,"BuildingNameTC":null,"BaseHeight":4.4000000000000004,"TopHeight":26.600000000000001,"Storeys":6,"StoreysInBasement":null,"DateStamp":1599580800000}},{"type":"Feature","id":51397,"geometry":{"type":"Polygon","coordinates":[[[114.16502117795119,22.32897987697006],[114.16493389792321,22.32888187584059],[114.16497220161007,22.328852165498265],[114.16508612489567,22.328979059273749],[114.16506606698651,22.328994455957627],[114.16503892912505,22.328966283441165],[114.16502117795119,22.32897987697006]]]},"properties":{"OBJECTID":51397,"Shape__Length":46.776056812755471,"Shape__Area":84.397667923808186,"GeoRefNo":"3504621099","DateCreate":1114790400000,"BuildingBlockType":"Tower","BuildingCSUID":"3504621099T20050430","BuildingID":1108228193,"Status":"Active","BuildingNameEN":null,"BuildingNameTC":null,"BaseHeight":5.2000000000000002,"TopHeight":24.800000000000001,"Storeys":6,"StoreysInBasement":null,"DateStamp":1599580800000}},{"type":"Feature","id":51409,"geometry":{"type":"Polygon","coordinates":[[[114.16489759797389,22.330197518493776],[114.16480227034971,22.330091206682859],[114.16477948535554,22.33006579627272],[114.16480055246228,22.33004925706172],[114.16478739093564,22.330034683704291],[114.16482611586497,22.330004809978618],[114.16483898369643,22.330019050985793],[114.1648535162854,22.330007633159685],[114.16497254835841,22.330139185439478],[114.16489759797389,22.330197518493776]]]},"properties":{"OBJECTID":51409,"Shape__Length":62.254186494762244,"Shape__Area":201.45223315590997,"GeoRefNo":"3503221228","DateCreate":1114790400000,"BuildingBlockType":"Tower","BuildingCSUID":"3503221228T20050430","BuildingID":1108227163,"Status":"Active","BuildingNameEN":null,"BuildingNameTC":null,"BaseHeight":5.2999999999999998,"TopHeight":25,"Storeys":6,"StoreysInBasement":null,"DateStamp":1599580800000}},{"type":"Feature","id":51411,"geometry":{"type":"Polygon","coordinates":[[[114.16440768259947,22.330203736174354],[114.16453126576411,22.330105488529174],[114.16454941931349,22.330125848902181],[114.16452794431466,22.330142102592667],[114.16453849661156,22.330153906003197],[114.16443534275265,22.330234582516692],[114.16440768259947,22.330203736174354]]]},"properties":{"OBJECTID":51411,"Shape__Length":42.559922429839133,"Shape__Area":70.810861528905406,"GeoRefNo":"3499121236","DateCreate":1114790400000,"BuildingBlockType":"Tower","BuildingCSUID":"3499121236T20050430","BuildingID":1108227122,"Status":"Active","BuildingNameEN":null,"BuildingNameTC":null,"BaseHeight":5.5,"TopHeight":32.100000000000001,"Storeys":9,"StoreysInBasement":null,"DateStamp":1599580800000}},{"type":"Feature","id":51462,"geometry":{"type":"Polygon","coordinates":[[[114.16365560051845,22.329364471415197],[114.16361898969336,22.329323553662142],[114.16373019284502,22.329238070698203],[114.16376624053053,22.32927866382202],[114.16365560051845,22.329364471415197]]]},"properties":{"OBJECTID":51462,"Shape__Length":41.426693306007486,"Shape__Area":87.067882187883271,"GeoRefNo":"3490821142","DateCreate":1114790400000,"BuildingBlockType":"Tower","BuildingCSUID":"3490821142T20050430","BuildingID":1108227933,"Status":"Active","BuildingNameEN":null,"BuildingNameTC":"南灣大廈","BaseHeight":4.5999999999999996,"TopHeight":36.299999999999997,"Storeys":10,"StoreysInBasement":null,"DateStamp":1599580800000}},{"type":"Feature","id":51464,"geometry":{"type":"Polygon","coordinates":[[[114.16448819447496,22.329389434091368],[114.16440055126479,22.329294494290703],[114.16441422579697,22.329283600391602],[114.16450777837791,22.329211085896453],[114.16454075951904,22.329185691781184],[114.16458066589155,22.329229894450641],[114.1646018625832,22.329253373219974],[114.1646291665072,22.329283616714456],[114.16466263493523,22.329320688329901],[114.164671585359,22.329330602414664],[114.16456535100751,22.329412266734039],[114.1645556878325,22.329401168409177],[114.16454853460768,22.329406694764796],[114.16453485267276,22.329391282946965],[114.1645276171174,22.329397011670803],[114.16450725257897,22.329374516837465],[114.16448819447496,22.329389434091368]]]},"properties":{"OBJECTID":51464,"Shape__Length":79.375628131091688,"Shape__Area":368.35074384088773,"GeoRefNo":"3500221139","DateCreate":1114790400000,"BuildingBlockType":"Tower","BuildingCSUID":"3500221139T20050430","BuildingID":1108227891,"Status":"Active","BuildingNameEN":"Cheung Sha Mansion","BuildingNameTC":"長沙大樓","BaseHeight":4.9000000000000004,"TopHeight":44.899999999999999,"Storeys":13,"StoreysInBasement":null,"DateStamp":1599580800000}},{"type":"Feature","id":51520,"geometry":{"type":"Polygon","coordinates":[[[114.16388512872477,22.329156060344697],[114.16397853498577,22.329258760411292],[114.16396290179664,22.32927090268662],[114.16394660209842,22.329283563895046],[114.16387337879051,22.329340441701909],[114.16382262485351,22.329283553992767],[114.16378086225933,22.329236744309767],[114.16382035999266,22.329206180766484],[114.16382900916626,22.32921594424355],[114.16383996294687,22.329207310529576],[114.16383120144231,22.329197815342692],[114.16388512872477,22.329156060344697]]]},"properties":{"OBJECTID":51520,"Shape__Length":60.720076849154339,"Shape__Area":207.3215603116351,"GeoRefNo":"3492821134","DateCreate":1114790400000,"BuildingBlockType":"Tower","BuildingCSUID":"3492821134T20050430","BuildingID":1108227951,"Status":"Active","BuildingNameEN":null,"BuildingNameTC":"大安樓","BaseHeight":4.7000000000000002,"TopHeight":42.399999999999999,"Storeys":13,"StoreysInBasement":null,"DateStamp":1599580800000}},{"type":"Feature","id":51551,"geometry":{"type":"Polygon","coordinates":[[[114.16365825930343,22.32880893831048],[114.16356745818962,22.328710969389999],[114.16358585171136,22.328696828186885],[114.16356211788727,22.32867110262745],[114.16358468623702,22.328653663164676],[114.16369882367179,22.328777640966297],[114.16365825930343,22.32880893831048]]]},"properties":{"OBJECTID":51551,"Shape__Length":47.064829435016733,"Shape__Area":89.420800698437574,"GeoRefNo":"3490221077","DateCreate":1114790400000,"BuildingBlockType":"Tower","BuildingCSUID":"3490221077T20050430","BuildingID":1108228332,"Status":"Active","BuildingNameEN":null,"BuildingNameTC":null,"BaseHeight":4.7999999999999998,"TopHeight":30.100000000000001,"Storeys":8,"StoreysInBasement":null,"DateStamp":1599580800000}},{"type":"Feature","id":51558,"geometry":{"type":"Polygon","coordinates":[[[114.16413480628673,22.328877415700141],[114.16401750461958,22.32874590509519],[114.1640528734668,22.328718412558782],[114.1640907712456,22.328688948204707],[114.16409519748146,22.328685506906691],[114.16409669108391,22.328687136502605],[114.16420666114089,22.328807124990625],[114.16421444227109,22.328815616602888],[114.16413480628673,22.328877415700141]]]},"properties":{"OBJECTID":51558,"Shape__Length":58.972334665546519,"Shape__Area":199.83034461399603,"GeoRefNo":"3495721083","DateCreate":1114790400000,"BuildingBlockType":"Tower","BuildingCSUID":"3495721083T20050430","BuildingID":1108228271,"Status":"Active","BuildingNameEN":null,"BuildingNameTC":null,"BaseHeight":5,"TopHeight":26,"Storeys":7,"StoreysInBasement":null,"DateStamp":1599580800000}},{"type":"Feature","id":51605,"geometry":{"type":"Polygon","coordinates":[[[114.16443534275265,22.330234582516692],[114.16453849661156,22.330153906003197],[114.16456653957093,22.330185273778184],[114.16446386032555,22.33026638291031],[114.16443534275265,22.330234582516692]]]},"properties":{"OBJECTID":51605,"Shape__Length":36.864090267285498,"Shape__Area":63.180084000303552,"GeoRefNo":"3499321240","DateCreate":1114790400000,"BuildingBlockType":"Tower","BuildingCSUID":"3499321240T20050430","BuildingID":1108227088,"Status":"Active","BuildingNameEN":null,"BuildingNameTC":null,"BaseHeight":5.5,"TopHeight":25.199999999999999,"Storeys":6,"StoreysInBasement":null,"DateStamp":1599580800000}},{"type":"Feature","id":51665,"geometry":{"type":"Polygon","coordinates":[[[114.17020495945043,22.328822699241297],[114.17010776123539,22.328818633914434],[114.1701040896163,22.328818485479918],[114.17011299901864,22.328638337347311],[114.17021739344271,22.328643429651986],[114.17026097834542,22.32864551261282],[114.1703280166909,22.328648763978467],[114.17032269516125,22.328761300465274],[114.17022471698694,22.328756697857454],[114.17022138088424,22.328823393731508],[114.17020495945043,22.328822699241297]]]},"properties":{"OBJECTID":51665,"Shape__Length":84.221503350475089,"Shape__Area":367.05343399404893,"GeoRefNo":"3558021074","DateCreate":1114790400000,"BuildingBlockType":"Tower","BuildingCSUID":"3558021074T20050430","BuildingID":1108228320,"Status":"Active","BuildingNameEN":null,"BuildingNameTC":null,"BaseHeight":9.1999999999999993,"TopHeight":18.300000000000001,"Storeys":null,"StoreysInBasement":null,"DateStamp":1361808000000}},{"type":"Feature","id":51668,"geometry":{"type":"Polygon","coordinates":[[[114.16369882367179,22.328777640966297],[114.16358468623702,22.328653663164676],[114.16360620027196,22.328637015053108],[114.16362970159317,22.328663079505052],[114.16364738404154,22.328649489192884],[114.16373667016826,22.328748440655104],[114.16369882367179,22.328777640966297]]]},"properties":{"OBJECTID":51668,"Shape__Length":46.46103720073144,"Shape__Area":84.280358144379917,"GeoRefNo":"3490721074","DateCreate":1114790400000,"BuildingBlockType":"Tower","BuildingCSUID":"3490721074T20050430","BuildingID":1108228359,"Status":"Active","BuildingNameEN":null,"BuildingNameTC":null,"BaseHeight":4.7999999999999998,"TopHeight":31.300000000000001,"Storeys":8,"StoreysInBasement":null,"DateStamp":1599580800000}},{"type":"Feature","id":51674,"geometry":{"type":"Polygon","coordinates":[[[114.16615681280774,22.328873335242886],[114.16615477720735,22.328871102838807],[114.16605416132388,22.328759023835403],[114.16609498025278,22.328727474225683],[114.16619744529734,22.328841591347683],[114.16615681280774,22.328873335242886]]]},"properties":{"OBJECTID":51674,"Shape__Length":43.893675742183639,"Shape__Area":90.111571550143623,"GeoRefNo":"3516021085","DateCreate":1114790400000,"BuildingBlockType":"Tower","BuildingCSUID":"3516021085T20050430","BuildingID":1108228273,"Status":"Active","BuildingNameEN":"Fat Sun Building","BuildingNameTC":"發新樓","BaseHeight":5.5999999999999996,"TopHeight":27.800000000000001,"Storeys":6,"StoreysInBasement":null,"DateStamp":1599580800000}},{"type":"Feature","id":51677,"geometry":{"type":"Polygon","coordinates":[[[114.16624077328633,22.328816416374679],[114.16624003738532,22.328816974506982],[114.16623472814243,22.32882100125855],[114.1662478534703,22.328835968141426],[114.16623205454201,22.328848102046457],[114.16624505304451,22.328862566098326],[114.16622826417226,22.328875483341438],[114.16620070052655,22.328845216798747],[114.16619744529734,22.328841591347683],[114.16609498025278,22.328727474225683],[114.16613409445328,22.328697654933563],[114.16624077328633,22.328816416374679]]]},"properties":{"OBJECTID":51677,"Shape__Length":53.115441735794676,"Shape__Area":103.42864214534541,"GeoRefNo":"3516521081","DateCreate":1114790400000,"BuildingBlockType":"Tower","BuildingCSUID":"3516521081T20050430","BuildingID":1108228272,"Status":"Active","BuildingNameEN":null,"BuildingNameTC":null,"BaseHeight":5.5999999999999996,"TopHeight":34.100000000000001,"Storeys":9,"StoreysInBasement":null,"DateStamp":1599580800000}},{"type":"Feature","id":51720,"geometry":{"type":"Polygon","coordinates":[[[114.16525020871801,22.328726040533724],[114.16520293926808,22.328673192971802],[114.16523509447532,22.328648252892595],[114.16527651055956,22.328616129998959],[114.16530529742299,22.328648257899591],[114.16530693671888,22.328650087431846],[114.16533054549657,22.32867642987723],[114.16536263271982,22.328712245821155],[114.16539761372358,22.32875129184135],[114.16540770166873,22.328762553329511],[114.16536262576004,22.328797391132532],[114.16534790600355,22.328808767542402],[114.16530673814243,22.328763281814172],[114.16526373903103,22.328715772822839],[114.16525020871801,22.328726040533724]]]},"properties":{"OBJECTID":51720,"Shape__Length":61.859500977412971,"Shape__Area":183.65016336967989,"GeoRefNo":"3507221071","DateCreate":1114790400000,"BuildingBlockType":"Tower","BuildingCSUID":"3507221071T20050430","BuildingID":1108228334,"Status":"Active","BuildingNameEN":"Hip Kwan House","BuildingNameTC":"協群樓","BaseHeight":5.0999999999999996,"TopHeight":35.399999999999999,"Storeys":9,"StoreysInBasement":null,"DateStamp":1599580800000}},{"type":"Feature","id":51727,"geometry":{"type":"Polygon","coordinates":[[[114.16447522160007,22.328768040998849],[114.16452962959521,22.328829133875985],[114.1644878226604,22.32886150949474],[114.16437018545244,22.328729510564479],[114.16437906033369,22.328722644119562],[114.16441264329947,22.328759654931755],[114.16443104675027,22.328745400570629],[114.16446106537312,22.32877905226464],[114.16447522160007,22.328768040998849]]]},"properties":{"OBJECTID":51727,"Shape__Length":49.140261665984973,"Shape__Area":73.67289290192997,"GeoRefNo":"3498921085","DateCreate":1114790400000,"BuildingBlockType":"Tower","BuildingCSUID":"3498921085T20050430","BuildingID":1108228282,"Status":"Active","BuildingNameEN":null,"BuildingNameTC":null,"BaseHeight":5.0999999999999996,"TopHeight":25.399999999999999,"Storeys":6,"StoreysInBasement":null,"DateStamp":1599580800000}},{"type":"Feature","id":51730,"geometry":{"type":"Polygon","coordinates":[[[114.16562871579984,22.328747830028771],[114.16574113083222,22.328660603040085],[114.16575565300332,22.328649334767178],[114.16577659646792,22.328672731189013],[114.16576212048989,22.328684122373168],[114.16577335819761,22.328696742297616],[114.16566094892799,22.3287834068839],[114.16562871579984,22.328747830028771]]]},"properties":{"OBJECTID":51730,"Shape__Length":44.361086665752701,"Shape__Area":84.547414022005384,"GeoRefNo":"3511721075","DateCreate":1114790400000,"BuildingBlockType":"Tower","BuildingCSUID":"3511721075T20050430","BuildingID":1108228352,"Status":"Active","BuildingNameEN":"Ho King Building","BuildingNameTC":"好景唐樓","BaseHeight":5.5,"TopHeight":27.100000000000001,"Storeys":6,"StoreysInBasement":null,"DateStamp":1599580800000}},{"type":"Feature","id":51732,"geometry":{"type":"Polygon","coordinates":[[[114.16317535709329,22.328830171241947],[114.16327265891822,22.328753459362879],[114.1632794812558,22.328761055828384],[114.16330619943854,22.328740477269001],[114.16332705458068,22.328763723369384],[114.16320315743464,22.328861184335299],[114.16317535709329,22.328830171241947]]]},"properties":{"OBJECTID":51732,"Shape__Length":42.349069717469135,"Shape__Area":70.904415882314439,"GeoRefNo":"3486421084","DateCreate":1114790400000,"BuildingBlockType":"Tower","BuildingCSUID":"3486421084T20050430","BuildingID":1108228283,"Status":"Active","BuildingNameEN":null,"BuildingNameTC":null,"BaseHeight":4.5,"TopHeight":26.5,"Storeys":7,"StoreysInBasement":null,"DateStamp":1599580800000}},{"type":"Feature","id":51863,"geometry":{"type":"Polygon","coordinates":[[[114.16388512872477,22.329156060344697],[114.16385974086168,22.32912814631684],[114.16400876388417,22.329012772963356],[114.1640308906991,22.329037667515795],[114.1641257586372,22.329144401756697],[114.16397853498577,22.329258760411292],[114.16388512872477,22.329156060344697]]]},"properties":{"OBJECTID":51863,"Shape__Length":77.592396419090207,"Shape__Area":376.06061789983625,"GeoRefNo":"3494221120","DateCreate":1114790400000,"BuildingBlockType":"Tower","BuildingCSUID":"3494221120T20050430","BuildingID":1108228017,"Status":"Active","BuildingNameEN":"Cheung Lee Commercial Building","BuildingNameTC":"長利商業大廈","BaseHeight":4.7999999999999998,"TopHeight":44.5,"Storeys":12,"StoreysInBasement":null,"DateStamp":1599580800000}},{"type":"Feature","id":52044,"geometry":{"type":"Polygon","coordinates":[[[114.17241896855275,22.328964733325524],[114.17240316887869,22.328964655773511],[114.1724043474297,22.329017847840596],[114.1724712594721,22.329016571555549],[114.17246938781491,22.328954893791913],[114.17255580248118,22.328953713087593],[114.17255563440024,22.328939727959817],[114.17259356450263,22.328939902343027],[114.17259598639119,22.329097888676202],[114.17255670699609,22.329098604222022],[114.17255703454273,22.329084392259308],[114.17240865348991,22.329085498047444],[114.17240931728882,22.329099027144171],[114.17236116754866,22.329100624778725],[114.17236055402842,22.329078155224721],[114.17237536937976,22.329077769394576],[114.17237345862182,22.329022968960576],[114.17232827088642,22.329024581115753],[114.17232915483213,22.329086254157133],[114.17222668916425,22.329088043578935],[114.17222711381922,22.329100195957132],[114.17219230113263,22.329100712778288],[114.17218874190829,22.32894503381111],[114.17222084293543,22.328943815869387],[114.17222127344354,22.328955051282481],[114.1722849783055,22.328953300787138],[114.17228563125812,22.328968663815242],[114.1723300743584,22.328967735808323],[114.17232842877172,22.328953284841791],[114.17235114590224,22.328952479401295],[114.17235156441582,22.328965777940901],[114.17236958720649,22.328965637289933],[114.17236874041104,22.328940873960875],[114.17241910217898,22.328941121151942],[114.17241902038272,22.328955581913892],[114.17241896855275,22.328964733325524]]]},"properties":{"OBJECTID":52044,"Shape__Length":170.0166573674916,"Shape__Area":557.28298361952341,"GeoRefNo":"3580721110","DateCreate":1114790400000,"BuildingBlockType":"Tower","BuildingCSUID":"3580721110T20050430","BuildingID":1108228134,"Status":"Active","BuildingNameEN":"Jade Court","BuildingNameTC":"玉寶閣","BaseHeight":18.5,"TopHeight":32.200000000000003,"Storeys":4,"StoreysInBasement":null,"DateStamp":1599580800000}},{"type":"Feature","id":52045,"geometry":{"type":"Polygon","coordinates":[[[114.16376959718929,22.329160830331894],[114.16365185903605,22.329030218606999],[114.16368581551292,22.329003809526263],[114.16378834327128,22.329116663619025],[114.16380412776203,22.329134037924813],[114.16376959718929,22.329160830331894]]]},"properties":{"OBJECTID":52045,"Shape__Length":46.950041013282714,"Shape__Area":86.765894973885494,"GeoRefNo":"3491321116","DateCreate":1114790400000,"BuildingBlockType":"Tower","BuildingCSUID":"3491321116T20050430","BuildingID":1108228088,"Status":"Active","BuildingNameEN":null,"BuildingNameTC":null,"BaseHeight":4.5999999999999996,"TopHeight":26.800000000000001,"Storeys":6,"StoreysInBasement":null,"DateStamp":1599580800000}},{"type":"Feature","id":52047,"geometry":{"type":"Polygon","coordinates":[[[114.16584087053052,22.330219211003705],[114.16570444452383,22.330065496036454],[114.16572684248311,22.330048006327573],[114.16577611091871,22.330102020344739],[114.16578634888475,22.330093276729727],[114.16581613314743,22.330126599077072],[114.16580682666935,22.3301336934117],[114.16581602985835,22.330144030532306],[114.16583317478553,22.330130895179259],[114.16588265701219,22.330186419813828],[114.16584087053052,22.330219211003705]]]},"properties":{"OBJECTID":52047,"Shape__Length":57.794916957674928,"Shape__Area":95.603498370093831,"GeoRefNo":"3512721233","DateCreate":1114790400000,"BuildingBlockType":"Tower","BuildingCSUID":"3512721233T20050430","BuildingID":1108227136,"Status":"Active","BuildingNameEN":null,"BuildingNameTC":null,"BaseHeight":5.7000000000000002,"TopHeight":24.100000000000001,"Storeys":5,"StoreysInBasement":null,"DateStamp":1599580800000}},{"type":"Feature","id":52103,"geometry":{"type":"Polygon","coordinates":[[[114.16580194341694,22.330249758458169],[114.16575204169291,22.330194015411259],[114.16568737886611,22.330121783297091],[114.16566472881532,22.330096481929498],[114.16567303041057,22.330090005135347],[114.16568738013407,22.330105820388198],[114.1656945940146,22.330113770957219],[114.1657038648931,22.330106428104923],[114.16568738153744,22.330088152866526],[114.16568243446422,22.330082668072993],[114.1656873822797,22.33007880792956],[114.16570444452383,22.330065496036454],[114.16584087053052,22.330219211003705],[114.16580194341694,22.330249758458169]]]},"properties":{"OBJECTID":52103,"Shape__Length":61.617874175921628,"Shape__Area":112.54624081863845,"GeoRefNo":"3512321236","DateCreate":1114790400000,"BuildingBlockType":"Tower","BuildingCSUID":"3512321236T20050430","BuildingID":1108227104,"Status":"Active","BuildingNameEN":null,"BuildingNameTC":null,"BaseHeight":5.7999999999999998,"TopHeight":24.100000000000001,"Storeys":5,"StoreysInBasement":null,"DateStamp":1599580800000}},{"type":"Feature","id":52162,"geometry":{"type":"Polygon","coordinates":[[[114.16438076883125,22.330173717898631],[114.16448422492969,22.330093199567774],[114.16449345558667,22.330103524664583],[114.16451476462429,22.330086981535796],[114.16453126576411,22.330105488529174],[114.16440768259947,22.330203736174354],[114.16438076883125,22.330173717898631]]]},"properties":{"OBJECTID":52162,"Shape__Length":41.980476022188256,"Shape__Area":66.783220158331488,"GeoRefNo":"3498821232","DateCreate":1114790400000,"BuildingBlockType":"Tower","BuildingCSUID":"3498821232T20050430","BuildingID":1108227158,"Status":"Active","BuildingNameEN":null,"BuildingNameTC":null,"BaseHeight":5.4000000000000004,"TopHeight":34.899999999999999,"Storeys":9,"StoreysInBasement":null,"DateStamp":1599580800000}},{"type":"Feature","id":52172,"geometry":{"type":"Polygon","coordinates":[[[114.17021792205601,22.330200461438459],[114.17019533494491,22.33018549304742],[114.17022343489836,22.330148722476423],[114.17031713710956,22.330211075938866],[114.1702897768093,22.330248079364097],[114.17026508494337,22.330231716124452],[114.17027886460306,22.330212952034948],[114.17023188464374,22.330182691627446],[114.17021792205601,22.330200461438459]]]},"properties":{"OBJECTID":52172,"Shape__Length":38.65869285823095,"Shape__Area":44.67212940942391,"GeoRefNo":"3558821239","DateCreate":1114790400000,"BuildingBlockType":"Tower","BuildingCSUID":"3558821239T20050430","BuildingID":1108227107,"Status":"Active","BuildingNameEN":"TAI HANG TUNG COMMUNITY CENTRE","BuildingNameTC":"大坑東社區中心","BaseHeight":9.4000000000000004,"TopHeight":11.6,"Storeys":null,"StoreysInBasement":null,"DateStamp":1361808000000}},{"type":"Feature","id":52236,"geometry":{"type":"Polygon","coordinates":[[[114.16575204169291,22.330194015411259],[114.16580194341694,22.330249758458169],[114.16576141962604,22.330281558697116],[114.16568737270792,22.330199311658905],[114.16568164324232,22.330192947684449],[114.16562362309816,22.330128559604304],[114.16564768918148,22.330109779100088],[114.16568737629753,22.330154120548119],[114.16570230292788,22.330170797717948],[114.16571260501351,22.330162702869135],[114.16574554370891,22.330199151291257],[114.16575204169291,22.330194015411259]]]},"properties":{"OBJECTID":52236,"Shape__Length":55.167821912264522,"Shape__Area":96.543206674502798,"GeoRefNo":"3512021241","DateCreate":1114790400000,"BuildingBlockType":"Tower","BuildingCSUID":"3512021241T20050430","BuildingID":1108227078,"Status":"Active","BuildingNameEN":null,"BuildingNameTC":null,"BaseHeight":5.7999999999999998,"TopHeight":24.300000000000001,"Storeys":5,"StoreysInBasement":null,"DateStamp":1599580800000}},{"type":"Feature","id":52426,"geometry":{"type":"Polygon","coordinates":[[[114.16533689210689,22.329104847903313],[114.16522447975137,22.328978720839729],[114.1652313715058,22.328973465081845],[114.16525072590228,22.328958699294102],[114.16523155491235,22.328937659282211],[114.16524335601308,22.328928547093337],[114.16536260417527,22.329061454248688],[114.16537508431865,22.329075363855402],[114.16536260225058,22.329084999959974],[114.16533689210689,22.329104847903313]]]},"properties":{"OBJECTID":52426,"Shape__Length":52.564775515578859,"Shape__Area":96.947105858625079,"GeoRefNo":"3507521110","DateCreate":1114790400000,"BuildingBlockType":"Tower","BuildingCSUID":"3507521110T20050430","BuildingID":1108228131,"Status":"Active","BuildingNameEN":null,"BuildingNameTC":null,"BaseHeight":5.4000000000000004,"TopHeight":37.5,"Storeys":8,"StoreysInBasement":null,"DateStamp":1599580800000}},{"type":"Feature","id":52427,"geometry":{"type":"Polygon","coordinates":[[[114.16529876326744,22.32913428300083],[114.16518584093389,22.32900818305669],[114.16516719709576,22.328987363511736],[114.16518024820809,22.328977283971049],[114.1651990171634,22.328998126461176],[114.16521882440834,22.328983030912859],[114.16522447975137,22.328978720839729],[114.16533689210689,22.329104847903313],[114.16529876326744,22.32913428300083]]]},"properties":{"OBJECTID":52427,"Shape__Length":52.57274569157039,"Shape__Area":98.341909498505672,"GeoRefNo":"3507121112","DateCreate":1114790400000,"BuildingBlockType":"Tower","BuildingCSUID":"3507121112T20050430","BuildingID":1108228109,"Status":"Active","BuildingNameEN":null,"BuildingNameTC":null,"BaseHeight":5.5,"TopHeight":37.5,"Storeys":null,"StoreysInBasement":null,"DateStamp":1361808000000}},{"type":"Feature","id":52430,"geometry":{"type":"Polygon","coordinates":[[[114.16416291866075,22.329115527749064],[114.16405764703225,22.328997230402315],[114.16407615992371,22.328983199597509],[114.16408618012211,22.328994483828957],[114.16410440629404,22.328980258931129],[114.1641996204833,22.329087013204653],[114.16416291866075,22.329115527749064]]]},"properties":{"OBJECTID":52430,"Shape__Length":43.825565467993044,"Shape__Area":79.542526040429294,"GeoRefNo":"3495421111","DateCreate":1114790400000,"BuildingBlockType":"Tower","BuildingCSUID":"3495421111T20050430","BuildingID":1108228117,"Status":"Active","BuildingNameEN":null,"BuildingNameTC":null,"BaseHeight":4.9000000000000004,"TopHeight":24.600000000000001,"Storeys":6,"StoreysInBasement":null,"DateStamp":1599580800000}},{"type":"Feature","id":52562,"geometry":{"type":"Polygon","coordinates":[[[114.16533461445151,22.330821144545048],[114.16533716863621,22.330824146039983],[114.16535371811166,22.330842715443108],[114.16535118299575,22.330860524744413],[114.16534724015146,22.33088016733458],[114.16534695724032,22.330897453021564],[114.16534780022809,22.330915786426051],[114.16529237458286,22.330958460114712],[114.16528057606835,22.330945914442101],[114.16529902529673,22.330931002743863],[114.16525405829158,22.330883041641709],[114.16533461445151,22.330821144545048]]]},"properties":{"OBJECTID":52562,"Shape__Length":40.829873146305431,"Shape__Area":82.020094208189533,"GeoRefNo":"3507721316","DateCreate":1114790400000,"BuildingBlockType":"Tower","BuildingCSUID":"3507721316T20050430","BuildingID":1108226593,"Status":"Active","BuildingNameEN":null,"BuildingNameTC":null,"BaseHeight":5.7000000000000002,"TopHeight":11.9,"Storeys":null,"StoreysInBasement":null,"DateStamp":1361808000000}},{"type":"Feature","id":52569,"geometry":{"type":"Polygon","coordinates":[[[114.16497254835841,22.330139185439478],[114.1648535162854,22.330007633159685],[114.16484074958633,22.329993520937247],[114.16486010058706,22.329978592827938],[114.16487265248801,22.329992580411009],[114.16489176664844,22.329977573353165],[114.16501067610371,22.330109510479815],[114.16497254835841,22.330139185439478]]]},"properties":{"OBJECTID":52569,"Shape__Length":52.455941242938891,"Shape__Area":103.18560028508054,"GeoRefNo":"3503721223","DateCreate":1114790400000,"BuildingBlockType":"Tower","BuildingCSUID":"3503721223T20050430","BuildingID":1108227206,"Status":"Active","BuildingNameEN":"Man Cheong Court","BuildingNameTC":"文昌閣","BaseHeight":5.2999999999999998,"TopHeight":36.799999999999997,"Storeys":10,"StoreysInBasement":null,"DateStamp":1599580800000}},{"type":"Feature","id":52582,"geometry":{"type":"Polygon","coordinates":[[[114.16552179595591,22.329934200308497],[114.16563130874304,22.33005843377985],[114.16561649981797,22.330070404057253],[114.16563527932436,22.330090607671476],[114.16560809972604,22.33011172100931],[114.16548021126501,22.329967020408652],[114.16552179595591,22.329934200308497]]]},"properties":{"OBJECTID":52582,"Shape__Length":52.780817492352348,"Shape__Area":110.47543146595737,"GeoRefNo":"3510421222","DateCreate":1114790400000,"BuildingBlockType":"Tower","BuildingCSUID":"3510421222T20050430","BuildingID":1108227235,"Status":"Active","BuildingNameEN":null,"BuildingNameTC":null,"BaseHeight":5.5,"TopHeight":27.199999999999999,"Storeys":6,"StoreysInBasement":null,"DateStamp":1599580800000}},{"type":"Feature","id":52617,"geometry":{"type":"Polygon","coordinates":[[[114.16355868785357,22.330875135534988],[114.16352670277156,22.330838689278472],[114.1634660255107,22.33076954859213],[114.16376589638615,22.330537197841245],[114.16389905948202,22.330683222733509],[114.16388982275183,22.330690391646023],[114.16388000091035,22.330679549738448],[114.16382395786817,22.3307231180783],[114.16383362992902,22.330734004768868],[114.16382361339255,22.330741778844605],[114.16381397598525,22.330730890169491],[114.16378850236488,22.330750682434189],[114.16379811162193,22.33076157165036],[114.1637860066195,22.330770966725812],[114.16377655656022,22.330760005457712],[114.16375550526202,22.330776331955434],[114.16376507763357,22.330787210424152],[114.16373165989721,22.330813146988728],[114.16372206704023,22.330802322067751],[114.16370069926401,22.33081891520575],[114.16371031629292,22.330829712406032],[114.16369970894647,22.330837945179734],[114.1636900679385,22.33082718653748],[114.16366360334438,22.330847753074305],[114.16367325910959,22.330858473700573],[114.16366146036108,22.330867631016222],[114.163651855656,22.330856886281786],[114.16359969711316,22.330897430697764],[114.16360912417611,22.330908250735792],[114.163596408354,22.330918119852601],[114.16355868785357,22.330875135534988]]]},"properties":{"OBJECTID":52617,"Shape__Length":141.90494143528593,"Shape__Area":815.1221220380362,"GeoRefNo":"3490821298","DateCreate":1114790400000,"BuildingBlockType":"Tower","BuildingCSUID":"3490821298T20050430","BuildingID":1108226624,"Status":"Active","BuildingNameEN":"Fuk Wa Mansion","BuildingNameTC":"福華大廈","BaseHeight":5.4000000000000004,"TopHeight":35.200000000000003,"Storeys":9,"StoreysInBasement":null,"DateStamp":1599580800000}},{"type":"Feature","id":52627,"geometry":{"type":"Polygon","coordinates":[[[114.16372549093421,22.33015882456813],[114.16369561116264,22.330125496501161],[114.16380332495162,22.330042140908471],[114.16383298662046,22.330075478330233],[114.16372549093421,22.33015882456813]]]},"properties":{"OBJECTID":52627,"Shape__Length":38.448118686508082,"Shape__Area":69.226209728555844,"GeoRefNo":"3491621229","DateCreate":1114790400000,"BuildingBlockType":"Tower","BuildingCSUID":"3491621229T20050430","BuildingID":1108227195,"Status":"Active","BuildingNameEN":null,"BuildingNameTC":null,"BaseHeight":5,"TopHeight":24.600000000000001,"Storeys":6,"StoreysInBasement":null,"DateStamp":1599580800000}},{"type":"Feature","id":52668,"geometry":{"type":"Polygon","coordinates":[[[114.16586752724946,22.330946614621002],[114.16580114121795,22.330895908549085],[114.16582992624365,22.33086365471301],[114.16583504770925,22.3308675737008],[114.16590270106923,22.330919341931128],[114.16586752724946,22.330946614621002]]]},"properties":{"OBJECTID":52668,"Shape__Length":27.915709136595453,"Shape__Area":43.032564087654364,"GeoRefNo":"3513221318","DateCreate":1114790400000,"BuildingBlockType":"Tower","BuildingCSUID":"3513221318T20050430","BuildingID":1108226602,"Status":"Active","BuildingNameEN":null,"BuildingNameTC":null,"BaseHeight":6.2999999999999998,"TopHeight":28.199999999999999,"Storeys":7,"StoreysInBasement":null,"DateStamp":1599580800000}},{"type":"Feature","id":52670,"geometry":{"type":"Polygon","coordinates":[[[114.16579594200574,22.33089193067557],[114.16571400868698,22.330829244712813],[114.16573725145624,22.33080307342215],[114.16574277023902,22.330796859314745],[114.16582992624365,22.33086365471301],[114.16580114121795,22.330895908549085],[114.16579594200574,22.33089193067557]]]},"properties":{"OBJECTID":52670,"Shape__Length":32.549326519898266,"Shape__Area":54.03403414023343,"GeoRefNo":"3512521312","DateCreate":1114790400000,"BuildingBlockType":"Tower","BuildingCSUID":"3512521312T20050430","BuildingID":1108226635,"Status":"Active","BuildingNameEN":null,"BuildingNameTC":null,"BaseHeight":5.9000000000000004,"TopHeight":28.699999999999999,"Storeys":7,"StoreysInBasement":null,"DateStamp":1599580800000}},{"type":"Feature","id":52699,"geometry":{"type":"Polygon","coordinates":[[[114.16424987960883,22.329629373712184],[114.1641333932037,22.329499392053602],[114.16419856527804,22.329449197308609],[114.16431565440226,22.329579033123778],[114.16429619662858,22.329593925038232],[114.1643098211489,22.329608716289709],[114.16428668952513,22.329626480457229],[114.16427279077863,22.329611838729043],[114.16424987960883,22.329629373712184]]]},"properties":{"OBJECTID":52699,"Shape__Length":59.286184707761365,"Shape__Area":170.71271545803694,"GeoRefNo":"3496521168","DateCreate":1114790400000,"BuildingBlockType":"Tower","BuildingCSUID":"3496521168T20050430","BuildingID":1108227690,"Status":"Active","BuildingNameEN":null,"BuildingNameTC":null,"BaseHeight":4.7999999999999998,"TopHeight":27.699999999999999,"Storeys":6,"StoreysInBasement":null,"DateStamp":1599580800000}},{"type":"Feature","id":52700,"geometry":{"type":"Polygon","coordinates":[[[114.16431565440226,22.329579033123778],[114.16419856527804,22.329449197308609],[114.16426941104444,22.32939464797813],[114.1643991516468,22.329540047298167],[114.16432906818328,22.329593914031097],[114.16431565440226,22.329579033123778]]]},"properties":{"OBJECTID":52700,"Shape__Length":60.68333249032402,"Shape__Area":197.07184072727662,"GeoRefNo":"3497221162","DateCreate":1114790400000,"BuildingBlockType":"Tower","BuildingCSUID":"3497221162T20050430","BuildingID":1108227725,"Status":"Active","BuildingNameEN":"Iskra Building","BuildingNameTC":"怡家大廈","BaseHeight":4.7999999999999998,"TopHeight":24.100000000000001,"Storeys":6,"StoreysInBasement":null,"DateStamp":1599580800000}},{"type":"Feature","id":52726,"geometry":{"type":"Polygon","coordinates":[[[114.1632937977146,22.328628504578774],[114.163311255197,22.328648103847929],[114.16338299358145,22.328728643569573],[114.16336581233512,22.328741347452311],[114.16338813470512,22.32876596450933],[114.16337344497514,22.328777385895275],[114.16326189911409,22.328653308654889],[114.16326859727461,22.32864810028433],[114.1632937977146,22.328628504578774]]]},"properties":{"OBJECTID":52726,"Shape__Length":44.39618844475666,"Shape__Area":68.043586899519624,"GeoRefNo":"3487221073","DateCreate":1114790400000,"BuildingBlockType":"Tower","BuildingCSUID":"3487221073T20050430","BuildingID":1108228361,"Status":"Active","BuildingNameEN":null,"BuildingNameTC":null,"BaseHeight":4.5,"TopHeight":25.5,"Storeys":6,"StoreysInBasement":null,"DateStamp":1599580800000}},{"type":"Feature","id":52742,"geometry":{"type":"Polygon","coordinates":[[[114.164598153889,22.330945195477966],[114.1645722239991,22.330965285388558],[114.16454536715551,22.330934923533579],[114.16457116017128,22.3309149137181],[114.164598153889,22.330945195477966]]]},"properties":{"OBJECTID":52742,"Shape__Length":15.646748408529861,"Shape__Area":15.104359838664099,"GeoRefNo":"3500021322","DateCreate":1114790400000,"BuildingBlockType":"Tower","BuildingCSUID":"3500021322T20050430","BuildingID":1108226586,"Status":"Active","BuildingNameEN":null,"BuildingNameTC":null,"BaseHeight":5.7000000000000002,"TopHeight":18,"Storeys":null,"StoreysInBasement":null,"DateStamp":1361808000000}},{"type":"Feature","id":52843,"geometry":{"type":"Polygon","coordinates":[[[114.16659730523465,22.328800055449172],[114.16658679761463,22.32878823998222],[114.16655519440106,22.328752703085648],[114.16653069178142,22.328725150663743],[114.16652609365153,22.328719999055462],[114.16654525939646,22.328704932653089],[114.1665232559384,22.328681475577685],[114.16657454542771,22.32864096438011],[114.16657524735301,22.328641738164972],[114.166577448052,22.328644164280291],[114.16657871349764,22.328645559224341],[114.16662160991785,22.328693492479012],[114.16663043647716,22.328730239654931],[114.16662621412938,22.328739177770849],[114.16661576024001,22.328761325612849],[114.16661249452746,22.328768244279182],[114.16660406234183,22.328786210003781],[114.16659730523465,22.328800055449172]]]},"properties":{"OBJECTID":52843,"Shape__Length":44.664243530393868,"Shape__Area":108.12101346797682,"GeoRefNo":"3520721077","DateCreate":1114790400000,"BuildingBlockType":"Tower","BuildingCSUID":"3520721077T20050430","BuildingID":1108228341,"Status":"Active","BuildingNameEN":null,"BuildingNameTC":null,"BaseHeight":5.7999999999999998,"TopHeight":27.699999999999999,"Storeys":6,"StoreysInBasement":null,"DateStamp":1599580800000}},{"type":"Feature","id":52856,"geometry":{"type":"Polygon","coordinates":[[[114.16661473799046,22.330118946126799],[114.16666638254695,22.330014378208698],[114.16669263088669,22.329961217625822],[114.16674080446666,22.329981349890787],[114.16671457205756,22.330034549675062],[114.16669220111076,22.33002518049279],[114.16667335860764,22.330063327202726],[114.16668155731571,22.33006685984806],[114.16665888001174,22.330113863962726],[114.1666497066786,22.33010994817775],[114.16663979361523,22.330129842289061],[114.16661473799046,22.330118946126799]]]},"properties":{"OBJECTID":52856,"Shape__Length":51.272991334812495,"Shape__Area":77.788844818046101,"GeoRefNo":"3521921218","DateCreate":1114790400000,"BuildingBlockType":"Tower","BuildingCSUID":"3521921218T20050430","BuildingID":1108227218,"Status":"Active","BuildingNameEN":null,"BuildingNameTC":null,"BaseHeight":9.0999999999999996,"TopHeight":22.100000000000001,"Storeys":4,"StoreysInBasement":null,"DateStamp":1599580800000}},{"type":"Feature","id":52874,"geometry":{"type":"Polygon","coordinates":[[[114.16505358711204,22.330578084411997],[114.16518593238425,22.330725887573262],[114.16514823502976,22.330755240662612],[114.16502510538739,22.330617401673887],[114.16503921396256,22.330606817955971],[114.16502957913515,22.330596557701011],[114.16505358711204,22.330578084411997]]]},"properties":{"OBJECTID":52874,"Shape__Length":52.798312544365118,"Shape__Area":104.92297427565553,"GeoRefNo":"3505521291","DateCreate":1114790400000,"BuildingBlockType":"Tower","BuildingCSUID":"3505521291T20050430","BuildingID":1108226710,"Status":"Active","BuildingNameEN":null,"BuildingNameTC":null,"BaseHeight":5.5999999999999996,"TopHeight":26.5,"Storeys":6,"StoreysInBasement":null,"DateStamp":1599580800000}},{"type":"Feature","id":52900,"geometry":{"type":"Polygon","coordinates":[[[114.16491122721166,22.329145988493035],[114.16478099481162,22.329000472864049],[114.16493389792321,22.32888187584059],[114.16502117795119,22.32897987697006],[114.16505195128376,22.329014430222209],[114.16504047885452,22.329023250913686],[114.16505290881338,22.329036754075062],[114.16501507066849,22.329065930310676],[114.16500271167939,22.32905227065163],[114.16498960502518,22.329062352341232],[114.16500199992889,22.329076007217637],[114.164985386908,22.329088806585659],[114.16497293658084,22.329075140686623],[114.16496135512935,22.329084041104515],[114.16494484092507,22.329096749989144],[114.16493484156183,22.329104428321966],[114.16491573405422,22.329119132230371],[114.16492808098724,22.329132995444393],[114.16491122721166,22.329145988493035]]]},"properties":{"OBJECTID":52900,"Shape__Length":90.912937232528279,"Shape__Area":408.44289022615152,"GeoRefNo":"3503421107","DateCreate":1114790400000,"BuildingBlockType":"Tower","BuildingCSUID":"3503421107T20050430","BuildingID":1108228100,"Status":"Active","BuildingNameEN":"Shek On Building","BuildingNameTC":"石安大廈","BaseHeight":5.0999999999999996,"TopHeight":45.5,"Storeys":9,"StoreysInBasement":null,"DateStamp":1599580800000}},{"type":"Feature","id":52907,"geometry":{"type":"Polygon","coordinates":[[[114.16559091789389,22.328706107830158],[114.16566527398192,22.328648283095987],[114.16571800100284,22.328607278656651],[114.16574285946361,22.328635046334615],[114.16572834535293,22.328646270808601],[114.16573014441028,22.328648287551555],[114.16574113083222,22.328660603040085],[114.16562871579984,22.328747830028771],[114.16559091789389,22.328706107830158]]]},"properties":{"OBJECTID":52907,"Shape__Length":46.195361546152625,"Shape__Area":99.145678419900946,"GeoRefNo":"3511321071","DateCreate":1114790400000,"BuildingBlockType":"Tower","BuildingCSUID":"3511321071T20050430","BuildingID":1108228386,"Status":"Active","BuildingNameEN":"Ho King Building","BuildingNameTC":"好景唐樓","BaseHeight":5.4000000000000004,"TopHeight":27.100000000000001,"Storeys":6,"StoreysInBasement":null,"DateStamp":1599580800000}},{"type":"Feature","id":52908,"geometry":{"type":"Polygon","coordinates":[[[114.16388964709415,22.329037941847499],[114.16378744489965,22.328924790828033],[114.16382249485522,22.328897536633956],[114.1639320167165,22.329019317298215],[114.16391484891122,22.329032729689008],[114.16392299291472,22.329041793341116],[114.16390543293809,22.329055418821429],[114.16388964709415,22.329037941847499]]]},"properties":{"OBJECTID":52908,"Shape__Length":47.156807288293585,"Shape__Area":85.517634917527289,"GeoRefNo":"3492721104","DateCreate":1114790400000,"BuildingBlockType":"Tower","BuildingCSUID":"3492721104T20050430","BuildingID":1108228157,"Status":"Active","BuildingNameEN":null,"BuildingNameTC":null,"BaseHeight":4.7999999999999998,"TopHeight":24.699999999999999,"Storeys":6,"StoreysInBasement":null,"DateStamp":1599580800000}},{"type":"Feature","id":52910,"geometry":{"type":"Polygon","coordinates":[[[114.16627409900906,22.329126230692829],[114.16615806294749,22.328996795686329],[114.16616297567177,22.328992920805671],[114.16614608518778,22.328974725053783],[114.16615638783651,22.328966668284608],[114.16617316834339,22.328984881547534],[114.16619539455863,22.328967351032269],[114.16619572775913,22.328967721940202],[114.16619742045221,22.328969612694255],[114.16628455819803,22.329066943605952],[114.16631137772056,22.329096900426578],[114.16627409900906,22.329126230692829]]]},"properties":{"OBJECTID":52910,"Shape__Length":52.734357487952991,"Shape__Area":97.677484096878857,"GeoRefNo":"3517121111","DateCreate":1114790400000,"BuildingBlockType":"Tower","BuildingCSUID":"3517121111T20050430","BuildingID":1108228112,"Status":"Active","BuildingNameEN":null,"BuildingNameTC":null,"BaseHeight":5.7000000000000002,"TopHeight":38.100000000000001,"Storeys":9,"StoreysInBasement":null,"DateStamp":1599580800000}},{"type":"Feature","id":52913,"geometry":{"type":"Polygon","coordinates":[[[114.16378834327128,22.329116663619025],[114.16368581551292,22.329003809526263],[114.16371897053892,22.328978027908743],[114.16383760497919,22.3291080543855],[114.16382713260536,22.329116182425377],[114.16381142810421,22.32909872468565],[114.16378834327128,22.329116663619025]]]},"properties":{"OBJECTID":52913,"Shape__Length":46.725452120115001,"Shape__Area":76.646825862909381,"GeoRefNo":"3491621112","DateCreate":1114790400000,"BuildingBlockType":"Tower","BuildingCSUID":"3491621112T20050430","BuildingID":1108228115,"Status":"Active","BuildingNameEN":null,"BuildingNameTC":"錦城大廈","BaseHeight":4.7000000000000002,"TopHeight":37.5,"Storeys":9,"StoreysInBasement":null,"DateStamp":1599580800000}},{"type":"Feature","id":52923,"geometry":{"type":"Polygon","coordinates":[[[114.16661473799046,22.330118946126799],[114.1665892774185,22.330107874199928],[114.16659903292198,22.330088330919835],[114.16659021164365,22.330084563435879],[114.16661339934934,22.330037491362543],[114.16662080028546,22.330040678721463],[114.16663959286093,22.33000317146994],[114.1666193442294,22.329994695625924],[114.16662184407345,22.329989633509726],[114.16664558258333,22.329941563405928],[114.16669263088669,22.329961217625822],[114.16666638254695,22.330014378208698],[114.16661473799046,22.330118946126799]]]},"properties":{"OBJECTID":52923,"Shape__Length":50.734683247376651,"Shape__Area":77.583194541934361,"GeoRefNo":"3521521216","DateCreate":1114790400000,"BuildingBlockType":"Tower","BuildingCSUID":"3521521216T20050430","BuildingID":1108227226,"Status":"Active","BuildingNameEN":null,"BuildingNameTC":null,"BaseHeight":8.5,"TopHeight":22,"Storeys":4,"StoreysInBasement":null,"DateStamp":1599580800000}},{"type":"Feature","id":52937,"geometry":{"type":"Polygon","coordinates":[[[114.16397972192772,22.330601198053635],[114.1639900805051,22.330612578039847],[114.16397276370334,22.330626018326775],[114.16394726898056,22.330598064664795],[114.1639194546503,22.33061965520471],[114.16389052317915,22.330642112947668],[114.16391599576617,22.330670077814567],[114.16389905948202,22.330683222733509],[114.16376589638615,22.330537197841245],[114.16385713889625,22.330466476478868],[114.16395399699275,22.330572932728987],[114.16397972192772,22.330601198053635]]]},"properties":{"OBJECTID":52937,"Shape__Length":74.965149226957294,"Shape__Area":228.22136630149657,"GeoRefNo":"3492821280","DateCreate":1114790400000,"BuildingBlockType":"Tower","BuildingCSUID":"3492821280T20050430","BuildingID":1108226748,"Status":"Active","BuildingNameEN":null,"BuildingNameTC":null,"BaseHeight":5.4000000000000004,"TopHeight":27.5,"Storeys":6,"StoreysInBasement":null,"DateStamp":1599580800000}},{"type":"Feature","id":52946,"geometry":{"type":"Polygon","coordinates":[[[114.16420314978785,22.330628376083201],[114.1642739741596,22.330573316709966],[114.16432997802079,22.330636055407385],[114.16429756776203,22.330661230888822],[114.16426161127167,22.330689167098789],[114.1642216623932,22.330720197228633],[114.16420369927776,22.330734159367093],[114.16416073183915,22.330685934965249],[114.16417105268222,22.330677909300395],[114.164185322965,22.33069402729361],[114.16419195635024,22.330688790163933],[114.16417232147271,22.330666915478972],[114.16421076832403,22.330636975596573],[114.16420314978785,22.330628376083201]]]},"properties":{"OBJECTID":52946,"Shape__Length":56.573679486638852,"Shape__Area":139.80226854817184,"GeoRefNo":"3496721287","DateCreate":1114790400000,"BuildingBlockType":"Tower","BuildingCSUID":"3496721287T20050430","BuildingID":1108226721,"Status":"Active","BuildingNameEN":null,"BuildingNameTC":null,"BaseHeight":5.5,"TopHeight":26.199999999999999,"Storeys":6,"StoreysInBasement":null,"DateStamp":1599580800000}},{"type":"Feature","id":52947,"geometry":{"type":"Polygon","coordinates":[[[114.16412064269011,22.330798240655305],[114.16408086085185,22.330753969619575],[114.16407011646568,22.330742012735417],[114.16401751887786,22.330683479670022],[114.16402735309879,22.33067579208079],[114.16399770630167,22.330642462012921],[114.16401655522564,22.330627850939269],[114.16404618194096,22.330661073809164],[114.16404958109852,22.330658408791354],[114.16415326006275,22.330773005624039],[114.16412064269011,22.330798240655305]]]},"properties":{"OBJECTID":52947,"Shape__Length":51.40061319268581,"Shape__Area":84.08782017427994,"GeoRefNo":"3495021298","DateCreate":1114790400000,"BuildingBlockType":"Tower","BuildingCSUID":"3495021298T20050430","BuildingID":1108226687,"Status":"Active","BuildingNameEN":null,"BuildingNameTC":null,"BaseHeight":5.5999999999999996,"TopHeight":35.899999999999999,"Storeys":9,"StoreysInBasement":null,"DateStamp":1599580800000}},{"type":"Feature","id":52971,"geometry":{"type":"Polygon","coordinates":[[[114.1638548166014,22.329065003270227],[114.16375190005087,22.328952427239077],[114.16378744489965,22.328924790828033],[114.16388964709415,22.329037941847499],[114.1638548166014,22.329065003270227]]]},"properties":{"OBJECTID":52971,"Shape__Length":42.178920651705795,"Shape__Area":77.305027672097538,"GeoRefNo":"3492421107","DateCreate":1114790400000,"BuildingBlockType":"Tower","BuildingCSUID":"3492421107T20050430","BuildingID":1108228151,"Status":"Active","BuildingNameEN":null,"BuildingNameTC":"錦城大廈","BaseHeight":4.7999999999999998,"TopHeight":37,"Storeys":9,"StoreysInBasement":null,"DateStamp":1599580800000}},{"type":"Feature","id":52975,"geometry":{"type":"Polygon","coordinates":[[[114.16699292546005,22.330206631192222],[114.16697990495913,22.330201227313673],[114.16699292761844,22.33017585252944],[114.1669949298048,22.330171949362342],[114.16699292795401,22.330171067223855],[114.16697136321504,22.330161575403558],[114.16699293163956,22.330118510679409],[114.16699836993496,22.330107231541003],[114.16702783356826,22.330119952178613],[114.16706234862066,22.330134868088734],[114.16710064919037,22.330151338562626],[114.16707318814072,22.330205530971721],[114.16704957380244,22.330194870752024],[114.16703581037841,22.330225184321449],[114.16699292546005,22.330206631192222]]]},"properties":{"OBJECTID":52975,"Shape__Length":43.84603665314048,"Shape__Area":99.245950007259992,"GeoRefNo":"3525321236","DateCreate":1114790400000,"BuildingBlockType":"Tower","BuildingCSUID":"3525321236T20050430","BuildingID":1108227133,"Status":"Active","BuildingNameEN":"Shun Fat Mansion","BuildingNameTC":null,"BaseHeight":10.300000000000001,"TopHeight":45.600000000000001,"Storeys":12,"StoreysInBasement":null,"DateStamp":1599580800000}},{"type":"Feature","id":52995,"geometry":{"type":"Polygon","coordinates":[[[114.16408577570327,22.330825216508835],[114.16401030791792,22.330742008015552],[114.16398223649279,22.330711057176472],[114.16398715545094,22.330707198437562],[114.16395659016364,22.33067431060741],[114.16397557286408,22.330659602109233],[114.16400573996371,22.330692687493478],[114.16401751887786,22.330683479670022],[114.16407011646568,22.330742012735417],[114.16408086085185,22.330753969619575],[114.16412064269011,22.330798240655305],[114.16408577570327,22.330825216508835]]]},"properties":{"OBJECTID":52995,"Shape__Length":52.187660879395921,"Shape__Area":90.084506516331615,"GeoRefNo":"3494621301","DateCreate":1114790400000,"BuildingBlockType":"Tower","BuildingCSUID":"3494621301T20050430","BuildingID":1108226673,"Status":"Active","BuildingNameEN":null,"BuildingNameTC":null,"BaseHeight":5.5999999999999996,"TopHeight":35.899999999999999,"Storeys":9,"StoreysInBasement":null,"DateStamp":1599580800000}},{"type":"Feature","id":53003,"geometry":{"type":"Polygon","coordinates":[[[114.16356833753944,22.329937714229629],[114.16365176161823,22.329873003003069],[114.16376947768194,22.33000450151626],[114.16378490730736,22.330021754241812],[114.16372624829943,22.330066871627629],[114.1636653987498,22.329999147442411],[114.16364049650414,22.330018692655347],[114.16356833753944,22.329937714229629]]]},"properties":{"OBJECTID":53003,"Shape__Length":65.245044564848044,"Shape__Area":207.17000511622467,"GeoRefNo":"3490621214","DateCreate":1114790400000,"BuildingBlockType":"Tower","BuildingCSUID":"3490621214T20050430","BuildingID":1108227279,"Status":"Active","BuildingNameEN":null,"BuildingNameTC":"鑽石樓","BaseHeight":4.7000000000000002,"TopHeight":43.5,"Storeys":13,"StoreysInBasement":null,"DateStamp":1599580800000}},{"type":"Feature","id":53028,"geometry":{"type":"Polygon","coordinates":[[[114.1636603098042,22.328595138319251],[114.16368253391106,22.328577937131818],[114.16370541962013,22.328603215771938],[114.16372166968488,22.328590291070196],[114.16377437582199,22.328648141813794],[114.16381247164163,22.328689956210727],[114.16377250859477,22.328720789640769],[114.16370763376598,22.328648136424011],[114.1636603098042,22.328595138319251]]]},"properties":{"OBJECTID":53028,"Shape__Length":46.745893147184617,"Shape__Area":87.145093621512203,"GeoRefNo":"3491521067","DateCreate":1114790400000,"BuildingBlockType":"Tower","BuildingCSUID":"3491521067T20050430","BuildingID":1108228405,"Status":"Active","BuildingNameEN":null,"BuildingNameTC":null,"BaseHeight":4.9000000000000004,"TopHeight":31.199999999999999,"Storeys":8,"StoreysInBasement":null,"DateStamp":1599580800000}},{"type":"Feature","id":53035,"geometry":{"type":"Polygon","coordinates":[[[114.16501067610371,22.330109510479815],[114.16489176664844,22.329977573353165],[114.16491208548652,22.3299616205184],[114.16489992367626,22.329947871825944],[114.16491401979361,22.329936997603273],[114.16504497506295,22.330082815415196],[114.16501067610371,22.330109510479815]]]},"properties":{"OBJECTID":53035,"Shape__Length":51.311947670050941,"Shape__Area":91.918957719245228,"GeoRefNo":"3504121221","DateCreate":1114790400000,"BuildingBlockType":"Tower","BuildingCSUID":"3504121221T20050430","BuildingID":1108227240,"Status":"Active","BuildingNameEN":"MAN CHEONG COURT","BuildingNameTC":"文昌閣","BaseHeight":5.2999999999999998,"TopHeight":36.799999999999997,"Storeys":10,"StoreysInBasement":null,"DateStamp":1599580800000}},{"type":"Feature","id":53125,"geometry":{"type":"Polygon","coordinates":[[[114.16534418958589,22.32952776183361],[114.16523143317764,22.329402744525222],[114.16526799225903,22.329374332678263],[114.1653392723008,22.329454088091794],[114.16536990771233,22.329488366109985],[114.165399434253,22.329521403422568],[114.16537745966231,22.329538680085822],[114.16536256647454,22.329522665551362],[114.16535762339983,22.329517350342208],[114.16534418958589,22.32952776183361]]]},"properties":{"OBJECTID":53125,"Shape__Length":52.048079400551131,"Shape__Area":97.290921813107047,"GeoRefNo":"3507621157","DateCreate":1114790400000,"BuildingBlockType":"Tower","BuildingCSUID":"3507621157T20050430","BuildingID":1108227777,"Status":"Active","BuildingNameEN":null,"BuildingNameTC":null,"BaseHeight":5.4000000000000004,"TopHeight":28.600000000000001,"Storeys":6,"StoreysInBasement":null,"DateStamp":1599580800000}},{"type":"Feature","id":53126,"geometry":{"type":"Polygon","coordinates":[[[114.17067752977199,22.329444498204101],[114.17039696101955,22.32942692896636],[114.17039696480781,22.329426870990169],[114.17039810437377,22.329314586297478],[114.17077894299933,22.329333206314079],[114.17077130349595,22.329449536377403],[114.17075698919854,22.329449008636171],[114.17067752977199,22.329444498204101]]]},"properties":{"OBJECTID":53126,"Shape__Length":103.28285315935842,"Shape__Area":495.00969297279443,"GeoRefNo":"3562221147","DateCreate":1114790400000,"BuildingBlockType":"Tower","BuildingCSUID":"3562221147T20050430","BuildingID":1108227857,"Status":"Active","BuildingNameEN":"Grace Hong Kong Evangelical Church","BuildingNameTC":"香港宣教會恩磐堂","BaseHeight":9.0999999999999996,"TopHeight":42.200000000000003,"Storeys":3,"StoreysInBasement":null,"DateStamp":1599580800000}},{"type":"Feature","id":53128,"geometry":{"type":"Polygon","coordinates":[[[114.17257742121255,22.329349787377215],[114.17257996882294,22.329349748431937],[114.17258119345068,22.329470337997147],[114.17258139104963,22.3294905155763],[114.17253917140232,22.329490995974609],[114.172538882987,22.329498330606658],[114.17246604790911,22.32949934884666],[114.17246577783462,22.329459916346138],[114.17243565697662,22.329460226906672],[114.17243578239828,22.329481547846207],[114.1724096112745,22.329481877834407],[114.17240938152838,22.329435338807631],[114.17234494139292,22.329436168934311],[114.17234567289913,22.329481334965205],[114.17231308119742,22.329481862529796],[114.17231296194649,22.329459395428721],[114.17228333457501,22.329459708503276],[114.17228408802785,22.329500977386726],[114.17221322982147,22.32950154665826],[114.17221253391598,22.329493748549211],[114.17216710339095,22.32949444260332],[114.17216591826426,22.329355510476816],[114.17221282637344,22.329355282352939],[114.17221312817905,22.329345655308142],[114.17228497522815,22.329344861744662],[114.17228569949455,22.329391173937761],[114.1723108829492,22.3293908390655],[114.1723105515165,22.329362181222457],[114.17243473960414,22.329360956749831],[114.17243531419962,22.329390074346222],[114.17246296731882,22.329389751708575],[114.17246249090903,22.329343211320101],[114.17253384369261,22.329342415285041],[114.17253453834635,22.32935044240843],[114.17257742121255,22.329349787377215]]]},"properties":{"OBJECTID":53128,"Shape__Length":160.42545044503038,"Shape__Area":580.68212847599432,"GeoRefNo":"3580621150","DateCreate":1114790400000,"BuildingBlockType":"Tower","BuildingCSUID":"3580621150T20050430","BuildingID":1108227810,"Status":"Active","BuildingNameEN":"May King Court","BuildingNameTC":"美景閣","BaseHeight":14.5,"TopHeight":31.5,"Storeys":4,"StoreysInBasement":null,"DateStamp":1599580800000}},{"type":"Feature","id":53175,"geometry":{"type":"Polygon","coordinates":[[[114.16530661015317,22.329556886589188],[114.16519437823315,22.329431541753536],[114.16523143317764,22.329402744525222],[114.16534418958589,22.32952776183361],[114.16531179976691,22.329552864555794],[114.16530661015317,22.329556886589188]]]},"properties":{"OBJECTID":53175,"Shape__Length":46.149767055999547,"Shape__Area":90.458968513374174,"GeoRefNo":"3507321160","DateCreate":1114790400000,"BuildingBlockType":"Tower","BuildingCSUID":"3507321160T20050430","BuildingID":1108227754,"Status":"Active","BuildingNameEN":null,"BuildingNameTC":null,"BaseHeight":5.4000000000000004,"TopHeight":39.600000000000001,"Storeys":8,"StoreysInBasement":null,"DateStamp":1599580800000}},{"type":"Feature","id":53178,"geometry":{"type":"Polygon","coordinates":[[[114.16521236850512,22.329520130626069],[114.1651578744535,22.329459910602093],[114.16519437823315,22.329431541753536],[114.16530661015317,22.329556886589188],[114.16530109971319,22.329561157211536],[114.16527076821323,22.329584664638748],[114.16521236850512,22.329520130626069]]]},"properties":{"OBJECTID":53178,"Shape__Length":45.829580211610008,"Shape__Area":87.654005683328123,"GeoRefNo":"3506821162","DateCreate":1114790400000,"BuildingBlockType":"Tower","BuildingCSUID":"3506821162T20050430","BuildingID":1108227734,"Status":"Active","BuildingNameEN":null,"BuildingNameTC":null,"BaseHeight":5.2000000000000002,"TopHeight":39.600000000000001,"Storeys":8,"StoreysInBasement":null,"DateStamp":1599580800000}},{"type":"Feature","id":53189,"geometry":{"type":"Polygon","coordinates":[[[114.1643991516468,22.329540047298167],[114.16426941104444,22.32939464797813],[114.16430081104629,22.329370463436362],[114.16442211244437,22.329505372792745],[114.16440041772964,22.329522046192302],[114.16440950354443,22.329532088265022],[114.1643991516468,22.329540047298167]]]},"properties":{"OBJECTID":53189,"Shape__Length":50.338252203467107,"Shape__Area":84.498828966622796,"GeoRefNo":"3497821157","DateCreate":1114790400000,"BuildingBlockType":"Tower","BuildingCSUID":"3497821157T20050430","BuildingID":1108227774,"Status":"Active","BuildingNameEN":null,"BuildingNameTC":null,"BaseHeight":4.9000000000000004,"TopHeight":27.100000000000001,"Storeys":6,"StoreysInBasement":null,"DateStamp":1599580800000}},{"type":"Feature","id":53286,"geometry":{"type":"Polygon","coordinates":[[[114.16373667016826,22.328748440655104],[114.16364738404154,22.328649489192884],[114.16366567358148,22.328635432227482],[114.16364207666011,22.328609240261006],[114.1636603098042,22.328595138319251],[114.16370763376598,22.328648136424011],[114.16377250859477,22.328720789640769],[114.16373667016826,22.328748440655104]]]},"properties":{"OBJECTID":53286,"Shape__Length":45.863271082887621,"Shape__Area":78.347559174021981,"GeoRefNo":"3491121071","DateCreate":1114790400000,"BuildingBlockType":"Tower","BuildingCSUID":"3491121071T20050430","BuildingID":1108228384,"Status":"Active","BuildingNameEN":null,"BuildingNameTC":null,"BaseHeight":4.9000000000000004,"TopHeight":30.100000000000001,"Storeys":8,"StoreysInBasement":null,"DateStamp":1599580800000}},{"type":"Feature","id":53288,"geometry":{"type":"Polygon","coordinates":[[[114.1634457925141,22.328674166261411],[114.16342251204945,22.328648113089343],[114.16335940549254,22.328577490405724],[114.16339582291501,22.328549174510023],[114.16348326821257,22.32864528394526],[114.16346339082236,22.328660607117907],[114.16348686858228,22.328689225166755],[114.16347511155189,22.328698346442795],[114.16345024186612,22.328670734645645],[114.1634457925141,22.328674166261411]]]},"properties":{"OBJECTID":53288,"Shape__Length":45.562598418330687,"Shape__Area":75.635326129073704,"GeoRefNo":"3488221064","DateCreate":1114790400000,"BuildingBlockType":"Tower","BuildingCSUID":"3488221064T20050430","BuildingID":1108228421,"Status":"Active","BuildingNameEN":null,"BuildingNameTC":null,"BaseHeight":4.5999999999999996,"TopHeight":36.799999999999997,"Storeys":9,"StoreysInBasement":null,"DateStamp":1599580800000}},{"type":"Feature","id":53293,"geometry":{"type":"Polygon","coordinates":[[[114.16636856517312,22.328712778855703],[114.16630981472876,22.328646832012701],[114.16626458622592,22.328596287149296],[114.16642255869478,22.328473304967595],[114.16655567987021,22.328620926035054],[114.16643384874617,22.328715386031835],[114.16640525868591,22.328684143522306],[114.16641676217763,22.328675083786528],[114.16638165822664,22.328635916516536],[114.16637195814157,22.328643473677037],[114.16635660566554,22.328655434507009],[114.16636511321606,22.328664556668862],[114.16635302566863,22.328673703327752],[114.1663719543221,22.328694710140145],[114.16638020930704,22.328703871387287],[114.16636856517312,22.328712778855703]]]},"properties":{"OBJECTID":53293,"Shape__Length":99.6297697752685,"Shape__Area":405.1014611120342,"GeoRefNo":"3518521059","DateCreate":1114790400000,"BuildingBlockType":"Tower","BuildingCSUID":"3518521059T20050430","BuildingID":1108228411,"Status":"Active","BuildingNameEN":"Shun Tai Building","BuildingNameTC":"順泰大廈","BaseHeight":5.5999999999999996,"TopHeight":39.799999999999997,"Storeys":10,"StoreysInBasement":null,"DateStamp":1599580800000}},{"type":"Feature","id":53301,"geometry":{"type":"Polygon","coordinates":[[[114.165739973718,22.330955296703401],[114.1656873158994,22.330914481184546],[114.16565829038643,22.330891983194981],[114.16568089305531,22.330866532779822],[114.16568640543603,22.330860325898396],[114.16576773677595,22.330923875337973],[114.165739973718,22.330955296703401]]]},"properties":{"OBJECTID":53301,"Shape__Length":30.946402999423054,"Shape__Area":49.543876656137286,"GeoRefNo":"3511921319","DateCreate":1114790400000,"BuildingBlockType":"Tower","BuildingCSUID":"3511921319T20050430","BuildingID":1108226595,"Status":"Active","BuildingNameEN":null,"BuildingNameTC":null,"BaseHeight":5.9000000000000004,"TopHeight":28.699999999999999,"Storeys":7,"StoreysInBasement":null,"DateStamp":1599580800000}},{"type":"Feature","id":53369,"geometry":{"type":"Polygon","coordinates":[[[114.16583210296614,22.330974081443635],[114.16576773677595,22.330923875337973],[114.16579594200574,22.33089193067557],[114.16580114121795,22.330895908549085],[114.16586752724946,22.330946614621002],[114.16583210296614,22.330974081443635]]]},"properties":{"OBJECTID":53369,"Shape__Length":27.524141370377635,"Shape__Area":42.06785160277817,"GeoRefNo":"3512821321","DateCreate":1114790400000,"BuildingBlockType":"Tower","BuildingCSUID":"3512821321T20050430","BuildingID":1108226581,"Status":"Active","BuildingNameEN":null,"BuildingNameTC":null,"BaseHeight":6.2000000000000002,"TopHeight":30.899999999999999,"Storeys":7,"StoreysInBasement":null,"DateStamp":1599580800000}},{"type":"Feature","id":53371,"geometry":{"type":"Polygon","coordinates":[[[114.16528557154668,22.330967295602679],[114.16527424007374,22.330976541207448],[114.16527032522879,22.330978991195902],[114.16526808647752,22.33097994936152],[114.16526574786296,22.330980672273292],[114.16526333782667,22.33098115126397],[114.16526088578065,22.330981380375416],[114.16525842171909,22.330981356900601],[114.16525597553877,22.330981081112562],[114.1652535772334,22.330980556354795],[114.1652512561169,22.330979789041088],[114.1652490403381,22.330978788565261],[114.16524695697794,22.330977567030228],[114.1652450314669,22.330976139428593],[114.16524328739101,22.330974523191063],[114.16524174600643,22.330972737915513],[114.1652396520235,22.33096968181701],[114.16523858668204,22.330967617801431],[114.16523773140192,22.330965470990435],[114.16523709355876,22.33096325971664],[114.16523667868383,22.330961003034957],[114.16523649027,22.330958720180803],[114.16523652996575,22.330956430840928],[114.16523679738118,22.330954154611714],[114.16523729028216,22.330951910908691],[114.16523800449313,22.330949719147352],[114.16523893370314,22.33094759793023],[114.16524007014526,22.330945565588834],[114.16524140391715,22.330943639461186],[114.16523913134503,22.330942752585877],[114.16523704002476,22.330941545137854],[114.16523517965258,22.330940046740992],[114.16523359681788,22.330938294694942],[114.16523233092649,22.330936332710515],[114.16523141361843,22.330934209826079],[114.1652308677002,22.330931979052771],[114.16522951973171,22.330928334936058],[114.16523085701908,22.330927327941311],[114.16523239321047,22.330926171053157],[114.16524073970422,22.330919885823675],[114.16526079815057,22.33094109774477],[114.16528557154668,22.330967295602679]]]},"properties":{"OBJECTID":53371,"Shape__Length":19.462944345139164,"Shape__Area":19.938492605749023,"GeoRefNo":"3507121324","DateCreate":1114790400000,"BuildingBlockType":"Tower","BuildingCSUID":"3507121324T20050430","BuildingID":1108226571,"Status":"Active","BuildingNameEN":null,"BuildingNameTC":null,"BaseHeight":5.7999999999999998,"TopHeight":10.4,"Storeys":null,"StoreysInBasement":null,"DateStamp":1361808000000}},{"type":"Feature","id":53410,"geometry":{"type":"Polygon","coordinates":[[[114.16467859972114,22.328713769831676],[114.16461765786362,22.32864636214655],[114.1645702221775,22.328593893581399],[114.16455975958499,22.328582115011624],[114.16456905846341,22.328574889803171],[114.16459888514241,22.328607897215981],[114.1646092571566,22.328599858340294],[114.16457977964708,22.32856657913517],[114.16459544988001,22.328554443484663],[114.16467730060288,22.328646366629499],[114.16471337870584,22.328686836641698],[114.16467859972114,22.328713769831676]]]},"properties":{"OBJECTID":53410,"Shape__Length":57.029913654121827,"Shape__Area":83.297865759872579,"GeoRefNo":"3500821067","DateCreate":1114790400000,"BuildingBlockType":"Tower","BuildingCSUID":"3500821067T20050430","BuildingID":1108228413,"Status":"Active","BuildingNameEN":"Wing Wah Building","BuildingNameTC":"榮華樓","BaseHeight":5.0999999999999996,"TopHeight":51.600000000000001,"Storeys":15,"StoreysInBasement":null,"DateStamp":1599580800000}},{"type":"Feature","id":53412,"geometry":{"type":"Polygon","coordinates":[[[114.1638532672238,22.328542456812539],[114.16392261992313,22.328488588323612],[114.1639842146936,22.32855744753779],[114.16394437888759,22.328588184574173],[114.16389737354666,22.328624445669131],[114.16386665674085,22.328648149220747],[114.16384296781816,22.32866642947068],[114.16383283649992,22.328674243725931],[114.16380921720697,22.328648144616526],[114.16378121681092,22.328617204396657],[114.16386254335863,22.32855272469692],[114.1638532672238,22.328542456812539]]]},"properties":{"OBJECTID":53412,"Shape__Length":60.238694420073699,"Shape__Area":183.62553556253292,"GeoRefNo":"3492921060","DateCreate":1114790400000,"BuildingBlockType":"Tower","BuildingCSUID":"3492921060T20050430","BuildingID":1108228441,"Status":"Active","BuildingNameEN":null,"BuildingNameTC":null,"BaseHeight":4.9000000000000004,"TopHeight":34,"Storeys":9,"StoreysInBasement":null,"DateStamp":1599580800000}},{"type":"Feature","id":53413,"geometry":{"type":"Polygon","coordinates":[[[114.16464088718671,22.328742974888378],[114.16455211845914,22.328644114449538],[114.16457394262342,22.328627209944948],[114.16455457929834,22.328606169205525],[114.1645702221775,22.328593893581399],[114.16461765786362,22.32864636214655],[114.16467859972114,22.328713769831676],[114.16464088718671,22.328742974888378]]]},"properties":{"OBJECTID":53413,"Shape__Length":44.766634587188179,"Shape__Area":78.206728023534325,"GeoRefNo":"3500421070","DateCreate":1114790400000,"BuildingBlockType":"Tower","BuildingCSUID":"3500421070T20050430","BuildingID":1108228389,"Status":"Active","BuildingNameEN":"Wing Wah Building","BuildingNameTC":"榮華樓","BaseHeight":5.0999999999999996,"TopHeight":51.600000000000001,"Storeys":15,"StoreysInBasement":null,"DateStamp":1599580800000}},{"type":"Feature","id":53417,"geometry":{"type":"Polygon","coordinates":[[[114.17221389280704,22.328689771527642],[114.17221308306235,22.328528145540172],[114.17234072791031,22.328526708838382],[114.17234106208711,22.328554679095731],[114.17240846485458,22.328553863771116],[114.17240812725258,22.328526351996565],[114.17253502982635,22.328525140795833],[114.17253682632058,22.328687000971033],[114.17241140580695,22.32868799006118],[114.17241105951466,22.328662083021683],[114.17234168110193,22.328663118006748],[114.17234202865062,22.328688795759913],[114.17221389280704,22.328689771527642]]]},"properties":{"OBJECTID":53417,"Shape__Length":114.12099264906266,"Shape__Area":553.54337442789324,"GeoRefNo":"3580521064","DateCreate":1114790400000,"BuildingBlockType":"Tower","BuildingCSUID":"3580521064T20050430","BuildingID":1108228430,"Status":"Active","BuildingNameEN":"Armagna Court","BuildingNameTC":"蘭香閣","BaseHeight":20.100000000000001,"TopHeight":30.899999999999999,"Storeys":4,"StoreysInBasement":null,"DateStamp":1599580800000}},{"type":"Feature","id":53426,"geometry":{"type":"Polygon","coordinates":[[[114.16582992624365,22.33086365471301],[114.16574277023902,22.330796859314745],[114.16574850889579,22.330790437247874],[114.16577260338534,22.330763473215498],[114.16582742670055,22.330806152947076],[114.16586420870571,22.330834787621523],[114.16583504770925,22.3308675737008],[114.16582992624365,22.33086365471301]]]},"properties":{"OBJECTID":53426,"Shape__Length":34.141802967641723,"Shape__Area":58.60254089302947,"GeoRefNo":"3512821308","DateCreate":1114790400000,"BuildingBlockType":"Tower","BuildingCSUID":"3512821308T20050430","BuildingID":1108226647,"Status":"Active","BuildingNameEN":null,"BuildingNameTC":null,"BaseHeight":6.2000000000000002,"TopHeight":30.600000000000001,"Storeys":7,"StoreysInBasement":null,"DateStamp":1599580800000}},{"type":"Feature","id":53434,"geometry":{"type":"Polygon","coordinates":[[[114.17065908019782,22.330841668043984],[114.17066200013213,22.33076782870047],[114.17067490145817,22.330768268709431],[114.17067568653802,22.330748414914858],[114.17069508691249,22.330749078856396],[114.17069526250765,22.330744640422374],[114.17066781010431,22.330717149477014],[114.17066594941987,22.330717085740638],[114.17066523566571,22.330735134685863],[114.17062061476092,22.330733607536384],[114.17062010079529,22.330746606045846],[114.17053086267317,22.33074345797251],[114.17053130162569,22.33073235786933],[114.17050996126569,22.330731627457773],[114.17051246639272,22.330668943035775],[114.17053378053501,22.330669672542932],[114.17053457593512,22.330649558307233],[114.17062378672583,22.330652611737008],[114.17062997991512,22.330652761249599],[114.17062946177215,22.330665863881666],[114.1706527190085,22.330666659912588],[114.17065764381741,22.330662403264547],[114.17065794766737,22.33065292604164],[114.17066801161673,22.33064422753597],[114.17067826677913,22.33064457858309],[114.17068194799828,22.330648265006339],[114.17069183517927,22.33063971938023],[114.17069237477341,22.330624279724418],[114.17069565792531,22.33054125457436],[114.17069651386004,22.330521402949152],[114.17078430127586,22.330524407561896],[114.17078025582357,22.330627353426848],[114.17076732830206,22.33062691098705],[114.17076654585951,22.3306466990398],[114.17074714549888,22.330646035016535],[114.17074696990548,22.330650473540953],[114.1707744223113,22.330677964473157],[114.17077628299526,22.330678028208268],[114.17077694445544,22.330661302150421],[114.17082156524187,22.330662829347144],[114.17082212524834,22.330648667157842],[114.17091136700928,22.330651721514148],[114.1709328071472,22.330652389294556],[114.17092883740847,22.330746280199982],[114.17081846605129,22.330742568728176],[114.17079639465624,22.330742220411135],[114.17079673160349,22.330728079345292],[114.17078273681982,22.330727530035219],[114.17078096129154,22.330729064716341],[114.1707845959252,22.330732704357061],[114.1707842186008,22.330742245152663],[114.17077422794033,22.330750880183185],[114.1707639727699,22.330750529232454],[114.17076012595589,22.330746677003429],[114.17075016091474,22.330755420490714],[114.17074988544836,22.330770835141653],[114.17074660086713,22.330853860290436],[114.17073466962532,22.330853451930732],[114.17073388455323,22.330873305815626],[114.1707085765364,22.330872465649676],[114.17070917085783,22.330857436345955],[114.17069559063367,22.330856971570231],[114.17069499572777,22.330872014780972],[114.17066983224491,22.33087117940066],[114.17067064829347,22.330851260677647],[114.17065987662002,22.330850892000775],[114.17065871705209,22.330850852312356],[114.17065908019782,22.330841668043984]]]},"properties":{"OBJECTID":53434,"Shape__Length":195.91208704110645,"Shape__Area":656.29512146449008,"GeoRefNo":"3563421295","DateCreate":1114790400000,"BuildingBlockType":"Tower","BuildingCSUID":"3563421295T20050430","BuildingID":1108226644,"Status":"Active","BuildingNameEN":"Tung Kin House","BuildingNameTC":"東健樓","BaseHeight":9.3000000000000007,"TopHeight":70.799999999999997,"Storeys":21,"StoreysInBasement":null,"DateStamp":1786636800000}},{"type":"Feature","id":53436,"geometry":{"type":"Polygon","coordinates":[[[114.16583504770925,22.3308675737008],[114.16586420870571,22.330834787621523],[114.16593783167761,22.330892102734087],[114.16590270106923,22.330919341931128],[114.16583504770925,22.3308675737008]]]},"properties":{"OBJECTID":53436,"Shape__Length":28.337905902912965,"Shape__Area":44.18690973436275,"GeoRefNo":"3513521314","DateCreate":1114790400000,"BuildingBlockType":"Tower","BuildingCSUID":"3513521314T20050430","BuildingID":1108226621,"Status":"Active","BuildingNameEN":null,"BuildingNameTC":null,"BaseHeight":6.5,"TopHeight":28.199999999999999,"Storeys":7,"StoreysInBasement":null,"DateStamp":1599580800000}},{"type":"Feature","id":53438,"geometry":{"type":"Polygon","coordinates":[[[114.1644346038461,22.330820437217348],[114.16440250557008,22.33084525901516],[114.16436202724698,22.330876564661452],[114.16434749703117,22.33086094316549],[114.1643313058205,22.330873390935487],[114.16431857674091,22.330859464615958],[114.16434858240234,22.330836289309929],[114.16438516803608,22.330808037600956],[114.16444521570827,22.330761653818804],[114.16447192771105,22.330791574806966],[114.1644346038461,22.330820437217348]]]},"properties":{"OBJECTID":53438,"Shape__Length":42.462185449004153,"Shape__Area":68.031101365487785,"GeoRefNo":"3498521305","DateCreate":1114790400000,"BuildingBlockType":"Tower","BuildingCSUID":"3498521305T20050430","BuildingID":1108226642,"Status":"Active","BuildingNameEN":null,"BuildingNameTC":null,"BaseHeight":5.5,"TopHeight":25.699999999999999,"Storeys":6,"StoreysInBasement":null,"DateStamp":1599580800000}},{"type":"Feature","id":53483,"geometry":{"type":"Polygon","coordinates":[[[114.16405323897506,22.330850391027788],[114.16395020900077,22.330736100320514],[114.16396043541054,22.330728100308459],[114.16392982111959,22.33069506310364],[114.16394697164355,22.330681773257684],[114.16397729909015,22.330714930543326],[114.16398223649279,22.330711057176472],[114.16401030791792,22.330742008015552],[114.16408577570327,22.330825216508835],[114.16405323897506,22.330850391027788]]]},"properties":{"OBJECTID":53483,"Shape__Length":51.410415846810928,"Shape__Area":82.670487414570061,"GeoRefNo":"3494321304","DateCreate":1114790400000,"BuildingBlockType":"Tower","BuildingCSUID":"3494321304T20050430","BuildingID":1108226656,"Status":"Active","BuildingNameEN":null,"BuildingNameTC":null,"BaseHeight":5.5999999999999996,"TopHeight":35.899999999999999,"Storeys":9,"StoreysInBasement":null,"DateStamp":1599580800000}},{"type":"Feature","id":53492,"geometry":{"type":"Polygon","coordinates":[[[114.16577260338534,22.330763473215498],[114.16586293365613,22.330661824352305],[114.16586511670158,22.330659367730231],[114.16587137400762,22.330666242051723],[114.16601410877077,22.330823052791349],[114.1660193908388,22.330828855744009],[114.16601561147962,22.330831794584945],[114.1659497924887,22.330882828769038],[114.16587370770132,22.330824107524172],[114.16588684306922,22.330809336005604],[114.16584998248545,22.33078137817299],[114.16582742670055,22.330806152947076],[114.16577260338534,22.330763473215498]]]},"properties":{"OBJECTID":53492,"Shape__Length":77.052390858424531,"Shape__Area":267.0366760707995,"GeoRefNo":"3513221299","DateCreate":1114790400000,"BuildingBlockType":"Tower","BuildingCSUID":"3513221299T20050430","BuildingID":1108226640,"Status":"Active","BuildingNameEN":"Pak Far Building","BuildingNameTC":"白花大廈","BaseHeight":5.9000000000000004,"TopHeight":32.799999999999997,"Storeys":8,"StoreysInBasement":null,"DateStamp":1599580800000}},{"type":"Feature","id":53497,"geometry":{"type":"Polygon","coordinates":[[[114.16359148137707,22.330125289807704],[114.16348283143435,22.330004032955845],[114.16356833753944,22.329937714229629],[114.16364049650414,22.330018692655347],[114.16367721018719,22.33005989351723],[114.16365703937166,22.330075284145519],[114.16368120661488,22.330101501527405],[114.16363394443084,22.330137876122851],[114.16361031559276,22.330110932628831],[114.16359148137707,22.330125289807704]]]},"properties":{"OBJECTID":53497,"Shape__Length":65.714100141456015,"Shape__Area":224.67173573847691,"GeoRefNo":"3489821221","DateCreate":1114790400000,"BuildingBlockType":"Tower","BuildingCSUID":"3489821221T20050430","BuildingID":1108227208,"Status":"Active","BuildingNameEN":null,"BuildingNameTC":"協興大廈","BaseHeight":4.5999999999999996,"TopHeight":42.799999999999997,"Storeys":13,"StoreysInBasement":null,"DateStamp":1599580800000}},{"type":"Feature","id":60229,"geometry":{"type":"Polygon","coordinates":[[[114.16878778259338,22.335490503715079],[114.16882524845521,22.335551371655825],[114.16886057848173,22.33561765782822],[114.16886659615488,22.335630391236762],[114.16888445472692,22.335674100102938],[114.16890046892067,22.335718531322769],[114.16895306720708,22.335971028796653],[114.16896607106472,22.336036591409652],[114.16900662616487,22.336232918090776],[114.16901121639974,22.336255142559086],[114.16901410834623,22.33626913106032],[114.16899614997344,22.336272200588716],[114.16895198206315,22.336280055047951],[114.16884322112099,22.336299647968623],[114.16882519584149,22.336303013587347],[114.16881364422628,22.336305126170899],[114.16879054099429,22.336309360366137],[114.16877899908518,22.336311472947685],[114.16863853533168,22.336336390295596],[114.16861708231325,22.336340452968571],[114.16861662620406,22.336338294637876],[114.16860995922376,22.336307156875165],[114.16860863941454,22.336300988925078],[114.16860844532472,22.336300085857673],[114.16859097659913,22.336229917397567],[114.16855041218801,22.336036751313607],[114.16850994564007,22.335832116388314],[114.16823098501195,22.335480089958825],[114.1682130261904,22.335491828754169],[114.16818604265113,22.335456969291567],[114.16826079017132,22.335407756619723],[114.16834194454763,22.335354570795118],[114.1684028104211,22.335312491484917],[114.168482314627,22.335256957553568],[114.16851114579616,22.335237001461714],[114.16854997562123,22.335210453554851],[114.1686477193653,22.33531972849903],[114.1687442012895,22.335429906377481],[114.16875711073072,22.335446794199381],[114.16878778259338,22.335490503715079]]]},"properties":{"OBJECTID":60229,"Shape__Length":330.3589209617956,"Shape__Area":5203.4868699938379,"GeoRefNo":"3542021857","DateCreate":1142006400000,"BuildingBlockType":"Podium","BuildingCSUID":"3542021857P20060311","BuildingID":1108245496,"Status":"Active","BuildingNameEN":null,"BuildingNameTC":null,"BaseHeight":21.800000000000001,"TopHeight":33.100000000000001,"Storeys":null,"StoreysInBasement":null,"DateStamp":1366819200000}},{"type":"Feature","id":61298,"geometry":{"type":"Polygon","coordinates":[[[114.16371940394922,22.334111387346642],[114.16371915232585,22.33411158274798],[114.16381359429356,22.334216397261493],[114.16381580793963,22.334218854027373],[114.16373671020337,22.334280265247038],[114.16341206704153,22.333919965410026],[114.16344267685507,22.333896170381632],[114.16344150146534,22.333894865907801],[114.16343561549056,22.333888333423612],[114.16343436681132,22.333886697780997],[114.16343341595685,22.333884872841995],[114.1634327908907,22.333882912276032],[114.16343250999536,22.333880873741165],[114.16343258153168,22.333878817188431],[114.16343300339582,22.333876803098754],[114.16343376318126,22.333874890704262],[114.16343483854355,22.333873136246353],[114.16343619785746,22.333871591321675],[114.16346490562067,22.333849364110971],[114.16347211635687,22.333857392347703],[114.16347347382963,22.333858903636553],[114.16348406268334,22.333850672233908],[114.16360444046839,22.33398427180671],[114.16360607136055,22.333982999892569],[114.16361572808593,22.333975469178256],[114.1636180778013,22.333974677896933],[114.16362052350759,22.333974270700107],[114.1636230028475,22.333974257969938],[114.16362545260624,22.333974640030995],[114.16362781032318,22.333975407142006],[114.16363001588448,22.333976539744231],[114.16363201305577,22.33397800896012],[114.16363375091589,22.333979777329617],[114.16365567394574,22.334004409653812],[114.16370808681792,22.333963526519465],[114.16370849298745,22.333963209669353],[114.16355644820246,22.333794504189843],[114.16355639404328,22.333794444132071],[114.16356713947209,22.333786091004548],[114.16356583518764,22.333784638871119],[114.16355878867429,22.333776793611445],[114.16355872539157,22.333776723167755],[114.16358730109162,22.333754598150428],[114.1635886902083,22.333753369582585],[114.16359026831999,22.333752395627968],[114.16359198928731,22.333751704762165],[114.16359380279421,22.33375131718407],[114.16359565581907,22.333751244225336],[114.16359749418484,22.333751488019065],[114.16359926414309,22.333752041437435],[114.1636009139454,22.333752888300115],[114.16360239535639,22.333754003847314],[114.16360366506393,22.333755355463698],[114.16360468594549,22.333756903631951],[114.16361173411039,22.333764750786184],[114.16364227425218,22.333741009897381],[114.16396708036898,22.334101406553476],[114.16388822186548,22.33416263210805],[114.16388365859154,22.334157568840372],[114.16379155303254,22.334055371074577],[114.16371940394922,22.334111387346642]]]},"properties":{"OBJECTID":61298,"Shape__Length":251.89522496474984,"Shape__Area":1273.7663323674317,"GeoRefNo":"3491021646","DateCreate":1382025600000,"BuildingBlockType":"Tower","BuildingCSUID":"3491021646T20131018","BuildingID":1108224856,"Status":"Active","BuildingNameEN":"YHA Mei Ho House Youth Hostel","BuildingNameTC":"ＹＨＡ美荷樓青年旅舍","BaseHeight":15.6,"TopHeight":31.5,"Storeys":null,"StoreysInBasement":null,"DateStamp":1386345600000}},{"type":"Feature","id":61299,"geometry":{"type":"Polygon","coordinates":[[[114.16400870167178,22.334068699473132],[114.16400890908886,22.334068930762651],[114.16398821737685,22.334084995786675],[114.16395536986012,22.334048549108868],[114.16395651449233,22.334047656256256],[114.16397611176609,22.334032369946442],[114.16400870167178,22.334068699473132]]]},"properties":{"OBJECTID":61299,"Shape__Length":16.104959136067546,"Shape__Area":14.663626561319663,"GeoRefNo":"3494021667","DateCreate":1382025600000,"BuildingBlockType":"Tower","BuildingCSUID":"3494021667T20131018","BuildingID":1810106359,"Status":"Active","BuildingNameEN":"YHA MEI HO HOUSE YOUTH HOSTEL","BuildingNameTC":"YHA 美荷樓青年旅舍","BaseHeight":15.6,"TopHeight":18.800000000000001,"Storeys":null,"StoreysInBasement":null,"DateStamp":1386345600000}},{"type":"Feature","id":62385,"geometry":{"type":"Polygon","coordinates":[[[114.16616674484719,22.329607252582452],[114.1660975275455,22.329661477567313],[114.1660860251214,22.329670480747904],[114.16607470139903,22.329657918817237],[114.16602289334035,22.329698529153216],[114.16600101255403,22.329674454596997],[114.16599180082875,22.329681856350039],[114.16592693899383,22.329610095619763],[114.16606937113959,22.329500146411974],[114.16616674484719,22.329607252582452]]]},"properties":{"OBJECTID":62385,"Shape__Length":69.394229950488864,"Shape__Area":278.49928973130892,"GeoRefNo":"3515621173","DateCreate":1114790400000,"BuildingBlockType":"Tower","BuildingCSUID":"3515621173T20050430","BuildingID":1108227630,"Status":"Active","BuildingNameEN":null,"BuildingNameTC":"崇德大廈","BaseHeight":5.5999999999999996,"TopHeight":39.899999999999999,"Storeys":11,"StoreysInBasement":null,"DateStamp":1599580800000}},{"type":"Feature","id":62386,"geometry":{"type":"Polygon","coordinates":[[[114.16550381973525,22.329566308371508],[114.16545646634701,22.329513280813114],[114.16547217128361,22.329500887710115],[114.16550629503305,22.329538658073222],[114.16552514249743,22.329523915156013],[114.16554353361838,22.329509532886295],[114.1655093662966,22.329471594920218],[114.16553015395571,22.329455200263521],[114.16556446318867,22.329493162346829],[114.16558336082736,22.329478381317188],[114.16557232882215,22.329466176169721],[114.16557866417709,22.329461224960312],[114.16560275762798,22.329442366709756],[114.16559042688681,22.329428771124935],[114.16561067635438,22.32941285684754],[114.16562153849677,22.329404350970322],[114.16562521204348,22.329408448851463],[114.16563382564705,22.329418057355085],[114.16565983422967,22.32939769798406],[114.16577005341999,22.329518784982696],[114.16568742161054,22.329583644284902],[114.16567848140096,22.329590661065147],[114.16558857845692,22.329661221545337],[114.16550381973525,22.329566308371508]]]},"properties":{"OBJECTID":62386,"Shape__Length":109.75423854420998,"Shape__Area":442.03544394577222,"GeoRefNo":"3511021165","DateCreate":1114790400000,"BuildingBlockType":"Tower","BuildingCSUID":"3511021165T20050430","BuildingID":1108227669,"Status":"Active","BuildingNameEN":"Sun Wing Building","BuildingNameTC":"新榮大樓","BaseHeight":5.5,"TopHeight":35.799999999999997,"Storeys":10,"StoreysInBasement":null,"DateStamp":1599580800000}},{"type":"Feature","id":62387,"geometry":{"type":"Polygon","coordinates":[[[114.1657811103093,22.329327464795082],[114.16586156859501,22.329265220823761],[114.16595699874004,22.329371912578193],[114.16578652777002,22.329504014961952],[114.16572594527665,22.329436285693596],[114.16573564195434,22.329428761714528],[114.16571999776448,22.32941112364303],[114.16575004470619,22.329388127062167],[114.16576599703031,22.329405211938315],[114.16583517294187,22.329351514747497],[114.16582440404983,22.329339594459437],[114.16580528979652,22.329354453256034],[114.1657811103093,22.329327464795082]]]},"properties":{"OBJECTID":62387,"Shape__Length":86.574095525257206,"Shape__Area":289.35712073401186,"GeoRefNo":"3513221152","DateCreate":1114790400000,"BuildingBlockType":"Tower","BuildingCSUID":"3513221152T20050430","BuildingID":1108227805,"Status":"Active","BuildingNameEN":null,"BuildingNameTC":null,"BaseHeight":5.5999999999999996,"TopHeight":29.899999999999999,"Storeys":8,"StoreysInBasement":null,"DateStamp":1599580800000}},{"type":"Feature","id":62388,"geometry":{"type":"Polygon","coordinates":[[[114.16566116547287,22.329363877548303],[114.16564776041385,22.329348892448127],[114.16566469791601,22.329335874765771],[114.1656582133382,22.329329142651229],[114.16567791519071,22.32931373900697],[114.16566870426949,22.329303798500202],[114.1658030954317,22.329199847172074],[114.16583223213388,22.329232422375824],[114.16566116547287,22.329363877548303]]]},"properties":{"OBJECTID":62388,"Shape__Length":55.084084044183825,"Shape__Area":97.069395939969027,"GeoRefNo":"3512121137","DateCreate":1114790400000,"BuildingBlockType":"Tower","BuildingCSUID":"3512121137T20050430","BuildingID":1108227934,"Status":"Active","BuildingNameEN":null,"BuildingNameTC":null,"BaseHeight":5.5,"TopHeight":37.700000000000003,"Storeys":9,"StoreysInBasement":null,"DateStamp":1599580800000}},{"type":"Feature","id":62389,"geometry":{"type":"Polygon","coordinates":[[[114.16566116547287,22.329363877548303],[114.16583223213388,22.329232422375824],[114.16586156859501,22.329265220823761],[114.1657811103093,22.329327464795082],[114.16570735015237,22.329384526985578],[114.16569196087099,22.329366849736051],[114.16567533671024,22.32937972006366],[114.16566116547287,22.329363877548303]]]},"properties":{"OBJECTID":62389,"Shape__Length":55.275555789666456,"Shape__Area":103.29438109897906,"GeoRefNo":"3512421140","DateCreate":1114790400000,"BuildingBlockType":"Tower","BuildingCSUID":"3512421140T20050430","BuildingID":1108227923,"Status":"Active","BuildingNameEN":null,"BuildingNameTC":null,"BaseHeight":5.5,"TopHeight":37.600000000000001,"Storeys":9,"StoreysInBasement":null,"DateStamp":1599580800000}},{"type":"Feature","id":62390,"geometry":{"type":"Polygon","coordinates":[[[114.16560040024299,22.329295950449517],[114.16577075418272,22.329163689311891],[114.1658030954317,22.329199847172074],[114.16566870426949,22.329303798500202],[114.16564927103013,22.329318830011548],[114.16563078972449,22.329298523649634],[114.16561428893165,22.329311471462006],[114.16560040024299,22.329295950449517]]]},"properties":{"OBJECTID":62390,"Shape__Length":56.083150757100498,"Shape__Area":112.01504481094874,"GeoRefNo":"3511821133","DateCreate":1114790400000,"BuildingBlockType":"Tower","BuildingCSUID":"3511821133T20050430","BuildingID":1108227962,"Status":"Active","BuildingNameEN":null,"BuildingNameTC":null,"BaseHeight":5.5999999999999996,"TopHeight":37.799999999999997,"Storeys":9,"StoreysInBasement":null,"DateStamp":1599580800000}}]}