{"type":"FeatureCollection","features":[{"type":"Feature","id":4289,"geometry":{"type":"Polygon","coordinates":[[[114.16675139943224,22.443692603284166],[114.16676322371538,22.44371587126362],[114.16676570242028,22.443720894428864],[114.16671984006153,22.443741582322264],[114.16670538037047,22.443713481254836],[114.16675139943224,22.443692603284166]]]},"properties":{"OBJECTID":4289,"Shape__Length":17.429716234960896,"Shape__Area":18.182450563766629,"GeoRefNo":"3522433810","DateCreate":1561564800000,"BuildingBlockType":"Tower","BuildingCSUID":"3522433810T20190627","BuildingID":1106130464,"Status":"Active","BuildingNameEN":null,"BuildingNameTC":null,"BaseHeight":11.1,"TopHeight":14.4,"Storeys":null,"StoreysInBasement":null,"DateStamp":1561564800000}},{"type":"Feature","id":6308,"geometry":{"type":"Polygon","coordinates":[[[114.16589719912331,22.444998773668619],[114.16588181474462,22.444969213237954],[114.16586596141337,22.444937582903307],[114.16592411292865,22.444913728655113],[114.16593817462164,22.444943733561939],[114.16595224723626,22.444975777725418],[114.16589719912331,22.444998773668619]]]},"properties":{"OBJECTID":6308,"Shape__Length":27.712722533018567,"Shape__Area":47.94636286954119,"GeoRefNo":"3514033949","DateCreate":1114790400000,"BuildingBlockType":"Tower","BuildingCSUID":"3514033949T20050430","BuildingID":1106129959,"Status":"Active","BuildingNameEN":null,"BuildingNameTC":null,"BaseHeight":7.5999999999999996,"TopHeight":17.100000000000001,"Storeys":null,"StoreysInBasement":null,"DateStamp":1611072000000}},{"type":"Feature","id":6311,"geometry":{"type":"Polygon","coordinates":[[[114.16591664507827,22.44503509457088],[114.165915265563,22.445035473756629],[114.16589719912331,22.444998773668619],[114.16595224723626,22.444975777725418],[114.16596966961227,22.445012369398572],[114.16591664507827,22.44503509457088]]]},"properties":{"OBJECTID":6311,"Shape__Length":21.271325750060427,"Shape__Area":27.586606652777846,"GeoRefNo":"3514233953","DateCreate":1114790400000,"BuildingBlockType":"Tower","BuildingCSUID":"3514233953T20050430","BuildingID":1106129949,"Status":"Active","BuildingNameEN":null,"BuildingNameTC":null,"BaseHeight":6.9000000000000004,"TopHeight":17.199999999999999,"Storeys":null,"StoreysInBasement":null,"DateStamp":1611072000000}},{"type":"Feature","id":6755,"geometry":{"type":"Polygon","coordinates":[[[114.16380032947055,22.446743007981482],[114.16374201961688,22.446729905040996],[114.16377429251772,22.446697472076373],[114.16381190938847,22.446705925001396],[114.16380032947055,22.446743007981482]]]},"properties":{"OBJECTID":6755,"Shape__Length":19.326970781885169,"Shape__Area":21.696689147252009,"GeoRefNo":"3492034143","DateCreate":1373212800000,"BuildingBlockType":"Open-sided Structure","BuildingCSUID":"3492034143T20130708","BuildingID":1810102312,"Status":"Active","BuildingNameEN":null,"BuildingNameTC":null,"BaseHeight":null,"TopHeight":null,"Storeys":null,"StoreysInBasement":null,"DateStamp":1373212800000}},{"type":"Feature","id":6756,"geometry":{"type":"Polygon","coordinates":[[[114.16451464034607,22.446585522974519],[114.16454307566536,22.446584233788261],[114.16454117476542,22.446547940253446],[114.16455220669452,22.446546781854291],[114.16455299665461,22.446559445950594],[114.16456575223894,22.446558757265247],[114.16457721574953,22.44655813837646],[114.16457625533783,22.446542750411819],[114.16458242308971,22.446542470755592],[114.16458451137571,22.446582343343533],[114.16455266605332,22.446583787149859],[114.16455474957927,22.446623567897902],[114.16451672327933,22.446625291893106],[114.16451464034607,22.446585522974519]]]},"properties":{"OBJECTID":6756,"Shape__Length":34.782421058376897,"Shape__Area":31.454234817914333,"GeoRefNo":"3499934128","DateCreate":1373990400000,"BuildingBlockType":"Open-sided Structure","BuildingCSUID":"3499934128T20130717","BuildingID":1810102776,"Status":"Active","BuildingNameEN":null,"BuildingNameTC":null,"BaseHeight":null,"TopHeight":null,"Storeys":null,"StoreysInBasement":null,"DateStamp":1373990400000}},{"type":"Feature","id":6757,"geometry":{"type":"Polygon","coordinates":[[[114.16514622087948,22.445742639813925],[114.16513919267042,22.445735520507668],[114.16514656067459,22.445730205806719],[114.16510635658241,22.445688031844291],[114.16511884621586,22.445676655102158],[114.16509413718498,22.445650103049516],[114.165096247181,22.445648310296708],[114.16516764286119,22.445725031166539],[114.16514622087948,22.445742639813925]]]},"properties":{"OBJECTID":6757,"Shape__Length":28.428976722620547,"Shape__Area":17.080505648544829,"GeoRefNo":"3505934030","DateCreate":1373990400000,"BuildingBlockType":"Open-sided Structure","BuildingCSUID":"3505934030T20130717","BuildingID":1810102808,"Status":"Active","BuildingNameEN":"TAI PO PUN CHUNG COMMUNITY EDUCATION CENTER","BuildingNameTC":"大埔泮涌社區教育中心","BaseHeight":null,"TopHeight":null,"Storeys":null,"StoreysInBasement":null,"DateStamp":1373990400000}},{"type":"Feature","id":6758,"geometry":{"type":"Polygon","coordinates":[[[114.16458638316062,22.445075620327888],[114.16456652851937,22.445060719382482],[114.16465399080904,22.444957601648085],[114.16467422994232,22.444972614770148],[114.16463689256527,22.445016635418447],[114.16462279511038,22.445033142023213],[114.16458638316062,22.445075620327888]]]},"properties":{"OBJECTID":6758,"Shape__Length":34.389387429789423,"Shape__Area":38.628179845591916,"GeoRefNo":"3500733954","DateCreate":1374422400000,"BuildingBlockType":"Open-sided Structure","BuildingCSUID":"3500733954T20130722","BuildingID":1810102932,"Status":"Active","BuildingNameEN":null,"BuildingNameTC":null,"BaseHeight":null,"TopHeight":null,"Storeys":null,"StoreysInBasement":null,"DateStamp":1374422400000}},{"type":"Feature","id":6797,"geometry":{"type":"Polygon","coordinates":[[[114.16596966961227,22.445012369398572],[114.16599787661556,22.445069551230667],[114.16594507550511,22.445092241208396],[114.16591664507827,22.44503509457088],[114.16596966961227,22.445012369398572]]]},"properties":{"OBJECTID":6797,"Shape__Length":25.936449765870467,"Shape__Area":41.808409398808706,"GeoRefNo":"3514433958","DateCreate":1603900800000,"BuildingBlockType":"Tower","BuildingCSUID":"3514433958T20201029","BuildingID":1810204710,"Status":"Active","BuildingNameEN":null,"BuildingNameTC":null,"BaseHeight":6.5,"TopHeight":15.5,"Storeys":null,"StoreysInBasement":null,"DateStamp":1611072000000}},{"type":"Feature","id":7526,"geometry":{"type":"Polygon","coordinates":[[[114.1682626348926,22.445323015253148],[114.1682552647891,22.445347358076489],[114.16826005688434,22.445348555317935],[114.16827315578146,22.445331611088477],[114.16851124438814,22.445499887277464],[114.16845778801634,22.44556552543688],[114.16823665558209,22.445408822511634],[114.16822755035906,22.445438896147824],[114.16822502411495,22.445447240152721],[114.16819310673834,22.445438894306772],[114.16814789052611,22.445427071014201],[114.16817395049767,22.445344859159604],[114.16808739388846,22.44532179071004],[114.16805158771835,22.445438886665261],[114.16803197947114,22.445503010851638],[114.16816194091329,22.445536466691543],[114.16818125783958,22.445471078210407],[114.16834447215086,22.445514776218449],[114.16829261628746,22.44568356946364],[114.16827098696839,22.44575397379927],[114.1682551273972,22.445805597261721],[114.1682268676723,22.445798199814902],[114.16822003308036,22.445821468852508],[114.16816751445182,22.445806688424728],[114.16817402034638,22.445784317179356],[114.1680921749997,22.44576304604664],[114.16805715024708,22.445753997887948],[114.16807090703091,22.4457101573174],[114.16810563168778,22.445719165090814],[114.16813207183486,22.445632946454108],[114.16809411701445,22.445622965750854],[114.16810437792982,22.445588433850272],[114.16778418597359,22.445505110268982],[114.16780416868271,22.445438873007451],[114.16782190659934,22.445380076711814],[114.16786183342191,22.445390039528114],[114.16784715989293,22.445438875407834],[114.16784273991445,22.445453585771446],[114.16794963884557,22.445481974410754],[114.1679620051589,22.445441346987678],[114.16796275558328,22.445438881805256],[114.16804635918236,22.445164216081274],[114.16812894250243,22.44518525248667],[114.16811750579858,22.445225310965142],[114.16813908180328,22.44523084779793],[114.16812786869468,22.445268377761742],[114.16826824394288,22.445304489032146],[114.1682626348926,22.445323015253148]]]},"properties":{"OBJECTID":7526,"Shape__Length":397.25138418912206,"Shape__Area":1742.1717477844018,"GeoRefNo":"3535634009","DateCreate":1114790400000,"BuildingBlockType":"Tower","BuildingCSUID":"3535634009T20050430","BuildingID":1106129516,"Status":"Active","BuildingNameEN":"Valtorta College","BuildingNameTC":"恩主教書院","BaseHeight":15.300000000000001,"TopHeight":41.600000000000001,"Storeys":7,"StoreysInBasement":1,"DateStamp":1599580800000}},{"type":"Feature","id":7567,"geometry":{"type":"Polygon","coordinates":[[[114.16272959632259,22.447247679228781],[114.16269860720683,22.447235566680888],[114.16265290097705,22.447214973239813],[114.16266413989437,22.447194757663773],[114.16273949465187,22.44722870964247],[114.16272959632259,22.447247679228781]]]},"properties":{"OBJECTID":7567,"Shape__Length":22.163102538091714,"Shape__Area":21.475642550164267,"GeoRefNo":"3480934198","DateCreate":1373212800000,"BuildingBlockType":"Open-sided Structure","BuildingCSUID":"3480934198T20130708","BuildingID":1810102267,"Status":"Active","BuildingNameEN":null,"BuildingNameTC":null,"BaseHeight":null,"TopHeight":null,"Storeys":null,"StoreysInBasement":null,"DateStamp":1373212800000}},{"type":"Feature","id":10802,"geometry":{"type":"Polygon","coordinates":[[[114.16646290905709,22.444121886189322],[114.1664253031001,22.444139684511697],[114.16637704966773,22.444053107226313],[114.16641515319009,22.444035311024091],[114.16646290905709,22.444121886189322]]]},"properties":{"OBJECTID":10802,"Shape__Length":30.304914859333419,"Shape__Area":47.096678503250843,"GeoRefNo":"3519233851","DateCreate":1602000000000,"BuildingBlockType":"Tower","BuildingCSUID":"3519233851T20201007","BuildingID":1810203381,"Status":"Active","BuildingNameEN":null,"BuildingNameTC":null,"BaseHeight":11,"TopHeight":19.199999999999999,"Storeys":null,"StoreysInBasement":null,"DateStamp":1602000000000}},{"type":"Feature","id":11435,"geometry":{"type":"Polygon","coordinates":[[[114.16307113671995,22.448457235186645],[114.16306193581656,22.448457179857641],[114.16302967982033,22.448469101721066],[114.16300868626527,22.448458201614475],[114.16301037093896,22.44844243982957],[114.16300682805547,22.448390975709668],[114.16304075778056,22.448391227312356],[114.16305514384111,22.448361623834092],[114.16310942560936,22.448381865520034],[114.16309542337204,22.448412686250204],[114.16307113671995,22.448457235186645]]]},"properties":{"OBJECTID":11435,"Shape__Length":36.805396182744552,"Shape__Area":78.188357959539658,"GeoRefNo":"3484834330","DateCreate":1207843200000,"BuildingBlockType":"Temporary Structure","BuildingCSUID":"3484834330T20080411","BuildingID":1106128062,"Status":"Active","BuildingNameEN":null,"BuildingNameTC":null,"BaseHeight":null,"TopHeight":null,"Storeys":null,"StoreysInBasement":null,"DateStamp":1434643200000}},{"type":"Feature","id":12859,"geometry":{"type":"Polygon","coordinates":[[[114.16675139943224,22.443692603284166],[114.16670538037047,22.443713481254836],[114.16669467305574,22.443693235202876],[114.16674126507063,22.443672474305746],[114.16675139943224,22.443692603284166]]]},"properties":{"OBJECTID":12859,"Shape__Length":15.549104636777303,"Shape__Area":13.128762106179167,"GeoRefNo":"3522333808","DateCreate":1561564800000,"BuildingBlockType":"Tower","BuildingCSUID":"3522333808T20190627","BuildingID":1810188642,"Status":"Active","BuildingNameEN":null,"BuildingNameTC":null,"BaseHeight":11.1,"TopHeight":14.4,"Storeys":null,"StoreysInBasement":null,"DateStamp":1561564800000}},{"type":"Feature","id":13283,"geometry":{"type":"Polygon","coordinates":[[[114.16646290905709,22.444121886189322],[114.16641515319009,22.444035311024091],[114.16645579726104,22.444016319434251],[114.16650295627755,22.44410293238704],[114.16646290905709,22.444121886189322]]]},"properties":{"OBJECTID":13283,"Shape__Length":30.832189489117305,"Shape__Area":50.087960956972793,"GeoRefNo":"3519733850","DateCreate":1114790400000,"BuildingBlockType":"Tower","BuildingCSUID":"3519733850T20050430","BuildingID":1106130309,"Status":"Active","BuildingNameEN":null,"BuildingNameTC":null,"BaseHeight":10.4,"TopHeight":18.199999999999999,"Storeys":null,"StoreysInBasement":null,"DateStamp":1602000000000}},{"type":"Feature","id":17111,"geometry":{"type":"Polygon","coordinates":[[[114.16882033384623,22.447463371936365],[114.16855665525588,22.447584363787652],[114.16851112914964,22.4474951247776],[114.16848736471884,22.44745037504164],[114.16850538970171,22.447422067583307],[114.16856345700847,22.447396287456328],[114.1686011260351,22.447378529554356],[114.16869658649382,22.447335169715604],[114.16869811286936,22.447337199296399],[114.16871174999312,22.447363815525286],[114.1687252501053,22.447389404622463],[114.16875462727201,22.447445715750785],[114.16880018569267,22.447425071613459],[114.16880644408695,22.447437082697068],[114.16882033384623,22.447463371936365]]]},"properties":{"OBJECTID":17111,"Shape__Length":95.845903045683571,"Shape__Area":481.33698290368551,"GeoRefNo":"3542234223","DateCreate":1605456000000,"BuildingBlockType":"Tower","BuildingCSUID":"3542234223T20201116","BuildingID":1810205965,"Status":"Active","BuildingNameEN":null,"BuildingNameTC":null,"BaseHeight":4.5,"TopHeight":34.799999999999997,"Storeys":null,"StoreysInBasement":null,"DateStamp":1607011200000}},{"type":"Feature","id":25739,"geometry":{"type":"Polygon","coordinates":[[[114.16398059152957,22.446683544267923],[114.16402204777661,22.446627720041825],[114.1640263206783,22.44663043538667],[114.16408294630702,22.446666420355715],[114.16404181284159,22.446721776393794],[114.16398059152957,22.446683544267923]]]},"properties":{"OBJECTID":25739,"Shape__Length":30.147159177379894,"Shape__Area":56.797457166799845,"GeoRefNo":"3494634137","DateCreate":1114790400000,"BuildingBlockType":"Tower","BuildingCSUID":"3494634137T20050430","BuildingID":1106129116,"Status":"Active","BuildingNameEN":null,"BuildingNameTC":null,"BaseHeight":15.5,"TopHeight":22.899999999999999,"Storeys":null,"StoreysInBasement":null,"DateStamp":1431964800000}},{"type":"Feature","id":25978,"geometry":{"type":"Polygon","coordinates":[[[114.16304735054663,22.447235596854469],[114.16304640751146,22.447242631496035],[114.16302470525369,22.447235594918048],[114.16302294692395,22.447235025849093],[114.16301039641746,22.447224260475512],[114.16300005870364,22.447235592806908],[114.16299692046876,22.447239033140033],[114.16299205367518,22.447235592120396],[114.16295022451925,22.447205995735299],[114.16294166505568,22.447212930385813],[114.16290562581109,22.447184824512057],[114.16289327484647,22.447175175220128],[114.16292458252252,22.447144367012569],[114.16292465684832,22.447144293872299],[114.16287114297366,22.447098724207656],[114.16290436681284,22.447064772578802],[114.16292139436878,22.447047374894847],[114.16294049751289,22.447062926076537],[114.16299469750355,22.44712369601497],[114.16300177034512,22.447119226547613],[114.16300903763334,22.447113239980606],[114.16301355458975,22.447117683350019],[114.16302010267026,22.447114821257394],[114.16303140754052,22.447147088030391],[114.16305679062303,22.447165096921246],[114.16304735054663,22.447235596854469]]]},"properties":{"OBJECTID":25978,"Shape__Length":70.38812513550404,"Shape__Area":211.74688922489247,"GeoRefNo":"3483534188","DateCreate":1120492800000,"BuildingBlockType":"Temporary Structure","BuildingCSUID":"3483534188T20050705","BuildingID":1106128904,"Status":"Active","BuildingNameEN":null,"BuildingNameTC":null,"BaseHeight":null,"TopHeight":62,"Storeys":null,"StoreysInBasement":null,"DateStamp":1432051200000}},{"type":"Feature","id":25980,"geometry":{"type":"Polygon","coordinates":[[[114.16548560668581,22.444278937881169],[114.16541548207921,22.444350145479952],[114.1653265967774,22.444423629011034],[114.16530477627227,22.444398422910993],[114.16546921867919,22.4442658376007],[114.16548560668581,22.444278937881169]]]},"properties":{"OBJECTID":25980,"Shape__Length":51.150122377870609,"Shape__Area":72.204176044108024,"GeoRefNo":"3508233883","DateCreate":1114790400000,"BuildingBlockType":"Temporary Structure","BuildingCSUID":"3508233883T20050430","BuildingID":1106130168,"Status":"Active","BuildingNameEN":null,"BuildingNameTC":null,"BaseHeight":null,"TopHeight":19,"Storeys":null,"StoreysInBasement":null,"DateStamp":1431964800000}},{"type":"Feature","id":25984,"geometry":{"type":"Polygon","coordinates":[[[114.16671268413535,22.444076944287531],[114.16672850975699,22.444107511836666],[114.16669889007488,22.444120762804726],[114.16668294719896,22.44409024771231],[114.16671268413535,22.444076944287531]]]},"properties":{"OBJECTID":25984,"Shape__Length":14.293910111538906,"Shape__Area":12.736183238292842,"GeoRefNo":"3522233853","DateCreate":1114790400000,"BuildingBlockType":"Tower","BuildingCSUID":"3522233853T20050430","BuildingID":1106130302,"Status":"Active","BuildingNameEN":null,"BuildingNameTC":null,"BaseHeight":9.0999999999999996,"TopHeight":11.9,"Storeys":null,"StoreysInBasement":null,"DateStamp":1431964800000}},{"type":"Feature","id":26023,"geometry":{"type":"Polygon","coordinates":[[[114.16281479840771,22.447258183109369],[114.16278858650274,22.447247557315819],[114.16276489612865,22.447235572474259],[114.16275350878014,22.447229811678064],[114.16273277462027,22.447183418087199],[114.16283665772124,22.447143550461522],[114.1628615391465,22.447133989910938],[114.16290212402311,22.447229326277615],[114.16281479840771,22.447258183109369]]]},"properties":{"OBJECTID":26023,"Shape__Length":47.851360074763285,"Shape__Area":145.47130991895011,"GeoRefNo":"3482234198","DateCreate":1216569600000,"BuildingBlockType":"Temporary Structure","BuildingCSUID":"3482234198T20080721","BuildingID":1106128886,"Status":"Active","BuildingNameEN":null,"BuildingNameTC":null,"BaseHeight":null,"TopHeight":null,"Storeys":null,"StoreysInBasement":null,"DateStamp":1431964800000}},{"type":"Feature","id":26034,"geometry":{"type":"Polygon","coordinates":[[[114.1666318135065,22.443723865166685],[114.16660055767754,22.443738298461799],[114.16659260474569,22.443723475276371],[114.16662417374047,22.443709454875012],[114.1666318135065,22.443723865166685]]]},"properties":{"OBJECTID":26034,"Shape__Length":10.807300524143301,"Shape__Area":6.4981474119319191,"GeoRefNo":"3521133811","DateCreate":1210780800000,"BuildingBlockType":"Temporary Structure","BuildingCSUID":"3521133811T20080515","BuildingID":1106130462,"Status":"Active","BuildingNameEN":null,"BuildingNameTC":null,"BaseHeight":null,"TopHeight":null,"Storeys":null,"StoreysInBasement":null,"DateStamp":1431964800000}},{"type":"Feature","id":26035,"geometry":{"type":"Polygon","coordinates":[[[114.16241113769128,22.443625181065229],[114.16241536647613,22.443624946290022],[114.16244094027813,22.443623526637229],[114.16247725740763,22.443621510662105],[114.16247920410348,22.443651813975407],[114.1624429412729,22.443653808643948],[114.16241313867958,22.4436554630723],[114.16241113769128,22.443625181065229]]]},"properties":{"OBJECTID":26035,"Shape__Length":20.352284887742925,"Shape__Area":22.901356067129619,"GeoRefNo":"3478033801","DateCreate":1208793600000,"BuildingBlockType":"Temporary Structure","BuildingCSUID":"3478033801T20080422","BuildingID":1106130499,"Status":"Active","BuildingNameEN":null,"BuildingNameTC":null,"BaseHeight":50.5,"TopHeight":53.799999999999997,"Storeys":null,"StoreysInBasement":null,"DateStamp":1432137600000}},{"type":"Feature","id":26504,"geometry":{"type":"Polygon","coordinates":[[[114.16427592121923,22.446988795554475],[114.16433985151099,22.446913423331164],[114.16438694317965,22.446947578064822],[114.16432277097385,22.447023225265006],[114.16427592121923,22.446988795554475]]]},"properties":{"OBJECTID":26504,"Shape__Length":33.592602559327574,"Shape__Area":65.465115357200119,"GeoRefNo":"3497734170","DateCreate":1289404800000,"BuildingBlockType":"Tower","BuildingCSUID":"3497734170T20101111","BuildingID":1810022164,"Status":"Active","BuildingNameEN":null,"BuildingNameTC":null,"BaseHeight":7.5,"TopHeight":15.5,"Storeys":null,"StoreysInBasement":null,"DateStamp":1455206400000}},{"type":"Feature","id":28734,"geometry":{"type":"Polygon","coordinates":[[[114.16518281886769,22.444553873979373],[114.16522596871771,22.444585610108369],[114.1652100253428,22.444605096682693],[114.16516687869654,22.444573356666652],[114.16518281886769,22.444553873979373]]]},"properties":{"OBJECTID":28734,"Shape__Length":16.749349605925808,"Shape__Area":15.350771907296515,"GeoRefNo":"3506633906","DateCreate":1591718400000,"BuildingBlockType":"Temporary Structure","BuildingCSUID":"3506633906T20200610","BuildingID":1810199116,"Status":"Active","BuildingNameEN":null,"BuildingNameTC":null,"BaseHeight":null,"TopHeight":null,"Storeys":null,"StoreysInBasement":null,"DateStamp":1591718400000}},{"type":"Feature","id":45517,"geometry":{"type":"Polygon","coordinates":[[[114.16276713675222,22.448522058622764],[114.16267785150831,22.448526693639643],[114.16267629417035,22.448460066838173],[114.1626676867407,22.448460120265409],[114.16266685478264,22.448425425200771],[114.16268703271305,22.448425083814044],[114.16272558167735,22.448423615225842],[114.16277692528006,22.448421298881208],[114.16277804857485,22.4484573665992],[114.16276516648617,22.448458331734702],[114.16276713675222,22.448522058622764]]]},"properties":{"OBJECTID":45517,"Shape__Length":45.039314663570458,"Shape__Area":110.85449502754437,"GeoRefNo":"3481134337","DateCreate":1311177600000,"BuildingBlockType":"Tower","BuildingCSUID":"3481134337T20110721","BuildingID":1106127924,"Status":"Active","BuildingNameEN":"SPRING VIEW VILLA","BuildingNameTC":"春芳閣","BaseHeight":17.199999999999999,"TopHeight":25.899999999999999,"Storeys":2,"StoreysInBasement":null,"DateStamp":1599580800000}},{"type":"Feature","id":47123,"geometry":{"type":"Polygon","coordinates":[[[114.16276713675222,22.448522058622764],[114.16276772288441,22.448541014763649],[114.16278405363752,22.448541476739475],[114.16278554390503,22.448599353026875],[114.16267983547057,22.448601538187994],[114.16267919638348,22.448580867430657],[114.16267785150831,22.448526693639643],[114.16276713675222,22.448522058622764]]]},"properties":{"OBJECTID":47123,"Shape__Length":38.571739858179505,"Shape__Area":88.625538795008495,"GeoRefNo":"3481234347","DateCreate":1311177600000,"BuildingBlockType":"Tower","BuildingCSUID":"3481234347T20110721","BuildingID":1810070677,"Status":"Active","BuildingNameEN":"SPRING VIEW VILLA","BuildingNameTC":"春芳閣","BaseHeight":17.199999999999999,"TopHeight":25.899999999999999,"Storeys":2,"StoreysInBasement":null,"DateStamp":1599580800000}},{"type":"Feature","id":47573,"geometry":{"type":"Polygon","coordinates":[[[114.16994188173494,22.446774617422925],[114.16966868640581,22.446699988061482],[114.16967501041009,22.446679984715303],[114.16970035072809,22.446686907047898],[114.16971004154725,22.446656254145793],[114.16979615137781,22.446679777017767],[114.16981580007112,22.446617625962535],[114.16986885166234,22.44663211816551],[114.16986427740594,22.446646587191676],[114.16987359804614,22.446649133369103],[114.16987491286046,22.446644974631376],[114.16990073104657,22.446652027443207],[114.16991393495046,22.44661026207525],[114.16990281408754,22.446607224114626],[114.16988820090042,22.44660323211615],[114.16989598173463,22.446578620312753],[114.16992173171255,22.446585654515587],[114.16992693237196,22.446569204233132],[114.16990674005771,22.44656368819869],[114.16991518975773,22.446536960678106],[114.16989134366804,22.44653044661991],[114.16990227443084,22.446495871472067],[114.16989817358265,22.446494751248707],[114.16990319118605,22.446478880172204],[114.16984566109694,22.446463164521109],[114.16983560683305,22.446494967173606],[114.16974161969257,22.446469292470589],[114.16976276537734,22.44640240600668],[114.17003596017409,22.446477035211512],[114.17001985124483,22.44652799003704],[114.16999764440364,22.44652192379364],[114.16993568940889,22.446717894897688],[114.16995789637572,22.446723961239769],[114.16994188173494,22.446774617422925]]]},"properties":{"OBJECTID":47573,"Shape__Length":191.124788687939,"Shape__Area":562.24888372155078,"GeoRefNo":"3555734115","DateCreate":1114790400000,"BuildingBlockType":"Tower","BuildingCSUID":"3555734115T20050430","BuildingID":1106129095,"Status":"Active","BuildingNameEN":null,"BuildingNameTC":null,"BaseHeight":27.899999999999999,"TopHeight":35,"Storeys":null,"StoreysInBasement":null,"DateStamp":1436457600000}},{"type":"Feature","id":47642,"geometry":{"type":"Polygon","coordinates":[[[114.16961306086769,22.446565576139587],[114.16958720671499,22.446647355303661],[114.16941472062337,22.44660023649293],[114.16942789095185,22.446558577631993],[114.1694405747713,22.446518457356049],[114.16961306086769,22.446565576139587]]]},"properties":{"OBJECTID":47642,"Shape__Length":55.889369824115192,"Shape__Area":174.67406337368922,"GeoRefNo":"3551034128","DateCreate":1114790400000,"BuildingBlockType":"Tower","BuildingCSUID":"3551034128T20050430","BuildingID":1106129147,"Status":"Active","BuildingNameEN":null,"BuildingNameTC":null,"BaseHeight":28.699999999999999,"TopHeight":34.299999999999997,"Storeys":null,"StoreysInBasement":null,"DateStamp":1436457600000}},{"type":"Feature","id":47653,"geometry":{"type":"Polygon","coordinates":[[[114.16940500400855,22.4463864561442],[114.16937236021566,22.446489711276548],[114.16933312664683,22.44647899365053],[114.16936577046624,22.446375738525994],[114.16940500400855,22.4463864561442]]]},"properties":{"OBJECTID":47653,"Shape__Length":32.253890795440071,"Shape__Area":50.165104295596308,"GeoRefNo":"3549534111","DateCreate":1114790400000,"BuildingBlockType":"Tower","BuildingCSUID":"3549534111T20050430","BuildingID":1106129205,"Status":"Active","BuildingNameEN":null,"BuildingNameTC":null,"BaseHeight":27.399999999999999,"TopHeight":32.600000000000001,"Storeys":null,"StoreysInBasement":null,"DateStamp":1436457600000}},{"type":"Feature","id":48303,"geometry":{"type":"Polygon","coordinates":[[[114.16965518447637,22.446696299695152],[114.16961812448393,22.446686175897312],[114.16962706494715,22.446657455935078],[114.16961090081679,22.44665304031399],[114.16962169329732,22.44661890288555],[114.16963798556046,22.446623353459142],[114.16971220355398,22.446388593871522],[114.16974926357135,22.446398717648105],[114.16965518447637,22.446696299695152]]]},"properties":{"OBJECTID":48303,"Shape__Length":80.127783679004594,"Shape__Area":143.47630307173972,"GeoRefNo":"3552434133","DateCreate":1114790400000,"BuildingBlockType":"Tower","BuildingCSUID":"3552434133T20050430","BuildingID":1106129128,"Status":"Active","BuildingNameEN":null,"BuildingNameTC":null,"BaseHeight":28,"TopHeight":32.899999999999999,"Storeys":null,"StoreysInBasement":null,"DateStamp":1436457600000}},{"type":"Feature","id":48362,"geometry":{"type":"Polygon","coordinates":[[[114.16930539253752,22.446359244757375],[114.16933242234859,22.446366628682988],[114.16930916226191,22.446440202313575],[114.1692821324378,22.446432818384146],[114.16930539253752,22.446359244757375]]]},"properties":{"OBJECTID":48362,"Shape__Length":22.783617733788699,"Shape__Area":24.626239701210075,"GeoRefNo":"3548834107","DateCreate":1114790400000,"BuildingBlockType":"Tower","BuildingCSUID":"3548834107T20050430","BuildingID":1106129231,"Status":"Active","BuildingNameEN":null,"BuildingNameTC":null,"BaseHeight":27,"TopHeight":30.300000000000001,"Storeys":null,"StoreysInBasement":null,"DateStamp":1436457600000}},{"type":"Feature","id":48364,"geometry":{"type":"Polygon","coordinates":[[[114.16965040920152,22.446393986556362],[114.16964371627617,22.446415156981608],[114.1696167071314,22.446407778798275],[114.16962340006047,22.44638660837413],[114.16965040920152,22.446393986556362]]]},"properties":{"OBJECTID":48364,"Shape__Length":10.682500264874164,"Shape__Area":7.0806399195628771,"GeoRefNo":"3552334108","DateCreate":1436371200000,"BuildingBlockType":"Tower","BuildingCSUID":"3552334108T20150709","BuildingID":1810143889,"Status":"Active","BuildingNameEN":null,"BuildingNameTC":null,"BaseHeight":28.899999999999999,"TopHeight":31.300000000000001,"Storeys":null,"StoreysInBasement":null,"DateStamp":1436371200000}},{"type":"Feature","id":48365,"geometry":{"type":"Polygon","coordinates":[[[114.16941472062337,22.44660023649293],[114.16939906574854,22.446595959943007],[114.1694122360813,22.446554301083335],[114.16942789095185,22.446558577631993],[114.16941472062337,22.44660023649293]]]},"properties":{"OBJECTID":48365,"Shape__Length":12.975648004294825,"Shape__Area":8.0758671238211441,"GeoRefNo":"3550034127","DateCreate":1436457600000,"BuildingBlockType":"Open-sided Structure","BuildingCSUID":"3550034127T20150710","BuildingID":1810143930,"Status":"Active","BuildingNameEN":null,"BuildingNameTC":null,"BaseHeight":null,"TopHeight":null,"Storeys":null,"StoreysInBasement":null,"DateStamp":1436457600000}},{"type":"Feature","id":49630,"geometry":{"type":"Polygon","coordinates":[[[114.16546682405499,22.44554048945783],[114.16544931919094,22.445506019703114],[114.16550647352597,22.445480738273535],[114.16552439556131,22.445515081805656],[114.16546682405499,22.44554048945783]]]},"properties":{"OBJECTID":49630,"Shape__Length":21.523496929432788,"Shape__Area":27.614849764821635,"GeoRefNo":"3509734009","DateCreate":1114790400000,"BuildingBlockType":"Tower","BuildingCSUID":"3509734009T20050430","BuildingID":1106129661,"Status":"Active","BuildingNameEN":null,"BuildingNameTC":null,"BaseHeight":6.7999999999999998,"TopHeight":16.800000000000001,"Storeys":null,"StoreysInBasement":null,"DateStamp":1362067200000}},{"type":"Feature","id":49631,"geometry":{"type":"Polygon","coordinates":[[[114.16463508565103,22.445598288736644],[114.16456584150782,22.445544204342564],[114.16454194493539,22.445525539465297],[114.16453898216834,22.445523010712471],[114.16456584590364,22.445494243717274],[114.1645679731418,22.445491965766337],[114.16466255000864,22.445568795903146],[114.16463508565103,22.445598288736644]]]},"properties":{"OBJECTID":49631,"Shape__Length":34.737932746933566,"Shape__Area":57.480456244152585,"GeoRefNo":"3500434012","DateCreate":1114790400000,"BuildingBlockType":"Tower","BuildingCSUID":"3500434012T20050430","BuildingID":1106129620,"Status":"Active","BuildingNameEN":null,"BuildingNameTC":null,"BaseHeight":12.1,"TopHeight":21,"Storeys":null,"StoreysInBasement":null,"DateStamp":1362067200000}},{"type":"Feature","id":49633,"geometry":{"type":"Polygon","coordinates":[[[114.16591497808888,22.445466141162164],[114.16588169055046,22.445393932297826],[114.16590481339234,22.445384261707396],[114.16593810103757,22.445456470657383],[114.16591497808888,22.445466141162164]]]},"properties":{"OBJECTID":49633,"Shape__Length":22.618792792333856,"Shape__Area":22.701780663518601,"GeoRefNo":"3514034000","DateCreate":1114790400000,"BuildingBlockType":"Tower","BuildingCSUID":"3514034000T20050430","BuildingID":1106129702,"Status":"Active","BuildingNameEN":null,"BuildingNameTC":null,"BaseHeight":6.0999999999999996,"TopHeight":10.6,"Storeys":null,"StoreysInBasement":null,"DateStamp":1362067200000}},{"type":"Feature","id":49636,"geometry":{"type":"Polygon","coordinates":[[[114.16570782816528,22.445552512425138],[114.16567428515815,22.445482245500376],[114.16569860317159,22.445472099478529],[114.16573233815042,22.445542379686309],[114.16570782816528,22.445552512425138]]]},"properties":{"OBJECTID":49636,"Shape__Length":22.539971088449981,"Shape__Area":23.444389956053495,"GeoRefNo":"3511834009","DateCreate":1114790400000,"BuildingBlockType":"Tower","BuildingCSUID":"3511834009T20050430","BuildingID":1106129650,"Status":"Active","BuildingNameEN":null,"BuildingNameTC":null,"BaseHeight":6.2999999999999998,"TopHeight":15.800000000000001,"Storeys":null,"StoreysInBasement":null,"DateStamp":1362067200000}},{"type":"Feature","id":49685,"geometry":{"type":"Polygon","coordinates":[[[114.16481099802576,22.445838799991929],[114.16475375877013,22.445889124241067],[114.16470048788089,22.445834174268377],[114.16475854790883,22.445785232842287],[114.16481099802576,22.445838799991929]]]},"properties":{"OBJECTID":49685,"Shape__Length":32.389963866106584,"Shape__Area":65.561373766160642,"GeoRefNo":"3502334043","DateCreate":1114790400000,"BuildingBlockType":"Tower","BuildingCSUID":"3502334043T20050430","BuildingID":1106129477,"Status":"Active","BuildingNameEN":null,"BuildingNameTC":null,"BaseHeight":8.5999999999999996,"TopHeight":17.899999999999999,"Storeys":null,"StoreysInBasement":null,"DateStamp":1362067200000}},{"type":"Feature","id":49798,"geometry":{"type":"Polygon","coordinates":[[[114.16455734854003,22.445681767581092],[114.16446532352379,22.445608169759399],[114.16446602690331,22.445606699384506],[114.16448937340782,22.445581740907279],[114.16456583285077,22.445642595743017],[114.16458191018667,22.445655391853432],[114.16456583020558,22.445672659478291],[114.16455734854003,22.445681767581092]]]},"properties":{"OBJECTID":49798,"Shape__Length":32.739914773961644,"Shape__Area":48.2661295838939,"GeoRefNo":"3499634021","DateCreate":1114790400000,"BuildingBlockType":"Tower","BuildingCSUID":"3499634021T20050430","BuildingID":1106129578,"Status":"Active","BuildingNameEN":null,"BuildingNameTC":null,"BaseHeight":11.699999999999999,"TopHeight":21.5,"Storeys":null,"StoreysInBasement":null,"DateStamp":1362067200000}},{"type":"Feature","id":49850,"geometry":{"type":"Polygon","coordinates":[[[114.16460862209023,22.445626707017205],[114.16456583727037,22.445592364927165],[114.16451648821254,22.445552753867567],[114.16454194493539,22.445525539465297],[114.16456584150782,22.445544204342564],[114.16463508565103,22.445598288736644],[114.16460862209023,22.445626707017205]]]},"properties":{"OBJECTID":49850,"Shape__Length":33.208914954016919,"Shape__Area":51.078553920186913,"GeoRefNo":"3500134015","DateCreate":1114790400000,"BuildingBlockType":"Tower","BuildingCSUID":"3500134015T20050430","BuildingID":1106129602,"Status":"Active","BuildingNameEN":null,"BuildingNameTC":null,"BaseHeight":12,"TopHeight":20.5,"Storeys":null,"StoreysInBasement":null,"DateStamp":1362067200000}},{"type":"Feature","id":49852,"geometry":{"type":"Polygon","coordinates":[[[114.16470048788089,22.445834174268377],[114.16464980509822,22.445781894055937],[114.16470732508297,22.445732918923575],[114.16475854790883,22.445785232842287],[114.16470048788089,22.445834174268377]]]},"properties":{"OBJECTID":49852,"Shape__Length":31.723698599262697,"Shape__Area":62.885027393024103,"GeoRefNo":"3501734039","DateCreate":1114790400000,"BuildingBlockType":"Tower","BuildingCSUID":"3501734039T20050430","BuildingID":1106129509,"Status":"Active","BuildingNameEN":null,"BuildingNameTC":null,"BaseHeight":8.5999999999999996,"TopHeight":17.699999999999999,"Storeys":null,"StoreysInBasement":null,"DateStamp":1362067200000}},{"type":"Feature","id":49853,"geometry":{"type":"Polygon","coordinates":[[[114.16506330314017,22.445676300768717],[114.16509413718498,22.445650103049516],[114.16511884621586,22.445676655102158],[114.16510635658241,22.445688031844291],[114.16514656067459,22.445730205806719],[114.16513919267042,22.445735520507668],[114.16514622087948,22.445742639813925],[114.16513552285667,22.445751433436399],[114.16506330314017,22.445676300768717]]]},"properties":{"OBJECTID":49853,"Shape__Length":30.885067470460523,"Shape__Area":33.335979306461681,"GeoRefNo":"3505534027","DateCreate":1239897600000,"BuildingBlockType":"Tower","BuildingCSUID":"3505534027T20090417","BuildingID":1106129550,"Status":"Active","BuildingNameEN":"TAI PO PUN CHUNG COMMUNITY EDUCATION CENTER","BuildingNameTC":"大埔泮涌社區教育中心","BaseHeight":8.0999999999999996,"TopHeight":10.4,"Storeys":null,"StoreysInBasement":null,"DateStamp":1362067200000}},{"type":"Feature","id":49854,"geometry":{"type":"Polygon","coordinates":[[[114.17166994078995,22.4457867146556],[114.17165934088905,22.445646814974886],[114.1716579552763,22.445628528080395],[114.17165008214808,22.445524617011024],[114.17164914368109,22.4455122302681],[114.17163178897439,22.44551325620095],[114.17162869704012,22.445472448381725],[114.17155777477787,22.445476640723061],[114.17155296675942,22.445407689525645],[114.17155202805112,22.445394227886982],[114.17170564822678,22.445384460087375],[114.17171008405396,22.445448072373807],[114.17173503256872,22.445446569052049],[114.17176294677012,22.445814067510366],[114.17167241868304,22.445819419516877],[114.17166994078995,22.4457867146556]]]},"properties":{"OBJECTID":49854,"Shape__Length":132.49875453556871,"Shape__Area":519.82454850706245,"GeoRefNo":"3573534019","DateCreate":1114790400000,"BuildingBlockType":"Tower","BuildingCSUID":"3573534019T20050430","BuildingID":1106129518,"Status":"Active","BuildingNameEN":"WONG SHIU CHI SECONDARY SCHOOL","BuildingNameTC":"王肇枝中學","BaseHeight":5.0999999999999996,"TopHeight":18.300000000000001,"Storeys":5,"StoreysInBasement":null,"DateStamp":1599580800000}},{"type":"Feature","id":49893,"geometry":{"type":"Polygon","coordinates":[[[114.16467741493253,22.446251416414974],[114.1647545385387,22.446187795258929],[114.16479576261194,22.446230087681421],[114.16471888103628,22.446293247599446],[114.16467741493253,22.446251416414974]]]},"properties":{"OBJECTID":49893,"Shape__Length":33.794432853520519,"Shape__Area":66.793984515720254,"GeoRefNo":"3502134087","DateCreate":1114790400000,"BuildingBlockType":"Tower","BuildingCSUID":"3502134087T20050430","BuildingID":1106129281,"Status":"Active","BuildingNameEN":null,"BuildingNameTC":null,"BaseHeight":8.3000000000000007,"TopHeight":17.100000000000001,"Storeys":null,"StoreysInBasement":null,"DateStamp":1362067200000}},{"type":"Feature","id":49898,"geometry":{"type":"Polygon","coordinates":[[[114.16399856376361,22.446453006003999],[114.16399876621128,22.446469983271633],[114.1639673971704,22.446469908529743],[114.16396719470573,22.44645315702337],[114.16399856376361,22.446453006003999]]]},"properties":{"OBJECTID":49898,"Shape__Length":10.193290808209913,"Shape__Area":6.0302519995610719,"GeoRefNo":"3494134114","DateCreate":1114790400000,"BuildingBlockType":"Tower","BuildingCSUID":"3494134114T20050430","BuildingID":1106129218,"Status":"Active","BuildingNameEN":null,"BuildingNameTC":null,"BaseHeight":20.300000000000001,"TopHeight":22.300000000000001,"Storeys":null,"StoreysInBasement":null,"DateStamp":1362067200000}},{"type":"Feature","id":49907,"geometry":{"type":"Polygon","coordinates":[[[114.16483258807136,22.445820738795419],[114.164781043311,22.445767814507992],[114.16483854379827,22.445719026618939],[114.16488893279576,22.445772000470267],[114.16483258807136,22.445820738795419]]]},"properties":{"OBJECTID":49907,"Shape__Length":31.672461933485234,"Shape__Area":62.685474629584213,"GeoRefNo":"3503034035","DateCreate":1114790400000,"BuildingBlockType":"Tower","BuildingCSUID":"3503034035T20050430","BuildingID":1106129517,"Status":"Active","BuildingNameEN":null,"BuildingNameTC":null,"BaseHeight":8.5999999999999996,"TopHeight":17.699999999999999,"Storeys":null,"StoreysInBasement":null,"DateStamp":1362067200000}},{"type":"Feature","id":49912,"geometry":{"type":"Polygon","coordinates":[[[114.16458191018667,22.445655391853432],[114.16456583285077,22.445642595743017],[114.16448937340782,22.445581740907279],[114.16451648821254,22.445552753867567],[114.16456583727037,22.445592364927165],[114.16460862209023,22.445626707017205],[114.16458191018667,22.445655391853432]]]},"properties":{"OBJECTID":49912,"Shape__Length":33.525257829406513,"Shape__Area":52.991233143835146,"GeoRefNo":"3499834018","DateCreate":1114790400000,"BuildingBlockType":"Tower","BuildingCSUID":"3499834018T20050430","BuildingID":1106129592,"Status":"Active","BuildingNameEN":null,"BuildingNameTC":null,"BaseHeight":11.800000000000001,"TopHeight":21.699999999999999,"Storeys":null,"StoreysInBasement":null,"DateStamp":1362067200000}},{"type":"Feature","id":49915,"geometry":{"type":"Polygon","coordinates":[[[114.16483854379827,22.445719026618939],[114.164781043311,22.445767814507992],[114.16472986004281,22.445715261292268],[114.16478836796092,22.445666276722726],[114.16483854379827,22.445719026618939]]]},"properties":{"OBJECTID":49915,"Shape__Length":31.766576549763116,"Shape__Area":63.05301131592995,"GeoRefNo":"3502534029","DateCreate":1114790400000,"BuildingBlockType":"Tower","BuildingCSUID":"3502534029T20050430","BuildingID":1106129542,"Status":"Active","BuildingNameEN":null,"BuildingNameTC":null,"BaseHeight":8.8000000000000007,"TopHeight":17.899999999999999,"Storeys":null,"StoreysInBasement":null,"DateStamp":1362067200000}},{"type":"Feature","id":49959,"geometry":{"type":"Polygon","coordinates":[[[114.16304621696267,22.446222307729826],[114.16313191037567,22.44622813064095],[114.16312587878042,22.446313955555251],[114.16304043794466,22.446307672109441],[114.16304621696267,22.446222307729826]]]},"properties":{"OBJECTID":49959,"Shape__Length":36.662740525962334,"Shape__Area":83.893014495770501,"GeoRefNo":"3484934092","DateCreate":1114790400000,"BuildingBlockType":"Tower","BuildingCSUID":"3484934092T20050430","BuildingID":1106129275,"Status":"Active","BuildingNameEN":"HONKA GARDEN","BuildingNameTC":"漢家華園","BaseHeight":33.399999999999999,"TopHeight":43.299999999999997,"Storeys":null,"StoreysInBasement":null,"DateStamp":1362067200000}},{"type":"Feature","id":49964,"geometry":{"type":"Polygon","coordinates":[[[114.16466682033722,22.446388959621949],[114.16468547866899,22.446432153684619],[114.16462416672655,22.446454273666621],[114.16460674220887,22.446410844898701],[114.16466682033722,22.446388959621949]]]},"properties":{"OBJECTID":49964,"Shape__Length":23.699067067406698,"Shape__Area":34.489737496529521,"GeoRefNo":"3500934110","DateCreate":1114790400000,"BuildingBlockType":"Tower","BuildingCSUID":"3500934110T20050430","BuildingID":1106129223,"Status":"Active","BuildingNameEN":null,"BuildingNameTC":null,"BaseHeight":8.1999999999999993,"TopHeight":11.300000000000001,"Storeys":null,"StoreysInBasement":null,"DateStamp":1362067200000}},{"type":"Feature","id":49967,"geometry":{"type":"Polygon","coordinates":[[[114.16477676716039,22.446381358725013],[114.16483414707275,22.446332310935873],[114.16488641621503,22.446387345492674],[114.1648286340366,22.446434946049727],[114.16477676716039,22.446381358725013]]]},"properties":{"OBJECTID":49967,"Shape__Length":32.08339444947616,"Shape__Area":64.328013037317049,"GeoRefNo":"3502934105","DateCreate":1114790400000,"BuildingBlockType":"Tower","BuildingCSUID":"3502934105T20050430","BuildingID":1106129230,"Status":"Active","BuildingNameEN":null,"BuildingNameTC":null,"BaseHeight":8.3000000000000007,"TopHeight":17.100000000000001,"Storeys":null,"StoreysInBasement":null,"DateStamp":1362067200000}},{"type":"Feature","id":50028,"geometry":{"type":"Polygon","coordinates":[[[114.16502855939844,22.446170513281711],[114.16508565580158,22.446123229209221],[114.16513784144585,22.446177929462856],[114.16508152648753,22.446224139167079],[114.16502855939844,22.446170513281711]]]},"properties":{"OBJECTID":50028,"Shape__Length":31.761457489721352,"Shape__Area":63.025354268860639,"GeoRefNo":"3505634081","DateCreate":1114790400000,"BuildingBlockType":"Tower","BuildingCSUID":"3505634081T20050430","BuildingID":1106129301,"Status":"Active","BuildingNameEN":null,"BuildingNameTC":null,"BaseHeight":8.3000000000000007,"TopHeight":17.300000000000001,"Storeys":null,"StoreysInBasement":null,"DateStamp":1362067200000}},{"type":"Feature","id":50029,"geometry":{"type":"Polygon","coordinates":[[[114.16477676716039,22.446381358725013],[114.16472519057552,22.44632807121614],[114.16478295019088,22.446278405338841],[114.16483414707275,22.446332310935873],[114.16477676716039,22.446381358725013]]]},"properties":{"OBJECTID":50029,"Shape__Length":32.023756828586876,"Shape__Area":64.081859609361928,"GeoRefNo":"3502434097","DateCreate":1114790400000,"BuildingBlockType":"Tower","BuildingCSUID":"3502434097T20050430","BuildingID":1106129250,"Status":"Active","BuildingNameEN":null,"BuildingNameTC":null,"BaseHeight":8.3000000000000007,"TopHeight":17.100000000000001,"Storeys":null,"StoreysInBasement":null,"DateStamp":1362067200000}},{"type":"Feature","id":50031,"geometry":{"type":"Polygon","coordinates":[[[114.16494930077202,22.446241469939075],[114.16489433765666,22.446185309556355],[114.16495284822059,22.446136554484433],[114.165006079701,22.446192501872854],[114.165005377952,22.446193107132697],[114.16494930077202,22.446241469939075]]]},"properties":{"OBJECTID":50031,"Shape__Length":32.739478585332648,"Shape__Area":66.961992731980516,"GeoRefNo":"3504234081","DateCreate":1114790400000,"BuildingBlockType":"Tower","BuildingCSUID":"3504234081T20050430","BuildingID":1106129297,"Status":"Active","BuildingNameEN":null,"BuildingNameTC":null,"BaseHeight":8.4000000000000004,"TopHeight":17,"Storeys":null,"StoreysInBasement":null,"DateStamp":1362067200000}},{"type":"Feature","id":50046,"geometry":{"type":"Polygon","coordinates":[[[114.16452665669441,22.44571472630922],[114.16447607550296,22.445676008887883],[114.16445989014812,22.44566319532991],[114.16444473798228,22.445651199828138],[114.16446532352379,22.445608169759399],[114.16455734854003,22.445681767581092],[114.16452665669441,22.44571472630922]]]},"properties":{"OBJECTID":50046,"Shape__Length":33.520110239629304,"Shape__Area":57.940942322442197,"GeoRefNo":"3499434026","DateCreate":1114790400000,"BuildingBlockType":"Tower","BuildingCSUID":"3499434026T20050430","BuildingID":1106129561,"Status":"Active","BuildingNameEN":null,"BuildingNameTC":null,"BaseHeight":11.800000000000001,"TopHeight":20.399999999999999,"Storeys":null,"StoreysInBasement":null,"DateStamp":1362067200000}},{"type":"Feature","id":50048,"geometry":{"type":"Polygon","coordinates":[[[114.16444912431102,22.445704443720665],[114.16447607550296,22.445676008887883],[114.16452665669441,22.44571472630922],[114.16449920996267,22.445744190584168],[114.16444912431102,22.445704443720665]]]},"properties":{"OBJECTID":50048,"Shape__Length":22.036164123114578,"Shape__Area":28.77291700483709,"GeoRefNo":"3499434031","DateCreate":1114790400000,"BuildingBlockType":"Tower","BuildingCSUID":"3499434031T20050430","BuildingID":1106129553,"Status":"Active","BuildingNameEN":null,"BuildingNameTC":null,"BaseHeight":11.9,"TopHeight":17.300000000000001,"Storeys":null,"StoreysInBasement":null,"DateStamp":1362067200000}},{"type":"Feature","id":50093,"geometry":{"type":"Polygon","coordinates":[[[114.16494930077202,22.446241469939075],[114.165005377952,22.446193107132697],[114.165006079701,22.446192501872854],[114.16505544313276,22.446245684197493],[114.16499807334549,22.446293523340461],[114.16494930077202,22.446241469939075]]]},"properties":{"OBJECTID":50093,"Shape__Length":31.328341272681779,"Shape__Area":61.304820273927348,"GeoRefNo":"3504534090","DateCreate":1114790400000,"BuildingBlockType":"Tower","BuildingCSUID":"3504534090T20050430","BuildingID":1106129280,"Status":"Active","BuildingNameEN":null,"BuildingNameTC":null,"BaseHeight":8.3000000000000007,"TopHeight":17.100000000000001,"Storeys":null,"StoreysInBasement":null,"DateStamp":1362067200000}},{"type":"Feature","id":50114,"geometry":{"type":"Polygon","coordinates":[[[114.17075652076515,22.445737106534274],[114.17079020157061,22.445741379204506],[114.17077559642325,22.44583106009382],[114.17074265393755,22.445826317864846],[114.17075652076515,22.445737106534274]]]},"properties":{"OBJECTID":50114,"Shape__Length":26.956139498223589,"Shape__Area":34.695280008422472,"GeoRefNo":"3563934038","DateCreate":1114790400000,"BuildingBlockType":"Tower","BuildingCSUID":"3563934038T20050430","BuildingID":1106129511,"Status":"Active","BuildingNameEN":"LAW TING PONG SCOUT CENTRE","BuildingNameTC":"羅定邦童軍中心","BaseHeight":42,"TopHeight":44,"Storeys":null,"StoreysInBasement":null,"DateStamp":1362067200000}},{"type":"Feature","id":50117,"geometry":{"type":"Polygon","coordinates":[[[114.16552083442532,22.445643325200205],[114.16550081067408,22.445604400371344],[114.16555616863552,22.44557979563081],[114.16557552554909,22.44561789709994],[114.16556126372632,22.445625346228688],[114.16552083442532,22.445643325200205]]]},"properties":{"OBJECTID":50117,"Shape__Length":22.057452566879554,"Shape__Area":30.025910742112622,"GeoRefNo":"3510034020","DateCreate":1114790400000,"BuildingBlockType":"Tower","BuildingCSUID":"3510034020T20050430","BuildingID":1106129598,"Status":"Active","BuildingNameEN":null,"BuildingNameTC":null,"BaseHeight":6.2999999999999998,"TopHeight":18,"Storeys":null,"StoreysInBasement":null,"DateStamp":1362067200000}},{"type":"Feature","id":50118,"geometry":{"type":"Polygon","coordinates":[[[114.16558337086801,22.445669714391634],[114.16554400526555,22.445688368559733],[114.16552083442532,22.445643325200205],[114.16556126372632,22.445625346228688],[114.1655811401441,22.445665237478867],[114.16558337086801,22.445669714391634]]]},"properties":{"OBJECTID":50118,"Shape__Length":20.10511846240254,"Shape__Area":25.058171462646094,"GeoRefNo":"3510234025","DateCreate":1114790400000,"BuildingBlockType":"Tower","BuildingCSUID":"3510234025T20050430","BuildingID":1106129574,"Status":"Active","BuildingNameEN":null,"BuildingNameTC":null,"BaseHeight":6.0999999999999996,"TopHeight":12.800000000000001,"Storeys":null,"StoreysInBasement":null,"DateStamp":1362067200000}},{"type":"Feature","id":50184,"geometry":{"type":"Polygon","coordinates":[[[114.16559461594282,22.445506041719064],[114.16556210835348,22.445438731955232],[114.16555961791744,22.445433575211322],[114.16558520073566,22.445422855499817],[114.16559268347706,22.445438734088206],[114.16561949472134,22.44549562817587],[114.16559461594282,22.445506041719064]]]},"properties":{"OBJECTID":50184,"Shape__Length":23.291297919403327,"Shape__Area":25.058532441853533,"GeoRefNo":"3510634004","DateCreate":1114790400000,"BuildingBlockType":"Tower","BuildingCSUID":"3510634004T20050430","BuildingID":1106129678,"Status":"Active","BuildingNameEN":null,"BuildingNameTC":null,"BaseHeight":6.5999999999999996,"TopHeight":13.699999999999999,"Storeys":null,"StoreysInBasement":null,"DateStamp":1362067200000}},{"type":"Feature","id":50185,"geometry":{"type":"Polygon","coordinates":[[[114.16468465163135,22.445965223922382],[114.16463228807613,22.445912741296549],[114.16468762601582,22.445863526970911],[114.16473975697413,22.445916334567716],[114.16468465163135,22.445965223922382]]]},"properties":{"OBJECTID":50185,"Shape__Length":31.587882077281101,"Shape__Area":62.35109739319762,"GeoRefNo":"3501534052","DateCreate":1114790400000,"BuildingBlockType":"Tower","BuildingCSUID":"3501534052T20050430","BuildingID":1106129435,"Status":"Active","BuildingNameEN":null,"BuildingNameTC":null,"BaseHeight":8.5,"TopHeight":17.600000000000001,"Storeys":null,"StoreysInBasement":null,"DateStamp":1362067200000}},{"type":"Feature","id":50232,"geometry":{"type":"Polygon","coordinates":[[[114.16792965208654,22.446266626089809],[114.16795265086415,22.446275402790796],[114.16793899466892,22.446306490908906],[114.1679159328397,22.446297690091221],[114.16792965208654,22.446266626089809]]]},"properties":{"OBJECTID":50232,"Shape__Length":12.562332219831658,"Shape__Area":9.5292425403925343,"GeoRefNo":"3534734094","DateCreate":1114790400000,"BuildingBlockType":"Tower","BuildingCSUID":"3534734094T20050430","BuildingID":1106129278,"Status":"Active","BuildingNameEN":"LOK SIN TONG CHU TING CHEONG HOME FOR THE AGED","BuildingNameTC":"樂善堂朱定昌頤養院","BaseHeight":5.2999999999999998,"TopHeight":7.5999999999999996,"Storeys":null,"StoreysInBasement":null,"DateStamp":1362067200000}},{"type":"Feature","id":50233,"geometry":{"type":"Polygon","coordinates":[[[114.16404054527699,22.445986739946935],[114.16405558089569,22.446017507893238],[114.16402221912061,22.446031701120642],[114.16400694068044,22.446000481629305],[114.16404054527699,22.445986739946935]]]},"properties":{"OBJECTID":50233,"Shape__Length":15.095987901150188,"Shape__Area":14.24248149399808,"GeoRefNo":"3494534064","DateCreate":1114790400000,"BuildingBlockType":"Tower","BuildingCSUID":"3494534064T20050430","BuildingID":1106129391,"Status":"Active","BuildingNameEN":null,"BuildingNameTC":null,"BaseHeight":17.800000000000001,"TopHeight":21.100000000000001,"Storeys":null,"StoreysInBasement":null,"DateStamp":1362067200000}},{"type":"Feature","id":50243,"geometry":{"type":"Polygon","coordinates":[[[114.16269560975695,22.445946324798879],[114.16268543412937,22.44598854127695],[114.16262123063969,22.445975622086507],[114.16263190183089,22.445932493580237],[114.16269560975695,22.445946324798879]]]},"properties":{"OBJECTID":50243,"Shape__Length":23.18767242809238,"Shape__Area":32.698165505007964,"GeoRefNo":"3480434059","DateCreate":1114790400000,"BuildingBlockType":"Tower","BuildingCSUID":"3480434059T20050430","BuildingID":1106129425,"Status":"Active","BuildingNameEN":null,"BuildingNameTC":null,"BaseHeight":46,"TopHeight":53.5,"Storeys":null,"StoreysInBasement":null,"DateStamp":1362067200000}},{"type":"Feature","id":50246,"geometry":{"type":"Polygon","coordinates":[[[114.16432799200493,22.445804834962825],[114.16434401943516,22.445825958435378],[114.16432992202814,22.445840631830766],[114.16430821096009,22.445825233223417],[114.164314896433,22.445805962754076],[114.16432799200493,22.445804834962825]]]},"properties":{"OBJECTID":50246,"Shape__Length":11.447994268035735,"Shape__Area":8.6930080035961304,"GeoRefNo":"3497634043","DateCreate":1114790400000,"BuildingBlockType":"Tower","BuildingCSUID":"3497634043T20050430","BuildingID":1106129503,"Status":"Active","BuildingNameEN":null,"BuildingNameTC":null,"BaseHeight":13.800000000000001,"TopHeight":15.5,"Storeys":null,"StoreysInBasement":null,"DateStamp":1362067200000}},{"type":"Feature","id":50295,"geometry":{"type":"Polygon","coordinates":[[[114.16481962625969,22.446062172876317],[114.16474245666033,22.446126305365315],[114.16470153180019,22.44608456850467],[114.16477789922492,22.446019577540088],[114.16481962625969,22.446062172876317]]]},"properties":{"OBJECTID":50295,"Shape__Length":33.946205654090825,"Shape__Area":67.310974762814922,"GeoRefNo":"3502434068","DateCreate":1114790400000,"BuildingBlockType":"Tower","BuildingCSUID":"3502434068T20050430","BuildingID":1106129346,"Status":"Active","BuildingNameEN":null,"BuildingNameTC":null,"BaseHeight":8.5,"TopHeight":17.5,"Storeys":null,"StoreysInBasement":null,"DateStamp":1362067200000}},{"type":"Feature","id":50296,"geometry":{"type":"Polygon","coordinates":[[[114.1678744114411,22.446185261988489],[114.16791859090239,22.446084972220326],[114.16794689899986,22.446096180574891],[114.16790074747074,22.446196262541058],[114.1678744114411,22.446185261988489]]]},"properties":{"OBJECTID":50296,"Shape__Length":30.198064162740835,"Shape__Area":36.918611996559626,"GeoRefNo":"3534634078","DateCreate":1114790400000,"BuildingBlockType":"Tower","BuildingCSUID":"3534634078T20050430","BuildingID":1106129313,"Status":"Active","BuildingNameEN":"The Lok Sin Tong Wong Siu Sang Polyclinics Tai Po","BuildingNameTC":"樂善堂王兆生大埔分科診所","BaseHeight":6.2000000000000002,"TopHeight":7.9000000000000004,"Storeys":null,"StoreysInBasement":null,"DateStamp":1362067200000}},{"type":"Feature","id":50300,"geometry":{"type":"Polygon","coordinates":[[[114.16492139802855,22.445974001385082],[114.16484533608191,22.44603952361193],[114.16480359030416,22.445996840685417],[114.1648814321011,22.445931147031128],[114.16492139802855,22.445974001385082]]]},"properties":{"OBJECTID":50300,"Shape__Length":34.165450038051937,"Shape__Area":68.068945497700767,"GeoRefNo":"3503534058","DateCreate":1114790400000,"BuildingBlockType":"Tower","BuildingCSUID":"3503534058T20050430","BuildingID":1106129385,"Status":"Active","BuildingNameEN":null,"BuildingNameTC":null,"BaseHeight":8.4000000000000004,"TopHeight":17.300000000000001,"Storeys":null,"StoreysInBasement":null,"DateStamp":1362067200000}},{"type":"Feature","id":50361,"geometry":{"type":"Polygon","coordinates":[[[114.17148233276835,22.445404162520692],[114.17148815509789,22.445403887646137],[114.17152279811857,22.445402252201475],[114.17152463319675,22.44542856854083],[114.17151807448954,22.445428878159678],[114.17152088208661,22.445465933727824],[114.17153259817661,22.445620567726877],[114.1715353442209,22.445656811183159],[114.17152008370746,22.445657638593076],[114.17153991065597,22.446003918950101],[114.17154708763033,22.446129265222105],[114.1713989337151,22.446136259079353],[114.17139175687353,22.446010912800915],[114.17143105109085,22.446009057822028],[114.17142771565226,22.445950803427753],[114.17145439687643,22.44594954384922],[114.17145389865136,22.445940841545603],[114.17144049746798,22.445706786906108],[114.17137714174039,22.445709777738287],[114.17137268592124,22.445631954850761],[114.17137402607059,22.445631891592654],[114.17142648405164,22.445629415222822],[114.17141840365286,22.445516370101782],[114.17141479348921,22.445465864998145],[114.17141239199076,22.445431425654721],[114.17148363838258,22.445428062383669],[114.17148233276835,22.445404162520692]]]},"properties":{"OBJECTID":50361,"Shape__Length":208.96478437362958,"Shape__Area":899.01780751047943,"GeoRefNo":"3571234073","DateCreate":1114790400000,"BuildingBlockType":"Tower","BuildingCSUID":"3571234073T20050430","BuildingID":1106129342,"Status":"Active","BuildingNameEN":"Wong Shiu Chi Secondary School","BuildingNameTC":"王肇枝中學","BaseHeight":5.2000000000000002,"TopHeight":19.800000000000001,"Storeys":null,"StoreysInBasement":null,"DateStamp":1362067200000}},{"type":"Feature","id":50362,"geometry":{"type":"Polygon","coordinates":[[[114.16484533608191,22.44603952361193],[114.16492139802855,22.445974001385082],[114.16496211583402,22.446017661932832],[114.16488602054349,22.446081121439867],[114.16484533608191,22.44603952361193]]]},"properties":{"OBJECTID":50362,"Shape__Length":33.821978271531492,"Shape__Area":66.888305476095795,"GeoRefNo":"3503834063","DateCreate":1114790400000,"BuildingBlockType":"Tower","BuildingCSUID":"3503834063T20050430","BuildingID":1106129369,"Status":"Active","BuildingNameEN":null,"BuildingNameTC":null,"BaseHeight":8.4000000000000004,"TopHeight":17.199999999999999,"Storeys":null,"StoreysInBasement":null,"DateStamp":1362067200000}},{"type":"Feature","id":50363,"geometry":{"type":"Polygon","coordinates":[[[114.16406971005642,22.445974840118883],[114.16408424049236,22.446005833783964],[114.16406027329057,22.446015675082723],[114.1640454902538,22.445984916187289],[114.16406971005642,22.445974840118883]]]},"properties":{"OBJECTID":50363,"Shape__Length":12.902935736575934,"Shape__Area":10.143547000515527,"GeoRefNo":"3494934062","DateCreate":1114790400000,"BuildingBlockType":"Tower","BuildingCSUID":"3494934062T20050430","BuildingID":1106129404,"Status":"Active","BuildingNameEN":null,"BuildingNameTC":null,"BaseHeight":17.5,"TopHeight":21.100000000000001,"Storeys":null,"StoreysInBasement":null,"DateStamp":1362067200000}},{"type":"Feature","id":50370,"geometry":{"type":"Polygon","coordinates":[[[114.16468762601582,22.445863526970911],[114.16463228807613,22.445912741296549],[114.16457775991732,22.445858089103123],[114.16463504544146,22.445810263826878],[114.16468762601582,22.445863526970911]]]},"properties":{"OBJECTID":50370,"Shape__Length":32.068647475117892,"Shape__Area":64.253847606769583,"GeoRefNo":"3500934046","DateCreate":1114790400000,"BuildingBlockType":"Tower","BuildingCSUID":"3500934046T20050430","BuildingID":1106129467,"Status":"Active","BuildingNameEN":null,"BuildingNameTC":null,"BaseHeight":8.5,"TopHeight":17.5,"Storeys":null,"StoreysInBasement":null,"DateStamp":1362067200000}},{"type":"Feature","id":50381,"geometry":{"type":"Polygon","coordinates":[[[114.16412854742364,22.445921890182905],[114.16415490824146,22.445976996083765],[114.16409338236954,22.446002628695052],[114.16406677872313,22.445947297003769],[114.16412854742364,22.445921890182905]]]},"properties":{"OBJECTID":50381,"Shape__Length":27.282817502546688,"Shape__Area":46.506011998085881,"GeoRefNo":"3495434059","DateCreate":1114790400000,"BuildingBlockType":"Tower","BuildingCSUID":"3495434059T20050430","BuildingID":1106129414,"Status":"Active","BuildingNameEN":null,"BuildingNameTC":null,"BaseHeight":16.600000000000001,"TopHeight":24.399999999999999,"Storeys":null,"StoreysInBasement":null,"DateStamp":1362067200000}},{"type":"Feature","id":50384,"geometry":{"type":"Polygon","coordinates":[[[114.16483258807136,22.445820738795419],[114.16488893279576,22.445772000470267],[114.16494131443791,22.445827069246739],[114.16488576325031,22.445875337071662],[114.16483258807136,22.445820738795419]]]},"properties":{"OBJECTID":50384,"Shape__Length":32.045698892809547,"Shape__Area":64.149473340036423,"GeoRefNo":"3503634042","DateCreate":1114790400000,"BuildingBlockType":"Tower","BuildingCSUID":"3503634042T20050430","BuildingID":1106129486,"Status":"Active","BuildingNameEN":null,"BuildingNameTC":null,"BaseHeight":8.5999999999999996,"TopHeight":17.800000000000001,"Storeys":null,"StoreysInBasement":null,"DateStamp":1362067200000}},{"type":"Feature","id":50385,"geometry":{"type":"Polygon","coordinates":[[[114.16475375877013,22.445889124241067],[114.16481099802576,22.445838799991929],[114.1648627191551,22.445891622599511],[114.16480521679884,22.445942204034363],[114.16475375877013,22.445889124241067]]]},"properties":{"OBJECTID":50385,"Shape__Length":32.08101581335039,"Shape__Area":64.297114660363391,"GeoRefNo":"3502834051","DateCreate":1114790400000,"BuildingBlockType":"Tower","BuildingCSUID":"3502834051T20050430","BuildingID":1106129449,"Status":"Active","BuildingNameEN":null,"BuildingNameTC":null,"BaseHeight":8.5,"TopHeight":17.699999999999999,"Storeys":null,"StoreysInBasement":null,"DateStamp":1362067200000}},{"type":"Feature","id":50430,"geometry":{"type":"Polygon","coordinates":[[[114.16478226104547,22.446166899327828],[114.16485949747738,22.446102873745648],[114.16489906622701,22.446143265831385],[114.16482169826777,22.446207118940691],[114.16478226104547,22.446166899327828]]]},"properties":{"OBJECTID":50430,"Shape__Length":33.378257058262548,"Shape__Area":64.306476237812632,"GeoRefNo":"3503234078","DateCreate":1114790400000,"BuildingBlockType":"Tower","BuildingCSUID":"3503234078T20050430","BuildingID":1106129306,"Status":"Active","BuildingNameEN":null,"BuildingNameTC":null,"BaseHeight":8.4000000000000004,"TopHeight":17.699999999999999,"Storeys":null,"StoreysInBasement":null,"DateStamp":1362067200000}},{"type":"Feature","id":50431,"geometry":{"type":"Polygon","coordinates":[[[114.17166994078995,22.4457867146556],[114.17167241868304,22.445819419516877],[114.17176294677012,22.445814067510366],[114.17176622764005,22.445813864428303],[114.17179031845774,22.446162602971395],[114.17179031845676,22.446162630062755],[114.17176139734201,22.446164339704136],[114.17163616693101,22.446171742313787],[114.17163318474971,22.446128546398082],[114.17161215369526,22.445823914652532],[114.17161068038008,22.445802575010291],[114.17160983080161,22.445790267919016],[114.17166994078995,22.4457867146556]]]},"properties":{"OBJECTID":50431,"Shape__Length":116.43691709842537,"Shape__Area":637.84422990567748,"GeoRefNo":"3573534063","DateCreate":1114790400000,"BuildingBlockType":"Tower","BuildingCSUID":"3573534063T20050430","BuildingID":1106129321,"Status":"Active","BuildingNameEN":"WONG SHIU CHI SECONDARY SCHOOL","BuildingNameTC":"王肇枝中學","BaseHeight":5.0999999999999996,"TopHeight":15,"Storeys":2,"StoreysInBasement":null,"DateStamp":1599580800000}},{"type":"Feature","id":50445,"geometry":{"type":"Polygon","coordinates":[[[114.16553985875517,22.44554769185822],[114.16548424968538,22.445572205638914],[114.16546682405499,22.44554048945783],[114.16552439556131,22.445515081805656],[114.16553985875517,22.44554769185822]]]},"properties":{"OBJECTID":50445,"Shape__Length":20.785478543608889,"Shape__Area":25.426035998919826,"GeoRefNo":"3509734012","DateCreate":1114790400000,"BuildingBlockType":"Tower","BuildingCSUID":"3509734012T20050430","BuildingID":1106129633,"Status":"Active","BuildingNameEN":null,"BuildingNameTC":null,"BaseHeight":6.7000000000000002,"TopHeight":16.300000000000001,"Storeys":null,"StoreysInBasement":null,"DateStamp":1362067200000}},{"type":"Feature","id":50450,"geometry":{"type":"Polygon","coordinates":[[[114.16566698380454,22.445475750473253],[114.1656491636663,22.445438738013117],[114.16563206269483,22.445403219328192],[114.16565944948744,22.445391743610191],[114.16568241140524,22.445438740314334],[114.16569480554975,22.445464107716052],[114.16566698380454,22.445475750473253]]]},"properties":{"OBJECTID":50450,"Shape__Length":23.833621599603475,"Shape__Area":27.426028483805133,"GeoRefNo":"3511434001","DateCreate":1114790400000,"BuildingBlockType":"Tower","BuildingCSUID":"3511434001T20050430","BuildingID":1106129695,"Status":"Active","BuildingNameEN":null,"BuildingNameTC":null,"BaseHeight":6.4000000000000004,"TopHeight":11.4,"Storeys":null,"StoreysInBasement":null,"DateStamp":1362067200000}},{"type":"Feature","id":50453,"geometry":{"type":"Polygon","coordinates":[[[114.16556934875294,22.445516617869746],[114.16553461333477,22.445444052762461],[114.16554731381349,22.445438730921062],[114.16555961791744,22.445433575211322],[114.16556210835348,22.445438731955232],[114.16559461594282,22.445506041719064],[114.16556934875294,22.445516617869746]]]},"properties":{"OBJECTID":50453,"Shape__Length":23.267188891528285,"Shape__Area":24.960981951743161,"GeoRefNo":"3510434005","DateCreate":1114790400000,"BuildingBlockType":"Tower","BuildingCSUID":"3510434005T20050430","BuildingID":1106129672,"Status":"Active","BuildingNameEN":null,"BuildingNameTC":null,"BaseHeight":6.5999999999999996,"TopHeight":13.699999999999999,"Storeys":null,"StoreysInBasement":null,"DateStamp":1362067200000}},{"type":"Feature","id":50480,"geometry":{"type":"Polygon","coordinates":[[[114.16510709104986,22.446094208426533],[114.16516580021549,22.446046046953281],[114.16521718676741,22.446100251442406],[114.16515906907669,22.446147873858763],[114.16510709104986,22.446094208426533]]]},"properties":{"OBJECTID":50480,"Shape__Length":32.03192837273663,"Shape__Area":64.126009235396495,"GeoRefNo":"3506234074","DateCreate":1114790400000,"BuildingBlockType":"Tower","BuildingCSUID":"3506234074T20050430","BuildingID":1106129334,"Status":"Active","BuildingNameEN":null,"BuildingNameTC":null,"BaseHeight":8.3000000000000007,"TopHeight":17.5,"Storeys":null,"StoreysInBasement":null,"DateStamp":1362067200000}},{"type":"Feature","id":50490,"geometry":{"type":"Polygon","coordinates":[[[114.16941345932132,22.446086183936426],[114.16940610513778,22.446088244347447],[114.16939845500197,22.446063744374669],[114.16941346073367,22.446059653276823],[114.16944223626506,22.446051808127141],[114.16945028852524,22.446075865624078],[114.16941345932132,22.446086183936426]]]},"properties":{"OBJECTID":50490,"Shape__Length":15.061682970117737,"Shape__Area":13.26004669281197,"GeoRefNo":"3550034070","DateCreate":1114790400000,"BuildingBlockType":"Tower","BuildingCSUID":"3550034070T20050430","BuildingID":1106129366,"Status":"Active","BuildingNameEN":null,"BuildingNameTC":null,"BaseHeight":15.9,"TopHeight":18.100000000000001,"Storeys":null,"StoreysInBasement":null,"DateStamp":1362067200000}},{"type":"Feature","id":50491,"geometry":{"type":"Polygon","coordinates":[[[114.16502855939844,22.446170513281711],[114.16497710733401,22.446118421222142],[114.16503413074324,22.446069221351522],[114.16508565580158,22.446123229209221],[114.16502855939844,22.446170513281711]]]},"properties":{"OBJECTID":50491,"Shape__Length":31.704694686139717,"Shape__Area":62.817921459739608,"GeoRefNo":"3505034076","DateCreate":1114790400000,"BuildingBlockType":"Tower","BuildingCSUID":"3505034076T20050430","BuildingID":1106129323,"Status":"Active","BuildingNameEN":null,"BuildingNameTC":null,"BaseHeight":8.3000000000000007,"TopHeight":16.899999999999999,"Storeys":null,"StoreysInBasement":null,"DateStamp":1362067200000}},{"type":"Feature","id":50497,"geometry":{"type":"Polygon","coordinates":[[[114.16550081067408,22.445604400371344],[114.16548424968538,22.445572205638914],[114.16553985875517,22.44554769185822],[114.16555616863552,22.44557979563081],[114.16550081067408,22.445604400371344]]]},"properties":{"OBJECTID":50497,"Shape__Length":20.534781638582736,"Shape__Area":24.933730341026077,"GeoRefNo":"3509934017","DateCreate":1114790400000,"BuildingBlockType":"Tower","BuildingCSUID":"3509934017T20050430","BuildingID":1106129615,"Status":"Active","BuildingNameEN":null,"BuildingNameTC":null,"BaseHeight":6.5999999999999996,"TopHeight":16.300000000000001,"Storeys":null,"StoreysInBasement":null,"DateStamp":1362067200000}},{"type":"Feature","id":50510,"geometry":{"type":"Polygon","coordinates":[[[114.16553461333477,22.445444052762461],[114.16556934875294,22.445516617869746],[114.16554117180432,22.445528411930784],[114.16550643785411,22.445455858828165],[114.16553461333477,22.445444052762461]]]},"properties":{"OBJECTID":50510,"Shape__Length":23.9513575730479,"Shape__Area":27.976283746911857,"GeoRefNo":"3510034006","DateCreate":1114790400000,"BuildingBlockType":"Tower","BuildingCSUID":"3510034006T20050430","BuildingID":1106129669,"Status":"Active","BuildingNameEN":null,"BuildingNameTC":null,"BaseHeight":6.5999999999999996,"TopHeight":13.699999999999999,"Storeys":null,"StoreysInBasement":null,"DateStamp":1362067200000}},{"type":"Feature","id":50511,"geometry":{"type":"Polygon","coordinates":[[[114.16573233815042,22.445542379686309],[114.16569860317159,22.445472099478529],[114.16572895140389,22.445459437622407],[114.16576244681283,22.44552993246144],[114.16573233815042,22.445542379686309]]]},"properties":{"OBJECTID":50511,"Shape__Length":23.872178967536904,"Shape__Area":29.063916585500998,"GeoRefNo":"3512134008","DateCreate":1114790400000,"BuildingBlockType":"Tower","BuildingCSUID":"3512134008T20050430","BuildingID":1106129658,"Status":"Active","BuildingNameEN":null,"BuildingNameTC":null,"BaseHeight":6.2000000000000002,"TopHeight":15.6,"Storeys":null,"StoreysInBasement":null,"DateStamp":1362067200000}},{"type":"Feature","id":50556,"geometry":{"type":"Polygon","coordinates":[[[114.16468465163135,22.445965223922382],[114.16473975697413,22.445916334567716],[114.16479417239039,22.445971456281232],[114.16473811697776,22.446018810857364],[114.16468465163135,22.445965223922382]]]},"properties":{"OBJECTID":50556,"Shape__Length":32.016018459894745,"Shape__Area":64.024159447077864,"GeoRefNo":"3502034058","DateCreate":1114790400000,"BuildingBlockType":"Tower","BuildingCSUID":"3502034058T20050430","BuildingID":1106129400,"Status":"Active","BuildingNameEN":null,"BuildingNameTC":null,"BaseHeight":8.5,"TopHeight":17.5,"Storeys":null,"StoreysInBasement":null,"DateStamp":1362067200000}},{"type":"Feature","id":50558,"geometry":{"type":"Polygon","coordinates":[[[114.16488602054349,22.446081121439867],[114.16496211583402,22.446017661932832],[114.16499916852291,22.446057392509179],[114.16492500936839,22.446120985465779],[114.16488602054349,22.446081121439867]]]},"properties":{"OBJECTID":50558,"Shape__Length":32.697690836339788,"Shape__Area":61.612417452780662,"GeoRefNo":"3504134069","DateCreate":1114790400000,"BuildingBlockType":"Tower","BuildingCSUID":"3504134069T20050430","BuildingID":1106129349,"Status":"Active","BuildingNameEN":null,"BuildingNameTC":null,"BaseHeight":8.4000000000000004,"TopHeight":17.300000000000001,"Storeys":null,"StoreysInBasement":null,"DateStamp":1362067200000}},{"type":"Feature","id":50559,"geometry":{"type":"Polygon","coordinates":[[[114.16474245666033,22.446126305365315],[114.16481962625969,22.446062172876317],[114.16485949747738,22.446102873745648],[114.16478226104547,22.446166899327828],[114.16474245666033,22.446126305365315]]]},"properties":{"OBJECTID":50559,"Shape__Length":33.485938572147028,"Shape__Area":64.868970192812611,"GeoRefNo":"3502834073","DateCreate":1114790400000,"BuildingBlockType":"Tower","BuildingCSUID":"3502834073T20050430","BuildingID":1106129326,"Status":"Active","BuildingNameEN":null,"BuildingNameTC":null,"BaseHeight":8.4000000000000004,"TopHeight":17.600000000000001,"Storeys":null,"StoreysInBasement":null,"DateStamp":1362067200000}},{"type":"Feature","id":50560,"geometry":{"type":"Polygon","coordinates":[[[114.16267922353714,22.446016760899226],[114.16267053486379,22.446053008376737],[114.16257498239078,22.446034550745495],[114.16258317556519,22.445998989543757],[114.16267922353714,22.446016760899226]]]},"properties":{"OBJECTID":50560,"Shape__Length":28.266268670069721,"Shape__Area":40.95066650815383,"GeoRefNo":"3480134066","DateCreate":1114790400000,"BuildingBlockType":"Tower","BuildingCSUID":"3480134066T20050430","BuildingID":1106129381,"Status":"Active","BuildingNameEN":null,"BuildingNameTC":null,"BaseHeight":46,"TopHeight":51.899999999999999,"Storeys":null,"StoreysInBasement":null,"DateStamp":1362067200000}},{"type":"Feature","id":50561,"geometry":{"type":"Polygon","coordinates":[[[114.16516580021549,22.446046046953281],[114.16510709104986,22.446094208426533],[114.16505457935178,22.446041485536973],[114.16511333433922,22.445992498521782],[114.16516580021549,22.446046046953281]]]},"properties":{"OBJECTID":50561,"Shape__Length":32.161354594277576,"Shape__Area":64.635325868317992,"GeoRefNo":"3505934066","DateCreate":1114790400000,"BuildingBlockType":"Tower","BuildingCSUID":"3505934066T20050430","BuildingID":1106129361,"Status":"Active","BuildingNameEN":null,"BuildingNameTC":null,"BaseHeight":8.3000000000000007,"TopHeight":17.5,"Storeys":null,"StoreysInBasement":null,"DateStamp":1362067200000}},{"type":"Feature","id":50807,"geometry":{"type":"Polygon","coordinates":[[[114.16580133653244,22.445226216748644],[114.16578885127552,22.445200726895177],[114.16581289984552,22.445190548508272],[114.16582532012491,22.445215907865428],[114.16580133653244,22.445226216748644]]]},"properties":{"OBJECTID":50807,"Shape__Length":11.626961808840681,"Shape__Area":8.4141864086802833,"GeoRefNo":"3512833975","DateCreate":1114790400000,"BuildingBlockType":"Tower","BuildingCSUID":"3512833975T20050430","BuildingID":1106129853,"Status":"Active","BuildingNameEN":null,"BuildingNameTC":null,"BaseHeight":7.5999999999999996,"TopHeight":17.5,"Storeys":null,"StoreysInBasement":null,"DateStamp":1362067200000}},{"type":"Feature","id":50809,"geometry":{"type":"Polygon","coordinates":[[[114.1666088011187,22.445119647362869],[114.1666223304249,22.445164177390772],[114.16656230212057,22.445180410337642],[114.1665490157333,22.445135419767123],[114.1666088011187,22.445119647362869]]]},"properties":{"OBJECTID":50809,"Shape__Length":23.122836170894299,"Shape__Area":33.011193498658535,"GeoRefNo":"3520933969","DateCreate":1114790400000,"BuildingBlockType":"Tower","BuildingCSUID":"3520933969T20050430","BuildingID":1106129871,"Status":"Active","BuildingNameEN":null,"BuildingNameTC":null,"BaseHeight":6,"TopHeight":10.199999999999999,"Storeys":null,"StoreysInBasement":null,"DateStamp":1362067200000}},{"type":"Feature","id":50935,"geometry":{"type":"Polygon","coordinates":[[[114.16649784553324,22.445174608669721],[114.16654525218426,22.445189114609423],[114.16651823980769,22.445263668316187],[114.16647084286629,22.445248927577477],[114.16649784553324,22.445174608669721]]]},"properties":{"OBJECTID":50935,"Shape__Length":27.680195436398584,"Shape__Area":44.721729004626447,"GeoRefNo":"3520133975","DateCreate":1114790400000,"BuildingBlockType":"Tower","BuildingCSUID":"3520133975T20050430","BuildingID":1106129831,"Status":"Active","BuildingNameEN":"Pun Chung Substation","BuildingNameTC":"泮涌變電站","BaseHeight":6.5,"TopHeight":11,"Storeys":null,"StoreysInBasement":null,"DateStamp":1362067200000}},{"type":"Feature","id":50937,"geometry":{"type":"Polygon","coordinates":[[[114.17067650269614,22.445247192329784],[114.17074941066419,22.445267161431271],[114.17074007369541,22.445293204909312],[114.17066814685025,22.445274364647972],[114.17067650269614,22.445247192329784]]]},"properties":{"OBJECTID":50937,"Shape__Length":21.685535510955368,"Shape__Area":23.92089349654853,"GeoRefNo":"3563333982","DateCreate":1114790400000,"BuildingBlockType":"Tower","BuildingCSUID":"3563333982T20050430","BuildingID":1106129817,"Status":"Active","BuildingNameEN":"LAW TING PONG SCOUT CENTRE","BuildingNameTC":"羅定邦童軍中心","BaseHeight":36.600000000000001,"TopHeight":39.5,"Storeys":null,"StoreysInBasement":null,"DateStamp":1362067200000}},{"type":"Feature","id":50938,"geometry":{"type":"Polygon","coordinates":[[[114.16592217458836,22.445273338019895],[114.16588751807068,22.445202699458491],[114.1659139980988,22.445191623594283],[114.16594863810606,22.445262340352738],[114.16592217458836,22.445273338019895]]]},"properties":{"OBJECTID":50938,"Shape__Length":23.174766642628104,"Shape__Area":25.685795918532893,"GeoRefNo":"3514133980","DateCreate":1114790400000,"BuildingBlockType":"Tower","BuildingCSUID":"3514133980T20050430","BuildingID":1106129828,"Status":"Active","BuildingNameEN":null,"BuildingNameTC":null,"BaseHeight":6.7999999999999998,"TopHeight":11.6,"Storeys":null,"StoreysInBasement":null,"DateStamp":1362067200000}},{"type":"Feature","id":50982,"geometry":{"type":"Polygon","coordinates":[[[114.17063341316292,22.445355745771348],[114.17070202774165,22.445365203280073],[114.17069716900957,22.445396475558539],[114.17062832125264,22.445387243800184],[114.17063341316292,22.445355745771348]]]},"properties":{"OBJECTID":50982,"Shape__Length":21.326541658895678,"Shape__Area":25.118826498733799,"GeoRefNo":"3562833994","DateCreate":1114790400000,"BuildingBlockType":"Tower","BuildingCSUID":"3562833994T20050430","BuildingID":1106129746,"Status":"Active","BuildingNameEN":"LAW TING PONG SCOUT CENTRE","BuildingNameTC":"羅定邦童軍中心","BaseHeight":41,"TopHeight":44,"Storeys":null,"StoreysInBasement":null,"DateStamp":1362067200000}},{"type":"Feature","id":51041,"geometry":{"type":"Polygon","coordinates":[[[114.16571762410477,22.445358760011391],[114.16568323032365,22.445287300285806],[114.16570866398256,22.445276609351382],[114.16574340780002,22.44534800651466],[114.16571762410477,22.445358760011391]]]},"properties":{"OBJECTID":51041,"Shape__Length":23.128897050177272,"Shape__Area":25.07565034767919,"GeoRefNo":"3511933988","DateCreate":1114790400000,"BuildingBlockType":"Tower","BuildingCSUID":"3511933988T20050430","BuildingID":1106129768,"Status":"Active","BuildingNameEN":null,"BuildingNameTC":null,"BaseHeight":6.7999999999999998,"TopHeight":14.699999999999999,"Storeys":null,"StoreysInBasement":null,"DateStamp":1362067200000}},{"type":"Feature","id":51042,"geometry":{"type":"Polygon","coordinates":[[[114.16557591410442,22.445418592748695],[114.16554103183331,22.445347072997063],[114.16559000543867,22.44532648716206],[114.16562435020073,22.445398180973125],[114.16557591410442,22.445418592748695]]]},"properties":{"OBJECTID":51042,"Shape__Length":28.393402450524988,"Shape__Area":47.842437575508747,"GeoRefNo":"3510533994","DateCreate":1114790400000,"BuildingBlockType":"Tower","BuildingCSUID":"3510533994T20050430","BuildingID":1106129735,"Status":"Active","BuildingNameEN":null,"BuildingNameTC":null,"BaseHeight":6.7999999999999998,"TopHeight":14.5,"Storeys":null,"StoreysInBasement":null,"DateStamp":1362067200000}}]}