{"type":"FeatureCollection","features":[{"type":"Feature","id":51043,"geometry":{"type":"Polygon","coordinates":[[[114.16582235429786,22.445410592969221],[114.165786678361,22.44533840198271],[114.1658190268881,22.445324808303493],[114.16585383393215,22.445397281244951],[114.16582235429786,22.445410592969221]]]},"properties":{"OBJECTID":51043,"Shape__Length":24.800439048114185,"Shape__Area":31.71728010587681,"GeoRefNo":"3513133994","DateCreate":1114790400000,"BuildingBlockType":"Tower","BuildingCSUID":"3513133994T20050430","BuildingID":1106129737,"Status":"Active","BuildingNameEN":null,"BuildingNameTC":null,"BaseHeight":6.4000000000000004,"TopHeight":14.6,"Storeys":null,"StoreysInBasement":null,"DateStamp":1362067200000}},{"type":"Feature","id":51045,"geometry":{"type":"Polygon","coordinates":[[[114.16391882137783,22.445336257629911],[114.16396544794901,22.445379905540005],[114.16390661057871,22.445434688602329],[114.16386022683261,22.445391501248238],[114.16391882137783,22.445336257629911]]]},"properties":{"OBJECTID":51045,"Shape__Length":30.732540499700576,"Shape__Area":58.221969998114012,"GeoRefNo":"3493433996","DateCreate":1114790400000,"BuildingBlockType":"Tower","BuildingCSUID":"3493433996T20050430","BuildingID":1106129718,"Status":"Active","BuildingNameEN":null,"BuildingNameTC":null,"BaseHeight":22.300000000000001,"TopHeight":24.5,"Storeys":null,"StoreysInBasement":null,"DateStamp":1362067200000}},{"type":"Feature","id":51099,"geometry":{"type":"Polygon","coordinates":[[[114.16538178484737,22.445374016234318],[114.16536456261703,22.445340837483503],[114.16542064084121,22.445316259299059],[114.16543770185731,22.445348953006906],[114.16538178484737,22.445374016234318]]]},"properties":{"OBJECTID":51099,"Shape__Length":20.875363453440698,"Shape__Area":25.873284615979326,"GeoRefNo":"3508733990","DateCreate":1114790400000,"BuildingBlockType":"Tower","BuildingCSUID":"3508733990T20050430","BuildingID":1106129760,"Status":"Active","BuildingNameEN":null,"BuildingNameTC":null,"BaseHeight":7.7000000000000002,"TopHeight":18.600000000000001,"Storeys":null,"StoreysInBasement":null,"DateStamp":1362067200000}},{"type":"Feature","id":51100,"geometry":{"type":"Polygon","coordinates":[[[114.16581424010026,22.445318192807694],[114.16577985805245,22.445247730877991],[114.16580704787719,22.445236358068403],[114.16584178336278,22.445306746508585],[114.16581424010026,22.445318192807694]]]},"properties":{"OBJECTID":51100,"Shape__Length":23.318146749102642,"Shape__Area":26.463488863637942,"GeoRefNo":"3512933984","DateCreate":1114790400000,"BuildingBlockType":"Tower","BuildingCSUID":"3512933984T20050430","BuildingID":1106129800,"Status":"Active","BuildingNameEN":null,"BuildingNameTC":null,"BaseHeight":6.9000000000000004,"TopHeight":12.9,"Storeys":null,"StoreysInBasement":null,"DateStamp":1362067200000}},{"type":"Feature","id":51103,"geometry":{"type":"Polygon","coordinates":[[[114.16550695234203,22.445349472528559],[114.16546258306252,22.445368142942293],[114.16542833466535,22.445298804697391],[114.16547279972121,22.445280050226135],[114.16550695234203,22.445349472528559]]]},"properties":{"OBJECTID":51103,"Shape__Length":26.941814940151382,"Shape__Area":42.422498625699617,"GeoRefNo":"3509433989","DateCreate":1114790400000,"BuildingBlockType":"Tower","BuildingCSUID":"3509433989T20050430","BuildingID":1106129764,"Status":"Active","BuildingNameEN":null,"BuildingNameTC":null,"BaseHeight":7.5,"TopHeight":15.300000000000001,"Storeys":null,"StoreysInBasement":null,"DateStamp":1362067200000}},{"type":"Feature","id":51104,"geometry":{"type":"Polygon","coordinates":[[[114.16553598991771,22.445337254914861],[114.1655013807783,22.445267995315188],[114.16555805955474,22.445244089261664],[114.16556027417234,22.445248225364491],[114.16559169866557,22.445313812315042],[114.16553598991771,22.445337254914861]]]},"properties":{"OBJECTID":51104,"Shape__Length":29.62036354410407,"Shape__Area":53.80803835097845,"GeoRefNo":"3510233985","DateCreate":1114790400000,"BuildingBlockType":"Tower","BuildingCSUID":"3510233985T20050430","BuildingID":1106129785,"Status":"Active","BuildingNameEN":null,"BuildingNameTC":null,"BaseHeight":7.4000000000000004,"TopHeight":17.100000000000001,"Storeys":null,"StoreysInBasement":null,"DateStamp":1362067200000}},{"type":"Feature","id":51105,"geometry":{"type":"Polygon","coordinates":[[[114.16585248616271,22.445204231081409],[114.16581922852852,22.445134667224032],[114.1658515522363,22.445121028113061],[114.16588546865293,22.44519038963611],[114.16585248616271,22.445204231081409]]]},"properties":{"OBJECTID":51105,"Shape__Length":24.245896239917442,"Shape__Area":31.115076254970628,"GeoRefNo":"3513433971","DateCreate":1114790400000,"BuildingBlockType":"Tower","BuildingCSUID":"3513433971T20050430","BuildingID":1106129862,"Status":"Active","BuildingNameEN":null,"BuildingNameTC":null,"BaseHeight":7.5,"TopHeight":17.800000000000001,"Storeys":null,"StoreysInBasement":null,"DateStamp":1362067200000}},{"type":"Feature","id":51106,"geometry":{"type":"Polygon","coordinates":[[[114.16582532012491,22.445215907865428],[114.16581289984552,22.445190548508272],[114.16579135971686,22.445146641778866],[114.16581922852852,22.445134667224032],[114.16585248616271,22.445204231081409],[114.16582532012491,22.445215907865428]]]},"properties":{"OBJECTID":51106,"Shape__Length":23.100272015474005,"Shape__Area":26.298467148712952,"GeoRefNo":"3513033971","DateCreate":1114790400000,"BuildingBlockType":"Tower","BuildingCSUID":"3513033971T20050430","BuildingID":1106129857,"Status":"Active","BuildingNameEN":null,"BuildingNameTC":null,"BaseHeight":7.5999999999999996,"TopHeight":17.399999999999999,"Storeys":null,"StoreysInBasement":null,"DateStamp":1362067200000}},{"type":"Feature","id":51168,"geometry":{"type":"Polygon","coordinates":[[[114.16582053225619,22.445123399382833],[114.16578731005896,22.44505577941629],[114.16581916829504,22.445042467182244],[114.1658526109492,22.445109855435899],[114.16582053225619,22.445123399382833]]]},"properties":{"OBJECTID":51168,"Shape__Length":23.672255692169696,"Shape__Area":29.700796280527591,"GeoRefNo":"3513133963","DateCreate":1114790400000,"BuildingBlockType":"Tower","BuildingCSUID":"3513133963T20050430","BuildingID":1106129895,"Status":"Active","BuildingNameEN":null,"BuildingNameTC":null,"BaseHeight":7.9000000000000004,"TopHeight":14,"Storeys":null,"StoreysInBasement":null,"DateStamp":1362067200000}},{"type":"Feature","id":51169,"geometry":{"type":"Polygon","coordinates":[[[114.1658526109492,22.445109855435899],[114.16581916829504,22.445042467182244],[114.16585506408178,22.445027467876219],[114.16588755556498,22.445095101415493],[114.1658526109492,22.445109855435899]]]},"properties":{"OBJECTID":51169,"Shape__Length":24.422353443670289,"Shape__Area":32.847978559306696,"GeoRefNo":"3513433962","DateCreate":1114790400000,"BuildingBlockType":"Tower","BuildingCSUID":"3513433962T20050430","BuildingID":1106129904,"Status":"Active","BuildingNameEN":null,"BuildingNameTC":null,"BaseHeight":7.7999999999999998,"TopHeight":14.1,"Storeys":null,"StoreysInBasement":null,"DateStamp":1362067200000}},{"type":"Feature","id":53880,"geometry":{"type":"Polygon","coordinates":[[[114.16585368246784,22.444816409258873],[114.16582353092899,22.444827658970404],[114.16579149267713,22.444765578725278],[114.16582609793211,22.444750161768603],[114.16585368246784,22.444816409258873]]]},"properties":{"OBJECTID":53880,"Shape__Length":22.785561303708317,"Shape__Area":28.212333045165312,"GeoRefNo":"3513033929","DateCreate":1374595200000,"BuildingBlockType":"Open-sided Structure","BuildingCSUID":"3513033929T20130724","BuildingID":1810103025,"Status":"Active","BuildingNameEN":null,"BuildingNameTC":null,"BaseHeight":null,"TopHeight":null,"Storeys":null,"StoreysInBasement":null,"DateStamp":1376236800000}},{"type":"Feature","id":58083,"geometry":{"type":"Polygon","coordinates":[[[114.16503068452438,22.442531043707504],[114.16495921356977,22.44245370532964],[114.16500109215177,22.442420265370778],[114.16507232590372,22.442498523826416],[114.16503068452438,22.442531043707504]]]},"properties":{"OBJECTID":58083,"Shape__Length":33.923855404239518,"Shape__Area":63.858216647442767,"GeoRefNo":"3504733672","DateCreate":1114790400000,"BuildingBlockType":"Tower","BuildingCSUID":"3504733672T20050430","BuildingID":1106131151,"Status":"Active","BuildingNameEN":null,"BuildingNameTC":null,"BaseHeight":12.300000000000001,"TopHeight":15.800000000000001,"Storeys":null,"StoreysInBasement":null,"DateStamp":1362067200000}},{"type":"Feature","id":58124,"geometry":{"type":"Polygon","coordinates":[[[114.1666318135065,22.443723865166685],[114.16666392414142,22.443709086414085],[114.1666740136001,22.443728060760339],[114.16671476863807,22.44380470525309],[114.16668268573872,22.443819917479225],[114.1666318135065,22.443723865166685]]]},"properties":{"OBJECTID":58124,"Shape__Length":31.062799822818349,"Shape__Area":43.756744209030657,"GeoRefNo":"3521833815","DateCreate":1114790400000,"BuildingBlockType":"Tower","BuildingCSUID":"3521833815T20050430","BuildingID":1106130403,"Status":"Active","BuildingNameEN":null,"BuildingNameTC":null,"BaseHeight":11.1,"TopHeight":16.800000000000001,"Storeys":null,"StoreysInBasement":null,"DateStamp":1561564800000}},{"type":"Feature","id":58231,"geometry":{"type":"Polygon","coordinates":[[[114.16510688352891,22.442588603527888],[114.16506438622012,22.442541279031662],[114.16509108511531,22.442520374022962],[114.1651340764103,22.442567693852276],[114.16510688352891,22.442588603527888]]]},"properties":{"OBJECTID":58231,"Shape__Length":20.91136257503198,"Shape__Area":24.722372904926441,"GeoRefNo":"3505533681","DateCreate":1114790400000,"BuildingBlockType":"Tower","BuildingCSUID":"3505533681T20050430","BuildingID":1106131134,"Status":"Active","BuildingNameEN":null,"BuildingNameTC":null,"BaseHeight":12.199999999999999,"TopHeight":15.800000000000001,"Storeys":null,"StoreysInBasement":null,"DateStamp":1362067200000}},{"type":"Feature","id":58285,"geometry":{"type":"Polygon","coordinates":[[[114.16685068368686,22.442561816386903],[114.16685033912675,22.44254669901871],[114.16687931537579,22.442546826964325],[114.16687952851824,22.442561711699749],[114.16685068368686,22.442561816386903]]]},"properties":{"OBJECTID":58285,"Shape__Length":9.2749316697919877,"Shape__Area":4.9436056710544394,"GeoRefNo":"3523733681","DateCreate":1114790400000,"BuildingBlockType":"Tower","BuildingCSUID":"3523733681T20050430","BuildingID":1106131143,"Status":"Active","BuildingNameEN":null,"BuildingNameTC":null,"BaseHeight":9.5,"TopHeight":12.699999999999999,"Storeys":null,"StoreysInBasement":null,"DateStamp":1362067200000}},{"type":"Feature","id":58979,"geometry":{"type":"Polygon","coordinates":[[[114.16621203005798,22.441400410671399],[114.16621191265347,22.4413896430157],[114.16617159976563,22.441390022887511],[114.16617351426055,22.441259463531392],[114.16626463547223,22.441259356102336],[114.16626457325899,22.441213752281168],[114.16626952153791,22.441209321539596],[114.16628360744947,22.441209304942006],[114.16628359511533,22.441200274482334],[114.16633411010518,22.441200214924873],[114.16636539054117,22.441200177945451],[114.16636555785345,22.441322721192005],[114.16626987081851,22.441322834068355],[114.16626992649881,22.441363651745398],[114.16632134479575,22.441363591077117],[114.16632081669344,22.441410323666325],[114.16623753478252,22.441411121930223],[114.16623723447012,22.44140013184234],[114.16621203005798,22.441400410671399]]]},"properties":{"OBJECTID":58979,"Shape__Length":96.602548339257481,"Shape__Area":317.96015007618968,"GeoRefNo":"3517233543","DateCreate":1177257600000,"BuildingBlockType":"Tower","BuildingCSUID":"3517233543T20070423","BuildingID":1106131559,"Status":"Active","BuildingNameEN":"YAN CHAI HOSPITAL CHOI HIN TO PRIMARY SCHOOL","BuildingNameTC":"仁濟醫院蔡衍濤小學","BaseHeight":10.1,"TopHeight":34.299999999999997,"Storeys":null,"StoreysInBasement":null,"DateStamp":1362067200000}},{"type":"Feature","id":58980,"geometry":{"type":"Polygon","coordinates":[[[114.16225942744781,22.441273628751965],[114.16228893834455,22.441278026177141],[114.16229062967732,22.441268217896859],[114.16230463784864,22.441270364705161],[114.16231520726589,22.441271984456293],[114.16231959485513,22.441246115747422],[114.16230907924951,22.441244574476109],[114.16229493477968,22.441242501434733],[114.16228313047897,22.441240771309054],[114.16228555115043,22.441226498887239],[114.16227595529411,22.4412250924311],[114.16228147871784,22.441192526927647],[114.1623985409432,22.441209692602477],[114.16240235008694,22.441186006862527],[114.1624357778684,22.4411909110392],[114.16243074550654,22.441218202171751],[114.16246795496653,22.441223664039086],[114.16246061166743,22.441268653220916],[114.16245056224257,22.441267220907648],[114.16244658908245,22.441291321764083],[114.1624566784357,22.441292750198031],[114.16252005131807,22.441301792971998],[114.16251837557378,22.441311311829828],[114.16254470858297,22.441314983780504],[114.16253794854259,22.441354439151979],[114.16237489074381,22.441330151837601],[114.16237734938937,22.441315894047325],[114.16238073204319,22.441296277484962],[114.16236634413085,22.441294133538975],[114.16236300276076,22.441313756155139],[114.1623605741308,22.441328019366168],[114.16232805189195,22.441323175217619],[114.16229593056357,22.441318390789956],[114.16225279538472,22.441311965791201],[114.16225942744781,22.441273628751965]]]},"properties":{"OBJECTID":58980,"Shape__Length":111.27337066183759,"Shape__Area":297.3887163831867,"GeoRefNo":"3477633538","DateCreate":1114790400000,"BuildingBlockType":"Tower","BuildingCSUID":"3477633538T20050430","BuildingID":1106131577,"Status":"Active","BuildingNameEN":"Grand Dynasty View Block 31","BuildingNameTC":"御峰豪園第三十一座","BaseHeight":26,"TopHeight":59.899999999999999,"Storeys":10,"StoreysInBasement":null,"DateStamp":1599580800000}},{"type":"Feature","id":59028,"geometry":{"type":"Polygon","coordinates":[[[114.16615470752939,22.441817559342471],[114.16608510767966,22.441888073569306],[114.16607374245993,22.441878897866456],[114.16606090858454,22.441892668458838],[114.16596990929622,22.441817547007609],[114.16588222252187,22.441745152927655],[114.16575729636763,22.441722766925889],[114.16553346940277,22.441795383383564],[114.16552795292395,22.441778911441418],[114.16551635353788,22.441782856938616],[114.16547880564434,22.44168200214321],[114.16549312507078,22.441678047809365],[114.16548735608069,22.44166089856348],[114.16577954513022,22.441566695039505],[114.16583391813894,22.441304454237098],[114.16585295815224,22.441307814864413],[114.1658556209163,22.441294973733225],[114.1659681706961,22.441315119273369],[114.16596476973479,22.441326813488413],[114.16598406232944,22.441330174117258],[114.16593019456481,22.441594708740094],[114.16616563893255,22.441783154019735],[114.16615187237952,22.441798324278874],[114.16616358723765,22.441808556563043],[114.16615470752939,22.441817559342471]]]},"properties":{"OBJECTID":59028,"Shape__Length":241.80691414967711,"Shape__Area":1662.8136425297632,"GeoRefNo":"3515533602","DateCreate":1114790400000,"BuildingBlockType":"Tower","BuildingCSUID":"3515533602T20050430","BuildingID":1106131380,"Status":"Active","BuildingNameEN":"Wan Hang House","BuildingNameTC":"運亨樓","BaseHeight":11,"TopHeight":109.7,"Storeys":35,"StoreysInBasement":null,"DateStamp":1786636800000}},{"type":"Feature","id":59039,"geometry":{"type":"Polygon","coordinates":[[[114.16564291245676,22.440948857753813],[114.16564380360957,22.440980915945488],[114.16567394745427,22.440980340083364],[114.16567464901868,22.441075159951925],[114.16571246719882,22.441075460567628],[114.16571297617737,22.441392908321639],[114.1656529215293,22.441393147994461],[114.16565345097546,22.441453615981995],[114.1656168760865,22.441453992723236],[114.16561732790554,22.441392386966012],[114.16540008391603,22.44139373532008],[114.16539936002991,22.440981007176834],[114.16546238712876,22.440980523985285],[114.16546150558329,22.440950289946066],[114.16564291245676,22.440948857753813]]]},"properties":{"OBJECTID":59039,"Shape__Length":176.24668565608292,"Shape__Area":1519.1606905021258,"GeoRefNo":"3510333535","DateCreate":1114790400000,"BuildingBlockType":"Tower","BuildingCSUID":"3510333535T20050430","BuildingID":1106131543,"Status":"Active","BuildingNameEN":"WAN TAU TONG ESTATE","BuildingNameTC":"運頭塘邨","BaseHeight":11.199999999999999,"TopHeight":22.100000000000001,"Storeys":null,"StoreysInBasement":null,"DateStamp":1362067200000}},{"type":"Feature","id":59041,"geometry":{"type":"Polygon","coordinates":[[[114.16723864319951,22.441171814189268],[114.16732029754701,22.441245877817128],[114.16728022292413,22.441284209747266],[114.16719882116604,22.441209920353103],[114.16723864319951,22.441171814189268]]]},"properties":{"OBJECTID":59041,"Shape__Length":35.288672603451211,"Shape__Area":69.297284501893515,"GeoRefNo":"3527833534","DateCreate":1114790400000,"BuildingBlockType":"Tower","BuildingCSUID":"3527833534T20050430","BuildingID":1106131605,"Status":"Active","BuildingNameEN":"PO LEUNG KUK TIN KA PING PRIMARY SCHOOL","BuildingNameTC":"保良局田家炳小學","BaseHeight":9.3000000000000007,"TopHeight":12.5,"Storeys":null,"StoreysInBasement":null,"DateStamp":1362067200000}},{"type":"Feature","id":59123,"geometry":{"type":"Polygon","coordinates":[[[114.16879806465282,22.442269533532805],[114.16879837292434,22.44231451425803],[114.1686809634502,22.442315411413897],[114.16868140324634,22.442270195934377],[114.16879806465282,22.442269533532805]]]},"properties":{"OBJECTID":59123,"Shape__Length":34.083946691152093,"Shape__Area":60.164649501032486,"GeoRefNo":"3543033652","DateCreate":1114790400000,"BuildingBlockType":"Tower","BuildingCSUID":"3543033652T20050430","BuildingID":1106131233,"Status":"Active","BuildingNameEN":null,"BuildingNameTC":null,"BaseHeight":8.3000000000000007,"TopHeight":12.5,"Storeys":null,"StoreysInBasement":null,"DateStamp":1362067200000}},{"type":"Feature","id":59132,"geometry":{"type":"Polygon","coordinates":[[[114.16794850003876,22.442010197449431],[114.16821815527268,22.442154636186608],[114.1684686222838,22.442019400197626],[114.16847761704012,22.442033578482757],[114.16849116911234,22.442027312046175],[114.16854788658058,22.442117646639634],[114.1685343441478,22.442125068980005],[114.16854433940121,22.442141071465208],[114.16829585397431,22.442276759197313],[114.16829632202054,22.44256548101114],[114.16827882617618,22.442565516206276],[114.16827909743242,22.442577743459953],[114.16816613706902,22.442577240756261],[114.16816637097524,22.442565049651353],[114.16814455217896,22.442564967203708],[114.16814382282956,22.442421301616481],[114.16812522017631,22.442411303897011],[114.16812427459149,22.442308257294027],[114.16810427457499,22.44227417526589],[114.16801050371546,22.442224213673324],[114.16800663881364,22.442201059368188],[114.16787342858049,22.442129973292275],[114.16788150223589,22.442115669495116],[114.16787081668139,22.442109790073832],[114.16792604950824,22.442016066009334],[114.16794052358661,22.442023787849298],[114.16794850003876,22.442010197449431]]]},"properties":{"OBJECTID":59132,"Shape__Length":242.1976718622472,"Shape__Area":1678.3303640151314,"GeoRefNo":"3537533647","DateCreate":1114790400000,"BuildingBlockType":"Tower","BuildingCSUID":"3537533647T20050430","BuildingID":1106131139,"Status":"Active","BuildingNameEN":"Wan Lam House","BuildingNameTC":"運臨樓","BaseHeight":8.4000000000000004,"TopHeight":106.40000000000001,"Storeys":35,"StoreysInBasement":null,"DateStamp":1786636800000}},{"type":"Feature","id":59192,"geometry":{"type":"Polygon","coordinates":[[[114.16884276893063,22.442301413268812],[114.16886477226059,22.442301513692097],[114.16886687715932,22.442356590557399],[114.16884611725142,22.442356932688373],[114.16882771882429,22.442342347587399],[114.16882804093137,22.442315725814154],[114.16884276893063,22.442301413268812]]]},"properties":{"OBJECTID":59192,"Shape__Length":18.135757579404913,"Shape__Area":21.233617001893084,"GeoRefNo":"3544133657","DateCreate":1114790400000,"BuildingBlockType":"Tower","BuildingCSUID":"3544133657T20050430","BuildingID":1106131217,"Status":"Active","BuildingNameEN":null,"BuildingNameTC":null,"BaseHeight":8.5,"TopHeight":11.1,"Storeys":null,"StoreysInBasement":null,"DateStamp":1362067200000}},{"type":"Feature","id":59365,"geometry":{"type":"Polygon","coordinates":[[[114.16820944646922,22.446029848262523],[114.1682499312442,22.446045886068916],[114.16822818542516,22.446093321702005],[114.16818770025029,22.446077284702945],[114.16820944646922,22.446029848262523]]]},"properties":{"OBJECTID":59365,"Shape__Length":20.479902096213983,"Shape__Area":25.866073481291465,"GeoRefNo":"3537734069","DateCreate":1114790400000,"BuildingBlockType":"Tower","BuildingCSUID":"3537734069T20050430","BuildingID":1106129363,"Status":"Active","BuildingNameEN":"IMMACULATE HEART OF MARY CHURCH","BuildingNameTC":"聖母無玷之心堂","BaseHeight":11.300000000000001,"TopHeight":14.699999999999999,"Storeys":null,"StoreysInBasement":null,"DateStamp":1381248000000}},{"type":"Feature","id":59375,"geometry":{"type":"Polygon","coordinates":[[[114.16813183964217,22.446177823246099],[114.1681487113522,22.446143885724727],[114.16819553837969,22.446164001225881],[114.16817824539366,22.446198786147175],[114.16815437581043,22.446188003496822],[114.16813183964217,22.446177823246099]]]},"properties":{"OBJECTID":59375,"Shape__Length":19.004378913239709,"Shape__Area":22.257848946682479,"GeoRefNo":"3537134082","DateCreate":1114790400000,"BuildingBlockType":"Tower","BuildingCSUID":"3537134082T20050430","BuildingID":1106129314,"Status":"Active","BuildingNameEN":"IMMACULATE HEART OF MARY CHURCH","BuildingNameTC":"聖母無玷之心堂","BaseHeight":9.6999999999999993,"TopHeight":14.1,"Storeys":null,"StoreysInBasement":null,"DateStamp":1381248000000}},{"type":"Feature","id":59378,"geometry":{"type":"Polygon","coordinates":[[[114.16805616594084,22.446332722575363],[114.16808223603422,22.446276988124701],[114.16813124097438,22.446296794830502],[114.16810516574816,22.446352527121377],[114.16805616594084,22.446332722575363]]]},"properties":{"OBJECTID":59378,"Shape__Length":24.460576215655593,"Shape__Area":37.016937971341306,"GeoRefNo":"3536334098","DateCreate":1207843200000,"BuildingBlockType":"Open-sided Structure","BuildingCSUID":"3536334098T20080411","BuildingID":1106129262,"Status":"Active","BuildingNameEN":null,"BuildingNameTC":null,"BaseHeight":null,"TopHeight":null,"Storeys":null,"StoreysInBasement":null,"DateStamp":1381248000000}},{"type":"Feature","id":60401,"geometry":{"type":"Polygon","coordinates":[[[114.16698512874247,22.440995786239512],[114.16699954387528,22.44101061513247],[114.16698577761478,22.441024006463799],[114.1670089353026,22.441044741809378],[114.16701876693513,22.441035504248021],[114.16705138572858,22.441066742586539],[114.16698511927294,22.441129870494805],[114.16698090293276,22.441133888791654],[114.16694664245219,22.441101964023698],[114.16695598835305,22.441092997350243],[114.16693440427089,22.441074077216001],[114.16691962778371,22.441086276459007],[114.16688661074114,22.441054803277478],[114.16689766662456,22.441042387077374],[114.16688004579227,22.441026889723716],[114.16688020256349,22.441008106378469],[114.16686686464608,22.441008620291409],[114.16686843707129,22.441026934159549],[114.16684777302618,22.441047865486301],[114.16685497084866,22.44105562309586],[114.16680650231493,22.441102090833596],[114.16678814317362,22.4410868191856],[114.16677902095826,22.441092119496954],[114.1667385631031,22.441055182393672],[114.16674618944744,22.441047823046443],[114.16673128869971,22.4410318562627],[114.16678025265243,22.440985614339475],[114.1667871980749,22.44099085243829],[114.16680787162078,22.44097290117125],[114.16680779499237,22.4409577841779],[114.16679612886428,22.440945691667874],[114.16678209067329,22.440957890944407],[114.16674683951118,22.44092460247235],[114.16675963430822,22.440911716806315],[114.16673753559935,22.440890286145532],[114.16672620792656,22.440899722266334],[114.16669592051846,22.440870985445198],[114.16677122184228,22.440801275012415],[114.1668037338153,22.440830454450449],[114.16679413538048,22.440838969576703],[114.16681623407308,22.440860635021789],[114.1668290384563,22.440849365802958],[114.16686428000278,22.440881281626972],[114.16685124237502,22.440893932494394],[114.16686887281911,22.440910585750832],[114.16688468791654,22.44090982816806],[114.16690583765558,22.440888896866113],[114.16689690100989,22.440880461867152],[114.16694464071024,22.440836062031465],[114.1669600370095,22.440850421404495],[114.16697036407915,22.440840994236538],[114.16698513856078,22.440856762320784],[114.16700883990508,22.440882067112373],[114.16699949400265,22.440891304702905],[114.16701568679778,22.44090703674885],[114.16698513297337,22.440935878173747],[114.16697121130565,22.440949025672076],[114.16696138086901,22.440941412393897],[114.16693973584182,22.440960284727925],[114.16693961808238,22.440977009131046],[114.16695412095221,22.440987404078065],[114.16696679899184,22.440976938551607],[114.16698512874247,22.440995786239512]]]},"properties":{"OBJECTID":60401,"Shape__Length":185.13723345416201,"Shape__Area":637.33027499410309,"GeoRefNo":"3523533509","DateCreate":1114790400000,"BuildingBlockType":"Tower","BuildingCSUID":"3523533509T20050430","BuildingID":1106131667,"Status":"Active","BuildingNameEN":"King Yan House","BuildingNameTC":"景欣閣","BaseHeight":10.199999999999999,"TopHeight":108.2,"Storeys":36,"StoreysInBasement":null,"DateStamp":1788105600000}},{"type":"Feature","id":60413,"geometry":{"type":"Polygon","coordinates":[[[114.16601380325336,22.440513750360811],[114.16602869437946,22.440526746189899],[114.16603804037204,22.440516858462082],[114.16611970353317,22.440589360433833],[114.1661108433139,22.440598552853178],[114.16612301455397,22.440609959131809],[114.16590947601533,22.440820408705267],[114.16598682139576,22.441078215470053],[114.16596807207529,22.441084707108775],[114.1659728215142,22.441096374781509],[114.16586174457321,22.441126149721466],[114.16585846212787,22.441113100485072],[114.16584094661781,22.441118445324619],[114.16575963806396,22.440859969965445],[114.16546024607084,22.440789972114771],[114.16546535728068,22.440772308896467],[114.16544952313616,22.440768487896001],[114.16547400195844,22.440666915013665],[114.16549106985551,22.440670284575504],[114.16549494723657,22.440653777168098],[114.16572702933155,22.440706639555692],[114.16584971492962,22.440673388770371],[114.16601380325336,22.440513750360811]]]},"properties":{"OBJECTID":60413,"Shape__Length":241.43355339956673,"Shape__Area":1656.5800640372831,"GeoRefNo":"3512833488","DateCreate":1114790400000,"BuildingBlockType":"Tower","BuildingCSUID":"3512833488T20050430","BuildingID":1106131670,"Status":"Active","BuildingNameEN":"Tak Nga Court","BuildingNameTC":"德雅苑","BaseHeight":11.6,"TopHeight":109.8,"Storeys":35,"StoreysInBasement":null,"DateStamp":1788105600000}},{"type":"Feature","id":60523,"geometry":{"type":"Polygon","coordinates":[[[114.16633640123393,22.440472565679542],[114.16637264306681,22.440505628545722],[114.16636452124723,22.440513683189028],[114.16638809650991,22.440533967129006],[114.16640039576788,22.440522463119073],[114.16643615191012,22.440555525939395],[114.16642286171704,22.440567950994978],[114.16643526617688,22.440578661919787],[114.16645108122151,22.440578139171393],[114.1664710165079,22.44055950158414],[114.16646356609016,22.440552665047633],[114.16651352089744,22.440505502159333],[114.16653015078982,22.440520556998184],[114.16653875836951,22.440511816062575],[114.16658318899312,22.440551480669519],[114.16657334763688,22.440560916874389],[114.16658973464976,22.440576423214541],[114.16654002280431,22.440622204481205],[114.16653008570084,22.440612631559954],[114.16650844056474,22.440632876466779],[114.16650850748026,22.440647532906834],[114.16652216488939,22.440661214926195],[114.16653643628574,22.440648103610265],[114.1665729211051,22.440680705892884],[114.16655864967493,22.440694277765392],[114.16658247751992,22.44071524800756],[114.16659183306567,22.440707193431798],[114.16662459755331,22.44073637292222],[114.16655052988587,22.440806534888765],[114.16651504548547,22.440775765848805],[114.16652440105581,22.440767485515508],[114.16650107822369,22.440748339450046],[114.16648976015901,22.440759148184849],[114.16645475189183,22.440726997501688],[114.16646755629199,22.44071572831135],[114.16645092638309,22.440700673466409],[114.16643559709499,22.440700509931183],[114.1664168956309,22.440717540171569],[114.16642558937743,22.440725975181586],[114.16637539161931,22.440772903233686],[114.16635777084448,22.440757866375975],[114.16634841521326,22.440766833014518],[114.16630794800746,22.440727836856588],[114.16631730356988,22.440719782296721],[114.16629992570313,22.440704275864533],[114.16634716048837,22.440658503541815],[114.16635660219991,22.44066739915764],[114.16637972408749,22.440645312153197],[114.16640171753993,22.440644076403462],[114.16640166973878,22.440633772646088],[114.16638091006645,22.440634313130364],[114.16636551385066,22.440619953701781],[114.16635099956464,22.440633290748341],[114.16631426230452,22.440599776322539],[114.16632681413118,22.44058849809625],[114.16630322925748,22.440566841516972],[114.16629757505599,22.440572593550659],[114.16626406282512,22.440541345969081],[114.16633640123393,22.440472565679542]]]},"properties":{"OBJECTID":60523,"Shape__Length":188.05410605988234,"Shape__Area":658.10846550529027,"GeoRefNo":"3519333472","DateCreate":1114790400000,"BuildingBlockType":"Tower","BuildingCSUID":"3519333472T20050430","BuildingID":1106131798,"Status":"Active","BuildingNameEN":"King Yuet House","BuildingNameTC":"景悅閣","BaseHeight":10.699999999999999,"TopHeight":108.09999999999999,"Storeys":36,"StoreysInBasement":null,"DateStamp":1788105600000}},{"type":"Feature","id":60524,"geometry":{"type":"Polygon","coordinates":[[[114.16616304304833,22.44092219894609],[114.16611411163072,22.44092194285043],[114.16611308648179,22.440862395934271],[114.16616425219044,22.440862643147518],[114.16616414494518,22.440867700197622],[114.16616304304833,22.44092219894609]]]},"properties":{"OBJECTID":60524,"Shape__Length":23.495164804623766,"Shape__Area":33.973559001668249,"GeoRefNo":"3516333497","DateCreate":1114790400000,"BuildingBlockType":"Tower","BuildingCSUID":"3516333497T20050430","BuildingID":1106131752,"Status":"Active","BuildingNameEN":"TAK NGA COURT (BLK A)","BuildingNameTC":"德雅苑(A座)","BaseHeight":11.4,"TopHeight":14,"Storeys":null,"StoreysInBasement":null,"DateStamp":1362067200000}},{"type":"Feature","id":60527,"geometry":{"type":"Polygon","coordinates":[[[114.16616304304833,22.44092219894609],[114.16616414494518,22.440867700197622],[114.16620925856795,22.440868190818765],[114.16623608749626,22.440897622849452],[114.16618933841846,22.440942022540515],[114.16616260511117,22.440932511701522],[114.16616304304833,22.44092219894609]]]},"properties":{"OBJECTID":60527,"Shape__Length":25.921646710117813,"Shape__Area":43.559027508555296,"GeoRefNo":"3516933498","DateCreate":1114790400000,"BuildingBlockType":"Tower","BuildingCSUID":"3516933498T20050430","BuildingID":1106131740,"Status":"Active","BuildingNameEN":null,"BuildingNameTC":null,"BaseHeight":11.199999999999999,"TopHeight":14,"Storeys":null,"StoreysInBasement":null,"DateStamp":1362067200000}},{"type":"Feature","id":72757,"geometry":{"type":"Polygon","coordinates":[[[114.16958969904397,22.445830544681034],[114.16955783208995,22.445837505636398],[114.16954751886647,22.445797613953985],[114.16957948238577,22.445790473479548],[114.16958969904397,22.445830544681034]]]},"properties":{"OBJECTID":72757,"Shape__Length":15.857002980323735,"Shape__Area":15.370056091826857,"GeoRefNo":"3551634042","DateCreate":1428940800000,"BuildingBlockType":"Temporary Structure","BuildingCSUID":"3551634042T20150414","BuildingID":1810140969,"Status":"Active","BuildingNameEN":null,"BuildingNameTC":null,"BaseHeight":null,"TopHeight":null,"Storeys":null,"StoreysInBasement":null,"DateStamp":1447948800000}},{"type":"Feature","id":72759,"geometry":{"type":"Polygon","coordinates":[[[114.17070191757571,22.445170911965185],[114.17069961787244,22.445196106755557],[114.17052082026039,22.445182004762138],[114.17052311999572,22.445156809974293],[114.17070191757571,22.445170911965185]]]},"properties":{"OBJECTID":72759,"Shape__Length":42.541980979522009,"Shape__Area":51.718853095668351,"GeoRefNo":"3562333972","DateCreate":1430236800000,"BuildingBlockType":"Temporary Structure","BuildingCSUID":"3562333972T20150429","BuildingID":1810141695,"Status":"Active","BuildingNameEN":null,"BuildingNameTC":null,"BaseHeight":null,"TopHeight":null,"Storeys":null,"StoreysInBasement":null,"DateStamp":1447948800000}},{"type":"Feature","id":76448,"geometry":{"type":"Polygon","coordinates":[[[114.16414338310314,22.449323364485174],[114.16426714965003,22.449349697933869],[114.16425908311402,22.44938402204474],[114.16428084425678,22.449388855029945],[114.16427733069148,22.449404419458983],[114.16413121542583,22.449372913605327],[114.16414338310314,22.449323364485174]]]},"properties":{"OBJECTID":76448,"Shape__Length":42.091448405307112,"Shape__Area":78.03790121561272,"GeoRefNo":"3496034434","DateCreate":1114790400000,"BuildingBlockType":"Tower","BuildingCSUID":"3496034434T20050430","BuildingID":1106127288,"Status":"Active","BuildingNameEN":null,"BuildingNameTC":null,"BaseHeight":4.2999999999999998,"TopHeight":17.100000000000001,"Storeys":null,"StoreysInBasement":null,"DateStamp":1386172800000}},{"type":"Feature","id":76459,"geometry":{"type":"Polygon","coordinates":[[[114.16434036958931,22.449368992661022],[114.16435555634276,22.449372349190238],[114.16445853466659,22.449395109340038],[114.16449282577635,22.449402688333382],[114.16448227029443,22.449447071824483],[114.16430361145056,22.449408127327864],[114.16430953295209,22.449385199927416],[114.16433556863753,22.449390647307567],[114.16434036958931,22.449368992661022]]]},"properties":{"OBJECTID":76459,"Shape__Length":47.859220162048231,"Shape__Area":88.717990116516077,"GeoRefNo":"3498934442","DateCreate":1114790400000,"BuildingBlockType":"Tower","BuildingCSUID":"3498934442T20050430","BuildingID":1106127270,"Status":"Active","BuildingNameEN":"Cheung Fat Building","BuildingNameTC":"昌發樓","BaseHeight":3.6000000000000001,"TopHeight":27.199999999999999,"Storeys":6,"StoreysInBasement":null,"DateStamp":1599580800000}},{"type":"Feature","id":76460,"geometry":{"type":"Polygon","coordinates":[[[114.16481771266403,22.449391547609807],[114.16483840007459,22.449395855680436],[114.16490575514143,22.449409882072946],[114.16494661538066,22.449418390959618],[114.16493528804688,22.44946553701859],[114.1648246427313,22.449531663227656],[114.16478819071979,22.449522317968274],[114.16481771266403,22.449391547609807]]]},"properties":{"OBJECTID":76460,"Shape__Length":51.175440610268076,"Shape__Area":156.07659081967105,"GeoRefNo":"3503534445","DateCreate":1114790400000,"BuildingBlockType":"Tower","BuildingCSUID":"3503534445T20050430","BuildingID":1106127240,"Status":"Active","BuildingNameEN":null,"BuildingNameTC":"永隆閣","BaseHeight":4.2999999999999998,"TopHeight":27.399999999999999,"Storeys":6,"StoreysInBasement":null,"DateStamp":1599580800000}},{"type":"Feature","id":76848,"geometry":{"type":"Polygon","coordinates":[[[114.16436218810382,22.446888537132178],[114.16442583654936,22.446813435765616],[114.16447189146912,22.44684726737588],[114.16440831104714,22.446922251369678],[114.16436218810382,22.446888537132178]]]},"properties":{"OBJECTID":76848,"Shape__Length":33.241873864029841,"Shape__Area":63.913543507420144,"GeoRefNo":"3498634159","DateCreate":1289404800000,"BuildingBlockType":"Tower","BuildingCSUID":"3498634159T20101111","BuildingID":1810022165,"Status":"Active","BuildingNameEN":null,"BuildingNameTC":null,"BaseHeight":7.2000000000000002,"TopHeight":15.300000000000001,"Storeys":null,"StoreysInBasement":null,"DateStamp":1443110400000}},{"type":"Feature","id":76854,"geometry":{"type":"Polygon","coordinates":[[[114.16431595833691,22.446854633233571],[114.16437945133957,22.446779703451554],[114.16442583654936,22.446813435765616],[114.16436218810382,22.446888537132178],[114.16431595833691,22.446854633233571]]]},"properties":{"OBJECTID":76854,"Shape__Length":33.273156578003167,"Shape__Area":64.102115992594904,"GeoRefNo":"3498134155","DateCreate":1289404800000,"BuildingBlockType":"Tower","BuildingCSUID":"3498134155T20101111","BuildingID":1810022166,"Status":"Active","BuildingNameEN":null,"BuildingNameTC":null,"BaseHeight":7.2000000000000002,"TopHeight":15.300000000000001,"Storeys":null,"StoreysInBasement":null,"DateStamp":1443110400000}},{"type":"Feature","id":84591,"geometry":{"type":"Polygon","coordinates":[[[114.16761361042177,22.449889739429008],[114.16757557793568,22.449889848054259],[114.1675755200383,22.449872234611224],[114.16755358797086,22.449872408451355],[114.16755330459547,22.449786146151904],[114.16751430627761,22.449764353700182],[114.16735179110644,22.449673538996834],[114.16726943150216,22.44971064973338],[114.16725944141292,22.449691493299916],[114.16724158505639,22.449699539272604],[114.16724154551507,22.449699557060207],[114.1672249403825,22.449667715790902],[114.16723271865523,22.449664210904473],[114.16728271975978,22.449641680733954],[114.16727134198797,22.44962102236482],[114.16721405207448,22.449646836923389],[114.1671975460344,22.449615185747938],[114.16721522459257,22.449607219869513],[114.16720317705568,22.449584117996533],[114.16727111783176,22.44955350420879],[114.16729409314729,22.449543338456859],[114.16729983276707,22.44951781675887],[114.16731643640854,22.449520264268717],[114.16732156798118,22.449490184956392],[114.16735140904585,22.449494583729496],[114.1673536674203,22.449481345855169],[114.16737399672532,22.449484301721448],[114.16737312222192,22.449489427985522],[114.16738878128153,22.44949173618301],[114.16738964907829,22.449486649833052],[114.16742693175858,22.449492145595205],[114.16741637330063,22.449554034262604],[114.16739287517963,22.449550570434088],[114.16738919532695,22.449572140260255],[114.16740104482612,22.449586311444719],[114.16741892432486,22.44959630874536],[114.16743290645245,22.449574689580952],[114.16750811457479,22.449616716511187],[114.16748689751618,22.449648144317827],[114.16745934183268,22.449632745983013],[114.16744452684598,22.44965565329473],[114.16752937933116,22.449703069425521],[114.16754466614944,22.449680425822432],[114.16751641731308,22.449664640141549],[114.16753763436753,22.4496332124214],[114.16761129316328,22.449674373464809],[114.16759675170276,22.44969685763915],[114.16761366374776,22.449706308159286],[114.16763372903195,22.449710812699742],[114.16765316261935,22.449698042403536],[114.16763987480105,22.449680570616817],[114.16769473822019,22.449644518310372],[114.16770339995851,22.449655907461942],[114.16771631534094,22.449672889501159],[114.16771173840269,22.449675897104498],[114.16772087059933,22.449687944420841],[114.16772546764869,22.449684923543636],[114.16773739083028,22.449700600986347],[114.16772522740398,22.449708593873215],[114.16774252146101,22.449731333249542],[114.16773476378631,22.449736431042645],[114.16771942787929,22.449746508700194],[114.16771575146223,22.449748924589148],[114.16772546059183,22.44976169076152],[114.16770396723268,22.44977581470442],[114.16770428089593,22.449871266751817],[114.16767643549409,22.449871345815396],[114.1676764950234,22.449889451688854],[114.16763850488765,22.449889670773729],[114.16763831012562,22.449830402389011],[114.16761341567022,22.449830473030953],[114.16761361042177,22.449889739429008]]]},"properties":{"OBJECTID":84591,"Shape__Length":258.54628914678165,"Shape__Area":922.59891827294803,"GeoRefNo":"3530034464","DateCreate":1382025600000,"BuildingBlockType":"Tower","BuildingCSUID":"3530034464T20131018","BuildingID":1810106341,"Status":"Active","BuildingNameEN":"The Golden Gate","BuildingNameTC":"富．盈門","BaseHeight":4.5999999999999996,"TopHeight":61,"Storeys":14,"StoreysInBasement":2,"DateStamp":1599580800000}},{"type":"Feature","id":86818,"geometry":{"type":"Polygon","coordinates":[[[114.16576592574873,22.444745505162125],[114.16571838062248,22.444764890280606],[114.16570322708348,22.444748056468089],[114.16567115473516,22.444679567282272],[114.16572476197234,22.444657861768036],[114.16576592574873,22.444745505162125]]]},"properties":{"OBJECTID":86818,"Shape__Length":32.655457723496781,"Shape__Area":63.046840000245574,"GeoRefNo":"3512033921","DateCreate":1432224000000,"BuildingBlockType":"Tower","BuildingCSUID":"3512033921T20150522","BuildingID":1810142503,"Status":"Active","BuildingNameEN":null,"BuildingNameTC":null,"BaseHeight":11.9,"TopHeight":20.100000000000001,"Storeys":3,"StoreysInBasement":null,"DateStamp":1534348800000}},{"type":"Feature","id":89769,"geometry":{"type":"Polygon","coordinates":[[[114.1699118649998,22.447684540939704],[114.16989007852411,22.44769431266781],[114.16988556115362,22.447685610188167],[114.16986512759719,22.447646245657776],[114.16983190207411,22.447582237731087],[114.16985368843923,22.44757246601068],[114.1699118649998,22.447684540939704]]]},"properties":{"OBJECTID":89769,"Shape__Length":32.539994417265319,"Shape__Area":34.312221367417067,"GeoRefNo":"3554734244","DateCreate":1453651200000,"BuildingBlockType":"Temporary Structure","BuildingCSUID":"3554734244T20160125","BuildingID":1810148796,"Status":"Active","BuildingNameEN":null,"BuildingNameTC":null,"BaseHeight":null,"TopHeight":null,"Storeys":null,"StoreysInBasement":null,"DateStamp":1458576000000}},{"type":"Feature","id":92836,"geometry":{"type":"Polygon","coordinates":[[[114.16677249968848,22.443690407491264],[114.166774604308,22.443603534634228],[114.16683993481041,22.443604920353547],[114.16683781080886,22.443691702905657],[114.16677249968848,22.443690407491264]]]},"properties":{"OBJECTID":92836,"Shape__Length":32.686157829509895,"Shape__Area":64.683375996381216,"GeoRefNo":"3523233804","DateCreate":1114790400000,"BuildingBlockType":"Tower","BuildingCSUID":"3523233804T20050430","BuildingID":1106130482,"Status":"Active","BuildingNameEN":null,"BuildingNameTC":null,"BaseHeight":11.300000000000001,"TopHeight":19.300000000000001,"Storeys":null,"StoreysInBasement":null,"DateStamp":1362067200000}},{"type":"Feature","id":92843,"geometry":{"type":"Polygon","coordinates":[[[114.16418105053995,22.443622794689794],[114.16420799361494,22.443680167287553],[114.16417391355095,22.443694179885348],[114.16414623219903,22.44363658146256],[114.16418105053995,22.443622794689794]]]},"properties":{"OBJECTID":92843,"Shape__Length":21.649742175728107,"Shape__Area":26.901136998097982,"GeoRefNo":"3496133803","DateCreate":1114790400000,"BuildingBlockType":"Tower","BuildingCSUID":"3496133803T20050430","BuildingID":1106130479,"Status":"Active","BuildingNameEN":null,"BuildingNameTC":null,"BaseHeight":33.799999999999997,"TopHeight":37.600000000000001,"Storeys":null,"StoreysInBasement":null,"DateStamp":1362067200000}},{"type":"Feature","id":92874,"geometry":{"type":"Polygon","coordinates":[[[114.16620961535385,22.44422192264312],[114.16617735736241,22.444161885505739],[114.16621414801733,22.44414397150739],[114.16624701777882,22.444203637887195],[114.16622767620393,22.444213093310054],[114.16620961535385,22.44422192264312]]]},"properties":{"OBJECTID":92874,"Shape__Length":23.47992346671635,"Shape__Area":32.027339096869547,"GeoRefNo":"3517133862","DateCreate":1114790400000,"BuildingBlockType":"Tower","BuildingCSUID":"3517133862T20050430","BuildingID":1106130268,"Status":"Active","BuildingNameEN":null,"BuildingNameTC":null,"BaseHeight":10.300000000000001,"TopHeight":14.300000000000001,"Storeys":null,"StoreysInBasement":null,"DateStamp":1362067200000}},{"type":"Feature","id":92875,"geometry":{"type":"Polygon","coordinates":[[[114.16633033147387,22.444174444979407],[114.16633818577766,22.444188275181634],[114.16630975496149,22.44420223324013],[114.16630194080491,22.444188088508398],[114.16632856966241,22.444175291650524],[114.16632982425482,22.444174688768697],[114.16633033147387,22.444174444979407]]]},"properties":{"OBJECTID":92875,"Shape__Length":10.092207657651429,"Shape__Area":5.7623056106270463,"GeoRefNo":"3518233862","DateCreate":1114790400000,"BuildingBlockType":"Tower","BuildingCSUID":"3518233862T20050430","BuildingID":1106130278,"Status":"Active","BuildingNameEN":null,"BuildingNameTC":null,"BaseHeight":10.5,"TopHeight":12.199999999999999,"Storeys":null,"StoreysInBasement":null,"DateStamp":1362067200000}},{"type":"Feature","id":92878,"geometry":{"type":"Polygon","coordinates":[[[114.16629561946284,22.444089557697694],[114.16636045358374,22.444058515031703],[114.16636247235421,22.444057548452442],[114.16640250759774,22.444129801282987],[114.16633565468091,22.444161810454222],[114.16629561946284,22.444089557697694]]]},"properties":{"OBJECTID":92878,"Shape__Length":33.48179622832523,"Shape__Area":69.668092228300281,"GeoRefNo":"3518433854","DateCreate":1114790400000,"BuildingBlockType":"Tower","BuildingCSUID":"3518433854T20050430","BuildingID":1106130291,"Status":"Active","BuildingNameEN":null,"BuildingNameTC":null,"BaseHeight":10.199999999999999,"TopHeight":19.399999999999999,"Storeys":null,"StoreysInBasement":null,"DateStamp":1362067200000}},{"type":"Feature","id":92879,"geometry":{"type":"Polygon","coordinates":[[[114.16569207490819,22.444258469570986],[114.16575201332965,22.444227798957048],[114.16576863606247,22.444256831296329],[114.16570838354359,22.444286465108096],[114.16569207490819,22.444258469570986]]]},"properties":{"OBJECTID":92879,"Shape__Length":21.227220753228988,"Shape__Area":25.192029750766903,"GeoRefNo":"3512133870","DateCreate":1114790400000,"BuildingBlockType":"Tower","BuildingCSUID":"3512133870T20050430","BuildingID":1106130233,"Status":"Active","BuildingNameEN":null,"BuildingNameTC":null,"BaseHeight":11.4,"TopHeight":15.4,"Storeys":null,"StoreysInBasement":null,"DateStamp":1362067200000}},{"type":"Feature","id":92882,"geometry":{"type":"Polygon","coordinates":[[[114.16622426923757,22.444249440398526],[114.16623469474328,22.444267906829925],[114.16621592533629,22.444277550122358],[114.16620900759484,22.444265422668369],[114.16619689438662,22.444244186844585],[114.16619393434556,22.444238997659415],[114.16621318944534,22.444229814954692],[114.16622426923757,22.444249440398526]]]},"properties":{"OBJECTID":92882,"Shape__Length":14.031176026952863,"Shape__Area":10.638681598680853,"GeoRefNo":"3517133869","DateCreate":1114790400000,"BuildingBlockType":"Tower","BuildingCSUID":"3517133869T20050430","BuildingID":1106130239,"Status":"Active","BuildingNameEN":null,"BuildingNameTC":null,"BaseHeight":10.300000000000001,"TopHeight":13.4,"Storeys":null,"StoreysInBasement":null,"DateStamp":1362067200000}},{"type":"Feature","id":92897,"geometry":{"type":"Polygon","coordinates":[[[114.1654717623982,22.443592945736796],[114.16549054788933,22.443623921523063],[114.16543004285562,22.44365538839817],[114.1654107716257,22.443624638332007],[114.1654717623982,22.443592945736796]]]},"properties":{"OBJECTID":92897,"Shape__Length":22.207862035145851,"Shape__Area":28.221229997183176,"GeoRefNo":"3509133800","DateCreate":1114790400000,"BuildingBlockType":"Tower","BuildingCSUID":"3509133800T20050430","BuildingID":1106130500,"Status":"Active","BuildingNameEN":"Law Ting Pong Secondary School","BuildingNameTC":"羅定邦中學","BaseHeight":11.9,"TopHeight":15.9,"Storeys":null,"StoreysInBasement":null,"DateStamp":1362067200000}},{"type":"Feature","id":92899,"geometry":{"type":"Polygon","coordinates":[[[114.16377206373319,22.443650711366399],[114.1637945408719,22.443676639623458],[114.16376862059607,22.44369524026645],[114.16374662927436,22.443668399969166],[114.16377206373319,22.443650711366399]]]},"properties":{"OBJECTID":92899,"Shape__Length":14.064080542105714,"Shape__Area":12.321269999956264,"GeoRefNo":"3491933806","DateCreate":1114790400000,"BuildingBlockType":"Tower","BuildingCSUID":"3491933806T20050430","BuildingID":1106130478,"Status":"Active","BuildingNameEN":null,"BuildingNameTC":null,"BaseHeight":49.5,"TopHeight":52.399999999999999,"Storeys":null,"StoreysInBasement":null,"DateStamp":1362067200000}},{"type":"Feature","id":93004,"geometry":{"type":"Polygon","coordinates":[[[114.16707370874084,22.443852603951541],[114.16711182574512,22.443897144461232],[114.1670735773528,22.443925434570403],[114.16703546035302,22.443880894051837],[114.16707370874084,22.443852603951541]]]},"properties":{"OBJECTID":93004,"Shape__Length":22.668075378582486,"Shape__Area":31.711176006679402,"GeoRefNo":"3525933829","DateCreate":1114790400000,"BuildingBlockType":"Tower","BuildingCSUID":"3525933829T20050430","BuildingID":1106130376,"Status":"Active","BuildingNameEN":null,"BuildingNameTC":null,"BaseHeight":6.7999999999999998,"TopHeight":9.5,"Storeys":null,"StoreysInBasement":null,"DateStamp":1362067200000}},{"type":"Feature","id":93005,"geometry":{"type":"Polygon","coordinates":[[[114.16674653822218,22.443880975583408],[114.16679102510594,22.443964501044551],[114.16675250537112,22.443982415066763],[114.16670702758125,22.443899350086287],[114.16674653822218,22.443880975583408]]]},"properties":{"OBJECTID":93005,"Shape__Length":29.623325490727765,"Shape__Area":46.347570494626098,"GeoRefNo":"3522633834","DateCreate":1114790400000,"BuildingBlockType":"Tower","BuildingCSUID":"3522633834T20050430","BuildingID":1106130352,"Status":"Active","BuildingNameEN":null,"BuildingNameTC":null,"BaseHeight":10.5,"TopHeight":17.5,"Storeys":null,"StoreysInBasement":null,"DateStamp":1362067200000}},{"type":"Feature","id":93377,"geometry":{"type":"Polygon","coordinates":[[[114.1683124781204,22.444299817144596],[114.16835543238062,22.444363303509228],[114.16822576639204,22.444439116346324],[114.1681828121681,22.444375620917334],[114.1683124781204,22.444299817144596]]]},"properties":{"OBJECTID":93377,"Shape__Length":48.146892449949952,"Shape__Area":130.96098450967648,"GeoRefNo":"3538233883","DateCreate":1114790400000,"BuildingBlockType":"Tower","BuildingCSUID":"3538233883T20050430","BuildingID":1106130157,"Status":"Active","BuildingNameEN":null,"BuildingNameTC":null,"BaseHeight":6.2999999999999998,"TopHeight":10.6,"Storeys":null,"StoreysInBasement":null,"DateStamp":1362067200000}},{"type":"Feature","id":93387,"geometry":{"type":"Polygon","coordinates":[[[114.16669276795773,22.444013376756249],[114.16664827137362,22.443930248608009],[114.16670067375169,22.443905896767902],[114.16674549095657,22.443988817221527],[114.16669276795773,22.444013376756249]]]},"properties":{"OBJECTID":93387,"Shape__Length":32.659155811919902,"Shape__Area":62.193760505789285,"GeoRefNo":"3522033838","DateCreate":1114790400000,"BuildingBlockType":"Tower","BuildingCSUID":"3522033838T20050430","BuildingID":1106130341,"Status":"Active","BuildingNameEN":null,"BuildingNameTC":null,"BaseHeight":10.6,"TopHeight":19.100000000000001,"Storeys":null,"StoreysInBasement":null,"DateStamp":1362067200000}},{"type":"Feature","id":93425,"geometry":{"type":"Polygon","coordinates":[[[114.16628109793358,22.444187322086453],[114.16624048636983,22.444116321803001],[114.16628765580779,22.444093370648527],[114.16628947723198,22.444096830967236],[114.16632595459227,22.444166129812174],[114.16628109793358,22.444187322086453]]]},"properties":{"OBJECTID":93425,"Shape__Length":28.534535480846252,"Shape__Area":47.627582247854882,"GeoRefNo":"3517933859","DateCreate":1114790400000,"BuildingBlockType":"Tower","BuildingCSUID":"3517933859T20050430","BuildingID":1106130285,"Status":"Active","BuildingNameEN":null,"BuildingNameTC":null,"BaseHeight":10.5,"TopHeight":19.399999999999999,"Storeys":null,"StoreysInBasement":null,"DateStamp":1362067200000}},{"type":"Feature","id":93427,"geometry":{"type":"Polygon","coordinates":[[[114.1699653561685,22.444218424295155],[114.16995473176824,22.44421634575399],[114.16994553217218,22.444213130519255],[114.16994084012595,22.444210701126266],[114.16993574982743,22.444207314487844],[114.16992817276609,22.444200252347382],[114.16992275238086,22.444192630410722],[114.16991875041253,22.444183383052664],[114.16991688569148,22.444173557837001],[114.16991726505616,22.444163597260683],[114.16991985934118,22.444153925753916],[114.16992455194953,22.444144967742933],[114.16993114856965,22.444137102498438],[114.16993935774472,22.444130691225961],[114.16994882002081,22.444125995793129],[114.1699591273732,22.44412323291327],[114.1699698232092,22.444122519962729],[114.16997871203625,22.444123613025834],[114.16998276295898,22.444125148375388],[114.16998807679443,22.444126448986587],[114.16999669344806,22.444130892336219],[114.17000361000092,22.444136193506697],[114.1700094287508,22.444142533132847],[114.17001435367746,22.444150471111644],[114.17001734539801,22.444158327734513],[114.17001887986662,22.444167376315917],[114.17001864630849,22.444175702386129],[114.17001658636893,22.444184669541542],[114.17001273896392,22.444193094794009],[114.17000779387739,22.444200048035643],[114.17000094474109,22.444206630947825],[114.16999364881671,22.444211470962831],[114.16998471116676,22.444215344649049],[114.16997605968372,22.444217764172674],[114.1699653561685,22.444218424295155]]]},"properties":{"OBJECTID":93427,"Shape__Length":33.093726411244603,"Shape__Area":86.836115755357724,"GeoRefNo":"3555733860","DateCreate":1114790400000,"BuildingBlockType":"Tower","BuildingCSUID":"3555733860T20050430","BuildingID":1106130270,"Status":"Active","BuildingNameEN":null,"BuildingNameTC":null,"BaseHeight":5.7999999999999998,"TopHeight":36.200000000000003,"Storeys":null,"StoreysInBasement":null,"DateStamp":1362067200000}},{"type":"Feature","id":93479,"geometry":{"type":"Polygon","coordinates":[[[114.16620745765401,22.444222977438852],[114.16616479007978,22.444243836059165],[114.16612450894633,22.444172926254048],[114.16617068430905,22.444150181594477],[114.16617735736241,22.444161885505739],[114.16620961535385,22.44422192264312],[114.16620745765401,22.444222977438852]]]},"properties":{"OBJECTID":93479,"Shape__Length":28.370713241884772,"Shape__Area":47.205689214795463,"GeoRefNo":"3516633864","DateCreate":1114790400000,"BuildingBlockType":"Tower","BuildingCSUID":"3516633864T20050430","BuildingID":1106130257,"Status":"Active","BuildingNameEN":null,"BuildingNameTC":null,"BaseHeight":10.300000000000001,"TopHeight":18.899999999999999,"Storeys":null,"StoreysInBasement":null,"DateStamp":1362067200000}},{"type":"Feature","id":93482,"geometry":{"type":"Polygon","coordinates":[[[114.16624701777882,22.444203637887195],[114.16621414801733,22.44414397150739],[114.16620723207822,22.44413250237346],[114.16624048636983,22.444116321803001],[114.16628109793358,22.444187322086453],[114.16629122888493,22.444205916456632],[114.16625740130787,22.444222223245571],[114.16624701777882,22.444203637887195]]]},"properties":{"OBJECTID":93482,"Shape__Length":30.197161749005225,"Shape__Area":43.617898189788725,"GeoRefNo":"3517433860","DateCreate":1114790400000,"BuildingBlockType":"Tower","BuildingCSUID":"3517433860T20050430","BuildingID":1106130267,"Status":"Active","BuildingNameEN":null,"BuildingNameTC":null,"BaseHeight":10.300000000000001,"TopHeight":18.399999999999999,"Storeys":null,"StoreysInBasement":null,"DateStamp":1362067200000}},{"type":"Feature","id":93592,"geometry":{"type":"Polygon","coordinates":[[[114.16632029235039,22.443339924713229],[114.16630917017334,22.443326613095302],[114.16630472143771,22.443319505835813],[114.16631658308162,22.443317429604356],[114.16632720933119,22.443337170874518],[114.16632029235039,22.443339924713229]]]},"properties":{"OBJECTID":93592,"Shape__Length":7.2385550018511458,"Shape__Area":2.6227480003974843,"GeoRefNo":"3518133767","DateCreate":1114790400000,"BuildingBlockType":"Tower","BuildingCSUID":"3518133767T20050430","BuildingID":1106130667,"Status":"Active","BuildingNameEN":null,"BuildingNameTC":null,"BaseHeight":21,"TopHeight":27.899999999999999,"Storeys":null,"StoreysInBasement":null,"DateStamp":1362067200000}},{"type":"Feature","id":93605,"geometry":{"type":"Polygon","coordinates":[[[114.1623589780687,22.443382332076485],[114.16238874741038,22.443344749984483],[114.16238880112854,22.443344782679542],[114.16240281322096,22.443353312115498],[114.16243670239284,22.443307286906062],[114.16249105207362,22.443339575627061],[114.16247144905007,22.443368764111458],[114.16243149260627,22.443428258434452],[114.1623663504611,22.443391661198962],[114.1623589780687,22.443382332076485]]]},"properties":{"OBJECTID":93605,"Shape__Length":40.408836328262929,"Shape__Area":90.290344945718218,"GeoRefNo":"3478133771","DateCreate":1114790400000,"BuildingBlockType":"Tower","BuildingCSUID":"3478133771T20050430","BuildingID":1106130620,"Status":"Active","BuildingNameEN":null,"BuildingNameTC":null,"BaseHeight":41.100000000000001,"TopHeight":45,"Storeys":null,"StoreysInBasement":null,"DateStamp":1362067200000}},{"type":"Feature","id":93657,"geometry":{"type":"Polygon","coordinates":[[[114.16328193514681,22.443333692907345],[114.16324784808822,22.443319701864326],[114.16326216052809,22.443290092201899],[114.16329575216082,22.443303848408533],[114.16328193514681,22.443333692907345]]]},"properties":{"OBJECTID":93657,"Shape__Length":14.806805619495096,"Shape__Area":13.691042000327624,"GeoRefNo":"3486833766","DateCreate":1114790400000,"BuildingBlockType":"Tower","BuildingCSUID":"3486833766T20050430","BuildingID":1106130669,"Status":"Active","BuildingNameEN":"SUM YUEN","BuildingNameTC":"心園","BaseHeight":37.200000000000003,"TopHeight":40.5,"Storeys":null,"StoreysInBasement":null,"DateStamp":1362067200000}},{"type":"Feature","id":93659,"geometry":{"type":"Polygon","coordinates":[[[114.16604982502132,22.443266119004377],[114.16606933993319,22.443287459276203],[114.16606118888039,22.4432943489706],[114.1660878725301,22.44332371779436],[114.16607849738753,22.443331293722764],[114.16609109619299,22.443344144901587],[114.16605702503283,22.443372155105706],[114.16604145381753,22.443356097913444],[114.1660515770394,22.443347826692062],[114.16602737037586,22.443321447109383],[114.16602094863751,22.443326720465787],[114.16600068577678,22.44330446806191],[114.16604982502132,22.443266119004377]]]},"properties":{"OBJECTID":93659,"Shape__Length":34.714640509125473,"Shape__Area":50.223065000859499,"GeoRefNo":"3515433765","DateCreate":1114790400000,"BuildingBlockType":"Tower","BuildingCSUID":"3515433765T20050430","BuildingID":1106130645,"Status":"Active","BuildingNameEN":null,"BuildingNameTC":null,"BaseHeight":29.300000000000001,"TopHeight":33.600000000000001,"Storeys":null,"StoreysInBasement":null,"DateStamp":1362067200000}},{"type":"Feature","id":93786,"geometry":{"type":"Polygon","coordinates":[[[114.16835305233869,22.443750903660529],[114.16834471561944,22.44374996342254],[114.16833558406923,22.443747145439545],[114.16832720063925,22.443742756196102],[114.16831926420315,22.443736371245006],[114.16831339701986,22.443729282027231],[114.16830908422827,22.443721280815318],[114.16830635500237,22.443711870935815],[114.16830574352917,22.443702939782412],[114.16830697782504,22.443694071939717],[114.16831001901191,22.443685583471638],[114.16831524598011,22.443677122210264],[114.16832160944801,22.443670412917193],[114.16832997407109,22.44366452550085],[114.16833783339382,22.443660949854248],[114.16834710126099,22.443658539210187],[114.16835756391829,22.443657844415075],[114.16836711329198,22.4436589917844],[114.16837624483652,22.443661818796112],[114.16838462826318,22.443666208037069],[114.16839195271506,22.443671996942864],[114.16839843188374,22.443679673169459],[114.1684027349646,22.443687674378534],[114.16840532824025,22.443696289569186],[114.16840608539067,22.443706015410005],[114.16840484138642,22.443714883252937],[114.16840180991927,22.44372337172328],[114.16839658295459,22.443731832987396],[114.16839021948749,22.443738542283381],[114.16838259319765,22.443744005310013],[114.16837399553619,22.44374800535148],[114.16836472766353,22.443750415997041],[114.1683551295969,22.443751137929439],[114.16835305233869,22.443750903660529]]]},"properties":{"OBJECTID":93786,"Shape__Length":32.41376508279069,"Shape__Area":83.337854470899458,"GeoRefNo":"3539133809","DateCreate":1114790400000,"BuildingBlockType":"Tower","BuildingCSUID":"3539133809T20050430","BuildingID":1106130456,"Status":"Active","BuildingNameEN":null,"BuildingNameTC":null,"BaseHeight":6.5999999999999996,"TopHeight":36.5,"Storeys":null,"StoreysInBasement":null,"DateStamp":1362067200000}},{"type":"Feature","id":93788,"geometry":{"type":"Polygon","coordinates":[[[114.16445936199666,22.443752556833246],[114.16451279511752,22.443720502802979],[114.16453701086662,22.443751551357785],[114.16448299469867,22.44378546562525],[114.16445936199666,22.443752556833246]]]},"properties":{"OBJECTID":93788,"Shape__Length":21.884290012579257,"Shape__Area":28.57906899732458,"GeoRefNo":"3499433814","DateCreate":1119369600000,"BuildingBlockType":"Tower","BuildingCSUID":"3499433814T20050622","BuildingID":1106130438,"Status":"Active","BuildingNameEN":null,"BuildingNameTC":null,"BaseHeight":32.399999999999999,"TopHeight":35.799999999999997,"Storeys":null,"StoreysInBasement":null,"DateStamp":1362067200000}},{"type":"Feature","id":93790,"geometry":{"type":"Polygon","coordinates":[[[114.16645130079422,22.443630903529186],[114.16644709622284,22.443606123686848],[114.16652856376476,22.443595104258428],[114.16653207845836,22.443619367783501],[114.1664861370987,22.443625926644302],[114.16645130079422,22.443630903529186]]]},"properties":{"OBJECTID":93790,"Shape__Length":22.376115058993648,"Shape__Area":23.1708249680783,"GeoRefNo":"3519933799","DateCreate":1114790400000,"BuildingBlockType":"Tower","BuildingCSUID":"3519933799T20050430","BuildingID":1106130509,"Status":"Active","BuildingNameEN":null,"BuildingNameTC":null,"BaseHeight":20.300000000000001,"TopHeight":26.600000000000001,"Storeys":null,"StoreysInBasement":null,"DateStamp":1362067200000}},{"type":"Feature","id":93791,"geometry":{"type":"Polygon","coordinates":[[[114.16418324263135,22.4435532513188],[114.16420895300152,22.443598911318627],[114.16415116817156,22.443626016216918],[114.16412521486754,22.443581268264978],[114.16418324263135,22.4435532513188]]]},"properties":{"OBJECTID":93791,"Shape__Length":24.73008019790797,"Shape__Area":37.953406500845254,"GeoRefNo":"3496133795","DateCreate":1114790400000,"BuildingBlockType":"Tower","BuildingCSUID":"3496133795T20050430","BuildingID":1106130514,"Status":"Active","BuildingNameEN":null,"BuildingNameTC":null,"BaseHeight":32.200000000000003,"TopHeight":37.799999999999997,"Storeys":null,"StoreysInBasement":null,"DateStamp":1362067200000}},{"type":"Feature","id":93793,"geometry":{"type":"Polygon","coordinates":[[[114.16358802869529,22.443567697443658],[114.16359940031427,22.443611532210735],[114.16349962936263,22.443633829224375],[114.1634877622636,22.443590680724107],[114.16358802869529,22.443567697443658]]]},"properties":{"OBJECTID":93793,"Shape__Length":31.118281075661823,"Shape__Area":52.583950004350577,"GeoRefNo":"3489533798","DateCreate":1114790400000,"BuildingBlockType":"Tower","BuildingCSUID":"3489533798T20050430","BuildingID":1106130508,"Status":"Active","BuildingNameEN":null,"BuildingNameTC":null,"BaseHeight":48.5,"TopHeight":52.399999999999999,"Storeys":null,"StoreysInBasement":null,"DateStamp":1362067200000}},{"type":"Feature","id":93830,"geometry":{"type":"Polygon","coordinates":[[[114.16674273803305,22.44349613324756],[114.16673947419169,22.443499284853257],[114.16670563096051,22.443466700846081],[114.16670883738765,22.443458212418314],[114.16670537926505,22.443454536805554],[114.1667228979271,22.443409313378599],[114.16674463809773,22.443423772500097],[114.16674907792435,22.443420097381889],[114.16678441696817,22.443455887285317],[114.16677642539456,22.443463604125132],[114.16674273803305,22.44349613324756]]]},"properties":{"OBJECTID":93830,"Shape__Length":27.289148407738331,"Shape__Area":44.814412702669856,"GeoRefNo":"3522433780","DateCreate":1114790400000,"BuildingBlockType":"Tower","BuildingCSUID":"3522433780T20050430","BuildingID":1106130580,"Status":"Active","BuildingNameEN":null,"BuildingNameTC":null,"BaseHeight":11.6,"TopHeight":16.399999999999999,"Storeys":null,"StoreysInBasement":null,"DateStamp":1362067200000}},{"type":"Feature","id":93836,"geometry":{"type":"Polygon","coordinates":[[[114.16240065205388,22.443537902214374],[114.16240126972228,22.443530245707048],[114.16240769101448,22.443530697803979],[114.16240818766882,22.443518994377179],[114.16246285917818,22.443523888975971],[114.16247462507995,22.443524942342332],[114.16246920843112,22.443579567089504],[114.16239782634132,22.443572932365257],[114.16240065205388,22.443537902214374]]]},"properties":{"OBJECTID":93836,"Shape__Length":27.029868963092234,"Shape__Area":44.236509933050911,"GeoRefNo":"3478233791","DateCreate":1114790400000,"BuildingBlockType":"Tower","BuildingCSUID":"3478233791T20050430","BuildingID":1106130544,"Status":"Active","BuildingNameEN":null,"BuildingNameTC":null,"BaseHeight":45.899999999999999,"TopHeight":53.600000000000001,"Storeys":null,"StoreysInBasement":null,"DateStamp":1362067200000}},{"type":"Feature","id":93915,"geometry":{"type":"Polygon","coordinates":[[[114.16564002750877,22.443124430324669],[114.16571514362535,22.443206341759772],[114.16567193056099,22.443240094623306],[114.16559780529929,22.443158643790749],[114.16564002750877,22.443124430324669]]]},"properties":{"OBJECTID":93915,"Shape__Length":35.309123413489743,"Shape__Area":68.679873509459426,"GeoRefNo":"3511333751","DateCreate":1114790400000,"BuildingBlockType":"Tower","BuildingCSUID":"3511333751T20050430","BuildingID":1106130716,"Status":"Active","BuildingNameEN":"Law Ting Pong Secondary School","BuildingNameTC":"羅定邦中學","BaseHeight":12.199999999999999,"TopHeight":15.9,"Storeys":null,"StoreysInBasement":null,"DateStamp":1362067200000}},{"type":"Feature","id":93991,"geometry":{"type":"Polygon","coordinates":[[[114.16394719250951,22.443083450236333],[114.16394925465084,22.44312619624834],[114.16391467085788,22.443125976752501],[114.16391441237066,22.443084897184342],[114.16394719250951,22.443083450236333]]]},"properties":{"OBJECTID":93991,"Shape__Length":16.225592434167663,"Shape__Area":16.100171299731311,"GeoRefNo":"3493533742","DateCreate":1114790400000,"BuildingBlockType":"Tower","BuildingCSUID":"3493533742T20050430","BuildingID":1106130803,"Status":"Active","BuildingNameEN":null,"BuildingNameTC":null,"BaseHeight":16.899999999999999,"TopHeight":23,"Storeys":null,"StoreysInBasement":null,"DateStamp":1362067200000}},{"type":"Feature","id":94059,"geometry":{"type":"Polygon","coordinates":[[[114.16655129941407,22.443544795501968],[114.16655773708757,22.443586796564038],[114.16650784244283,22.443593936469721],[114.16650140485224,22.443551014299157],[114.16655129941407,22.443544795501968]]]},"properties":{"OBJECTID":94059,"Shape__Length":19.875599420218702,"Shape__Area":24.640091998199182,"GeoRefNo":"3520433794","DateCreate":1114790400000,"BuildingBlockType":"Tower","BuildingCSUID":"3520433794T20050430","BuildingID":1106130532,"Status":"Active","BuildingNameEN":null,"BuildingNameTC":null,"BaseHeight":19.600000000000001,"TopHeight":25.199999999999999,"Storeys":null,"StoreysInBasement":null,"DateStamp":1362067200000}},{"type":"Feature","id":94061,"geometry":{"type":"Polygon","coordinates":[[[114.16526423371943,22.442893243901416],[114.16526974469198,22.442900125324016],[114.16528591817641,22.442901981699261],[114.16528958928014,22.442898708511592],[114.16538213948715,22.443001709543797],[114.16537870507979,22.443004367324683],[114.16537743139627,22.443018671658514],[114.16538411536916,22.443026061665407],[114.16516462026577,22.443197362736903],[114.16515918059268,22.443191628003511],[114.16514510406145,22.443193243436259],[114.16525753000546,22.443318061480515],[114.16535234061644,22.443243431530867],[114.16552159200278,22.443430193324136],[114.16534110301744,22.443570956353724],[114.16491512966726,22.443098759007526],[114.16497176899436,22.443054346156874],[114.1649712583507,22.44305375597898],[114.16497031545548,22.443052626651042],[114.16496939393356,22.443051482243796],[114.16496849407636,22.443050322937903],[114.1649676161753,22.443049149275193],[114.16496676032746,22.443047961526592],[114.16496592692143,22.443046760143631],[114.16496511624855,22.443045545397275],[114.16496432850316,22.443044317648727],[114.1649635638795,22.443043077259254],[114.16496282276606,22.443041824770674],[114.16496210516286,22.443040560363642],[114.16496141145844,22.443039284579971],[114.16496074184704,22.443037997690617],[114.1649600964258,22.443036700147111],[114.1649594754861,22.443035392310655],[114.1649588792222,22.443034074542528],[114.16495830773124,22.443032747384535],[114.16495776130458,22.44303141110764],[114.16495724003934,22.443030066253641],[114.16495674403264,22.443028713093486],[114.1649562735759,22.443027352078715],[114.16495582876617,22.443025983660849],[114.16495540970061,22.443024608201149],[114.16495501647631,22.443023226241394],[114.16495464928755,22.443021838052541],[114.1649543082314,22.44302044408613],[114.16495399340499,22.443019044793672],[114.16495370480828,22.443017640716999],[114.16495344273268,22.443016232036737],[114.16495320708098,22.443014819385034],[114.16495299795031,22.443013403123103],[114.16495281553492,22.443011983702462],[114.16495265973761,22.443010561484346],[114.16495253065553,22.443009137010577],[114.16495242838573,22.443007710642416],[114.16495235283107,22.443006282831313],[114.16495230418579,22.443004854028839],[114.16495228235271,22.443003424596238],[114.16495228733177,22.443001995075271],[114.16495231912297,22.443000565827219],[114.1649523778234,22.442999137303559],[114.16495246333587,22.442997710046168],[114.16495257556319,22.44299628432589],[114.16495271450535,22.442994860594307],[114.16495288025942,22.442993439393202],[114.16495307263111,22.442992021083825],[114.16495329162034,22.442990606117668],[114.16495353703283,22.442989194855922],[114.16495380906281,22.44298778784048],[114.16495410732166,22.442986385522804],[114.16495443200363,22.442984988173798],[114.16495478281725,22.442983596335306],[114.16495515966533,22.442982210368537],[114.16495556245073,22.442980830724967],[114.16495599117336,22.44297945785619],[114.16495644554175,22.442978092213639],[114.16495692555588,22.442976734068246],[114.16495743092432,22.442975383871541],[114.16495796154982,22.442974042165321],[114.16495851733524,22.442972709220459],[114.16495909798907,22.442971385578822],[114.16495970351133,22.442970071511304],[114.16496033351338,22.442968767379075],[114.16496098799514,22.442967473814285],[114.16496166656803,22.442966190997499],[114.16496236923206,22.442964919380255],[114.16496309559857,22.442963659323734],[114.16496384547324,22.442962411279453],[114.16496461875887,22.442961175608623],[114.1649654150669,22.442959952582086],[114.16496623420295,22.442958742741745],[114.16496707597274,22.442957546358393],[114.16496793998762,22.442956363883596],[114.16496882615047,22.442955195497948],[114.16496973407263,22.442954041743221],[114.16497066355976,22.442952902800034],[114.16497161432046,22.442951779210158],[114.16497258596607,22.442950671154211],[114.16497357820514,22.442949579083677],[114.1649745909405,22.442948503179181],[114.16497562358923,22.442947443982472],[114.16497667605418,22.442946401674167],[114.16497774794674,22.442945376525145],[114.16497883887828,22.442944368986922],[114.16497994855736,22.442943379330355],[114.16498107659537,22.442942407736052],[114.16498222279797,22.44294145465549],[114.16498316177156,22.442940711608159],[114.16495788955183,22.442912599292498],[114.16499222301003,22.442885799419283],[114.16495738026637,22.44284702007652],[114.16518570617586,22.442668513612045],[114.1652687480301,22.442760133572527],[114.16523232016019,22.442788617083153],[114.16500601530802,22.442966137452505],[114.16499979432257,22.443032370520861],[114.16504652017566,22.443084717267514],[114.16505169906006,22.44307254459002],[114.16504478292075,22.44306520232356],[114.16526423371943,22.442893243901416]]]},"properties":{"OBJECTID":94061,"Shape__Length":365.49700339655965,"Shape__Area":2228.2960060809137,"GeoRefNo":"3507533773","DateCreate":1114790400000,"BuildingBlockType":"Tower","BuildingCSUID":"3507533773T20050430","BuildingID":1106130549,"Status":"Active","BuildingNameEN":"Law Ting Pong Secondary School","BuildingNameTC":"羅定邦中學","BaseHeight":11.9,"TopHeight":37.799999999999997,"Storeys":null,"StoreysInBasement":null,"DateStamp":1362067200000}},{"type":"Feature","id":94063,"geometry":{"type":"Polygon","coordinates":[[[114.16324199827407,22.443535917587113],[114.16328448689502,22.44356642604096],[114.16327683090935,22.443575609371891],[114.1633054966038,22.443596715953419],[114.16327957514012,22.443627019989044],[114.16320842079567,22.443575630701854],[114.16324199827407,22.443535917587113]]]},"properties":{"OBJECTID":94063,"Shape__Length":29.733461472757128,"Shape__Area":47.150098495235049,"GeoRefNo":"3486533795","DateCreate":1114790400000,"BuildingBlockType":"Tower","BuildingCSUID":"3486533795T20050430","BuildingID":1106130512,"Status":"Active","BuildingNameEN":null,"BuildingNameTC":null,"BaseHeight":48.399999999999999,"TopHeight":53.799999999999997,"Storeys":null,"StoreysInBasement":null,"DateStamp":1362067200000}},{"type":"Feature","id":94064,"geometry":{"type":"Polygon","coordinates":[[[114.16262702809017,22.443423227741029],[114.16262578380389,22.44343128279851],[114.16264667961033,22.443433695768622],[114.16264283902088,22.443466439865354],[114.16257450736811,22.443459706152375],[114.16257933001962,22.443418410301867],[114.16262702809017,22.443423227741029]]]},"properties":{"OBJECTID":94064,"Shape__Length":23.328104146135491,"Shape__Area":30.501481502914096,"GeoRefNo":"3479833781","DateCreate":1114790400000,"BuildingBlockType":"Tower","BuildingCSUID":"3479833781T20050430","BuildingID":1106130604,"Status":"Active","BuildingNameEN":null,"BuildingNameTC":null,"BaseHeight":40.600000000000001,"TopHeight":45.100000000000001,"Storeys":null,"StoreysInBasement":null,"DateStamp":1362067200000}},{"type":"Feature","id":94066,"geometry":{"type":"Polygon","coordinates":[[[114.16653207845836,22.443619367783501],[114.16652856376476,22.443595104258428],[114.16655773676612,22.443591158274391],[114.16656243686792,22.44361502606937],[114.16655083694427,22.443616683322333],[114.16653207845836,22.443619367783501]]]},"properties":{"OBJECTID":94066,"Shape__Length":11.594490470179016,"Shape__Area":8.3591648466833615,"GeoRefNo":"3520533798","DateCreate":1114790400000,"BuildingBlockType":"Tower","BuildingCSUID":"3520533798T20050430","BuildingID":1106130517,"Status":"Active","BuildingNameEN":null,"BuildingNameTC":null,"BaseHeight":19.5,"TopHeight":23.100000000000001,"Storeys":null,"StoreysInBasement":null,"DateStamp":1362067200000}},{"type":"Feature","id":94103,"geometry":{"type":"Polygon","coordinates":[[[114.1631506133255,22.443534573357077],[114.16320865686089,22.443545794094643],[114.16320249500973,22.443574492363958],[114.16314395601997,22.44356326255172],[114.1631506133255,22.443534573357077]]]},"properties":{"OBJECTID":94103,"Shape__Length":18.746214661724419,"Shape__Area":19.88601749651421,"GeoRefNo":"3485733793","DateCreate":1114790400000,"BuildingBlockType":"Tower","BuildingCSUID":"3485733793T20050430","BuildingID":1106130546,"Status":"Active","BuildingNameEN":null,"BuildingNameTC":null,"BaseHeight":48.899999999999999,"TopHeight":56.399999999999999,"Storeys":null,"StoreysInBasement":null,"DateStamp":1362067200000}},{"type":"Feature","id":94105,"geometry":{"type":"Polygon","coordinates":[[[114.16632029235039,22.443339924713229],[114.16633610547514,22.443369067025777],[114.16630919517632,22.443381473120006],[114.16628571837074,22.443337646781835],[114.16630917017334,22.443326613095302],[114.16632029235039,22.443339924713229]]]},"properties":{"OBJECTID":94105,"Shape__Length":16.700174110579173,"Shape__Area":16.397915498479389,"GeoRefNo":"3518133770","DateCreate":1114790400000,"BuildingBlockType":"Tower","BuildingCSUID":"3518133770T20050430","BuildingID":1106130642,"Status":"Active","BuildingNameEN":null,"BuildingNameTC":null,"BaseHeight":21.5,"TopHeight":28.399999999999999,"Storeys":null,"StoreysInBasement":null,"DateStamp":1362067200000}},{"type":"Feature","id":94107,"geometry":{"type":"Polygon","coordinates":[[[114.16780549855233,22.44297819133887],[114.16785712957682,22.443156690229202],[114.16808416503012,22.443211625938115],[114.16804578390962,22.443348182416852],[114.1678709923052,22.443306939737518],[114.16777721618377,22.443328589535955],[114.16765070542162,22.4434447592079],[114.167544735671,22.443346212801185],[114.1677120306245,22.443192397547836],[114.16766015687793,22.443014368181895],[114.16780549855233,22.44297819133887]]]},"properties":{"OBJECTID":94107,"Shape__Length":182.62645595468777,"Shape__Area":1187.5764335020849,"GeoRefNo":"3533533753","DateCreate":1114790400000,"BuildingBlockType":"Tower","BuildingCSUID":"3533533753T20050430","BuildingID":1106130614,"Status":"Active","BuildingNameEN":"Yat Wing House","BuildingNameTC":"逸榮閣","BaseHeight":8.1999999999999993,"TopHeight":106.40000000000001,"Storeys":35,"StoreysInBasement":null,"DateStamp":1788105600000}},{"type":"Feature","id":96429,"geometry":{"type":"Polygon","coordinates":[[[114.16670239780177,22.443740133736256],[114.1666740136001,22.443728060760339],[114.16666392414142,22.443709086414085],[114.16665688338452,22.44369720414759],[114.16668101394332,22.443681294636157],[114.16673402916147,22.443657652345951],[114.16674126507063,22.443672474305746],[114.16669467305574,22.443693235202876],[114.16670538037047,22.443713481254836],[114.16671984006153,22.443741582322264],[114.16672133308467,22.443744444980105],[114.16670765237038,22.443750281950763],[114.16670239780177,22.443740133736256]]]},"properties":{"OBJECTID":96429,"Shape__Length":32.375000383525041,"Shape__Area":33.015467015684401,"GeoRefNo":"3522133806","DateCreate":1210780800000,"BuildingBlockType":"Temporary Structure","BuildingCSUID":"3522133806T20080515","BuildingID":1106130471,"Status":"Active","BuildingNameEN":null,"BuildingNameTC":null,"BaseHeight":null,"TopHeight":null,"Storeys":null,"StoreysInBasement":null,"DateStamp":1566921600000}},{"type":"Feature","id":97462,"geometry":{"type":"Polygon","coordinates":[[[114.16510890515697,22.445302041796619],[114.16508246892175,22.445331948737973],[114.16499063673753,22.445261291091004],[114.1650175054755,22.445231407946167],[114.16510890515697,22.445302041796619]]]},"properties":{"OBJECTID":97462,"Shape__Length":33.1052883373914,"Shape__Area":52.682574853985884,"GeoRefNo":"3505033983","DateCreate":1114790400000,"BuildingBlockType":"Tower","BuildingCSUID":"3505033983T20050430","BuildingID":1106129787,"Status":"Active","BuildingNameEN":null,"BuildingNameTC":null,"BaseHeight":12.300000000000001,"TopHeight":21.300000000000001,"Storeys":null,"StoreysInBasement":null,"DateStamp":1452096000000}},{"type":"Feature","id":98948,"geometry":{"type":"Polygon","coordinates":[[[114.16763658805961,22.447508236372833],[114.16768748038326,22.447485109298871],[114.16776931964185,22.447639989778882],[114.16771726630817,22.447663728896579],[114.16764922985828,22.447532601071572],[114.16763997286932,22.447514759983587],[114.16763658805961,22.447508236372833]]]},"properties":{"OBJECTID":98948,"Shape__Length":50.024189431082377,"Shape__Area":112.75587784477391,"GeoRefNo":"3532334235","DateCreate":1114790400000,"BuildingBlockType":"Tower","BuildingCSUID":"3532334235T20050430","BuildingID":1106128652,"Status":"Active","BuildingNameEN":"Po Wah Building","BuildingNameTC":"寶華樓","BaseHeight":4.7000000000000002,"TopHeight":26.100000000000001,"Storeys":6,"StoreysInBasement":null,"DateStamp":1599580800000}},{"type":"Feature","id":98949,"geometry":{"type":"Polygon","coordinates":[[[114.1661816541332,22.447404365935945],[114.16619028478775,22.447421172989355],[114.16620662954534,22.447453002346119],[114.16623837901787,22.447514830249059],[114.16625258538656,22.447542495338421],[114.16626984080669,22.447576097967556],[114.16622700003686,22.447597371352586],[114.166222075299,22.447588187059313],[114.16619870726041,22.447541059385571],[114.16618281792482,22.44751052926955],[114.16615140045262,22.447451000801593],[114.16613736447842,22.447425037322365],[114.1661816541332,22.447404365935945]]]},"properties":{"OBJECTID":98949,"Shape__Length":52.372052041440213,"Shape__Area":105.52467361362162,"GeoRefNo":"3516734225","DateCreate":1114790400000,"BuildingBlockType":"Tower","BuildingCSUID":"3516734225T20050430","BuildingID":1106128693,"Status":"Active","BuildingNameEN":"Hang Lok Building","BuildingNameTC":"行樂樓","BaseHeight":4.9000000000000004,"TopHeight":28,"Storeys":6,"StoreysInBasement":null,"DateStamp":1599580800000}},{"type":"Feature","id":98950,"geometry":{"type":"Polygon","coordinates":[[[114.16996818046822,22.447495069296124],[114.16997635629856,22.447578005314078],[114.16992200139896,22.44758269882896],[114.16991478688124,22.447509642163965],[114.16993257486675,22.447508080657833],[114.16993161358491,22.447498201302302],[114.16996818046822,22.447495069296124]]]},"properties":{"OBJECTID":98950,"Shape__Length":29.683263037142545,"Shape__Area":49.815952506630346,"GeoRefNo":"3555534234","DateCreate":1114790400000,"BuildingBlockType":"Tower","BuildingCSUID":"3555534234T20050430","BuildingID":1106128702,"Status":"Active","BuildingNameEN":null,"BuildingNameTC":null,"BaseHeight":6.5,"TopHeight":12.6,"Storeys":null,"StoreysInBasement":null,"DateStamp":1362067200000}},{"type":"Feature","id":98951,"geometry":{"type":"Polygon","coordinates":[[[114.16785553043104,22.447623784939005],[114.16781922490091,22.447640326701961],[114.16772755485252,22.447467262968022],[114.16776354684617,22.447450780808708],[114.16780319183857,22.447525345848678],[114.16781446048293,22.447546540046549],[114.16785553043104,22.447623784939005]]]},"properties":{"OBJECTID":98951,"Shape__Length":51.023381503489588,"Shape__Area":88.581287818441837,"GeoRefNo":"3533334235","DateCreate":1114790400000,"BuildingBlockType":"Tower","BuildingCSUID":"3533334235T20050430","BuildingID":1106128670,"Status":"Active","BuildingNameEN":"Kam Fuk Building","BuildingNameTC":null,"BaseHeight":4.7000000000000002,"TopHeight":26.5,"Storeys":6,"StoreysInBasement":null,"DateStamp":1599580800000}},{"type":"Feature","id":98953,"geometry":{"type":"Polygon","coordinates":[[[114.16587208394868,22.44769476127858],[114.16584963811998,22.447650428452118],[114.16586109808878,22.447645270947621],[114.1659103718937,22.447623095230949],[114.16594707945075,22.447606574875152],[114.16594708489026,22.447606585260559],[114.16597047286677,22.447651228242862],[114.16593357869344,22.447667552359572],[114.16588414713084,22.447689423836572],[114.16587208394868,22.44769476127858]]]},"properties":{"OBJECTID":98953,"Shape__Length":33.28601060354692,"Shape__Area":61.073700273120487,"GeoRefNo":"3514034245","DateCreate":1114790400000,"BuildingBlockType":"Tower","BuildingCSUID":"3514034245T20050430","BuildingID":1106128640,"Status":"Active","BuildingNameEN":"Po Lok Building","BuildingNameTC":"寶樂樓","BaseHeight":4.9000000000000004,"TopHeight":27.5,"Storeys":6,"StoreysInBasement":null,"DateStamp":1599580800000}},{"type":"Feature","id":98954,"geometry":{"type":"Polygon","coordinates":[[[114.16766545486436,22.447687357659063],[114.16758355440194,22.447532336519707],[114.16763658805961,22.447508236372833],[114.16763997286932,22.447514759983587],[114.16764922985828,22.447532601071572],[114.16771726630817,22.447663728896579],[114.16766545486436,22.447687357659063]]]},"properties":{"OBJECTID":98954,"Shape__Length":50.258556092006174,"Shape__Area":114.88579767918546,"GeoRefNo":"3531734236","DateCreate":1114790400000,"BuildingBlockType":"Tower","BuildingCSUID":"3531734236T20050430","BuildingID":1106128643,"Status":"Active","BuildingNameEN":"Po Wah Building","BuildingNameTC":"寶華樓","BaseHeight":4.7999999999999998,"TopHeight":26.100000000000001,"Storeys":6,"StoreysInBasement":null,"DateStamp":1599580800000}},{"type":"Feature","id":98958,"geometry":{"type":"Polygon","coordinates":[[[114.16546193518809,22.447626355214116],[114.16544697583581,22.447599125179842],[114.16544337623615,22.447592572971825],[114.16541922343444,22.447548608045693],[114.16541412904017,22.447539334856092],[114.1653931919776,22.447501223692246],[114.16544120982692,22.447478376344343],[114.1654781451239,22.447548844557023],[114.16550879085351,22.447605027499279],[114.16546193518809,22.447626355214116]]]},"properties":{"OBJECTID":98958,"Shape__Length":42.137573899440227,"Shape__Area":84.751365339183948,"GeoRefNo":"3509434238","DateCreate":1114790400000,"BuildingBlockType":"Tower","BuildingCSUID":"3509434238T20050430","BuildingID":1106128674,"Status":"Active","BuildingNameEN":"Kam Ming Building","BuildingNameTC":"錦明樓","BaseHeight":4.5999999999999996,"TopHeight":27.600000000000001,"Storeys":6,"StoreysInBasement":null,"DateStamp":1599580800000}},{"type":"Feature","id":99003,"geometry":{"type":"Polygon","coordinates":[[[114.16584963811998,22.447650428452118],[114.16584528002799,22.447641820780323],[114.16582397459899,22.447650958144948],[114.16580748124056,22.447619476863998],[114.16591249281032,22.447573916347132],[114.16593329183861,22.447580257130845],[114.16594707945075,22.447606574875152],[114.1659103718937,22.447623095230949],[114.16586109808878,22.447645270947621],[114.16584963811998,22.447650428452118]]]},"properties":{"OBJECTID":99003,"Shape__Length":35.913636580429106,"Shape__Area":62.256137265439591,"GeoRefNo":"3513934241","DateCreate":1114790400000,"BuildingBlockType":"Tower","BuildingCSUID":"3513934241T20050430","BuildingID":1106128660,"Status":"Active","BuildingNameEN":"Po Lok Building","BuildingNameTC":"寶樂樓","BaseHeight":4.7999999999999998,"TopHeight":27.699999999999999,"Storeys":6,"StoreysInBasement":null,"DateStamp":1599580800000}},{"type":"Feature","id":99005,"geometry":{"type":"Polygon","coordinates":[[[114.16785553043104,22.447623784939005],[114.16781446048293,22.447546540046549],[114.16780319183857,22.447525345848678],[114.16776354684617,22.447450780808708],[114.16780140200139,22.447433445458216],[114.16784144185051,22.447509058856255],[114.16785179002559,22.44752860087906],[114.16789311835315,22.447606647229136],[114.16785553043104,22.447623784939005]]]},"properties":{"OBJECTID":99005,"Shape__Length":51.400571750467826,"Shape__Area":92.476024247078712,"GeoRefNo":"3533734232","DateCreate":1114790400000,"BuildingBlockType":"Tower","BuildingCSUID":"3533734232T20050430","BuildingID":1106128675,"Status":"Active","BuildingNameEN":"Kam Fuk Building","BuildingNameTC":null,"BaseHeight":4.7000000000000002,"TopHeight":26.5,"Storeys":6,"StoreysInBasement":null,"DateStamp":1599580800000}},{"type":"Feature","id":99006,"geometry":{"type":"Polygon","coordinates":[[[114.16756031732928,22.44773530334788],[114.16753000011637,22.447677099799549],[114.16751965928228,22.447657247199679],[114.16747927821588,22.447579722769568],[114.16753230957792,22.447555623650334],[114.16753471000899,22.44756020854911],[114.16754539082174,22.447580609767783],[114.16757212769068,22.447631679322424],[114.16758362504279,22.447653640053975],[114.16761364641485,22.447710983154042],[114.16756031732928,22.44773530334788]]]},"properties":{"OBJECTID":99006,"Shape__Length":50.465383986216821,"Shape__Area":116.64775114212816,"GeoRefNo":"3530734244","DateCreate":1114790400000,"BuildingBlockType":"Tower","BuildingCSUID":"3530734244T20050430","BuildingID":1106128614,"Status":"Active","BuildingNameEN":"Po Wah Building","BuildingNameTC":"寶華樓","BaseHeight":4.7999999999999998,"TopHeight":26.100000000000001,"Storeys":6,"StoreysInBasement":null,"DateStamp":1599580800000}},{"type":"Feature","id":99007,"geometry":{"type":"Polygon","coordinates":[[[114.16477543296163,22.447721031734545],[114.16486382261448,22.447679896391552],[114.16488454087171,22.447719206670346],[114.16489896511662,22.447746579036636],[114.16477543296163,22.447721031734545]]]},"properties":{"OBJECTID":99007,"Shape__Length":31.424303347524599,"Shape__Area":41.831571578580771,"GeoRefNo":"3502934253","DateCreate":1114790400000,"BuildingBlockType":"Tower","BuildingCSUID":"3502934253T20050430","BuildingID":1106128608,"Status":"Active","BuildingNameEN":null,"BuildingNameTC":null,"BaseHeight":6.9000000000000004,"TopHeight":28.800000000000001,"Storeys":6,"StoreysInBasement":null,"DateStamp":1599580800000}},{"type":"Feature","id":99720,"geometry":{"type":"Polygon","coordinates":[[[114.16277692528006,22.448421298881208],[114.16272558167735,22.448423615225842],[114.16272451461687,22.448407992452765],[114.16277644284449,22.448405808455508],[114.16277692528006,22.448421298881208]]]},"properties":{"OBJECTID":99720,"Shape__Length":14.091483183353514,"Shape__Area":9.176124196212001,"GeoRefNo":"3481334330","DateCreate":1114790400000,"BuildingBlockType":"Tower","BuildingCSUID":"3481334330T20050430","BuildingID":1106128097,"Status":"Active","BuildingNameEN":"SPRING VIEW VILLA","BuildingNameTC":"春芳閣","BaseHeight":17.399999999999999,"TopHeight":20.199999999999999,"Storeys":2,"StoreysInBasement":null,"DateStamp":1599580800000}},{"type":"Feature","id":99722,"geometry":{"type":"Polygon","coordinates":[[[114.16506340744778,22.44842105339016],[114.16506507202322,22.448413905458253],[114.16505556129108,22.448411809699643],[114.16506372013161,22.448378947491157],[114.16519035664113,22.448402220114616],[114.1651812403065,22.4484422911788],[114.16518123282323,22.448442324229731],[114.16515214172732,22.448437072544365],[114.16507682899258,22.448423476425962],[114.16506340744778,22.44842105339016]]]},"properties":{"OBJECTID":99722,"Shape__Length":35.73235249629149,"Shape__Area":59.959877989444784,"GeoRefNo":"3506034331","DateCreate":1114790400000,"BuildingBlockType":"Tower","BuildingCSUID":"3506034331T20050430","BuildingID":1106128073,"Status":"Active","BuildingNameEN":"Tsing On Building","BuildingNameTC":"靖安樓","BaseHeight":4.2000000000000002,"TopHeight":27.100000000000001,"Storeys":6,"StoreysInBasement":null,"DateStamp":1599580800000}},{"type":"Feature","id":99726,"geometry":{"type":"Polygon","coordinates":[[[114.16435561055553,22.448464956462168],[114.16436408068233,22.4484294032391],[114.164492801045,22.448456242605371],[114.16448379668981,22.448493294849033],[114.16447606900452,22.448491586418495],[114.16438782170039,22.448472077473852],[114.16435561055553,22.448464956462168]]]},"properties":{"OBJECTID":99726,"Shape__Length":35.380634081368157,"Shape__Area":55.901559926778695,"GeoRefNo":"3498434335","DateCreate":1114790400000,"BuildingBlockType":"Tower","BuildingCSUID":"3498434335T20050430","BuildingID":1106128022,"Status":"Active","BuildingNameEN":"Kwong Yiu Building","BuildingNameTC":"廣耀樓","BaseHeight":5.2999999999999998,"TopHeight":31.100000000000001,"Storeys":6,"StoreysInBasement":1,"DateStamp":1599580800000}},{"type":"Feature","id":99786,"geometry":{"type":"Polygon","coordinates":[[[114.16603702401326,22.449627828478512],[114.16604417253548,22.4496500890147],[114.1660219150247,22.449655578037813],[114.16601617521479,22.449632893164008],[114.16603702401326,22.449627828478512]]]},"properties":{"OBJECTID":99786,"Shape__Length":9.7415386686017378,"Shape__Area":5.9085529991065417,"GeoRefNo":"3515234467","DateCreate":1114790400000,"BuildingBlockType":"Tower","BuildingCSUID":"3515234467T20050430","BuildingID":1106127133,"Status":"Active","BuildingNameEN":null,"BuildingNameTC":null,"BaseHeight":4.5999999999999996,"TopHeight":7.0999999999999996,"Storeys":null,"StoreysInBasement":null,"DateStamp":1362067200000}},{"type":"Feature","id":99788,"geometry":{"type":"Polygon","coordinates":[[[114.16530346955729,22.449551587815336],[114.16527226381915,22.449491685074818],[114.1653267201883,22.449466749485172],[114.165391766008,22.449590587582819],[114.16537045088779,22.44959545348194],[114.16534402997192,22.449548168168732],[114.16531087140254,22.449563517568027],[114.16530346955729,22.449551587815336]]]},"properties":{"OBJECTID":99788,"Shape__Length":42.376952229717688,"Shape__Area":69.529507721583414,"GeoRefNo":"3507834452","DateCreate":1114790400000,"BuildingBlockType":"Tower","BuildingCSUID":"3507834452T20050430","BuildingID":1106127190,"Status":"Active","BuildingNameEN":null,"BuildingNameTC":null,"BaseHeight":4.2999999999999998,"TopHeight":15.9,"Storeys":null,"StoreysInBasement":null,"DateStamp":1362067200000}},{"type":"Feature","id":99789,"geometry":{"type":"Polygon","coordinates":[[[114.16647526693875,22.449643254581261],[114.16643608897213,22.449503381414551],[114.16643614123981,22.449503368143162],[114.16648353675672,22.449491294319177],[114.16651521819838,22.449599449979612],[114.16649192117107,22.449605444706265],[114.16650104126457,22.449636428762883],[114.16647526693875,22.449643254581261]]]},"properties":{"OBJECTID":99789,"Shape__Length":42.286324489698814,"Shape__Area":73.513438444368333,"GeoRefNo":"3519734455","DateCreate":1114790400000,"BuildingBlockType":"Tower","BuildingCSUID":"3519734455T20050430","BuildingID":1106127145,"Status":"Active","BuildingNameEN":null,"BuildingNameTC":null,"BaseHeight":4.5999999999999996,"TopHeight":22.699999999999999,"Storeys":null,"StoreysInBasement":null,"DateStamp":1362067200000}},{"type":"Feature","id":99795,"geometry":{"type":"Polygon","coordinates":[[[114.16657415905553,22.44961900962884],[114.16653380980397,22.449478494074999],[114.16658223253542,22.44946685808377],[114.16661431301836,22.449575354017806],[114.16659063714205,22.449580969455834],[114.16659901883121,22.449613100327223],[114.16657415905553,22.44961900962884]]]},"properties":{"OBJECTID":99795,"Shape__Length":42.53067238590522,"Shape__Area":74.494224729179493,"GeoRefNo":"3520734452","DateCreate":1114790400000,"BuildingBlockType":"Tower","BuildingCSUID":"3520734452T20050430","BuildingID":1106127174,"Status":"Active","BuildingNameEN":null,"BuildingNameTC":null,"BaseHeight":4.5,"TopHeight":22.5,"Storeys":null,"StoreysInBasement":null,"DateStamp":1362067200000}},{"type":"Feature","id":99797,"geometry":{"type":"Polygon","coordinates":[[[114.16634740531325,22.449673886183984],[114.16630773960235,22.449534989869036],[114.16635686986039,22.449522796903221],[114.16638751208525,22.449631066394737],[114.16636673125454,22.44963679035272],[114.16637363633592,22.449667295658863],[114.16634740531325,22.449673886183984]]]},"properties":{"OBJECTID":99797,"Shape__Length":42.025141772559877,"Shape__Area":74.930993481085125,"GeoRefNo":"3518434458","DateCreate":1114790400000,"BuildingBlockType":"Tower","BuildingCSUID":"3518434458T20050430","BuildingID":1106127114,"Status":"Active","BuildingNameEN":null,"BuildingNameTC":null,"BaseHeight":4.5,"TopHeight":22.699999999999999,"Storeys":null,"StoreysInBasement":null,"DateStamp":1362067200000}}]}