{"type":"FeatureCollection","features":[{"type":"Feature","id":143747,"geometry":{"type":"Polygon","coordinates":[[[114.16963312546582,22.443343032434701],[114.16967803642875,22.443333137052605],[114.16969249862771,22.443387681650908],[114.16976110376339,22.443371447912384],[114.16977605173943,22.443425757732378],[114.16973286025751,22.443435183633607],[114.16973793029767,22.443454211028413],[114.16978087894404,22.443444324561955],[114.16978822182077,22.4434709015161],[114.1697736595122,22.443473971234656],[114.16977947757101,22.443493215391754],[114.16972542503511,22.443505232556586],[114.16974113067937,22.443560915041662],[114.16969127487502,22.443571758420109],[114.16967655046949,22.443515154867228],[114.1696563147777,22.443519398282699],[114.16967203001634,22.443576913957457],[114.16961921116791,22.443589382664179],[114.16960555525152,22.44353552441147],[114.16955095862561,22.443548345204054],[114.16954571377008,22.443528839181507],[114.16953366755068,22.443531457469199],[114.16952599446947,22.443504004534489],[114.16959545459375,22.443487211017001],[114.16959096736585,22.443469736882491],[114.16952210952758,22.443487027100446],[114.16950691883498,22.443431660682943],[114.16957157018059,22.443415453936804],[114.16955637938516,22.44336183040155],[114.16956867819466,22.443358706417911],[114.16963312546582,22.443343032434701]]]},"properties":{"OBJECTID":143747,"Shape__Length":143.49468121686971,"Shape__Area":483.62502400591899,"GeoRefNo":"3552633783","DateCreate":1114790400000,"BuildingBlockType":"Tower","BuildingCSUID":"3552633783T20050430","BuildingID":1106130537,"Status":"Active","BuildingNameEN":"Uptown Plaza Block 4","BuildingNameTC":"新達廣場第４座","BaseHeight":28.300000000000001,"TopHeight":106.8,"Storeys":26,"StoreysInBasement":null,"DateStamp":1599580800000}},{"type":"Feature","id":143978,"geometry":{"type":"Polygon","coordinates":[[[114.16963312546582,22.443343032434701],[114.16956867819466,22.443358706417911],[114.16956184050395,22.443332499724935],[114.16962611287587,22.443317322411712],[114.16963312546582,22.443343032434701]]]},"properties":{"OBJECTID":143978,"Shape__Length":19.606889521164828,"Shape__Area":20.261723001238654,"GeoRefNo":"3552033768","DateCreate":1114790400000,"BuildingBlockType":"Tower","BuildingCSUID":"3552033768T20050430","BuildingID":1106130655,"Status":"Active","BuildingNameEN":null,"BuildingNameTC":null,"BaseHeight":28.300000000000001,"TopHeight":30.899999999999999,"Storeys":null,"StoreysInBasement":null,"DateStamp":1473609600000}},{"type":"Feature","id":145077,"geometry":{"type":"Polygon","coordinates":[[[114.16908597079001,22.444234602072797],[114.16911487559555,22.44434184914779],[114.16880442058164,22.44441638040454],[114.16877403937409,22.44430914223171],[114.16908597079001,22.444234602072797]]]},"properties":{"OBJECTID":145077,"Shape__Length":90.68267054781569,"Shape__Area":405.6036775004228,"GeoRefNo":"3545133877","DateCreate":1114790400000,"BuildingBlockType":"Tower","BuildingCSUID":"3545133877T20050430","BuildingID":1106130170,"Status":"Active","BuildingNameEN":null,"BuildingNameTC":null,"BaseHeight":28.300000000000001,"TopHeight":34.299999999999997,"Storeys":null,"StoreysInBasement":null,"DateStamp":1473609600000}},{"type":"Feature","id":145078,"geometry":{"type":"Polygon","coordinates":[[[114.16884808675447,22.443927726557458],[114.16886479251798,22.443986614986127],[114.1689252570787,22.443972494328481],[114.16895793048749,22.444088446978999],[114.16889673721785,22.444103714480697],[114.16891444352535,22.444164436134692],[114.16885688351528,22.444179234215738],[114.16884573349709,22.444137792903152],[114.1688265565564,22.444142514880816],[114.16883770658426,22.444183694311494],[114.1688085817369,22.444190510859357],[114.16880508529546,22.444176188382809],[114.16878355737531,22.444181479157049],[114.16877062027476,22.444133346182468],[114.16870893150536,22.444148848379967],[114.16869501329575,22.444100047096022],[114.16875843123513,22.444084761721236],[114.16875360418427,22.444065508547958],[114.16869042915927,22.444080098588039],[114.16867675377506,22.444032209390404],[114.16873819961742,22.444016941984625],[114.16872452422299,22.443969052790671],[114.16874558577557,22.443964376071765],[114.16874246801169,22.443953575490223],[114.16877085446262,22.443947445231821],[114.16878833710038,22.444010921178641],[114.16880882545688,22.444006903646226],[114.16879058518991,22.443941359689422],[114.16884808675447,22.443927726557458]]]},"properties":{"OBJECTID":145078,"Shape__Length":144.85740901772138,"Shape__Area":491.49258600479936,"GeoRefNo":"3543933851","DateCreate":1114790400000,"BuildingBlockType":"Tower","BuildingCSUID":"3543933851T20050430","BuildingID":1106130283,"Status":"Active","BuildingNameEN":"Uptown Plaza Block 6","BuildingNameTC":"新達廣場第６座","BaseHeight":28.300000000000001,"TopHeight":89.200000000000003,"Storeys":20,"StoreysInBasement":null,"DateStamp":1599580800000}},{"type":"Feature","id":148854,"geometry":{"type":"Polygon","coordinates":[[[114.16758819389042,22.446220472554696],[114.16758175077013,22.446235012298807],[114.16756348746327,22.446228057801367],[114.16756985839891,22.446213601134016],[114.16758819389042,22.446220472554696]]]},"properties":{"OBJECTID":148854,"Shape__Length":7.5378973879730955,"Shape__Area":3.5290583479843955,"GeoRefNo":"3531034088","DateCreate":1114790400000,"BuildingBlockType":"Tower","BuildingCSUID":"3531034088T20050430","BuildingID":1106129298,"Status":"Active","BuildingNameEN":"HEUNG TO COLLEGE OF PROFESSIONAL STUDIES","BuildingNameTC":"香島專科學校","BaseHeight":5.2000000000000002,"TopHeight":9.3000000000000007,"Storeys":null,"StoreysInBasement":null,"DateStamp":1471968000000}},{"type":"Feature","id":148855,"geometry":{"type":"Polygon","coordinates":[[[114.16776552957039,22.44595707187807],[114.1677774834029,22.445965659427252],[114.16775115752888,22.446023264745801],[114.16771959930661,22.445999966472922],[114.16775911230576,22.445952459483976],[114.16776552957039,22.44595707187807]]]},"properties":{"OBJECTID":148855,"Shape__Length":20.118931159949366,"Shape__Area":21.803409162935068,"GeoRefNo":"3532834061","DateCreate":1114790400000,"BuildingBlockType":"Tower","BuildingCSUID":"3532834061T20050430","BuildingID":1106129396,"Status":"Active","BuildingNameEN":"HEUNG TO COLLEGE OF PROFESSIONAL STUDIES","BuildingNameTC":"香島專科學校","BaseHeight":6.4000000000000004,"TopHeight":12.6,"Storeys":6,"StoreysInBasement":1,"DateStamp":1599580800000}},{"type":"Feature","id":148856,"geometry":{"type":"Polygon","coordinates":[[[114.16742420008569,22.445895738080122],[114.16739936389662,22.445830428388529],[114.16746761146436,22.445808100052808],[114.16747438474103,22.445825988329897],[114.16749857692261,22.445818073003618],[114.16748069969132,22.445771274621549],[114.16755083197347,22.445747483426196],[114.16755227922339,22.445751176965086],[114.16758106883699,22.445824514933982],[114.16758899540788,22.445844704954407],[114.16756494056003,22.44585165955213],[114.16752994723011,22.44586396604636],[114.16749037494421,22.445876294482815],[114.16748901393822,22.44587294970453],[114.16742420008569,22.445895738080122]]]},"properties":{"OBJECTID":148856,"Shape__Length":62.772268027088401,"Shape__Area":159.94376682914395,"GeoRefNo":"3530234045","DateCreate":1114790400000,"BuildingBlockType":"Tower","BuildingCSUID":"3530234045T20050430","BuildingID":1106129476,"Status":"Active","BuildingNameEN":"HEUNG TO COLLEGE OF PROFESSIONAL STUDIES","BuildingNameTC":"香島專科學校","BaseHeight":5.2999999999999998,"TopHeight":17.600000000000001,"Storeys":null,"StoreysInBasement":null,"DateStamp":1471968000000}},{"type":"Feature","id":148857,"geometry":{"type":"Polygon","coordinates":[[[114.16732165440187,22.445849008499444],[114.16731383813924,22.445931140014569],[114.16735100466775,22.445962071506937],[114.16732116750072,22.446008441129518],[114.16726755708038,22.445931010850707],[114.16727153331794,22.445888658258824],[114.16727681138512,22.445845483972416],[114.16732165440187,22.445849008499444]]]},"properties":{"OBJECTID":148857,"Shape__Length":44.597472218001052,"Shape__Area":79.477223994592137,"GeoRefNo":"3528134054","DateCreate":1114790400000,"BuildingBlockType":"Tower","BuildingCSUID":"3528134054T20050430","BuildingID":1106129415,"Status":"Active","BuildingNameEN":"HEUNG TO COLLEGE OF PROFESSIONAL STUDIES","BuildingNameTC":"香島專科學校","BaseHeight":3.8999999999999999,"TopHeight":9.0999999999999996,"Storeys":null,"StoreysInBasement":null,"DateStamp":1471968000000}},{"type":"Feature","id":148858,"geometry":{"type":"Polygon","coordinates":[[[114.16771959930661,22.445999966472922],[114.16756503526629,22.445888377382317],[114.16758411043014,22.445865445278692],[114.16760431462795,22.445841155779512],[114.16759808952244,22.445836681465586],[114.16762150260645,22.445809201598241],[114.16766641171493,22.445841749911615],[114.1676548240231,22.445855680624032],[114.16773202298916,22.445911167563317],[114.16774248163857,22.44589859423964],[114.16778179198685,22.445926848585504],[114.16778405801907,22.445934796956678],[114.16776552957039,22.44595707187807],[114.16775911230576,22.445952459483976],[114.16771959930661,22.445999966472922]]]},"properties":{"OBJECTID":148858,"Shape__Length":67.692107134868891,"Shape__Area":196.74812447113834,"GeoRefNo":"3532134052","DateCreate":1114790400000,"BuildingBlockType":"Tower","BuildingCSUID":"3532134052T20050430","BuildingID":1106129418,"Status":"Active","BuildingNameEN":"HEUNG TO COLLEGE OF PROFESSIONAL STUDIES","BuildingNameTC":"香島專科學校","BaseHeight":7.7000000000000002,"TopHeight":16.800000000000001,"Storeys":6,"StoreysInBasement":1,"DateStamp":1599580800000}},{"type":"Feature","id":148863,"geometry":{"type":"Polygon","coordinates":[[[114.16715623581447,22.441311429192531],[114.16698510659678,22.441309357546565],[114.16689983342245,22.441308325195386],[114.16689976618248,22.441297642158517],[114.16689887215173,22.441165544551389],[114.16698511666982,22.44116672921588],[114.16715509939297,22.44116906394062],[114.16715623581447,22.441311429192531]]]},"properties":{"OBJECTID":148863,"Shape__Length":84.351827234350665,"Shape__Area":416.52275148471153,"GeoRefNo":"3525833535","DateCreate":1168185600000,"BuildingBlockType":"Tower","BuildingCSUID":"3525833535T20070108","BuildingID":1106131592,"Status":"Active","BuildingNameEN":"PO LEUNG KUK TIN KA PING PRIMARY SCHOOL","BuildingNameTC":"保良局田家炳小學","BaseHeight":9.4000000000000004,"TopHeight":14.6,"Storeys":null,"StoreysInBasement":null,"DateStamp":1286899200000}},{"type":"Feature","id":150195,"geometry":{"type":"Polygon","coordinates":[[[114.17010431361246,22.446110896272636],[114.17012984093046,22.446136501290027],[114.17010691959133,22.446157319504341],[114.17008051531724,22.446131812878608],[114.17010431361246,22.446110896272636]]]},"properties":{"OBJECTID":150195,"Shape__Length":14.455675170791691,"Shape__Area":12.981133108017778,"GeoRefNo":"3557134078","DateCreate":1470758400000,"BuildingBlockType":"Temporary Structure","BuildingCSUID":"3557134078T20160810","BuildingID":1810153475,"Status":"Active","BuildingNameEN":null,"BuildingNameTC":null,"BaseHeight":null,"TopHeight":null,"Storeys":null,"StoreysInBasement":null,"DateStamp":1474819200000}},{"type":"Feature","id":153371,"geometry":{"type":"Polygon","coordinates":[[[114.16844103143366,22.448259212298723],[114.1683888730511,22.448159665830353],[114.16843494200285,22.448138739623136],[114.16848710235323,22.448238289779461],[114.16850006823903,22.44826303560156],[114.16847703277783,22.448273496909806],[114.16846406689517,22.448248750995599],[114.16844103143366,22.448259212298723]]]},"properties":{"OBJECTID":153371,"Shape__Length":41.175184506667684,"Shape__Area":72.760248330174988,"GeoRefNo":"3539934305","DateCreate":1114790400000,"BuildingBlockType":"Tower","BuildingCSUID":"3539934305T20050430","BuildingID":1106128245,"Status":"Active","BuildingNameEN":null,"BuildingNameTC":null,"BaseHeight":4.7000000000000002,"TopHeight":22.100000000000001,"Storeys":null,"StoreysInBasement":null,"DateStamp":1362067200000}},{"type":"Feature","id":153373,"geometry":{"type":"Polygon","coordinates":[[[114.16853319074633,22.448217359210798],[114.16848102852524,22.448117805456821],[114.16852709744937,22.448096879223172],[114.16857926163829,22.448196436574818],[114.16859222753652,22.448221182389617],[114.16856919208915,22.448231643711097],[114.16855622619404,22.448206897894448],[114.16853319074633,22.448217359210798]]]},"properties":{"OBJECTID":153373,"Shape__Length":41.176964506378923,"Shape__Area":72.765002975195586,"GeoRefNo":"3540734300","DateCreate":1114790400000,"BuildingBlockType":"Tower","BuildingCSUID":"3540734300T20050430","BuildingID":1106128275,"Status":"Active","BuildingNameEN":null,"BuildingNameTC":null,"BaseHeight":4.7999999999999998,"TopHeight":21.899999999999999,"Storeys":null,"StoreysInBasement":null,"DateStamp":1362067200000}},{"type":"Feature","id":153374,"geometry":{"type":"Polygon","coordinates":[[[114.16618038718705,22.448245077406614],[114.16615715259029,22.448199770097798],[114.1662413254076,22.448162172847859],[114.16626465504791,22.44820605839681],[114.16626465971038,22.448206067246954],[114.16618038718705,22.448245077406614]]]},"properties":{"OBJECTID":153374,"Shape__Length":30.283183005563291,"Shape__Area":52.983980636580775,"GeoRefNo":"3517134307","DateCreate":1114790400000,"BuildingBlockType":"Tower","BuildingCSUID":"3517134307T20050430","BuildingID":1106128271,"Status":"Active","BuildingNameEN":"PO YAN BUILDING","BuildingNameTC":"寶仁樓","BaseHeight":4.5,"TopHeight":27.800000000000001,"Storeys":6,"StoreysInBasement":null,"DateStamp":1599580800000}},{"type":"Feature","id":153391,"geometry":{"type":"Polygon","coordinates":[[[114.16486115496043,22.446310481279891],[114.16480914533777,22.446256581590827],[114.16486716697727,22.446208290137434],[114.16491829568399,22.446262011843167],[114.16486115496043,22.446310481279891]]]},"properties":{"OBJECTID":153391,"Shape__Length":31.940164989492345,"Shape__Area":63.758113631277219,"GeoRefNo":"3503334089","DateCreate":1114790400000,"BuildingBlockType":"Tower","BuildingCSUID":"3503334089T20050430","BuildingID":1106129277,"Status":"Active","BuildingNameEN":null,"BuildingNameTC":null,"BaseHeight":8.1999999999999993,"TopHeight":17.100000000000001,"Storeys":null,"StoreysInBasement":null,"DateStamp":1362067200000}},{"type":"Feature","id":153392,"geometry":{"type":"Polygon","coordinates":[[[114.16394426500936,22.446378374012074],[114.16396002919433,22.446409828338453],[114.16393630471961,22.446420364982533],[114.16392103599269,22.446388910693528],[114.16394426500936,22.446378374012074]]]},"properties":{"OBJECTID":153392,"Shape__Length":13.031014089605875,"Shape__Area":10.28095200144551,"GeoRefNo":"3493734107","DateCreate":1114790400000,"BuildingBlockType":"Tower","BuildingCSUID":"3493734107T20050430","BuildingID":1106129235,"Status":"Active","BuildingNameEN":null,"BuildingNameTC":null,"BaseHeight":20.899999999999999,"TopHeight":23.5,"Storeys":null,"StoreysInBasement":null,"DateStamp":1362067200000}},{"type":"Feature","id":153462,"geometry":{"type":"Polygon","coordinates":[[[114.16579972676602,22.448535961022461],[114.16578403615958,22.448505588014338],[114.16575346215321,22.448446404316591],[114.16573881138916,22.448418044262631],[114.16575396712724,22.448411055464337],[114.16574388481081,22.448388767618969],[114.16576717231045,22.448378257773221],[114.16577554540538,22.448392959921346],[114.16583950946277,22.448518034230091],[114.16583948779773,22.448518043891191],[114.16579972676602,22.448535961022461]]]},"properties":{"OBJECTID":153462,"Shape__Length":43.297231653104411,"Shape__Area":73.819206099698874,"GeoRefNo":"3512934340","DateCreate":1114790400000,"BuildingBlockType":"Tower","BuildingCSUID":"3512934340T20050430","BuildingID":1106127973,"Status":"Active","BuildingNameEN":"Ko Koon Building","BuildingNameTC":"高冠樓","BaseHeight":4.0999999999999996,"TopHeight":26.800000000000001,"Storeys":6,"StoreysInBasement":null,"DateStamp":1599580800000}},{"type":"Feature","id":153735,"geometry":{"type":"Polygon","coordinates":[[[114.16637092066611,22.448584410962344],[114.16633378818534,22.448514245018405],[114.166320900739,22.448489892846279],[114.16631964390361,22.448487517846132],[114.16631507824712,22.448478890578301],[114.16629690081446,22.448444542253153],[114.1663357441393,22.448427188529902],[114.16635866705673,22.448471512104568],[114.16637178137323,22.448496869919424],[114.16640025151383,22.448551919404029],[114.16637968424791,22.448561977994633],[114.16638707617558,22.448577140600126],[114.16637092066611,22.448584410962344]]]},"properties":{"OBJECTID":153735,"Shape__Length":43.105936686705093,"Shape__Area":70.656155160227428,"GeoRefNo":"3518334337","DateCreate":1114790400000,"BuildingBlockType":"Tower","BuildingCSUID":"3518334337T20050430","BuildingID":1106127940,"Status":"Active","BuildingNameEN":"Tai Wo Building","BuildingNameTC":"泰和樓","BaseHeight":4,"TopHeight":26.5,"Storeys":6,"StoreysInBasement":null,"DateStamp":1599580800000}},{"type":"Feature","id":153737,"geometry":{"type":"Polygon","coordinates":[[[114.1657243342641,22.448583167767008],[114.16567839680803,22.448496973460699],[114.16571890059747,22.448478465367398],[114.16575839544342,22.448554585752522],[114.1657638078716,22.448565029208034],[114.1657243342641,22.448583167767008]]]},"properties":{"OBJECTID":153737,"Shape__Length":30.472326445099419,"Shape__Area":48.862407983108724,"GeoRefNo":"3512034345","DateCreate":1114790400000,"BuildingBlockType":"Tower","BuildingCSUID":"3512034345T20050430","BuildingID":1106127942,"Status":"Active","BuildingNameEN":null,"BuildingNameTC":null,"BaseHeight":4.0999999999999996,"TopHeight":14.800000000000001,"Storeys":null,"StoreysInBasement":null,"DateStamp":1362067200000}},{"type":"Feature","id":153744,"geometry":{"type":"Polygon","coordinates":[[[114.16939869047292,22.447744994945563],[114.16939003429889,22.447749103401829],[114.16942724028632,22.44781944221841],[114.16942195905193,22.447821844256534],[114.16939674142495,22.447833314026891],[114.16933490806572,22.447715564640706],[114.16931544845174,22.447678507547245],[114.16930564686311,22.447659842500926],[114.16931457456214,22.447655781923196],[114.16935236963182,22.447638591596892],[114.16935713187951,22.447636425592901],[114.16936693337624,22.447655090636136],[114.16938791060079,22.447695037538111],[114.16936643922956,22.447704952433039],[114.16937159733459,22.447714154701998],[114.16938050608215,22.447710262989219],[114.16939869047292,22.447744994945563]]]},"properties":{"OBJECTID":153744,"Shape__Length":56.581201189930489,"Shape__Area":96.132952880533182,"GeoRefNo":"3549334249","DateCreate":1114790400000,"BuildingBlockType":"Tower","BuildingCSUID":"3549334249T20050430","BuildingID":1106128565,"Status":"Active","BuildingNameEN":null,"BuildingNameTC":null,"BaseHeight":4.2000000000000002,"TopHeight":14.699999999999999,"Storeys":null,"StoreysInBasement":null,"DateStamp":1362067200000}},{"type":"Feature","id":153745,"geometry":{"type":"Polygon","coordinates":[[[114.16930564686311,22.447659842500926],[114.16931544845174,22.447678507547245],[114.16933490806572,22.447715564640706],[114.16939674142495,22.447833314026891],[114.16936421404105,22.447848097540366],[114.16933035915841,22.447782605870021],[114.16932170300484,22.447786253769568],[114.16930106102424,22.447746708459285],[114.1693092217177,22.447743051507235],[114.16930430649978,22.447733623486364],[114.16928525633121,22.447742188160003],[114.16926413789623,22.447701845162666],[114.16925436128068,22.447683168736095],[114.16929712146624,22.447663720140028],[114.16930564686311,22.447659842500926]]]},"properties":{"OBJECTID":153745,"Shape__Length":56.411169871364081,"Shape__Area":99.618152626752291,"GeoRefNo":"3548834252","DateCreate":1114790400000,"BuildingBlockType":"Tower","BuildingCSUID":"3548834252T20050430","BuildingID":1106128558,"Status":"Active","BuildingNameEN":null,"BuildingNameTC":null,"BaseHeight":4.0999999999999996,"TopHeight":14.800000000000001,"Storeys":null,"StoreysInBasement":null,"DateStamp":1362067200000}},{"type":"Feature","id":153746,"geometry":{"type":"Polygon","coordinates":[[[114.16827651421775,22.447925974044548],[114.16818585263181,22.447752327263071],[114.16827527532323,22.447711637927281],[114.16841711820265,22.44764743851751],[114.16850800803047,22.447820855358213],[114.16827651421775,22.447925974044548]]]},"properties":{"OBJECTID":153746,"Shape__Length":95.743073972134255,"Shape__Area":566.49925351238073,"GeoRefNo":"3539334266","DateCreate":1114790400000,"BuildingBlockType":"Tower","BuildingCSUID":"3539334266T20050430","BuildingID":1106128509,"Status":"Active","BuildingNameEN":"Kam Chung Building","BuildingNameTC":"金松樓","BaseHeight":4.5,"TopHeight":27,"Storeys":6,"StoreysInBasement":null,"DateStamp":1599580800000}},{"type":"Feature","id":153751,"geometry":{"type":"Polygon","coordinates":[[[114.16735377481004,22.447829492046871],[114.16727251050301,22.447673683966631],[114.16732375434511,22.44765039737031],[114.16740532162069,22.447805985099912],[114.16735377481004,22.447829492046871]]]},"properties":{"OBJECTID":153751,"Shape__Length":50.122069657827979,"Shape__Area":112.92651915839465,"GeoRefNo":"3528434252","DateCreate":1114790400000,"BuildingBlockType":"Tower","BuildingCSUID":"3528434252T20050430","BuildingID":1106128568,"Status":"Active","BuildingNameEN":"Po Wah Building","BuildingNameTC":"寶華樓","BaseHeight":4.7999999999999998,"TopHeight":25.300000000000001,"Storeys":6,"StoreysInBasement":null,"DateStamp":1599580800000}},{"type":"Feature","id":153752,"geometry":{"type":"Polygon","coordinates":[[[114.16938946444007,22.447894316016658],[114.16937107602006,22.447859575020036],[114.16949426372277,22.447803131319777],[114.16951236482838,22.447837328566074],[114.16938946444007,22.447894316016658]]]},"properties":{"OBJECTID":153752,"Shape__Length":36.782400561168537,"Shape__Area":60.139010941074183,"GeoRefNo":"3550134269","DateCreate":1114790400000,"BuildingBlockType":"Tower","BuildingCSUID":"3550134269T20050430","BuildingID":1106128533,"Status":"Active","BuildingNameEN":null,"BuildingNameTC":null,"BaseHeight":4.0999999999999996,"TopHeight":26.100000000000001,"Storeys":6,"StoreysInBasement":null,"DateStamp":1599580800000}},{"type":"Feature","id":153920,"geometry":{"type":"Polygon","coordinates":[[[114.16762168320012,22.448109937127263],[114.16766995791797,22.448201371207979],[114.16762726932821,22.448220820369034],[114.16748374660142,22.4482860119709],[114.16744174467745,22.448206415135498],[114.16743583090773,22.448195089973286],[114.16762168320012,22.448109937127263]]]},"properties":{"OBJECTID":153920,"Shape__Length":65.155087048788502,"Shape__Area":239.96184047493287,"GeoRefNo":"3531534306","DateCreate":1114790400000,"BuildingBlockType":"Tower","BuildingCSUID":"3531534306T20050430","BuildingID":1106128235,"Status":"Active","BuildingNameEN":"Hung Fat Building","BuildingNameTC":"鴻發大樓","BaseHeight":4.7000000000000002,"TopHeight":27.600000000000001,"Storeys":6,"StoreysInBasement":null,"DateStamp":1599580800000}},{"type":"Feature","id":154008,"geometry":{"type":"Polygon","coordinates":[[[114.16750946821753,22.447758490887502],[114.16747908702597,22.447701345153209],[114.16746820123488,22.447680869417336],[114.16744116904759,22.447630023151678],[114.1674304902652,22.44760993690851],[114.16742704610211,22.44760345853253],[114.16747927821588,22.447579722769568],[114.16751965928228,22.447657247199679],[114.16753000011637,22.447677099799549],[114.16756031732928,22.44773530334788],[114.16750946821753,22.447758490887502]]]},"properties":{"OBJECTID":154008,"Shape__Length":50.106036208609382,"Shape__Area":113.09880087944065,"GeoRefNo":"3530234247","DateCreate":1114790400000,"BuildingBlockType":"Tower","BuildingCSUID":"3530234247T20050430","BuildingID":1106128601,"Status":"Active","BuildingNameEN":"Po Wah Building","BuildingNameTC":"寶華樓","BaseHeight":4.7999999999999998,"TopHeight":25.300000000000001,"Storeys":6,"StoreysInBasement":null,"DateStamp":1599580800000}},{"type":"Feature","id":154060,"geometry":{"type":"Polygon","coordinates":[[[114.1645253689433,22.448857097761191],[114.16462274970687,22.448879130429159],[114.16464741556617,22.448883837158711],[114.16463728885917,22.44892639690551],[114.1644407101075,22.448887821902716],[114.16444589004131,22.448866862625461],[114.1645195280818,22.448881714322951],[114.1645253689433,22.448857097761191]]]},"properties":{"OBJECTID":154060,"Shape__Length":51.344907218423067,"Shape__Area":82.076189001195843,"GeoRefNo":"3500534384","DateCreate":1114790400000,"BuildingBlockType":"Tower","BuildingCSUID":"3500534384T20050430","BuildingID":1106127605,"Status":"Active","BuildingNameEN":null,"BuildingNameTC":null,"BaseHeight":3.5,"TopHeight":17.100000000000001,"Storeys":null,"StoreysInBasement":null,"DateStamp":1362067200000}},{"type":"Feature","id":154063,"geometry":{"type":"Polygon","coordinates":[[[114.16386367510987,22.448946889874076],[114.16388282292196,22.448950909962534],[114.16387875079371,22.448967697242477],[114.16385959326446,22.448963677152758],[114.16386367510987,22.448946889874076]]]},"properties":{"OBJECTID":154063,"Shape__Length":7.8536847489135191,"Shape__Area":3.8516960022016389,"GeoRefNo":"3493034390","DateCreate":1114790400000,"BuildingBlockType":"Tower","BuildingCSUID":"3493034390T20050430","BuildingID":1106127574,"Status":"Active","BuildingNameEN":"SUI CHEUNG BUILDING","BuildingNameTC":"瑞祥樓","BaseHeight":6.0999999999999996,"TopHeight":11.9,"Storeys":7,"StoreysInBasement":null,"DateStamp":1599580800000}},{"type":"Feature","id":154164,"geometry":{"type":"Polygon","coordinates":[[[114.16537410154835,22.44818022053704],[114.1653638890507,22.448184868597213],[114.16531041726141,22.44820920546471],[114.1652790589773,22.448223477746183],[114.16525763128361,22.448182577297391],[114.16535367936594,22.448140013981732],[114.1653613983931,22.448155926817776],[114.16537410154835,22.44818022053704]]]},"properties":{"OBJECTID":154164,"Shape__Length":31.807444949253863,"Shape__Area":54.317581838984509,"GeoRefNo":"3507734306","DateCreate":1114790400000,"BuildingBlockType":"Tower","BuildingCSUID":"3507734306T20050430","BuildingID":1106128280,"Status":"Active","BuildingNameEN":"HUNG WAN BUILDING","BuildingNameTC":"鴻運大樓","BaseHeight":4.2000000000000002,"TopHeight":26.699999999999999,"Storeys":6,"StoreysInBasement":null,"DateStamp":1599580800000}},{"type":"Feature","id":154175,"geometry":{"type":"Polygon","coordinates":[[[114.16464957918764,22.449218362579188],[114.16465823149554,22.449181075240411],[114.16478729269214,22.449207228081207],[114.16478018801452,22.449242256665695],[114.16464957918764,22.449218362579188]]]},"properties":{"OBJECTID":154175,"Shape__Length":35.470046113705237,"Shape__Area":55.758370149816976,"GeoRefNo":"3501334418","DateCreate":1114790400000,"BuildingBlockType":"Tower","BuildingCSUID":"3501334418T20050430","BuildingID":1106127382,"Status":"Active","BuildingNameEN":"Wing Shing Building","BuildingNameTC":"永盛樓","BaseHeight":3.7000000000000002,"TopHeight":25.899999999999999,"Storeys":6,"StoreysInBasement":null,"DateStamp":1599580800000}},{"type":"Feature","id":154177,"geometry":{"type":"Polygon","coordinates":[[[114.16463985850453,22.449260253921121],[114.16464957918764,22.449218362579188],[114.16478018801452,22.449242256665695],[114.16482406975555,22.449251832215072],[114.16481286653767,22.44929688474646],[114.16463985850453,22.449260253921121]]]},"properties":{"OBJECTID":154177,"Shape__Length":46.47226979604531,"Shape__Area":91.427369185694403,"GeoRefNo":"3501334423","DateCreate":1114790400000,"BuildingBlockType":"Tower","BuildingCSUID":"3501334423T20050430","BuildingID":1106127343,"Status":"Active","BuildingNameEN":"Fook Mui Building","BuildingNameTC":"福妹樓","BaseHeight":3.6000000000000001,"TopHeight":25.899999999999999,"Storeys":6,"StoreysInBasement":null,"DateStamp":1599580800000}},{"type":"Feature","id":154227,"geometry":{"type":"Polygon","coordinates":[[[114.16481471600444,22.448005266407964],[114.16477281396432,22.447994617011162],[114.16475056880572,22.447988963367894],[114.16475807144548,22.447957303167392],[114.16485973620246,22.447975642560593],[114.16485072716451,22.44801441864945],[114.16483175361299,22.448009596513359],[114.16481471600444,22.448005266407964]]]},"properties":{"OBJECTID":154227,"Shape__Length":29.331164047604304,"Shape__Area":42.570444447248263,"GeoRefNo":"3502634283","DateCreate":1114790400000,"BuildingBlockType":"Tower","BuildingCSUID":"3502634283T20050430","BuildingID":1106128450,"Status":"Active","BuildingNameEN":null,"BuildingNameTC":null,"BaseHeight":5.5,"TopHeight":8.5999999999999996,"Storeys":null,"StoreysInBasement":null,"DateStamp":1362067200000}},{"type":"Feature","id":154233,"geometry":{"type":"Polygon","coordinates":[[[114.16642636465579,22.447967836125006],[114.16640631796457,22.447929039830939],[114.16658915197739,22.447845777327029],[114.16659556300698,22.447856578153953],[114.16656780660774,22.44786983309287],[114.16658164987632,22.447895660341835],[114.1665484534563,22.447911089915777],[114.1664714751761,22.447946869056469],[114.16642636465579,22.447967836125006]]]},"properties":{"OBJECTID":154233,"Shape__Length":51.367763659654585,"Shape__Area":88.154276997888218,"GeoRefNo":"3519534278","DateCreate":1114790400000,"BuildingBlockType":"Tower","BuildingCSUID":"3519534278T20050430","BuildingID":1106128480,"Status":"Active","BuildingNameEN":"Yam Fat Building","BuildingNameTC":"欽發樓","BaseHeight":4.7000000000000002,"TopHeight":27.399999999999999,"Storeys":6,"StoreysInBasement":null,"DateStamp":1599580800000}},{"type":"Feature","id":154235,"geometry":{"type":"Polygon","coordinates":[[[114.16516472044759,22.448007277265809],[114.16514640863477,22.447971524383764],[114.16517548581189,22.44791203549957],[114.16535469083905,22.447831416170938],[114.16539268455013,22.447903951545769],[114.16534702238974,22.447924648172815],[114.16516472044759,22.448007277265809]]]},"properties":{"OBJECTID":154235,"Shape__Length":67.154010117961292,"Shape__Area":221.076761171172,"GeoRefNo":"3506634281","DateCreate":1114790400000,"BuildingBlockType":"Tower","BuildingCSUID":"3506634281T20050430","BuildingID":1106128455,"Status":"Active","BuildingNameEN":"Fu King Building","BuildingNameTC":"富景樓","BaseHeight":4.2999999999999998,"TopHeight":26.699999999999999,"Storeys":6,"StoreysInBasement":null,"DateStamp":1599580800000}},{"type":"Feature","id":154241,"geometry":{"type":"Polygon","coordinates":[[[114.1688237500673,22.446136412554242],[114.16891036954632,22.446088212361666],[114.16892345525385,22.446108368343868],[114.16896475402525,22.446085026641462],[114.16897640666437,22.446102647881773],[114.16884772223921,22.446173367351438],[114.1688237500673,22.446136412554242]]]},"properties":{"OBJECTID":154241,"Shape__Length":40.431179009210659,"Shape__Area":61.221638594996122,"GeoRefNo":"3544634076","DateCreate":1114790400000,"BuildingBlockType":"Tower","BuildingCSUID":"3544634076T20050430","BuildingID":1106129320,"Status":"Active","BuildingNameEN":null,"BuildingNameTC":null,"BaseHeight":12.6,"TopHeight":22.199999999999999,"Storeys":null,"StoreysInBasement":null,"DateStamp":1286899200000}},{"type":"Feature","id":154242,"geometry":{"type":"Polygon","coordinates":[[[114.16877444329057,22.446060409260259],[114.16874839063743,22.446020240499283],[114.1688764643318,22.445949005619028],[114.16888928673671,22.445967717350925],[114.16884798796103,22.445991519587519],[114.16886093938071,22.446011882365774],[114.16877444329057,22.446060409260259]]]},"properties":{"OBJECTID":154242,"Shape__Length":41.034966241650515,"Shape__Area":66.301783763525222,"GeoRefNo":"3543834064","DateCreate":1114790400000,"BuildingBlockType":"Tower","BuildingCSUID":"3543834064T20050430","BuildingID":1106129378,"Status":"Active","BuildingNameEN":null,"BuildingNameTC":null,"BaseHeight":12.6,"TopHeight":22.300000000000001,"Storeys":null,"StoreysInBasement":null,"DateStamp":1286899200000}},{"type":"Feature","id":154244,"geometry":{"type":"Polygon","coordinates":[[[114.16727251050301,22.447673683966631],[114.16735377481004,22.447829492046871],[114.16726620970091,22.447869424500698],[114.16718462467273,22.447713769875666],[114.16721453820342,22.447700028217699],[114.16727251050301,22.447673683966631]]]},"properties":{"OBJECTID":154244,"Shape__Length":58.46476975329675,"Shape__Area":192.90647393183033,"GeoRefNo":"3527734259","DateCreate":1114790400000,"BuildingBlockType":"Tower","BuildingCSUID":"3527734259T20050430","BuildingID":1106128549,"Status":"Active","BuildingNameEN":"Po Wah Building","BuildingNameTC":"寶華樓","BaseHeight":4.7999999999999998,"TopHeight":25.300000000000001,"Storeys":6,"StoreysInBasement":null,"DateStamp":1599580800000}},{"type":"Feature","id":154245,"geometry":{"type":"Polygon","coordinates":[[[114.16560119510766,22.447868576670906],[114.16553860280801,22.447746002885985],[114.16557997104279,22.447727233093463],[114.16558750461924,22.447741901420049],[114.16564305803136,22.447850067154565],[114.16561853682032,22.447860576897366],[114.16563084358488,22.447885384402422],[114.16561424023756,22.44789293270604],[114.16560119510766,22.447868576670906]]]},"properties":{"OBJECTID":154245,"Shape__Length":45.556160666003663,"Shape__Area":77.356977821471531,"GeoRefNo":"3510634259","DateCreate":1114790400000,"BuildingBlockType":"Tower","BuildingCSUID":"3510634259T20050430","BuildingID":1106128535,"Status":"Active","BuildingNameEN":null,"BuildingNameTC":null,"BaseHeight":4.2999999999999998,"TopHeight":28,"Storeys":6,"StoreysInBasement":null,"DateStamp":1599580800000}},{"type":"Feature","id":154246,"geometry":{"type":"Polygon","coordinates":[[[114.16566645047216,22.447706083011969],[114.16565881497675,22.447691459653591],[114.16569926965677,22.44767310435514],[114.16573784219648,22.447655602926865],[114.16581492783331,22.447801982799707],[114.16577599891617,22.447819544364439],[114.16573528364964,22.447837911854968],[114.16566645047216,22.447706083011969]]]},"properties":{"OBJECTID":154246,"Shape__Length":54.238957501858252,"Shape__Area":163.81867146178257,"GeoRefNo":"3512134256","DateCreate":1114790400000,"BuildingBlockType":"Tower","BuildingCSUID":"3512134256T20050430","BuildingID":1106128561,"Status":"Active","BuildingNameEN":null,"BuildingNameTC":null,"BaseHeight":4.0999999999999996,"TopHeight":28,"Storeys":6,"StoreysInBasement":null,"DateStamp":1599580800000}},{"type":"Feature","id":154247,"geometry":{"type":"Polygon","coordinates":[[[114.16597069723328,22.447882473830191],[114.16594375213984,22.447831278384427],[114.16596438882688,22.447822002973854],[114.16598170756903,22.447814218716573],[114.16600136398536,22.447805383921338],[114.16601317273711,22.447800076253156],[114.16604172887145,22.447787241288712],[114.16604173547661,22.4477872539318],[114.16606864483369,22.447838618409154],[114.16603900029899,22.44785189155326],[114.16602867632261,22.447856514092074],[114.16602045938281,22.447860193179622],[114.1660063800832,22.447866497115935],[114.16597069723328,22.447882473830191]]]},"properties":{"OBJECTID":154247,"Shape__Length":35.032585752449812,"Shape__Area":70.758329903507814,"GeoRefNo":"3515034265","DateCreate":1114790400000,"BuildingBlockType":"Tower","BuildingCSUID":"3515034265T20050430","BuildingID":1106128540,"Status":"Active","BuildingNameEN":"Wah Lok Building","BuildingNameTC":"華樂樓","BaseHeight":5,"TopHeight":27.199999999999999,"Storeys":7,"StoreysInBasement":null,"DateStamp":1599580800000}},{"type":"Feature","id":154250,"geometry":{"type":"Polygon","coordinates":[[[114.16551967452536,22.447905361033776],[114.16545410910986,22.447784339703972],[114.16549774985819,22.447764538905659],[114.16557435002038,22.447911217674847],[114.16554883719988,22.44792286409097],[114.16553552977668,22.447898508032264],[114.16551967452536,22.447905361033776]]]},"properties":{"OBJECTID":154250,"Shape__Length":45.809617844361298,"Shape__Area":82.410146147360336,"GeoRefNo":"3509734264","DateCreate":1114790400000,"BuildingBlockType":"Tower","BuildingCSUID":"3509734264T20050430","BuildingID":1106128511,"Status":"Active","BuildingNameEN":null,"BuildingNameTC":null,"BaseHeight":4.2000000000000002,"TopHeight":28,"Storeys":6,"StoreysInBasement":null,"DateStamp":1599580800000}},{"type":"Feature","id":154252,"geometry":{"type":"Polygon","coordinates":[[[114.16599446549964,22.449839977971333],[114.16596452304736,22.449735033466677],[114.16596453344262,22.449735030848558],[114.16601192575679,22.449723203242968],[114.16601196879515,22.449723192499608],[114.16605305536933,22.449860951232605],[114.16602491991766,22.449868037620437],[114.16601506175124,22.449834759754232],[114.16599446549964,22.449839977971333]]]},"properties":{"OBJECTID":154252,"Shape__Length":41.930076787437343,"Shape__Area":73.016998367046554,"GeoRefNo":"3514934481","DateCreate":1114790400000,"BuildingBlockType":"Tower","BuildingCSUID":"3514934481T20050430","BuildingID":1106127021,"Status":"Active","BuildingNameEN":null,"BuildingNameTC":null,"BaseHeight":4.5,"TopHeight":22.199999999999999,"Storeys":null,"StoreysInBasement":null,"DateStamp":1362067200000}},{"type":"Feature","id":154295,"geometry":{"type":"Polygon","coordinates":[[[114.16640025151383,22.448551919404029],[114.16637178137323,22.448496869919424],[114.16635866705673,22.448471512104568],[114.1663357441393,22.448427188529902],[114.16637265547968,22.448410705117162],[114.16639826706728,22.448456882812135],[114.16641279848292,22.44848514906236],[114.16643801076874,22.448534536327639],[114.16641732120644,22.448544470385258],[114.16642505313629,22.44855994907677],[114.16640912009549,22.44856731689574],[114.16640025151383,22.448551919404029]]]},"properties":{"OBJECTID":154295,"Shape__Length":42.869009793660666,"Shape__Area":70.01950166185803,"GeoRefNo":"3518734335","DateCreate":1114790400000,"BuildingBlockType":"Tower","BuildingCSUID":"3518734335T20050430","BuildingID":1106127948,"Status":"Active","BuildingNameEN":"Tai Wo Building","BuildingNameTC":"泰和樓","BaseHeight":3.8999999999999999,"TopHeight":26.699999999999999,"Storeys":6,"StoreysInBasement":null,"DateStamp":1599580800000}},{"type":"Feature","id":154296,"geometry":{"type":"Polygon","coordinates":[[[114.16696526038616,22.448929667363899],[114.16694221478994,22.448940137391691],[114.16695518580872,22.448964901035669],[114.16693213544541,22.448975373138691],[114.1669191645269,22.448950609583225],[114.16686694791578,22.448850919766528],[114.16691304763562,22.448829981625789],[114.16696526038616,22.448929667363899]]]},"properties":{"OBJECTID":154296,"Shape__Length":41.218550381475836,"Shape__Area":72.89845775869135,"GeoRefNo":"3524234381","DateCreate":1114790400000,"BuildingBlockType":"Tower","BuildingCSUID":"3524234381T20050430","BuildingID":1106127570,"Status":"Active","BuildingNameEN":null,"BuildingNameTC":null,"BaseHeight":4.7000000000000002,"TopHeight":25.300000000000001,"Storeys":null,"StoreysInBasement":null,"DateStamp":1362067200000}},{"type":"Feature","id":154298,"geometry":{"type":"Polygon","coordinates":[[[114.16705746080692,22.448887779093329],[114.16703441124125,22.448898250940211],[114.16704738178676,22.448923014667166],[114.16702433143729,22.448933486873738],[114.16701136089492,22.448908723144953],[114.16698457337711,22.448857579542974],[114.16695915074196,22.448809041936862],[114.16698457762271,22.448797493274249],[114.16700525364014,22.448788102324983],[114.16705746080692,22.448887779093329]]]},"properties":{"OBJECTID":154298,"Shape__Length":41.217073810789891,"Shape__Area":72.897485673047143,"GeoRefNo":"3524934375","DateCreate":1114790400000,"BuildingBlockType":"Tower","BuildingCSUID":"3524934375T20050430","BuildingID":1106127599,"Status":"Active","BuildingNameEN":null,"BuildingNameTC":null,"BaseHeight":4.7999999999999998,"TopHeight":25.399999999999999,"Storeys":null,"StoreysInBasement":null,"DateStamp":1362067200000}},{"type":"Feature","id":154302,"geometry":{"type":"Polygon","coordinates":[[[114.16702433143729,22.448933486873738],[114.16700128137582,22.448943958986685],[114.16698831073943,22.448919195256082],[114.1669845689033,22.448920895190554],[114.16696526038616,22.448929667363899],[114.16691304763562,22.448829981625789],[114.16695915074196,22.448809041936862],[114.16698457337711,22.448857579542974],[114.16701136089492,22.448908723144953],[114.16702433143729,22.448933486873738]]]},"properties":{"OBJECTID":154302,"Shape__Length":41.21829825596128,"Shape__Area":72.901020833645475,"GeoRefNo":"3524734378","DateCreate":1114790400000,"BuildingBlockType":"Tower","BuildingCSUID":"3524734378T20050430","BuildingID":1106127590,"Status":"Active","BuildingNameEN":null,"BuildingNameTC":null,"BaseHeight":4.7999999999999998,"TopHeight":25.399999999999999,"Storeys":null,"StoreysInBasement":null,"DateStamp":1362067200000}},{"type":"Feature","id":154305,"geometry":{"type":"Polygon","coordinates":[[[114.16492677079451,22.448942556847179],[114.16493519581613,22.448908240854831],[114.1650655625528,22.448932650693305],[114.16505679900609,22.448969139484284],[114.16505679589623,22.448969152307303],[114.16492677079451,22.448942556847179]]]},"properties":{"OBJECTID":154305,"Shape__Length":35.432209895248704,"Shape__Area":55.047006755560368,"GeoRefNo":"3504834389","DateCreate":1114790400000,"BuildingBlockType":"Tower","BuildingCSUID":"3504834389T20050430","BuildingID":1106127573,"Status":"Active","BuildingNameEN":null,"BuildingNameTC":null,"BaseHeight":4.2000000000000002,"TopHeight":27.399999999999999,"Storeys":6,"StoreysInBasement":null,"DateStamp":1599580800000}},{"type":"Feature","id":154306,"geometry":{"type":"Polygon","coordinates":[[[114.16383759365054,22.449064631840876],[114.16384182642295,22.449048372314614],[114.16385934216498,22.449052058147743],[114.16385539211053,22.449068205448675],[114.16383759365054,22.449064631840876]]]},"properties":{"OBJECTID":154306,"Shape__Length":7.409132133210881,"Shape__Area":3.430459221147395,"GeoRefNo":"3492734401","DateCreate":1114790400000,"BuildingBlockType":"Tower","BuildingCSUID":"3492734401T20050430","BuildingID":1106127506,"Status":"Active","BuildingNameEN":"SUI CHEUNG BUILDING","BuildingNameTC":"瑞祥樓","BaseHeight":5.7999999999999998,"TopHeight":11.800000000000001,"Storeys":7,"StoreysInBasement":null,"DateStamp":1599580800000}},{"type":"Feature","id":154309,"geometry":{"type":"Polygon","coordinates":[[[114.16778900458094,22.448432124912969],[114.16783510752148,22.44841118497272],[114.16788747428235,22.448510685392517],[114.16786422140471,22.448521249728653],[114.16787719196537,22.448546013570731],[114.16785414183767,22.44855648580603],[114.16784117118294,22.448531722052419],[114.16778900458094,22.448432124912969]]]},"properties":{"OBJECTID":154309,"Shape__Length":41.219754265669366,"Shape__Area":72.986110350891082,"GeoRefNo":"3533734334","DateCreate":1114790400000,"BuildingBlockType":"Tower","BuildingCSUID":"3533734334T20050430","BuildingID":1106127957,"Status":"Active","BuildingNameEN":null,"BuildingNameTC":null,"BaseHeight":4.7999999999999998,"TopHeight":25.300000000000001,"Storeys":null,"StoreysInBasement":null,"DateStamp":1362067200000}},{"type":"Feature","id":154312,"geometry":{"type":"Polygon","coordinates":[[[114.16785414183767,22.44855648580603],[114.16783109180363,22.448566958038022],[114.16781812124918,22.448542194282595],[114.16779507102051,22.448552666599763],[114.16774290172371,22.448453064930309],[114.16778900458094,22.448432124912969],[114.16784117118294,22.448531722052419],[114.16785414183767,22.44855648580603]]]},"properties":{"OBJECTID":154312,"Shape__Length":41.197676374920647,"Shape__Area":72.846474893134399,"GeoRefNo":"3533234337","DateCreate":1114790400000,"BuildingBlockType":"Tower","BuildingCSUID":"3533234337T20050430","BuildingID":1106127949,"Status":"Active","BuildingNameEN":null,"BuildingNameTC":null,"BaseHeight":4.7000000000000002,"TopHeight":23.300000000000001,"Storeys":null,"StoreysInBasement":null,"DateStamp":1362067200000}},{"type":"Feature","id":154429,"geometry":{"type":"Polygon","coordinates":[[[114.16772674020567,22.446735018671049],[114.16791066235592,22.446651688706023],[114.16800482052429,22.446829682303878],[114.16799085664582,22.446887900867019],[114.1678855158511,22.446935268812503],[114.16782023364867,22.446913835914444],[114.16772674020567,22.446735018671049]]]},"properties":{"OBJECTID":154429,"Shape__Length":90.819353519165361,"Shape__Area":549.30210929880047,"GeoRefNo":"3533534153","DateCreate":1114790400000,"BuildingBlockType":"Tower","BuildingCSUID":"3533534153T20050430","BuildingID":1106129037,"Status":"Active","BuildingNameEN":"Wing Wo Building","BuildingNameTC":"永和樓","BaseHeight":4.7999999999999998,"TopHeight":26.600000000000001,"Storeys":6,"StoreysInBasement":null,"DateStamp":1599580800000}},{"type":"Feature","id":154430,"geometry":{"type":"Polygon","coordinates":[[[114.16392879201513,22.44676956296108],[114.16394516364785,22.446745967696941],[114.16397351982812,22.446760490927289],[114.16395049383053,22.446781096583273],[114.16392879201513,22.44676956296108]]]},"properties":{"OBJECTID":154430,"Shape__Length":12.305053198606712,"Shape__Area":9.2306525014604812,"GeoRefNo":"3493734148","DateCreate":1114790400000,"BuildingBlockType":"Tower","BuildingCSUID":"3493734148T20050430","BuildingID":1106129090,"Status":"Active","BuildingNameEN":null,"BuildingNameTC":null,"BaseHeight":18,"TopHeight":22.199999999999999,"Storeys":null,"StoreysInBasement":null,"DateStamp":1362067200000}},{"type":"Feature","id":154431,"geometry":{"type":"Polygon","coordinates":[[[114.16272477633224,22.446988192827771],[114.16272496884926,22.446948174846554],[114.16280292804923,22.446948171259201],[114.16280230421646,22.446975639583417],[114.1628019946908,22.446989267592702],[114.16272477633224,22.446988192827771]]]},"properties":{"OBJECTID":154431,"Shape__Length":24.957537469843118,"Shape__Area":35.872672353498551,"GeoRefNo":"3481634170","DateCreate":1114790400000,"BuildingBlockType":"Tower","BuildingCSUID":"3481634170T20050430","BuildingID":1106129014,"Status":"Active","BuildingNameEN":null,"BuildingNameTC":null,"BaseHeight":54,"TopHeight":60,"Storeys":null,"StoreysInBasement":null,"DateStamp":1362067200000}},{"type":"Feature","id":154445,"geometry":{"type":"Polygon","coordinates":[[[114.16638065826949,22.449046470752215],[114.16652385632771,22.449316616848055],[114.16649689676821,22.449323017711784],[114.16647195214753,22.449276428020728],[114.16639920393921,22.449308725250823],[114.16628390348356,22.449091824404814],[114.16638065826949,22.449046470752215]]]},"properties":{"OBJECTID":154445,"Shape__Length":88.219803737965648,"Shape__Area":316.7392329986165,"GeoRefNo":"3519134417","DateCreate":1114790400000,"BuildingBlockType":"Tower","BuildingCSUID":"3519134417T20050430","BuildingID":1106127326,"Status":"Active","BuildingNameEN":"Kwong Fuk Road Substation","BuildingNameTC":"廣福道變電站","BaseHeight":4.2000000000000002,"TopHeight":20.800000000000001,"Storeys":4,"StoreysInBasement":1,"DateStamp":1599580800000}},{"type":"Feature","id":154447,"geometry":{"type":"Polygon","coordinates":[[[114.16488262992256,22.449179186955384],[114.1648914086885,22.449144906572521],[114.16500722623921,22.449170003319541],[114.16499879775594,22.449203920529641],[114.16497390221662,22.449198619994636],[114.16488821942913,22.449180377040808],[114.16488262992256,22.449179186955384]]]},"properties":{"OBJECTID":154447,"Shape__Length":32.265393896444657,"Shape__Area":47.527017037903434,"GeoRefNo":"3504234415","DateCreate":1114790400000,"BuildingBlockType":"Tower","BuildingCSUID":"3504234415T20050430","BuildingID":1106127405,"Status":"Active","BuildingNameEN":"Tsing Yuen Building","BuildingNameTC":"靖遠樓","BaseHeight":4.2999999999999998,"TopHeight":27.5,"Storeys":6,"StoreysInBasement":null,"DateStamp":1599580800000}},{"type":"Feature","id":154498,"geometry":{"type":"Polygon","coordinates":[[[114.16688046407616,22.447824521534681],[114.16698464993301,22.447774082110811],[114.16706077831,22.447737107041267],[114.16718711357352,22.447974200118082],[114.16700184453754,22.448059905977043],[114.16698463209659,22.448026528379241],[114.16688046407616,22.447824521534681]]]},"properties":{"OBJECTID":154498,"Shape__Length":100.43929743090621,"Shape__Area":614.357854220788,"GeoRefNo":"3524834273","DateCreate":1114790400000,"BuildingBlockType":"Tower","BuildingCSUID":"3524834273T20050430","BuildingID":1106128416,"Status":"Active","BuildingNameEN":"Ching Fat Building","BuildingNameTC":"正發樓","BaseHeight":4.7000000000000002,"TopHeight":25.300000000000001,"Storeys":6,"StoreysInBasement":null,"DateStamp":1599580800000}},{"type":"Feature","id":154512,"geometry":{"type":"Polygon","coordinates":[[[114.16625016577173,22.449700257776566],[114.16620676978647,22.449560048165143],[114.16625649725457,22.449547706989289],[114.16628706671899,22.449656236752311],[114.16626826777728,22.449661500274207],[114.16627639684224,22.449693161562106],[114.16625016577173,22.449700257776566]]]},"properties":{"OBJECTID":154512,"Shape__Length":42.314852903481849,"Shape__Area":74.735679348229425,"GeoRefNo":"3517434461","DateCreate":1114790400000,"BuildingBlockType":"Tower","BuildingCSUID":"3517434461T20050430","BuildingID":1106127097,"Status":"Active","BuildingNameEN":null,"BuildingNameTC":null,"BaseHeight":4.7000000000000002,"TopHeight":22.699999999999999,"Storeys":null,"StoreysInBasement":null,"DateStamp":1362067200000}},{"type":"Feature","id":154641,"geometry":{"type":"Polygon","coordinates":[[[114.16893101506061,22.443507471273726],[114.16895099821967,22.443502767383563],[114.16905366324723,22.443478769413943],[114.16906935894397,22.443533765649352],[114.16913599213792,22.443518001665606],[114.16915021126648,22.443572781091454],[114.16908135338203,22.443589005527347],[114.16908665659138,22.443606190740358],[114.16915576703808,22.443590417837079],[114.16916311944195,22.443618376479392],[114.1691485570918,22.443621671902886],[114.16915412254143,22.443640003994041],[114.16910179911811,22.443651551448408],[114.16911651359018,22.44370815505221],[114.16906642445799,22.443720370855615],[114.16905045689923,22.443662394557542],[114.16902947314297,22.443666646888722],[114.16904495491221,22.443725544271917],[114.16899287431269,22.443737091702548],[114.16897890783457,22.443681851722989],[114.16892658436826,22.443693624881913],[114.16892200986101,22.443674832278354],[114.16890597086731,22.443678371429829],[114.16889837556892,22.443651785393424],[114.16894297589923,22.443640427267056],[114.16893797387949,22.443622871815432],[114.16889453934941,22.443633453378606],[114.16887909627674,22.443578682900785],[114.16894646776997,22.4435638401383],[114.16893101506061,22.443507471273726]]]},"properties":{"OBJECTID":154641,"Shape__Length":144.4066944535337,"Shape__Area":488.96130099703231,"GeoRefNo":"3545833800","DateCreate":1114790400000,"BuildingBlockType":"Tower","BuildingCSUID":"3545833800T20050430","BuildingID":1106130463,"Status":"Active","BuildingNameEN":"Uptown Plaza Block 2","BuildingNameTC":"新達廣場第２座","BaseHeight":28.300000000000001,"TopHeight":106.5,"Storeys":27,"StoreysInBasement":null,"DateStamp":1599580800000}},{"type":"Feature","id":154650,"geometry":{"type":"Polygon","coordinates":[[[114.16609097809709,22.446642066928767],[114.1661542512195,22.446760595821512],[114.16586554580886,22.446893766598681],[114.16580227287078,22.446775246625258],[114.16609097809709,22.446642066928767]]]},"properties":{"OBJECTID":154650,"Shape__Length":95.656271199668126,"Shape__Area":486.09900949201472,"GeoRefNo":"3514734150","DateCreate":1114790400000,"BuildingBlockType":"Tower","BuildingCSUID":"3514734150T20050430","BuildingID":1106129051,"Status":"Active","BuildingNameEN":"Tai Po Community Centre","BuildingNameTC":"大埔社區中心","BaseHeight":5.2000000000000002,"TopHeight":26.699999999999999,"Storeys":null,"StoreysInBasement":null,"DateStamp":1362067200000}},{"type":"Feature","id":154665,"geometry":{"type":"Polygon","coordinates":[[[114.16881409238599,22.446935800053829],[114.16874664169423,22.44686243852739],[114.16868023857182,22.446736776435678],[114.16878703627414,22.446687556800118],[114.16884180516051,22.446742843954727],[114.168832255,22.446751657203198],[114.16884876912881,22.446769863414165],[114.16885807639298,22.446761510705848],[114.16893313820943,22.446840937230974],[114.16890470160354,22.446864631743441],[114.16881409238599,22.446935800053829]]]},"properties":{"OBJECTID":154665,"Shape__Length":79.985779461008718,"Shape__Area":360.62831298378842,"GeoRefNo":"3544234151","DateCreate":1114790400000,"BuildingBlockType":"Tower","BuildingCSUID":"3544234151T20050430","BuildingID":1106129036,"Status":"Active","BuildingNameEN":"Mei Lai Building","BuildingNameTC":"美麗大廈","BaseHeight":4.7999999999999998,"TopHeight":40.899999999999999,"Storeys":10,"StoreysInBasement":null,"DateStamp":1599580800000}},{"type":"Feature","id":154681,"geometry":{"type":"Polygon","coordinates":[[[114.16557888328445,22.449152937018297],[114.16556993361775,22.449157017344337],[114.16545869477173,22.449207728339239],[114.16545856189136,22.449207476831827],[114.16538796061585,22.449075023402198],[114.16554838066953,22.449002044916536],[114.16559355441385,22.449089526401647],[114.16559964756624,22.449101326282999],[114.16557888328445,22.449152937018297]]]},"properties":{"OBJECTID":154681,"Shape__Length":66.860201084333639,"Shape__Area":290.46152161124951,"GeoRefNo":"3509734406","DateCreate":1114790400000,"BuildingBlockType":"Tower","BuildingCSUID":"3509734406T20050430","BuildingID":1106127401,"Status":"Active","BuildingNameEN":null,"BuildingNameTC":null,"BaseHeight":4.2999999999999998,"TopHeight":31.899999999999999,"Storeys":8,"StoreysInBasement":null,"DateStamp":1599580800000}},{"type":"Feature","id":154729,"geometry":{"type":"Polygon","coordinates":[[[114.16907847806031,22.447954375900821],[114.16906362477259,22.447961293414817],[114.16907364481672,22.44798033957068],[114.16904843169777,22.447991821026203],[114.16898207121849,22.447865682902261],[114.16902221404717,22.447847429341998],[114.16907847806031,22.447954375900821]]]},"properties":{"OBJECTID":154729,"Shape__Length":40.279899809877747,"Shape__Area":67.490992169784235,"GeoRefNo":"3545934272","DateCreate":1114790400000,"BuildingBlockType":"Tower","BuildingCSUID":"3545934272T20050430","BuildingID":1106128468,"Status":"Active","BuildingNameEN":null,"BuildingNameTC":null,"BaseHeight":4.4000000000000004,"TopHeight":24.600000000000001,"Storeys":6,"StoreysInBasement":null,"DateStamp":1599580800000}},{"type":"Feature","id":154731,"geometry":{"type":"Polygon","coordinates":[[[114.16541755075117,22.447802219672884],[114.16548003633403,22.447923184360217],[114.16549309108784,22.447948461511704],[114.16548728136965,22.447951088964562],[114.16545419123103,22.447966059122336],[114.16537897107864,22.447820419709782],[114.16541755075117,22.447802219672884]]]},"properties":{"OBJECTID":154731,"Shape__Length":44.760766498640578,"Shape__Area":79.825278507411895,"GeoRefNo":"3508834265","DateCreate":1114790400000,"BuildingBlockType":"Tower","BuildingCSUID":"3508834265T20050430","BuildingID":1106128482,"Status":"Active","BuildingNameEN":"Wai Dai Building","BuildingNameTC":"懷帶樓","BaseHeight":4.2000000000000002,"TopHeight":28.300000000000001,"Storeys":6,"StoreysInBasement":null,"DateStamp":1599580800000}},{"type":"Feature","id":154732,"geometry":{"type":"Polygon","coordinates":[[[114.16548003633403,22.447923184360217],[114.16541755075117,22.447802219672884],[114.16545410910986,22.447784339703972],[114.16551967452536,22.447905361033776],[114.16553223382533,22.447930638147401],[114.16551166668165,22.447939549760868],[114.16549886447497,22.447914733181634],[114.16548003633403,22.447923184360217]]]},"properties":{"OBJECTID":154732,"Shape__Length":44.735454817060386,"Shape__Area":72.802989099962716,"GeoRefNo":"3509234266","DateCreate":1114790400000,"BuildingBlockType":"Tower","BuildingCSUID":"3509234266T20050430","BuildingID":1106128499,"Status":"Active","BuildingNameEN":"Wah Dai Building","BuildingNameTC":null,"BaseHeight":4.0999999999999996,"TopHeight":27.899999999999999,"Storeys":6,"StoreysInBasement":null,"DateStamp":1599580800000}},{"type":"Feature","id":154734,"geometry":{"type":"Polygon","coordinates":[[[114.16668011750924,22.449643212970674],[114.16672720420564,22.449804075322398],[114.16666188896086,22.449820091234201],[114.16661480236816,22.449658768310833],[114.16668011750924,22.449643212970674]]]},"properties":{"OBJECTID":154734,"Shape__Length":50.864474982211732,"Shape__Area":128.40496349155632,"GeoRefNo":"3521834477","DateCreate":1114790400000,"BuildingBlockType":"Tower","BuildingCSUID":"3521834477T20050430","BuildingID":1106127042,"Status":"Active","BuildingNameEN":null,"BuildingNameTC":"六鄉學習園地","BaseHeight":4.4000000000000004,"TopHeight":9.6999999999999993,"Storeys":null,"StoreysInBasement":null,"DateStamp":1362067200000}},{"type":"Feature","id":154737,"geometry":{"type":"Polygon","coordinates":[[[114.16589555491134,22.449864823091453],[114.16586541571068,22.449759767390585],[114.16586542192842,22.449759765855838],[114.16591649680799,22.449747019228919],[114.16595643746764,22.449885254445306],[114.16592769006094,22.449892286863108],[114.16591733644981,22.449859008957535],[114.16589555491134,22.449864823091453]]]},"properties":{"OBJECTID":154737,"Shape__Length":42.562931202014369,"Shape__Area":77.401993597771011,"GeoRefNo":"3513934483","DateCreate":1114790400000,"BuildingBlockType":"Tower","BuildingCSUID":"3513934483T20050430","BuildingID":1106127010,"Status":"Active","BuildingNameEN":null,"BuildingNameTC":null,"BaseHeight":4.5999999999999996,"TopHeight":22.399999999999999,"Storeys":null,"StoreysInBasement":null,"DateStamp":1362067200000}},{"type":"Feature","id":154746,"geometry":{"type":"Polygon","coordinates":[[[114.16595643746764,22.449885254445306],[114.16591649680799,22.449747019228919],[114.16596452304736,22.449735033466677],[114.16599446549964,22.449839977971333],[114.16597349035362,22.449845286464807],[114.16598286274206,22.449878790062062],[114.16595643746764,22.449885254445306]]]},"properties":{"OBJECTID":154746,"Shape__Length":41.875418334175308,"Shape__Area":72.165370455737389,"GeoRefNo":"3514434482","DateCreate":1114790400000,"BuildingBlockType":"Tower","BuildingCSUID":"3514434482T20050430","BuildingID":1106127012,"Status":"Active","BuildingNameEN":null,"BuildingNameTC":null,"BaseHeight":4.7000000000000002,"TopHeight":22.199999999999999,"Storeys":null,"StoreysInBasement":null,"DateStamp":1362067200000}},{"type":"Feature","id":154751,"geometry":{"type":"Polygon","coordinates":[[[114.16628706671899,22.449656236752311],[114.16625649725457,22.449547706989289],[114.16630773960235,22.449534989869036],[114.16634740531325,22.449673886183984],[114.1663537185559,22.449694024496434],[114.16630235427752,22.44970740427744],[114.16628706671899,22.449656236752311]]]},"properties":{"OBJECTID":154751,"Shape__Length":47.490343217471889,"Shape__Area":100.11996751664853,"GeoRefNo":"3517834460","DateCreate":1114790400000,"BuildingBlockType":"Tower","BuildingCSUID":"3517834460T20050430","BuildingID":1106127095,"Status":"Active","BuildingNameEN":null,"BuildingNameTC":null,"BaseHeight":4.5999999999999996,"TopHeight":22.699999999999999,"Storeys":null,"StoreysInBasement":null,"DateStamp":1362067200000}},{"type":"Feature","id":154784,"geometry":{"type":"Polygon","coordinates":[[[114.16877444329057,22.446060409260259],[114.16886093938071,22.446011882365774],[114.16887440971989,22.446033060979698],[114.16891595138557,22.44600902395662],[114.16892801371974,22.44602771885133],[114.16879925141482,22.446098646069935],[114.16877444329057,22.446060409260259]]]},"properties":{"OBJECTID":154784,"Shape__Length":40.926249935570823,"Shape__Area":63.645543794353941,"GeoRefNo":"3544034069","DateCreate":1114790400000,"BuildingBlockType":"Tower","BuildingCSUID":"3544034069T20050430","BuildingID":1106129359,"Status":"Active","BuildingNameEN":null,"BuildingNameTC":null,"BaseHeight":12.6,"TopHeight":22.5,"Storeys":null,"StoreysInBasement":null,"DateStamp":1286899200000}},{"type":"Feature","id":154785,"geometry":{"type":"Polygon","coordinates":[[[114.16871822627711,22.446020979481844],[114.16874110250018,22.44605590139486],[114.16866145828259,22.446100724550998],[114.16863857237009,22.446065585895511],[114.16871822627711,22.446020979481844]]]},"properties":{"OBJECTID":154785,"Shape__Length":28.232327112763215,"Shape__Area":43.466417506780928,"GeoRefNo":"3542634069","DateCreate":1114790400000,"BuildingBlockType":"Tower","BuildingCSUID":"3542634069T20050430","BuildingID":1106129358,"Status":"Active","BuildingNameEN":null,"BuildingNameTC":null,"BaseHeight":12.6,"TopHeight":15.4,"Storeys":null,"StoreysInBasement":null,"DateStamp":1286899200000}},{"type":"Feature","id":154988,"geometry":{"type":"Polygon","coordinates":[[[114.16904843169777,22.447991821026203],[114.1689325733583,22.448044579778013],[114.16891934299949,22.448019431399498],[114.16886618070883,22.447918380288954],[114.16898207121849,22.447865682902261],[114.16904843169777,22.447991821026203]]]},"properties":{"OBJECTID":154988,"Shape__Length":57.66529339286555,"Shape__Area":206.53909798165867,"GeoRefNo":"3544934277","DateCreate":1114790400000,"BuildingBlockType":"Tower","BuildingCSUID":"3544934277T20050430","BuildingID":1106128430,"Status":"Active","BuildingNameEN":null,"BuildingNameTC":null,"BaseHeight":4.2999999999999998,"TopHeight":24.800000000000001,"Storeys":6,"StoreysInBasement":null,"DateStamp":1599580800000}},{"type":"Feature","id":154995,"geometry":{"type":"Polygon","coordinates":[[[114.16549553053972,22.448055436408943],[114.16547447759359,22.448064799505939],[114.16544171391745,22.448007580256814],[114.16546588478765,22.447996626669745],[114.16549553053972,22.448055436408943]]]},"properties":{"OBJECTID":154995,"Shape__Length":19.540061674268504,"Shape__Area":18.56615253115384,"GeoRefNo":"3509434288","DateCreate":1114790400000,"BuildingBlockType":"Tower","BuildingCSUID":"3509434288T20050430","BuildingID":1106128411,"Status":"Active","BuildingNameEN":"KWONG HING BUILDING","BuildingNameTC":"廣興樓","BaseHeight":4.2000000000000002,"TopHeight":12,"Storeys":null,"StoreysInBasement":null,"DateStamp":1362067200000}},{"type":"Feature","id":155265,"geometry":{"type":"Polygon","coordinates":[[[114.16938946444007,22.447894316016658],[114.16951236482838,22.447837328566074],[114.16953260456026,22.447875566311662],[114.1694099108597,22.447932922771134],[114.16938946444007,22.447894316016658]]]},"properties":{"OBJECTID":155265,"Shape__Length":37.758205767855891,"Shape__Area":67.037560713370937,"GeoRefNo":"3550334273","DateCreate":1114790400000,"BuildingBlockType":"Tower","BuildingCSUID":"3550334273T20050430","BuildingID":1106128504,"Status":"Active","BuildingNameEN":null,"BuildingNameTC":null,"BaseHeight":4.0999999999999996,"TopHeight":26.100000000000001,"Storeys":6,"StoreysInBasement":null,"DateStamp":1599580800000}},{"type":"Feature","id":155277,"geometry":{"type":"Polygon","coordinates":[[[114.16519651257732,22.448985517855256],[114.16525901622288,22.449098937309724],[114.16525903526134,22.449098971897715],[114.16525421305151,22.449101190604143],[114.16515965097912,22.449144675249318],[114.16516889117011,22.449100698619464],[114.16518974245358,22.449017613392712],[114.16519651257732,22.448985517855256]]]},"properties":{"OBJECTID":155277,"Shape__Length":43.560648098153521,"Shape__Area":80.797563147411012,"GeoRefNo":"3506634404","DateCreate":1114790400000,"BuildingBlockType":"Tower","BuildingCSUID":"3506634404T20050430","BuildingID":1106127444,"Status":"Active","BuildingNameEN":"KWOK HUNG BUILDING","BuildingNameTC":"國雄樓","BaseHeight":4,"TopHeight":26.600000000000001,"Storeys":6,"StoreysInBasement":null,"DateStamp":1599580800000}},{"type":"Feature","id":155280,"geometry":{"type":"Polygon","coordinates":[[[114.1648914086885,22.449144906572521],[114.16489486341979,22.449131416419583],[114.16488106839111,22.449128706263139],[114.16488755452478,22.449102287981418],[114.16501738272716,22.449129132518049],[114.16500722623921,22.449170003319541],[114.1648914086885,22.449144906572521]]]},"properties":{"OBJECTID":155280,"Shape__Length":36.564240191439659,"Shape__Area":60.417205063509343,"GeoRefNo":"3504334411","DateCreate":1114790400000,"BuildingBlockType":"Tower","BuildingCSUID":"3504334411T20050430","BuildingID":1106127421,"Status":"Active","BuildingNameEN":"Chit Wah Building","BuildingNameTC":"哲華樓","BaseHeight":4.2999999999999998,"TopHeight":27.5,"Storeys":6,"StoreysInBasement":null,"DateStamp":1599580800000}},{"type":"Feature","id":155282,"geometry":{"type":"Polygon","coordinates":[[[114.16466842563177,22.449138570584491],[114.16467668782037,22.449104121304796],[114.16485011553831,22.449139766268242],[114.16484678214786,22.449153194299726],[114.16480814641282,22.449144883410536],[114.16480332594288,22.449166240065335],[114.16478097509626,22.449161655624383],[114.16470746659463,22.449146578295085],[114.16466842563177,22.449138570584491]]]},"properties":{"OBJECTID":155282,"Shape__Length":44.435581758728972,"Shape__Area":61.607794877421227,"GeoRefNo":"3501534409","DateCreate":1114790400000,"BuildingBlockType":"Tower","BuildingCSUID":"3501534409T20050430","BuildingID":1106127424,"Status":"Active","BuildingNameEN":"Ka On Building","BuildingNameTC":"家安樓","BaseHeight":3.6000000000000001,"TopHeight":27.600000000000001,"Storeys":6,"StoreysInBasement":null,"DateStamp":1599580800000}},{"type":"Feature","id":155284,"geometry":{"type":"Polygon","coordinates":[[[114.16739234583792,22.443020556657611],[114.16742916166319,22.443054775208594],[114.16739124338947,22.443090027897494],[114.16735442756419,22.443055809337995],[114.16739234583792,22.443020556657611]]]},"properties":{"OBJECTID":155284,"Shape__Length":21.759090054459801,"Shape__Area":29.584626999764101,"GeoRefNo":"3529233738","DateCreate":1114790400000,"BuildingBlockType":"Tower","BuildingCSUID":"3529233738T20050430","BuildingID":1106130830,"Status":"Active","BuildingNameEN":null,"BuildingNameTC":null,"BaseHeight":8.5,"TopHeight":11.5,"Storeys":null,"StoreysInBasement":null,"DateStamp":1286899200000}},{"type":"Feature","id":155309,"geometry":{"type":"Polygon","coordinates":[[[114.16572725443429,22.444344785088962],[114.16570092166776,22.444299441357867],[114.16577957449013,22.444259974644531],[114.16580589756016,22.444305318362368],[114.16572725443429,22.444344785088962]]]},"properties":{"OBJECTID":155309,"Shape__Length":29.812092538260409,"Shape__Area":52.495100995531097,"GeoRefNo":"3512233875","DateCreate":1124121600000,"BuildingBlockType":"Tower","BuildingCSUID":"3512233875T20050816","BuildingID":1106130204,"Status":"Active","BuildingNameEN":null,"BuildingNameTC":null,"BaseHeight":11.5,"TopHeight":19.699999999999999,"Storeys":null,"StoreysInBasement":null,"DateStamp":1286899200000}},{"type":"Feature","id":155449,"geometry":{"type":"Polygon","coordinates":[[[114.16499015018803,22.448087573251161],[114.16500015022081,22.448034919771931],[114.16505851624058,22.448047666008911],[114.16507675824003,22.448078226386087],[114.16506848754945,22.448117463093464],[114.16503608888124,22.448111202624986],[114.165039092009,22.448096745092275],[114.16499015018803,22.448087573251161]]]},"properties":{"OBJECTID":155449,"Shape__Length":30.565986309303639,"Shape__Area":51.759234306341256,"GeoRefNo":"3504934293","DateCreate":1114790400000,"BuildingBlockType":"Tower","BuildingCSUID":"3504934293T20050430","BuildingID":1106128379,"Status":"Active","BuildingNameEN":"Man Hung House","BuildingNameTC":"萬鴻樓","BaseHeight":4.5999999999999996,"TopHeight":26.699999999999999,"Storeys":6,"StoreysInBasement":null,"DateStamp":1599580800000}},{"type":"Feature","id":155526,"geometry":{"type":"Polygon","coordinates":[[[114.1700713923311,22.44907193489837],[114.17006891073015,22.449006085293139],[114.17011734481585,22.449005345556248],[114.17011831565961,22.449071304727497],[114.1700713923311,22.44907193489837]]]},"properties":{"OBJECTID":155526,"Shape__Length":24.417886192547776,"Shape__Area":35.830386669232993,"GeoRefNo":"3557034399","DateCreate":1114790400000,"BuildingBlockType":"Tower","BuildingCSUID":"3557034399T20050430","BuildingID":1106127504,"Status":"Active","BuildingNameEN":"TAI PO OLD MARKET PUBLIC SCHOOL (PLOVER COVE)","BuildingNameTC":"大埔舊墟公立學校(寶湖道)","BaseHeight":5.7000000000000002,"TopHeight":9.1999999999999993,"Storeys":null,"StoreysInBasement":null,"DateStamp":1362067200000}},{"type":"Feature","id":155528,"geometry":{"type":"Polygon","coordinates":[[[114.1636437682786,22.449067790314853],[114.16364694349336,22.44905573438179],[114.16365381378162,22.449026351755037],[114.16381376860242,22.449060082546556],[114.16380362216528,22.449101955924188],[114.1636437682786,22.449067790314853]]]},"properties":{"OBJECTID":155528,"Shape__Length":43.224129685290542,"Shape__Area":79.772417747568724,"GeoRefNo":"3491034401","DateCreate":1114790400000,"BuildingBlockType":"Tower","BuildingCSUID":"3491034401T20050430","BuildingID":1106127481,"Status":"Active","BuildingNameEN":"Cranbtown Building","BuildingNameTC":"康城樓","BaseHeight":5.9000000000000004,"TopHeight":26.5,"Storeys":6,"StoreysInBasement":null,"DateStamp":1599580800000}},{"type":"Feature","id":155612,"geometry":{"type":"Polygon","coordinates":[[[114.16351883134449,22.442961016651228],[114.16351645911955,22.44298066672955],[114.16349421118969,22.442978345870813],[114.16349680876117,22.442958034781981],[114.16351883134449,22.442961016651228]]]},"properties":{"OBJECTID":155612,"Shape__Length":9.0500872096887299,"Shape__Area":5.1166108726319983,"GeoRefNo":"3489233728","DateCreate":1410451200000,"BuildingBlockType":"Tower","BuildingCSUID":"3489233728T20140912","BuildingID":1810132956,"Status":"Active","BuildingNameEN":null,"BuildingNameTC":null,"BaseHeight":17.899999999999999,"TopHeight":23.699999999999999,"Storeys":null,"StoreysInBasement":null,"DateStamp":1410451200000}},{"type":"Feature","id":155678,"geometry":{"type":"Polygon","coordinates":[[[114.16410219073613,22.44667289670992],[114.16414090197551,22.446697543865184],[114.1640776897532,22.44678185621656],[114.1640402122821,22.446757209144245],[114.16410219073613,22.44667289670992]]]},"properties":{"OBJECTID":155678,"Shape__Length":32.243661132036294,"Shape__Area":54.196627998258478,"GeoRefNo":"3495234144","DateCreate":1114790400000,"BuildingBlockType":"Tower","BuildingCSUID":"3495234144T20050430","BuildingID":1106129089,"Status":"Active","BuildingNameEN":null,"BuildingNameTC":null,"BaseHeight":12.300000000000001,"TopHeight":19.300000000000001,"Storeys":null,"StoreysInBasement":null,"DateStamp":1362067200000}},{"type":"Feature","id":155679,"geometry":{"type":"Polygon","coordinates":[[[114.16444313272908,22.446551870031882],[114.16449770097607,22.446548984468112],[114.16450075671112,22.446599004379969],[114.16444617873069,22.446601880913548],[114.16444313272908,22.446551870031882]]]},"properties":{"OBJECTID":155679,"Shape__Length":22.348001546356045,"Shape__Area":31.213006505012181,"GeoRefNo":"3499134127","DateCreate":1114790400000,"BuildingBlockType":"Tower","BuildingCSUID":"3499134127T20050430","BuildingID":1106129164,"Status":"Active","BuildingNameEN":null,"BuildingNameTC":null,"BaseHeight":8.6999999999999993,"TopHeight":12.9,"Storeys":null,"StoreysInBasement":null,"DateStamp":1362067200000}},{"type":"Feature","id":155684,"geometry":{"type":"Polygon","coordinates":[[[114.16791066235592,22.446651688706023],[114.16772674020567,22.446735018671049],[114.16767198472873,22.446630289409743],[114.16742727428517,22.446551313047273],[114.16735713128158,22.446583656024696],[114.16737108571112,22.446524967930163],[114.16733749633673,22.446460768466178],[114.16728827000314,22.446482817927457],[114.16731279651951,22.446531484487835],[114.16727071070773,22.446550942624789],[114.16725380907187,22.446520328386569],[114.16720776936417,22.446539361841022],[114.16722420450843,22.44657249555258],[114.16720648412485,22.446581163730901],[114.16723552755543,22.446636449893855],[114.16716071156257,22.446669984527254],[114.16707180389042,22.446499998957407],[114.16731347654635,22.446389354227641],[114.16740780646825,22.446398345067301],[114.16780216986031,22.446524830090759],[114.16786897538833,22.446572884856987],[114.16791066235592,22.446651688706023]]]},"properties":{"OBJECTID":155684,"Shape__Length":249.90097475854594,"Shape__Area":1374.1748789915098,"GeoRefNo":"3531734118","DateCreate":1114790400000,"BuildingBlockType":"Tower","BuildingCSUID":"3531734118T20050430","BuildingID":1106129110,"Status":"Active","BuildingNameEN":"Fook On Building","BuildingNameTC":"福安樓","BaseHeight":5,"TopHeight":47.600000000000001,"Storeys":13,"StoreysInBasement":null,"DateStamp":1599580800000}},{"type":"Feature","id":155688,"geometry":{"type":"Polygon","coordinates":[[[114.16953260456026,22.447875566311662],[114.16957069755406,22.447857741920135],[114.16969064541463,22.448082641638415],[114.16952814043132,22.448156223506913],[114.1694099108597,22.447932922771134],[114.16953260456026,22.447875566311662]]]},"properties":{"OBJECTID":155688,"Shape__Length":92.490138255659218,"Shape__Area":513.87076050226972,"GeoRefNo":"3551034287","DateCreate":1114790400000,"BuildingBlockType":"Tower","BuildingCSUID":"3551034287T20050430","BuildingID":1106128343,"Status":"Active","BuildingNameEN":"Tony Court","BuildingNameTC":"東昌閣","BaseHeight":4,"TopHeight":89,"Storeys":28,"StoreysInBasement":null,"DateStamp":1599580800000}},{"type":"Feature","id":155695,"geometry":{"type":"Polygon","coordinates":[[[114.16388585339476,22.448183264290648],[114.16386145598101,22.448165305008128],[114.16385156601105,22.448158024856404],[114.16387424299685,22.448132226680709],[114.16388317042046,22.448138386165162],[114.16390437047593,22.448115351184686],[114.16389469515464,22.448107584221109],[114.16391588570113,22.448082255503667],[114.16395907512744,22.448114922097467],[114.16389499838296,22.448189996141856],[114.16388585339476,22.448183264290648]]]},"properties":{"OBJECTID":155695,"Shape__Length":35.105839854277868,"Shape__Area":56.39218780333735,"GeoRefNo":"3493434300","DateCreate":1114790400000,"BuildingBlockType":"Tower","BuildingCSUID":"3493434300T20050430","BuildingID":1106128318,"Status":"Active","BuildingNameEN":null,"BuildingNameTC":"博物館辦事處","BaseHeight":13,"TopHeight":18.300000000000001,"Storeys":null,"StoreysInBasement":null,"DateStamp":1362067200000}},{"type":"Feature","id":155696,"geometry":{"type":"Polygon","coordinates":[[[114.16762168320012,22.448109937127263],[114.16743583090773,22.448195089973286],[114.16737976189864,22.44808771526499],[114.16729566011588,22.447927149070765],[114.16735440902168,22.447900566703957],[114.16748113593223,22.447842654500732],[114.16759517223038,22.448059724315659],[114.16762168320012,22.448109937127263]]]},"properties":{"OBJECTID":155696,"Shape__Length":108.52722866112796,"Shape__Area":701.54811530802147,"GeoRefNo":"3529434289","DateCreate":1114790400000,"BuildingBlockType":"Tower","BuildingCSUID":"3529434289T20050430","BuildingID":1106128309,"Status":"Active","BuildingNameEN":"Fuk Cheong Building","BuildingNameTC":"福昌樓","BaseHeight":4.5999999999999996,"TopHeight":27.800000000000001,"Storeys":6,"StoreysInBasement":null,"DateStamp":1599580800000}},{"type":"Feature","id":155697,"geometry":{"type":"Polygon","coordinates":[[[114.16888131150465,22.448036662068358],[114.16889457915941,22.448061881340806],[114.16885436591309,22.448080193292366],[114.16878803306854,22.447953915300058],[114.16882817594801,22.447935661697972],[114.16888131150465,22.448036662068358]]]},"properties":{"OBJECTID":155697,"Shape__Length":40.329793961806587,"Shape__Area":71.649777679538985,"GeoRefNo":"3543934282","DateCreate":1114790400000,"BuildingBlockType":"Tower","BuildingCSUID":"3543934282T20050430","BuildingID":1106128399,"Status":"Active","BuildingNameEN":"Fuk Wah Building","BuildingNameTC":"福華樓","BaseHeight":4.5,"TopHeight":24.300000000000001,"Storeys":6,"StoreysInBasement":null,"DateStamp":1599580800000}},{"type":"Feature","id":155699,"geometry":{"type":"Polygon","coordinates":[[[114.1686843780351,22.448179333188101],[114.16867141222153,22.448154587380568],[114.16861924419406,22.448055022833621],[114.16866538632898,22.448034063331999],[114.16871766610565,22.448133581543708],[114.16869444764852,22.448144126044411],[114.16870741346517,22.44816887185014],[114.1686843780351,22.448179333188101]]]},"properties":{"OBJECTID":155699,"Shape__Length":41.208974363530828,"Shape__Area":72.952072965771322,"GeoRefNo":"3542134293","DateCreate":1114790400000,"BuildingBlockType":"Tower","BuildingCSUID":"3542134293T20050430","BuildingID":1106128329,"Status":"Active","BuildingNameEN":null,"BuildingNameTC":null,"BaseHeight":4.7000000000000002,"TopHeight":22.600000000000001,"Storeys":null,"StoreysInBasement":null,"DateStamp":1362067200000}},{"type":"Feature","id":155768,"geometry":{"type":"Polygon","coordinates":[[[114.16557435002038,22.447911217674847],[114.16549774985819,22.447764538905659],[114.16553860280801,22.447746002885985],[114.16560119510766,22.447868576670906],[114.16558632108533,22.447875194955561],[114.16559788947622,22.447900471995101],[114.16557435002038,22.447911217674847]]]},"properties":{"OBJECTID":155768,"Shape__Length":45.198394223837482,"Shape__Area":77.706635770895161,"GeoRefNo":"3510134262","DateCreate":1114790400000,"BuildingBlockType":"Tower","BuildingCSUID":"3510134262T20050430","BuildingID":1106128522,"Status":"Active","BuildingNameEN":null,"BuildingNameTC":null,"BaseHeight":4.2999999999999998,"TopHeight":28,"Storeys":6,"StoreysInBasement":null,"DateStamp":1599580800000}},{"type":"Feature","id":155772,"geometry":{"type":"Polygon","coordinates":[[[114.16693213544541,22.448975373138691],[114.16690908342713,22.448985845148009],[114.16689622355727,22.448961032020385],[114.16687317357879,22.448971504024712],[114.16682084623906,22.448871858796956],[114.16686694791578,22.448850919766528],[114.1669191645269,22.448950609583225],[114.16693213544541,22.448975373138691]]]},"properties":{"OBJECTID":155772,"Shape__Length":41.220503541836543,"Shape__Area":72.810021291235842,"GeoRefNo":"3523734383","DateCreate":1114790400000,"BuildingBlockType":"Tower","BuildingCSUID":"3523734383T20050430","BuildingID":1106127560,"Status":"Active","BuildingNameEN":null,"BuildingNameTC":null,"BaseHeight":4.7000000000000002,"TopHeight":25.300000000000001,"Storeys":null,"StoreysInBasement":null,"DateStamp":1362067200000}},{"type":"Feature","id":155773,"geometry":{"type":"Polygon","coordinates":[[[114.16493519581613,22.448908240854831],[114.16494276046973,22.448877429516241],[114.16496915556006,22.448882623968402],[114.16497657052264,22.448853799316172],[114.16495093326154,22.448847927637278],[114.16495645157265,22.448824845851362],[114.1650852323973,22.448852344332632],[114.1650655625528,22.448932650693305],[114.16493519581613,22.448908240854831]]]},"properties":{"OBJECTID":155773,"Shape__Length":51.305310195336375,"Shape__Area":117.79343727958782,"GeoRefNo":"3504934382","DateCreate":1114790400000,"BuildingBlockType":"Tower","BuildingCSUID":"3504934382T20050430","BuildingID":1106127600,"Status":"Active","BuildingNameEN":null,"BuildingNameTC":null,"BaseHeight":4.2000000000000002,"TopHeight":27.399999999999999,"Storeys":6,"StoreysInBasement":null,"DateStamp":1599580800000}},{"type":"Feature","id":155779,"geometry":{"type":"Polygon","coordinates":[[[114.16426817508489,22.447889049728474],[114.16430699506243,22.447896918270235],[114.16430093065146,22.447922744890125],[114.16426211066795,22.447914867316491],[114.16426817508489,22.447889049728474]]]},"properties":{"OBJECTID":155779,"Shape__Length":14.033445922522688,"Shape__Area":11.970378000955122,"GeoRefNo":"3497234274","DateCreate":1114790400000,"BuildingBlockType":"Tower","BuildingCSUID":"3497234274T20050430","BuildingID":1106128512,"Status":"Active","BuildingNameEN":null,"BuildingNameTC":null,"BaseHeight":9.1999999999999993,"TopHeight":13.199999999999999,"Storeys":null,"StoreysInBasement":null,"DateStamp":1362067200000}},{"type":"Feature","id":155780,"geometry":{"type":"Polygon","coordinates":[[[114.16953409349362,22.447826765818963],[114.16952537036792,22.44781078152468],[114.16954169176196,22.447803241836322],[114.16955019970771,22.447819163629291],[114.16953409349362,22.447826765818963]]]},"properties":{"OBJECTID":155780,"Shape__Length":7.6888601734496405,"Shape__Area":3.6918739031826027,"GeoRefNo":"3551334264","DateCreate":1114790400000,"BuildingBlockType":"Tower","BuildingCSUID":"3551334264T20050430","BuildingID":1106128569,"Status":"Active","BuildingNameEN":null,"BuildingNameTC":null,"BaseHeight":4.2000000000000002,"TopHeight":7.0999999999999996,"Storeys":null,"StoreysInBasement":null,"DateStamp":1362067200000}},{"type":"Feature","id":155802,"geometry":{"type":"Polygon","coordinates":[[[114.16603563501329,22.444383114747051],[114.16605671538383,22.4443732381025],[114.16606576454612,22.444389927620211],[114.16603080416502,22.44440630743237],[114.16602175500586,22.444389617912744],[114.16603563501329,22.444383114747051]]]},"properties":{"OBJECTID":155802,"Shape__Length":12.199220847591597,"Shape__Area":8.340542042362916,"GeoRefNo":"3515233885","DateCreate":1210780800000,"BuildingBlockType":"Temporary Structure","BuildingCSUID":"3515233885T20080515","BuildingID":1106130175,"Status":"Active","BuildingNameEN":null,"BuildingNameTC":null,"BaseHeight":null,"TopHeight":null,"Storeys":null,"StoreysInBasement":null,"DateStamp":1286899200000}},{"type":"Feature","id":155933,"geometry":{"type":"Polygon","coordinates":[[[114.17165366720313,22.446514235458825],[114.17165037582153,22.446201122448276],[114.17179056023591,22.446192746632505],[114.17179004335767,22.446247877534237],[114.17175607121243,22.446249900373324],[114.17175785220648,22.446415662345746],[114.17175806352483,22.446481738177944],[114.17173254276676,22.446481999255798],[114.17173254161298,22.44651351553696],[114.17167215444995,22.446514217990739],[114.17165366720313,22.446514235458825]]]},"properties":{"OBJECTID":155933,"Shape__Length":98.654316098137457,"Shape__Area":390.83596528379172,"GeoRefNo":"3573534101","DateCreate":1114790400000,"BuildingBlockType":"Tower","BuildingCSUID":"3573534101T20050430","BuildingID":1106129199,"Status":"Active","BuildingNameEN":null,"BuildingNameTC":null,"BaseHeight":4.2000000000000002,"TopHeight":30.899999999999999,"Storeys":7,"StoreysInBasement":null,"DateStamp":1599580800000}},{"type":"Feature","id":156021,"geometry":{"type":"Polygon","coordinates":[[[114.16614650462664,22.44972587935786],[114.16610925010217,22.449585350359225],[114.16615781336175,22.449572750233447],[114.16620321148086,22.449731909033172],[114.16615241962805,22.449744699206075],[114.16614650462664,22.44972587935786]]]},"properties":{"OBJECTID":156021,"Shape__Length":47.038519275529922,"Shape__Area":97.326965501919105,"GeoRefNo":"3516334464","DateCreate":1114790400000,"BuildingBlockType":"Tower","BuildingCSUID":"3516334464T20050430","BuildingID":1106127078,"Status":"Active","BuildingNameEN":null,"BuildingNameTC":null,"BaseHeight":4.5999999999999996,"TopHeight":22.100000000000001,"Storeys":null,"StoreysInBasement":null,"DateStamp":1362067200000}},{"type":"Feature","id":156022,"geometry":{"type":"Polygon","coordinates":[[[114.16620321148086,22.449731909033172],[114.16615781336175,22.449572750233447],[114.16620676978647,22.449560048165143],[114.16625016577173,22.449700257776566],[114.16625509958746,22.449718842765019],[114.16620321148086,22.449731909033172]]]},"properties":{"OBJECTID":156022,"Shape__Length":47.274956662542422,"Shape__Area":98.906341556317983,"GeoRefNo":"3516834463","DateCreate":1114790400000,"BuildingBlockType":"Tower","BuildingCSUID":"3516834463T20050430","BuildingID":1106127084,"Status":"Active","BuildingNameEN":null,"BuildingNameTC":null,"BaseHeight":4.5999999999999996,"TopHeight":22.100000000000001,"Storeys":null,"StoreysInBasement":null,"DateStamp":1362067200000}},{"type":"Feature","id":156024,"geometry":{"type":"Polygon","coordinates":[[[114.16605305536933,22.449860951232605],[114.16601196879515,22.449723192499608],[114.16606175793835,22.449710766682564],[114.16609101527082,22.449815548033978],[114.1660719637097,22.449820811516091],[114.16608033549089,22.449854080249374],[114.16605305536933,22.449860951232605]]]},"properties":{"OBJECTID":156024,"Shape__Length":41.862964064904837,"Shape__Area":73.948726050770262,"GeoRefNo":"3515434479","DateCreate":1114790400000,"BuildingBlockType":"Tower","BuildingCSUID":"3515434479T20050430","BuildingID":1106127026,"Status":"Active","BuildingNameEN":null,"BuildingNameTC":null,"BaseHeight":4.5,"TopHeight":22.199999999999999,"Storeys":null,"StoreysInBasement":null,"DateStamp":1362067200000}}]}