{"type":"FeatureCollection","features":[{"type":"Feature","id":100659,"geometry":{"type":"Polygon","coordinates":[[[114.16589773231661,22.447743841356271],[114.1658769223519,22.447752753000078],[114.16586510113696,22.447730004489305],[114.16588541564045,22.447721092813399],[114.16589478933984,22.447735804054876],[114.16589773231661,22.447743841356271]]]},"properties":{"OBJECTID":100659,"Shape__Length":10.301816949194945,"Shape__Area":6.7404425006512367,"GeoRefNo":"3513634255","DateCreate":1114790400000,"BuildingBlockType":"Tower","BuildingCSUID":"3513634255T20050430","BuildingID":1106128606,"Status":"Active","BuildingNameEN":"PO LOK BUILDING","BuildingNameTC":"寶樂樓","BaseHeight":4.9000000000000004,"TopHeight":14,"Storeys":null,"StoreysInBasement":null,"DateStamp":1362067200000}},{"type":"Feature","id":100661,"geometry":{"type":"Polygon","coordinates":[[[114.16793121310532,22.447589277907358],[114.16789032657108,22.44751158007648],[114.16788982223706,22.447510621556361],[114.16787968135564,22.447491350551307],[114.16785246112934,22.447439623151361],[114.16784320206453,22.447422027883608],[114.16783992661753,22.447415803462011],[114.16787643931603,22.447399082902479],[114.1679161413735,22.447473754387421],[114.16792740711674,22.447494943068794],[114.16796851994971,22.44757226776461],[114.16793121310532,22.447589277907358]]]},"properties":{"OBJECTID":100661,"Shape__Length":51.244315677579337,"Shape__Area":90.549055359567475,"GeoRefNo":"3534734234","DateCreate":1114790400000,"BuildingBlockType":"Tower","BuildingCSUID":"3534734234T20050430","BuildingID":1106128699,"Status":"Active","BuildingNameEN":"Kam Fuk Building","BuildingNameTC":null,"BaseHeight":4.7999999999999998,"TopHeight":26.5,"Storeys":6,"StoreysInBasement":null,"DateStamp":1599580800000}},{"type":"Feature","id":100671,"geometry":{"type":"Polygon","coordinates":[[[114.16523030539321,22.445822358239553],[114.16518353305365,22.445772768647871],[114.16540775452718,22.445589484529091],[114.165454274325,22.445638794095061],[114.16540076909168,22.445682646802315],[114.16538676659714,22.44569412315516],[114.16537678277348,22.445702305934148],[114.16535927690538,22.445716653720105],[114.16523030539321,22.445822358239553]]]},"properties":{"OBJECTID":100671,"Shape__Length":76.037018082186577,"Shape__Area":223.84324222933216,"GeoRefNo":"3507934029","DateCreate":1114790400000,"BuildingBlockType":"Tower","BuildingCSUID":"3507934029T20050430","BuildingID":1106129515,"Status":"Active","BuildingNameEN":null,"BuildingNameTC":"大埔泮涌社區教育中心","BaseHeight":7.2000000000000002,"TopHeight":13.300000000000001,"Storeys":null,"StoreysInBasement":null,"DateStamp":1454601600000}},{"type":"Feature","id":100731,"geometry":{"type":"Polygon","coordinates":[[[114.16590491011553,22.446399722227998],[114.16587075801895,22.446335143140931],[114.16586331770336,22.446321074001936],[114.16591172088202,22.446298969291529],[114.16595278792774,22.446377769000915],[114.16590491011553,22.446399722227998]]]},"properties":{"OBJECTID":100731,"Shape__Length":30.447247508721773,"Shape__Area":53.577160040144655,"GeoRefNo":"3513834101","DateCreate":1114790400000,"BuildingBlockType":"Tower","BuildingCSUID":"3513834101T20050430","BuildingID":1106129244,"Status":"Active","BuildingNameEN":"Tai Po Community Centre","BuildingNameTC":"大埔社區中心","BaseHeight":5.2000000000000002,"TopHeight":11.199999999999999,"Storeys":null,"StoreysInBasement":null,"DateStamp":1362067200000}},{"type":"Feature","id":100746,"geometry":{"type":"Polygon","coordinates":[[[114.16667900646243,22.447389986127892],[114.1666442413876,22.447323443140547],[114.16662908728142,22.447294436912497],[114.16660296044803,22.447244428226181],[114.16662188723764,22.447235862686842],[114.16665451075031,22.447221099959201],[114.16666238840787,22.447235865245336],[114.16673180268363,22.447366029756846],[114.16667900646243,22.447389986127892]]]},"properties":{"OBJECTID":100746,"Shape__Length":47.780874862906494,"Shape__Area":107.04187189152347,"GeoRefNo":"3521834210","DateCreate":1114790400000,"BuildingBlockType":"Tower","BuildingCSUID":"3521834210T20050430","BuildingID":1106128816,"Status":"Active","BuildingNameEN":"Foon Lok Building","BuildingNameTC":"歡樂樓","BaseHeight":5,"TopHeight":28.399999999999999,"Storeys":6,"StoreysInBasement":null,"DateStamp":1599580800000}},{"type":"Feature","id":100754,"geometry":{"type":"Polygon","coordinates":[[[114.16792299892546,22.447044739296182],[114.1680109268902,22.447216106172473],[114.16796690691463,22.447235942217581],[114.16794603883766,22.447245341769968],[114.16789311085807,22.447269106995442],[114.1678735737657,22.447277558414676],[114.16778168497626,22.447318992675026],[114.1677380447,22.447235929476264],[114.16770305620595,22.44716933694513],[114.16774760005846,22.447148939668399],[114.16773773111358,22.447128602533706],[114.16785390448642,22.447075853139598],[114.16786550267047,22.447096407094325],[114.16792356031051,22.447068081782348],[114.16791345810199,22.447049117274073],[114.16792299892546,22.447044739296182]]]},"properties":{"OBJECTID":100754,"Shape__Length":99.320252096567884,"Shape__Area":522.51148268765201,"GeoRefNo":"3533534202","DateCreate":1114790400000,"BuildingBlockType":"Tower","BuildingCSUID":"3533534202T20050430","BuildingID":1106128853,"Status":"Active","BuildingNameEN":"Gold Reserved Court","BuildingNameTC":"儲金閣","BaseHeight":4.7000000000000002,"TopHeight":28,"Storeys":7,"StoreysInBasement":null,"DateStamp":1599580800000}},{"type":"Feature","id":100757,"geometry":{"type":"Polygon","coordinates":[[[114.1638670851778,22.447274396420568],[114.16387874588325,22.447347805901511],[114.16366895090643,22.447377751960161],[114.16365704745999,22.447304107652794],[114.1638670851778,22.447274396420568]]]},"properties":{"OBJECTID":100757,"Shape__Length":60.181489703520832,"Shape__Area":179.93888248052011,"GeoRefNo":"3491934211","DateCreate":1114790400000,"BuildingBlockType":"Tower","BuildingCSUID":"3491934211T20050430","BuildingID":1106128827,"Status":"Active","BuildingNameEN":null,"BuildingNameTC":null,"BaseHeight":20.399999999999999,"TopHeight":30.699999999999999,"Storeys":null,"StoreysInBasement":null,"DateStamp":1362067200000}},{"type":"Feature","id":100799,"geometry":{"type":"Polygon","coordinates":[[[114.16921808123749,22.447236006137548],[114.16920717993816,22.44725881654475],[114.16914582225284,22.447236002709843],[114.1690552818169,22.447202332843396],[114.16893033755829,22.447061388500732],[114.16904973818461,22.446964976165706],[114.16912252965442,22.446995520652148],[114.16910850953994,22.447024814769119],[114.16915719916025,22.447044557662586],[114.16917050028056,22.447016879958284],[114.16929673176863,22.447071493051599],[114.16921808123749,22.447236006137548]]]},"properties":{"OBJECTID":100799,"Shape__Length":110.97223586009072,"Shape__Area":668.1915895160472,"GeoRefNo":"3547734201","DateCreate":1114790400000,"BuildingBlockType":"Tower","BuildingCSUID":"3547734201T20050430","BuildingID":1106128885,"Status":"Active","BuildingNameEN":"Mei Fung Building","BuildingNameTC":"美楓大廈","BaseHeight":4.7000000000000002,"TopHeight":42.899999999999999,"Storeys":10,"StoreysInBasement":null,"DateStamp":1599580800000}},{"type":"Feature","id":100801,"geometry":{"type":"Polygon","coordinates":[[[114.16610019830274,22.447350105762442],[114.16610018441253,22.447350079663511],[114.16608002677981,22.447312323987951],[114.16608000065064,22.44731227495085],[114.16607991089845,22.447312106888134],[114.16608543222978,22.447309640768715],[114.16610335945663,22.447301633395892],[114.16611660221677,22.447295718426972],[114.16611670519767,22.447295672468805],[114.16618613227539,22.447264662339137],[114.16625066375099,22.447235838763003],[114.1662677206741,22.447228219172697],[114.16627176438465,22.447235840145733],[114.16628665530634,22.447263903972313],[114.16620721307359,22.447300631297239],[114.1661367609465,22.44733320228152],[114.16610019830274,22.447350105762442]]]},"properties":{"OBJECTID":100801,"Shape__Length":51.987722356433366,"Shape__Area":97.596208340275922,"GeoRefNo":"3516534207","DateCreate":1114790400000,"BuildingBlockType":"Tower","BuildingCSUID":"3516534207T20050430","BuildingID":1106128841,"Status":"Active","BuildingNameEN":"Mei Wan Building","BuildingNameTC":"美雲樓","BaseHeight":5.0999999999999996,"TopHeight":27.699999999999999,"Storeys":6,"StoreysInBasement":null,"DateStamp":1599580800000}},{"type":"Feature","id":100802,"geometry":{"type":"Polygon","coordinates":[[[114.16748766021277,22.447294098368218],[114.16746797800974,22.447256873793378],[114.1674572055626,22.447235913397876],[114.1673854443076,22.447096316480184],[114.16736825729181,22.447063744256564],[114.16755072334381,22.446980536440609],[114.16767186875622,22.447212338190486],[114.16761931963325,22.447235922738724],[114.16754972043432,22.447267164112883],[114.16748766021277,22.447294098368218]]]},"properties":{"OBJECTID":100802,"Shape__Length":98.786417180532396,"Shape__Area":596.73125353121634,"GeoRefNo":"3530434202","DateCreate":1114790400000,"BuildingBlockType":"Tower","BuildingCSUID":"3530434202T20050430","BuildingID":1106128870,"Status":"Active","BuildingNameEN":"Central Mansion","BuildingNameTC":"新都苑","BaseHeight":4.7000000000000002,"TopHeight":26.100000000000001,"Storeys":6,"StoreysInBasement":null,"DateStamp":1599580800000}},{"type":"Feature","id":100803,"geometry":{"type":"Polygon","coordinates":[[[114.16610019830274,22.447350105762442],[114.1661367609465,22.44733320228152],[114.16620721307359,22.447300631297239],[114.16628665530634,22.447263903972313],[114.16630547008415,22.447299362548915],[114.16611895594642,22.447385239170018],[114.1661004936887,22.44735065898757],[114.16610031942945,22.447350332525151],[114.16610019830274,22.447350105762442]]]},"properties":{"OBJECTID":100803,"Shape__Length":51.582267250689632,"Shape__Area":93.452625453835125,"GeoRefNo":"3516934209","DateCreate":1114790400000,"BuildingBlockType":"Tower","BuildingCSUID":"3516934209T20050430","BuildingID":1106128821,"Status":"Active","BuildingNameEN":"Mei Wan Building","BuildingNameTC":"美雲樓","BaseHeight":5.0999999999999996,"TopHeight":27.699999999999999,"Storeys":6,"StoreysInBasement":null,"DateStamp":1599580800000}},{"type":"Feature","id":100888,"geometry":{"type":"Polygon","coordinates":[[[114.16770287405443,22.448594553939181],[114.16767982400275,22.44860502614954],[114.1676927948299,22.448629789825564],[114.1676697446745,22.448640262034402],[114.16765677375329,22.448615498446863],[114.16760459656648,22.44851588309707],[114.16765069946521,22.448494943119403],[114.16770287405443,22.448594553939181]]]},"properties":{"OBJECTID":100888,"Shape__Length":41.201099866264968,"Shape__Area":72.85566383984407,"GeoRefNo":"3531834344","DateCreate":1114790400000,"BuildingBlockType":"Tower","BuildingCSUID":"3531834344T20050430","BuildingID":1106127882,"Status":"Active","BuildingNameEN":null,"BuildingNameTC":null,"BaseHeight":4.7999999999999998,"TopHeight":23.399999999999999,"Storeys":null,"StoreysInBasement":null,"DateStamp":1362067200000}},{"type":"Feature","id":100893,"geometry":{"type":"Polygon","coordinates":[[[114.1662921871629,22.448620146464105],[114.16627116855324,22.448581087126108],[114.16626916969558,22.448577372590265],[114.16625633788283,22.448553526934802],[114.16624292345519,22.448528598398635],[114.16623954488519,22.448522320026875],[114.16623656787395,22.448516787596628],[114.16621691958625,22.448480274747599],[114.16625752450108,22.448462134065085],[114.16627572331436,22.448497564334261],[114.1662799060432,22.448505707275064],[114.16628106933165,22.448507972097921],[114.16629394846046,22.448533045625023],[114.16630761642762,22.448559655101548],[114.16630975281592,22.448563814305285],[114.16632199504031,22.448587647817263],[114.16630263250823,22.448596478335215],[114.16631051987339,22.448611875768208],[114.1662921871629,22.448620146464105]]]},"properties":{"OBJECTID":100893,"Shape__Length":43.563906631510037,"Shape__Area":73.309191024892982,"GeoRefNo":"3517534340","DateCreate":1114790400000,"BuildingBlockType":"Tower","BuildingCSUID":"3517534340T20050430","BuildingID":1106127904,"Status":"Active","BuildingNameEN":"Tai Wo Building","BuildingNameTC":"泰和樓","BaseHeight":3.8999999999999999,"TopHeight":26.300000000000001,"Storeys":6,"StoreysInBasement":null,"DateStamp":1599580800000}},{"type":"Feature","id":100894,"geometry":{"type":"Polygon","coordinates":[[[114.1676697446745,22.448640262034402],[114.1676466898523,22.448650736406989],[114.16763371912856,22.448625972727331],[114.16761066887219,22.448636445018032],[114.16755848986496,22.448536824596438],[114.16760459656648,22.44851588309707],[114.16765677375329,22.448615498446863],[114.1676697446745,22.448640262034402]]]},"properties":{"OBJECTID":100894,"Shape__Length":41.203233924978484,"Shape__Area":72.866106663247407,"GeoRefNo":"3531334346","DateCreate":1114790400000,"BuildingBlockType":"Tower","BuildingCSUID":"3531334346T20050430","BuildingID":1106127867,"Status":"Active","BuildingNameEN":null,"BuildingNameTC":null,"BaseHeight":4.7999999999999998,"TopHeight":23.199999999999999,"Storeys":null,"StoreysInBasement":null,"DateStamp":1362067200000}},{"type":"Feature","id":100895,"geometry":{"type":"Polygon","coordinates":[[[114.16500920090556,22.448604208278304],[114.16501805464242,22.448567175139317],[114.16514614897577,22.448593545438605],[114.16513713849126,22.448631508438652],[114.16500920090556,22.448604208278304]]]},"properties":{"OBJECTID":100895,"Shape__Length":35.522446950076137,"Shape__Area":57.449362184548058,"GeoRefNo":"3505534352","DateCreate":1114790400000,"BuildingBlockType":"Tower","BuildingCSUID":"3505534352T20050430","BuildingID":1106127893,"Status":"Active","BuildingNameEN":"Tin Hau House","BuildingNameTC":"天后樓","BaseHeight":4.2999999999999998,"TopHeight":25.800000000000001,"Storeys":6,"StoreysInBasement":null,"DateStamp":1599580800000}},{"type":"Feature","id":100896,"geometry":{"type":"Polygon","coordinates":[[[114.16761066887219,22.448636445018032],[114.16758761880665,22.44864691721515],[114.1676005895242,22.448671680898453],[114.16757753916065,22.448682153184357],[114.16756456854337,22.448657389408936],[114.16751238713282,22.448557764457355],[114.16755848986496,22.448536824596438],[114.16761066887219,22.448636445018032]]]},"properties":{"OBJECTID":100896,"Shape__Length":41.203400386114787,"Shape__Area":72.861613338474484,"GeoRefNo":"3530934348","DateCreate":1114790400000,"BuildingBlockType":"Tower","BuildingCSUID":"3530934348T20050430","BuildingID":1106127838,"Status":"Active","BuildingNameEN":null,"BuildingNameTC":null,"BaseHeight":4.7999999999999998,"TopHeight":23.100000000000001,"Storeys":null,"StoreysInBasement":null,"DateStamp":1362067200000}},{"type":"Feature","id":100956,"geometry":{"type":"Polygon","coordinates":[[[114.16560178527007,22.448629619143979],[114.16553280822212,22.448500430208703],[114.16557214654303,22.448482988476542],[114.16557633306415,22.448490574347318],[114.16563862511724,22.448612354309073],[114.16560178527007,22.448629619143979]]]},"properties":{"OBJECTID":100956,"Shape__Length":40.580380774492788,"Shape__Area":69.736573724208199,"GeoRefNo":"3510834350","DateCreate":1114790400000,"BuildingBlockType":"Tower","BuildingCSUID":"3510834350T20050430","BuildingID":1106127896,"Status":"Active","BuildingNameEN":null,"BuildingNameTC":null,"BaseHeight":4,"TopHeight":24.899999999999999,"Storeys":6,"StoreysInBasement":null,"DateStamp":1599580800000}},{"type":"Feature","id":101009,"geometry":{"type":"Polygon","coordinates":[[[114.16757753916065,22.448682153184357],[114.16755448918222,22.44869262537668],[114.16754151837378,22.448667861689728],[114.16751846810357,22.448678333876906],[114.16746628419257,22.448578704305017],[114.16751238713282,22.448557764457355],[114.16756456854337,22.448657389408936],[114.16757753916065,22.448682153184357]]]},"properties":{"OBJECTID":101009,"Shape__Length":41.204531715908573,"Shape__Area":72.864736792062573,"GeoRefNo":"3530434351","DateCreate":1114790400000,"BuildingBlockType":"Tower","BuildingCSUID":"3530434351T20050430","BuildingID":1106127826,"Status":"Active","BuildingNameEN":null,"BuildingNameTC":null,"BaseHeight":4.7999999999999998,"TopHeight":25.600000000000001,"Storeys":null,"StoreysInBasement":null,"DateStamp":1362067200000}},{"type":"Feature","id":101010,"geometry":{"type":"Polygon","coordinates":[[[114.16459104270677,22.448362632580537],[114.16459568228188,22.448343577507263],[114.16457005490594,22.448337019454009],[114.16457346921968,22.448322589685127],[114.16474844823743,22.44835655675001],[114.16473956561101,22.448393337110662],[114.16469213967706,22.448383532619722],[114.16460308354763,22.448365121834488],[114.16459104270677,22.448362632580537]]]},"properties":{"OBJECTID":101010,"Shape__Length":44.771519601239191,"Shape__Area":68.487035541479486,"GeoRefNo":"3501534325","DateCreate":1114790400000,"BuildingBlockType":"Tower","BuildingCSUID":"3501534325T20050430","BuildingID":1106128131,"Status":"Active","BuildingNameEN":"Sun Hong Building","BuildingNameTC":"新康樓","BaseHeight":4.5999999999999996,"TopHeight":25.300000000000001,"Storeys":6,"StoreysInBasement":null,"DateStamp":1599580800000}},{"type":"Feature","id":101012,"geometry":{"type":"Polygon","coordinates":[[[114.16816457055403,22.448384763480146],[114.16811242368702,22.44828523850742],[114.16815849272169,22.44826431237944],[114.16821064155654,22.448363840949835],[114.16822360740493,22.448388586793726],[114.16820057190229,22.448399048062342],[114.16818760605703,22.448374302216642],[114.16816457055403,22.448384763480146]]]},"properties":{"OBJECTID":101012,"Shape__Length":41.169844507937697,"Shape__Area":72.746213317083473,"GeoRefNo":"3537034319","DateCreate":1114790400000,"BuildingBlockType":"Tower","BuildingCSUID":"3537034319T20050430","BuildingID":1106128124,"Status":"Active","BuildingNameEN":null,"BuildingNameTC":null,"BaseHeight":4.7000000000000002,"TopHeight":22.100000000000001,"Storeys":null,"StoreysInBasement":null,"DateStamp":1362067200000}},{"type":"Feature","id":101014,"geometry":{"type":"Polygon","coordinates":[[[114.16822360740493,22.448388586793726],[114.16821064155654,22.448363840949835],[114.16815849272169,22.44826431237944],[114.16820457058338,22.448243382355663],[114.16825672128893,22.448342914433397],[114.16823367705263,22.448353379679734],[114.16824664290411,22.448378125521792],[114.16822360740493,22.448388586793726]]]},"properties":{"OBJECTID":101014,"Shape__Length":41.172733707835029,"Shape__Area":72.760848238023158,"GeoRefNo":"3537534316","DateCreate":1114790400000,"BuildingBlockType":"Tower","BuildingCSUID":"3537534316T20050430","BuildingID":1106128138,"Status":"Active","BuildingNameEN":null,"BuildingNameTC":null,"BaseHeight":4.7999999999999998,"TopHeight":22.100000000000001,"Storeys":null,"StoreysInBasement":null,"DateStamp":1362067200000}},{"type":"Feature","id":101061,"geometry":{"type":"Polygon","coordinates":[[[114.16567416049374,22.448392889727167],[114.16559902562575,22.448246523027741],[114.16563792653699,22.448228639569145],[114.16569769532842,22.44834362365166],[114.16566873271407,22.448357164888019],[114.16568474043714,22.44838795983248],[114.16567416049374,22.448392889727167]]]},"properties":{"OBJECTID":101061,"Shape__Length":44.910003347074536,"Shape__Area":68.304513068741173,"GeoRefNo":"3511234315","DateCreate":1114790400000,"BuildingBlockType":"Tower","BuildingCSUID":"3511234315T20050430","BuildingID":1106128133,"Status":"Active","BuildingNameEN":null,"BuildingNameTC":null,"BaseHeight":4.0999999999999996,"TopHeight":29.100000000000001,"Storeys":6,"StoreysInBasement":null,"DateStamp":1599580800000}},{"type":"Feature","id":101062,"geometry":{"type":"Polygon","coordinates":[[[114.1657770094336,22.448307351347239],[114.16571915616589,22.448191296775242],[114.16571926458822,22.448191246934613],[114.16576116447241,22.448171984793195],[114.16581394760405,22.44828125587123],[114.16583388931124,22.448319401856914],[114.16581837404595,22.44832629103238],[114.16580744638421,22.448305818253637],[114.16578222556055,22.448317221987502],[114.1657770094336,22.448307351347239]]]},"properties":{"OBJECTID":101062,"Shape__Length":45.35422336874398,"Shape__Area":77.413588288955168,"GeoRefNo":"3512334309","DateCreate":1114790400000,"BuildingBlockType":"Tower","BuildingCSUID":"3512334309T20050430","BuildingID":1106128196,"Status":"Active","BuildingNameEN":null,"BuildingNameTC":null,"BaseHeight":4.0999999999999996,"TopHeight":25.100000000000001,"Storeys":6,"StoreysInBasement":null,"DateStamp":1599580800000}},{"type":"Feature","id":101063,"geometry":{"type":"Polygon","coordinates":[[[114.16612293302254,22.448390317388633],[114.16611317789459,22.448371202165958],[114.16611034729651,22.448365655565208],[114.16606963143003,22.448285872251393],[114.16606612749956,22.448279006255998],[114.16609362165426,22.448266672492643],[114.16615284017648,22.448376840610749],[114.16612293302254,22.448390317388633]]]},"properties":{"OBJECTID":101063,"Shape__Length":33.8440729319368,"Shape__Area":44.761863545694105,"GeoRefNo":"3516134323","DateCreate":1114790400000,"BuildingBlockType":"Tower","BuildingCSUID":"3516134323T20050430","BuildingID":1106128136,"Status":"Active","BuildingNameEN":"Po Yan Building","BuildingNameTC":"寶仁樓","BaseHeight":4.2000000000000002,"TopHeight":25.699999999999999,"Storeys":6,"StoreysInBasement":null,"DateStamp":1599580800000}},{"type":"Feature","id":101064,"geometry":{"type":"Polygon","coordinates":[[[114.16407919705702,22.448358236640267],[114.16415072548747,22.448065531678306],[114.16416807590522,22.448069831536007],[114.16417903856586,22.448022955324099],[114.16416194069902,22.448019116040399],[114.16418851128773,22.447908142909238],[114.1643356502844,22.447938117411439],[114.16422681902775,22.448390551158479],[114.16407919705702,22.448358236640267]]]},"properties":{"OBJECTID":101064,"Shape__Length":137.25362945827635,"Shape__Area":785.95098028831012,"GeoRefNo":"3496734308","DateCreate":1114790400000,"BuildingBlockType":"Tower","BuildingCSUID":"3496734308T20050430","BuildingID":1106128135,"Status":"Active","BuildingNameEN":"Mei Hing Mansion","BuildingNameTC":"美馨大廈","BaseHeight":7.7000000000000002,"TopHeight":47.899999999999999,"Storeys":8,"StoreysInBasement":null,"DateStamp":1599580800000}},{"type":"Feature","id":101065,"geometry":{"type":"Polygon","coordinates":[[[114.16438193372149,22.448354117749524],[114.16439977698531,22.448279292809509],[114.1644562701959,22.448291117471761],[114.16449622603312,22.448299364791893],[114.16448960689466,22.448323259942352],[114.16452931103908,22.448331399411455],[114.16452161407747,22.448362508727492],[114.16446563778169,22.448350475885654],[114.16446057438017,22.448372211792599],[114.16438193372149,22.448354117749524]]]},"properties":{"OBJECTID":101065,"Shape__Length":45.828892191725309,"Shape__Area":97.107121108171896,"GeoRefNo":"3498734320","DateCreate":1114790400000,"BuildingBlockType":"Tower","BuildingCSUID":"3498734320T20050430","BuildingID":1106128155,"Status":"Active","BuildingNameEN":null,"BuildingNameTC":null,"BaseHeight":5.4000000000000004,"TopHeight":25.5,"Storeys":null,"StoreysInBasement":null,"DateStamp":1362067200000}},{"type":"Feature","id":101067,"geometry":{"type":"Polygon","coordinates":[[[114.16460961263702,22.448287753128593],[114.16461399158324,22.448270603821221],[114.16458654748445,22.448264578429537],[114.16459186334778,22.448244007465654],[114.16459845961998,22.448245741812624],[114.16476674799345,22.448280720393072],[114.16475757382281,22.448318728874565],[114.16471663367749,22.44831015807446],[114.16462020140743,22.448289969912864],[114.16460961263702,22.448287753128593]]]},"properties":{"OBJECTID":101067,"Shape__Length":45.578682341966363,"Shape__Area":73.784685506694686,"GeoRefNo":"3501834317","DateCreate":1114790400000,"BuildingBlockType":"Tower","BuildingCSUID":"3501834317T20050430","BuildingID":1106128203,"Status":"Active","BuildingNameEN":"Sun Cheung Building","BuildingNameTC":"新祥樓","BaseHeight":4.7999999999999998,"TopHeight":25.300000000000001,"Storeys":6,"StoreysInBasement":null,"DateStamp":1599580800000}},{"type":"Feature","id":101068,"geometry":{"type":"Polygon","coordinates":[[[114.16608519730673,22.448407321927011],[114.1660262367015,22.448296603937624],[114.16605001960762,22.448286319845415],[114.16604411381101,22.448275067508643],[114.16605971656209,22.448267293333078],[114.16606612749956,22.448279006255998],[114.16606963143003,22.448285872251393],[114.16611034729651,22.448365655565208],[114.16611317789459,22.448371202165958],[114.16612293302254,22.448390317388633],[114.16612291174613,22.44839032695949],[114.16608522431515,22.448407309828013],[114.16608519730673,22.448407321927011]]]},"properties":{"OBJECTID":101068,"Shape__Length":39.003809732474977,"Shape__Area":63.087307789048573,"GeoRefNo":"3515734325","DateCreate":1114790400000,"BuildingBlockType":"Tower","BuildingCSUID":"3515734325T20050430","BuildingID":1106128117,"Status":"Active","BuildingNameEN":null,"BuildingNameTC":"英華樓","BaseHeight":4.0999999999999996,"TopHeight":25.699999999999999,"Storeys":6,"StoreysInBasement":null,"DateStamp":1599580800000}},{"type":"Feature","id":101069,"geometry":{"type":"Polygon","coordinates":[[[114.16679121363573,22.447128915014172],[114.16684714524546,22.447235876787619],[114.16688063860809,22.447299934021636],[114.16677405230544,22.447349430181674],[114.16671415879316,22.447235868500901],[114.16668352241453,22.447177791738323],[114.16673821670184,22.44715296819928],[114.16679121363573,22.447128915014172]]]},"properties":{"OBJECTID":101069,"Shape__Length":66.825143581437786,"Shape__Area":259.67834472868554,"GeoRefNo":"3523334206","DateCreate":1114790400000,"BuildingBlockType":"Tower","BuildingCSUID":"3523334206T20050430","BuildingID":1106128842,"Status":"Active","BuildingNameEN":"Fung Nin Building","BuildingNameTC":"豐年樓","BaseHeight":5.0999999999999996,"TopHeight":25.699999999999999,"Storeys":5,"StoreysInBasement":null,"DateStamp":1599580800000}},{"type":"Feature","id":101084,"geometry":{"type":"Polygon","coordinates":[[[114.16279423016159,22.447109434603675],[114.16280329893983,22.447130843704858],[114.16278270267465,22.4471389693196],[114.16277279990915,22.447117278304209],[114.16279423016159,22.447109434603675]]]},"properties":{"OBJECTID":101084,"Shape__Length":9.8311634907889243,"Shape__Area":6.0250954393978136,"GeoRefNo":"3481734187","DateCreate":1114790400000,"BuildingBlockType":"Tower","BuildingCSUID":"3481734187T20050430","BuildingID":1106128948,"Status":"Active","BuildingNameEN":null,"BuildingNameTC":null,"BaseHeight":61.700000000000003,"TopHeight":64.299999999999997,"Storeys":null,"StoreysInBasement":null,"DateStamp":1362067200000}},{"type":"Feature","id":101085,"geometry":{"type":"Polygon","coordinates":[[[114.16601798771228,22.44700883307183],[114.16603857323045,22.447048995761932],[114.16604701550126,22.44706546678799],[114.16596747787648,22.447101491510576],[114.16594118269882,22.447052319376134],[114.16595661320959,22.447009200007095],[114.16600657753368,22.446986571518902],[114.16601798771228,22.44700883307183]]]},"properties":{"OBJECTID":101085,"Shape__Length":35.618896452038001,"Shape__Area":82.535855386689249,"GeoRefNo":"3514634179","DateCreate":1114790400000,"BuildingBlockType":"Tower","BuildingCSUID":"3514634179T20050430","BuildingID":1106128962,"Status":"Active","BuildingNameEN":"Man Hing Building","BuildingNameTC":"萬興樓","BaseHeight":5.0999999999999996,"TopHeight":25.899999999999999,"Storeys":6,"StoreysInBasement":null,"DateStamp":1599580800000}},{"type":"Feature","id":101087,"geometry":{"type":"Polygon","coordinates":[[[114.16307143989862,22.447035348182506],[114.16304888870137,22.447006611809822],[114.16307718299683,22.446958707674877],[114.16314155018583,22.446991457569887],[114.16312021284975,22.447027893632942],[114.16313772779735,22.447036889451027],[114.16312209402687,22.447063473774758],[114.16307523199291,22.447040180249367],[114.16307143989862,22.447035348182506]]]},"properties":{"OBJECTID":101087,"Shape__Length":33.68493600474946,"Shape__Area":63.413092012260677,"GeoRefNo":"3484934175","DateCreate":1114790400000,"BuildingBlockType":"Tower","BuildingCSUID":"3484934175T20050430","BuildingID":1106128977,"Status":"Active","BuildingNameEN":null,"BuildingNameTC":null,"BaseHeight":50.899999999999999,"TopHeight":56.100000000000001,"Storeys":null,"StoreysInBasement":null,"DateStamp":1362067200000}},{"type":"Feature","id":101112,"geometry":{"type":"Polygon","coordinates":[[[114.16609646521832,22.447043073571304],[114.1660883598704,22.447027639988594],[114.16606629171102,22.446985619732018],[114.16605522155109,22.446964540833228],[114.16611389198528,22.446937969294467],[114.16613329935545,22.446974968346474],[114.16611648240092,22.446982733419347],[114.16613786153562,22.447024320071378],[114.16609646521832,22.447043073571304]]]},"properties":{"OBJECTID":101112,"Shape__Length":32.730630251447359,"Shape__Area":55.005560188485404,"GeoRefNo":"3515934173","DateCreate":1114790400000,"BuildingBlockType":"Tower","BuildingCSUID":"3515934173T20050430","BuildingID":1106128988,"Status":"Active","BuildingNameEN":"Man Hing Building","BuildingNameTC":"萬興樓","BaseHeight":5.0999999999999996,"TopHeight":28.199999999999999,"Storeys":6,"StoreysInBasement":null,"DateStamp":1599580800000}},{"type":"Feature","id":101130,"geometry":{"type":"Polygon","coordinates":[[[114.16589141222846,22.445475997028829],[114.16585652997723,22.445404455040595],[114.16588169055046,22.445393932297826],[114.16591497808888,22.445466141162164],[114.16589141222846,22.445475997028829]]]},"properties":{"OBJECTID":101130,"Shape__Length":22.897425870020644,"Shape__Area":23.919513373453512,"GeoRefNo":"3513734001","DateCreate":1114790400000,"BuildingBlockType":"Tower","BuildingCSUID":"3513734001T20050430","BuildingID":1106129694,"Status":"Active","BuildingNameEN":null,"BuildingNameTC":null,"BaseHeight":6.2000000000000002,"TopHeight":16.600000000000001,"Storeys":null,"StoreysInBasement":null,"DateStamp":1362067200000}},{"type":"Feature","id":101131,"geometry":{"type":"Polygon","coordinates":[[[114.16342295950255,22.445476144068117],[114.16345691168863,22.445483994350763],[114.16345136259274,22.445504745873979],[114.16341741040193,22.445496895590171],[114.16342295950255,22.445476144068117]]]},"properties":{"OBJECTID":101131,"Shape__Length":11.93858437258606,"Shape__Area":8.5277090007455882,"GeoRefNo":"3488534007","DateCreate":1114790400000,"BuildingBlockType":"Tower","BuildingCSUID":"3488534007T20050430","BuildingID":1106129680,"Status":"Active","BuildingNameEN":"HONKA GARDEN","BuildingNameTC":"漢家華園","BaseHeight":27.300000000000001,"TopHeight":30,"Storeys":null,"StoreysInBasement":null,"DateStamp":1362067200000}},{"type":"Feature","id":101132,"geometry":{"type":"Polygon","coordinates":[[[114.16619303527547,22.447087462294501],[114.16612493661938,22.447118175143277],[114.16607692716151,22.447139827696475],[114.16603854668983,22.4471571375033],[114.16601392911606,22.447168240149839],[114.16600521674034,22.447172169437547],[114.16598667721989,22.447137448270652],[114.16605929947774,22.447104897543614],[114.16610642920782,22.447083773037896],[114.16617481414247,22.44705312153253],[114.16619303527547,22.447087462294501]]]},"properties":{"OBJECTID":101132,"Shape__Length":51.520933880587798,"Shape__Area":91.696847918026279,"GeoRefNo":"3516334183","DateCreate":1114790400000,"BuildingBlockType":"Tower","BuildingCSUID":"3516334183T20050430","BuildingID":1106128933,"Status":"Active","BuildingNameEN":"Po Heung Building","BuildingNameTC":null,"BaseHeight":5.0999999999999996,"TopHeight":31.399999999999999,"Storeys":7,"StoreysInBasement":null,"DateStamp":1599580800000}},{"type":"Feature","id":101135,"geometry":{"type":"Polygon","coordinates":[[[114.1680109268902,22.447216106172473],[114.16792299892546,22.447044739296182],[114.16804881870961,22.446987004219707],[114.16809879992252,22.447011786495242],[114.16816874809739,22.447144989439877],[114.1680109268902,22.447216106172473]]]},"properties":{"OBJECTID":101135,"Shape__Length":75.766366020268464,"Shape__Area":370.59704373498221,"GeoRefNo":"3536234190","DateCreate":1114790400000,"BuildingBlockType":"Tower","BuildingCSUID":"3536234190T20050430","BuildingID":1106128911,"Status":"Active","BuildingNameEN":"Dragon Court","BuildingNameTC":"龍騰閣","BaseHeight":4.5999999999999996,"TopHeight":25.899999999999999,"Storeys":7,"StoreysInBasement":null,"DateStamp":1599580800000}},{"type":"Feature","id":101137,"geometry":{"type":"Polygon","coordinates":[[[114.16396348146878,22.44670734708706],[114.16397019943784,22.446711689012886],[114.16399063136869,22.446724894426502],[114.16401210904009,22.446738775759705],[114.16400517182537,22.446747941117739],[114.1639925918513,22.446740336475955],[114.16398416799517,22.44675248176414],[114.16395012893111,22.446734959971728],[114.16396348146878,22.44670734708706]]]},"properties":{"OBJECTID":101137,"Shape__Length":17.84004509525035,"Shape__Area":15.175568559040391,"GeoRefNo":"3494034144","DateCreate":1114790400000,"BuildingBlockType":"Tower","BuildingCSUID":"3494034144T20050430","BuildingID":1106129100,"Status":"Active","BuildingNameEN":null,"BuildingNameTC":null,"BaseHeight":17.399999999999999,"TopHeight":22.899999999999999,"Storeys":null,"StoreysInBasement":null,"DateStamp":1362067200000}},{"type":"Feature","id":101194,"geometry":{"type":"Polygon","coordinates":[[[114.16569480554975,22.445464107716052],[114.16568241140524,22.445438740314334],[114.16565944948744,22.445391743610191],[114.16574191100422,22.445357190383742],[114.16577689763498,22.445429743453946],[114.16575539320425,22.44543874534169],[114.16569480554975,22.445464107716052]]]},"properties":{"OBJECTID":101194,"Shape__Length":36.184046587998793,"Shape__Area":81.770908376363124,"GeoRefNo":"3511933998","DateCreate":1114790400000,"BuildingBlockType":"Tower","BuildingCSUID":"3511933998T20050430","BuildingID":1106129703,"Status":"Active","BuildingNameEN":null,"BuildingNameTC":"麥氏宗祠","BaseHeight":6.2999999999999998,"TopHeight":11.4,"Storeys":null,"StoreysInBasement":null,"DateStamp":1362067200000}},{"type":"Feature","id":101195,"geometry":{"type":"Polygon","coordinates":[[[114.16576244681283,22.44552993246144],[114.16572895140389,22.445459437622407],[114.16575547501449,22.445448371359888],[114.16578988956606,22.445518587305699],[114.16576244681283,22.44552993246144]]]},"properties":{"OBJECTID":101195,"Shape__Length":23.162588230241035,"Shape__Area":25.976810139359028,"GeoRefNo":"3512434008","DateCreate":1114790400000,"BuildingBlockType":"Tower","BuildingCSUID":"3512434008T20050430","BuildingID":1106129668,"Status":"Active","BuildingNameEN":null,"BuildingNameTC":null,"BaseHeight":6,"TopHeight":13.800000000000001,"Storeys":null,"StoreysInBasement":null,"DateStamp":1362067200000}},{"type":"Feature","id":101196,"geometry":{"type":"Polygon","coordinates":[[[114.17048706121979,22.445565598804514],[114.17052197575661,22.445569627757084],[114.17051675696977,22.445613307859102],[114.17048134696077,22.445609504647251],[114.17048706121979,22.445565598804514]]]},"properties":{"OBJECTID":101196,"Shape__Length":17.054944005766554,"Shape__Area":17.796608998654584,"GeoRefNo":"3561234017","DateCreate":1114790400000,"BuildingBlockType":"Tower","BuildingCSUID":"3561234017T20050430","BuildingID":1106129608,"Status":"Active","BuildingNameEN":"LAW TING PONG SCOUT CENTRE","BuildingNameTC":"羅定邦童軍中心","BaseHeight":41.5,"TopHeight":44.799999999999997,"Storeys":null,"StoreysInBasement":null,"DateStamp":1362067200000}},{"type":"Feature","id":101197,"geometry":{"type":"Polygon","coordinates":[[[114.16585652997723,22.445404455040595],[114.16589141222846,22.445475997028829],[114.16583483641017,22.445499658299816],[114.16579998964193,22.445428101492041],[114.16585652997723,22.445404455040595]]]},"properties":{"OBJECTID":101197,"Shape__Length":30.164045322702652,"Shape__Area":55.527995410368554,"GeoRefNo":"3513334003","DateCreate":1114790400000,"BuildingBlockType":"Tower","BuildingCSUID":"3513334003T20050430","BuildingID":1106129684,"Status":"Active","BuildingNameEN":null,"BuildingNameTC":null,"BaseHeight":6.2000000000000002,"TopHeight":15.699999999999999,"Storeys":null,"StoreysInBasement":null,"DateStamp":1362067200000}},{"type":"Feature","id":101198,"geometry":{"type":"Polygon","coordinates":[[[114.16578988956606,22.445518587305699],[114.16575547501449,22.445448371359888],[114.16577854298235,22.445438746929462],[114.16578306591482,22.445436859874377],[114.16578397613119,22.445438747301623],[114.16581706184816,22.445507353923801],[114.16578988956606,22.445518587305699]]]},"properties":{"OBJECTID":101198,"Shape__Length":23.273405110460921,"Shape__Area":26.393174243475631,"GeoRefNo":"3512734007","DateCreate":1114790400000,"BuildingBlockType":"Tower","BuildingCSUID":"3512734007T20050430","BuildingID":1106129671,"Status":"Active","BuildingNameEN":null,"BuildingNameTC":null,"BaseHeight":6,"TopHeight":11.5,"Storeys":null,"StoreysInBasement":null,"DateStamp":1362067200000}},{"type":"Feature","id":101201,"geometry":{"type":"Polygon","coordinates":[[[114.1645679731418,22.445491965766337],[114.16459956886268,22.445458131505138],[114.16469456243571,22.445534418924829],[114.16466255000864,22.445568795903146],[114.1645679731418,22.445491965766337]]]},"properties":{"OBJECTID":101201,"Shape__Length":35.847537907231477,"Shape__Area":64.603866024865837,"GeoRefNo":"3500734009","DateCreate":1114790400000,"BuildingBlockType":"Tower","BuildingCSUID":"3500734009T20050430","BuildingID":1106129636,"Status":"Active","BuildingNameEN":null,"BuildingNameTC":null,"BaseHeight":12.1,"TopHeight":21.199999999999999,"Storeys":null,"StoreysInBasement":null,"DateStamp":1362067200000}},{"type":"Feature","id":101202,"geometry":{"type":"Polygon","coordinates":[[[114.16245708176089,22.445491927414164],[114.16249510398767,22.445503435595498],[114.16248271410741,22.445538535868618],[114.16244444905158,22.445526567109617],[114.16245708176089,22.445491927414164]]]},"properties":{"OBJECTID":101202,"Shape__Length":16.413069470096175,"Shape__Area":16.835286001682594,"GeoRefNo":"3478534009","DateCreate":1114790400000,"BuildingBlockType":"Tower","BuildingCSUID":"3478534009T20050430","BuildingID":1106129663,"Status":"Active","BuildingNameEN":"HONKA GARDEN","BuildingNameTC":"漢家華園","BaseHeight":62.200000000000003,"TopHeight":65,"Storeys":null,"StoreysInBasement":null,"DateStamp":1362067200000}},{"type":"Feature","id":101203,"geometry":{"type":"Polygon","coordinates":[[[114.16534806820783,22.445438716861268],[114.16541928737792,22.44556795520791],[114.16535537968981,22.445598109139613],[114.16528907899877,22.445477435238704],[114.16527647845932,22.445484071720422],[114.16525626518055,22.445447334384106],[114.16527423569133,22.445438711588817],[114.16533262587055,22.445410694262112],[114.16534806820783,22.445438716861268]]]},"properties":{"OBJECTID":101203,"Shape__Length":56.854537602251973,"Shape__Area":150.69925617878741,"GeoRefNo":"3508134009","DateCreate":1114790400000,"BuildingBlockType":"Tower","BuildingCSUID":"3508134009T20050430","BuildingID":1106129621,"Status":"Active","BuildingNameEN":"Pun Chung Public Primary School","BuildingNameTC":"泮涌公立小學","BaseHeight":7.5,"TopHeight":11.1,"Storeys":null,"StoreysInBasement":null,"DateStamp":1362067200000}},{"type":"Feature","id":101204,"geometry":{"type":"Polygon","coordinates":[[[114.16343711973411,22.445515978576942],[114.16348365217989,22.445527116983126],[114.16347647040121,22.445554252902969],[114.16342895675912,22.445543123443663],[114.16343711973411,22.445515978576942]]]},"properties":{"OBJECTID":101204,"Shape__Length":16.205622007030833,"Shape__Area":15.521181499540287,"GeoRefNo":"3488634012","DateCreate":1114790400000,"BuildingBlockType":"Tower","BuildingCSUID":"3488634012T20050430","BuildingID":1106129648,"Status":"Active","BuildingNameEN":"HONKA GARDEN","BuildingNameTC":"漢家華園","BaseHeight":25.300000000000001,"TopHeight":28,"Storeys":null,"StoreysInBasement":null,"DateStamp":1362067200000}},{"type":"Feature","id":101205,"geometry":{"type":"Polygon","coordinates":[[[114.16561949472134,22.44549562817587],[114.16559268347706,22.445438734088206],[114.16558520073566,22.445422855499817],[114.16561236185557,22.445411474413252],[114.16562560752168,22.445438736378563],[114.16564754477824,22.44548388710108],[114.16561949472134,22.44549562817587]]]},"properties":{"OBJECTID":101205,"Shape__Length":23.829902871562663,"Shape__Area":27.420770934679048,"GeoRefNo":"3510934003","DateCreate":1114790400000,"BuildingBlockType":"Tower","BuildingCSUID":"3510934003T20050430","BuildingID":1106129685,"Status":"Active","BuildingNameEN":null,"BuildingNameTC":null,"BaseHeight":6.7000000000000002,"TopHeight":13.4,"Storeys":null,"StoreysInBasement":null,"DateStamp":1362067200000}},{"type":"Feature","id":101206,"geometry":{"type":"Polygon","coordinates":[[[114.1655690823833,22.445526138207317],[114.16560099369303,22.445512824124467],[114.1656132735021,22.445540418434216],[114.16558165106468,22.445553004684992],[114.1655690823833,22.445526138207317]]]},"properties":{"OBJECTID":101206,"Shape__Length":13.692538588257356,"Shape__Area":11.694287266166498,"GeoRefNo":"3510734011","DateCreate":1114790400000,"BuildingBlockType":"Tower","BuildingCSUID":"3510734011T20050430","BuildingID":1106129649,"Status":"Active","BuildingNameEN":null,"BuildingNameTC":null,"BaseHeight":6.4000000000000004,"TopHeight":10.9,"Storeys":null,"StoreysInBasement":null,"DateStamp":1362067200000}},{"type":"Feature","id":101231,"geometry":{"type":"Polygon","coordinates":[[[114.16624217435732,22.448624224952049],[114.16621482151832,22.448572520753796],[114.16621385978124,22.448570702860774],[114.16620085229204,22.448546115247478],[114.1661981287151,22.448540966808007],[114.16619506380493,22.44853517321058],[114.1661757511758,22.448498667151608],[114.16621691958625,22.448480274747599],[114.16623656787395,22.448516787596628],[114.16623954488519,22.448522320026875],[114.16624292345519,22.448528598398635],[114.16625633788283,22.448553526934802],[114.16626916969558,22.448577372590265],[114.16627116855324,22.448581087126108],[114.1662921871629,22.448620146464105],[114.16627707020535,22.44862695443538],[114.16626904688528,22.448610879708074],[114.16624217435732,22.448624224952049]]]},"properties":{"OBJECTID":101231,"Shape__Length":44.341704313125135,"Shape__Area":76.557671868897984,"GeoRefNo":"3517034342","DateCreate":1114790400000,"BuildingBlockType":"Tower","BuildingCSUID":"3517034342T20050430","BuildingID":1106127901,"Status":"Active","BuildingNameEN":"Tai Wo Building","BuildingNameTC":"泰和樓","BaseHeight":3.8999999999999999,"TopHeight":26.100000000000001,"Storeys":6,"StoreysInBasement":null,"DateStamp":1599580800000}},{"type":"Feature","id":101256,"geometry":{"type":"Polygon","coordinates":[[[114.16548983713879,22.445448858518148],[114.16543429468653,22.445476434152379],[114.1654251528,22.445480551393327],[114.16541456546778,22.445459663204094],[114.1654266703987,22.445454850828277],[114.16542025975698,22.445441765246919],[114.16542636959059,22.445438722415947],[114.1654725465754,22.445415725016908],[114.16548454985497,22.445438726518645],[114.16548983713879,22.445448858518148]]]},"properties":{"OBJECTID":101256,"Shape__Length":23.215813168068138,"Shape__Area":28.435653927614421,"GeoRefNo":"3509434002","DateCreate":1114790400000,"BuildingBlockType":"Tower","BuildingCSUID":"3509434002T20050430","BuildingID":1106129692,"Status":"Active","BuildingNameEN":null,"BuildingNameTC":null,"BaseHeight":7,"TopHeight":18,"Storeys":null,"StoreysInBasement":null,"DateStamp":1362067200000}},{"type":"Feature","id":101264,"geometry":{"type":"Polygon","coordinates":[[[114.16567690478936,22.445565296509713],[114.16564294530133,22.445495321143106],[114.16567428515815,22.445482245500376],[114.16570782816528,22.445552512425138],[114.16567690478936,22.445565296509713]]]},"properties":{"OBJECTID":101264,"Shape__Length":24.03341696577376,"Shape__Area":29.857894498535011,"GeoRefNo":"3511634013","DateCreate":1114790400000,"BuildingBlockType":"Tower","BuildingCSUID":"3511634013T20050430","BuildingID":1106129641,"Status":"Active","BuildingNameEN":null,"BuildingNameTC":null,"BaseHeight":6.2000000000000002,"TopHeight":12.699999999999999,"Storeys":null,"StoreysInBasement":null,"DateStamp":1362067200000}},{"type":"Feature","id":101265,"geometry":{"type":"Polygon","coordinates":[[[114.16544931919094,22.445506019703114],[114.16543429468653,22.445476434152379],[114.16548983713879,22.445448858518148],[114.16550647352597,22.445480738273535],[114.16544931919094,22.445506019703114]]]},"properties":{"OBJECTID":101265,"Shape__Length":20.543705708187442,"Shape__Area":24.508746805757855,"GeoRefNo":"3509534005","DateCreate":1114790400000,"BuildingBlockType":"Tower","BuildingCSUID":"3509534005T20050430","BuildingID":1106129679,"Status":"Active","BuildingNameEN":null,"BuildingNameTC":null,"BaseHeight":6.9000000000000004,"TopHeight":13.699999999999999,"Storeys":null,"StoreysInBasement":null,"DateStamp":1362067200000}},{"type":"Feature","id":101267,"geometry":{"type":"Polygon","coordinates":[[[114.17135869120831,22.445512392879778],[114.17135319649684,22.445425127440657],[114.17135230533989,22.445410973889089],[114.17138683189317,22.445409115778652],[114.17139321778663,22.445510534858286],[114.17135869120831,22.445512392879778]]]},"properties":{"OBJECTID":101267,"Shape__Length":29.619996267876491,"Shape__Area":40.049987160868817,"GeoRefNo":"3570234004","DateCreate":1114790400000,"BuildingBlockType":"Tower","BuildingCSUID":"3570234004T20050430","BuildingID":1106129674,"Status":"Active","BuildingNameEN":"WONG SHIU CHI SECONDARY SCHOOL","BuildingNameTC":"王肇枝中學","BaseHeight":5.5,"TopHeight":8.5999999999999996,"Storeys":null,"StoreysInBasement":null,"DateStamp":1362067200000}},{"type":"Feature","id":101268,"geometry":{"type":"Polygon","coordinates":[[[114.16564754477824,22.44548388710108],[114.16562560752168,22.445438736378563],[114.16561236185557,22.445411474413252],[114.16563206269483,22.445403219328192],[114.1656491636663,22.445438738013117],[114.16566698380454,22.445475750473253],[114.16564754477824,22.44548388710108]]]},"properties":{"OBJECTID":101268,"Shape__Length":22.017120825487702,"Shape__Area":19.441311295188576,"GeoRefNo":"3511234002","DateCreate":1114790400000,"BuildingBlockType":"Tower","BuildingCSUID":"3511234002T20050430","BuildingID":1106129690,"Status":"Active","BuildingNameEN":null,"BuildingNameTC":null,"BaseHeight":6.4000000000000004,"TopHeight":11.699999999999999,"Storeys":null,"StoreysInBasement":null,"DateStamp":1362067200000}},{"type":"Feature","id":101289,"geometry":{"type":"Polygon","coordinates":[[[114.16563862511724,22.448612354309073],[114.16557633306415,22.448490574347318],[114.16559763863765,22.448481437016412],[114.16561462749377,22.448513144111207],[114.16563246469129,22.448505839716002],[114.16563838032661,22.448515258886687],[114.16568417115198,22.448601623237433],[114.16564330707068,22.448620400765353],[114.16563862511724,22.448612354309073]]]},"properties":{"OBJECTID":101289,"Shape__Length":40.851444672994731,"Shape__Area":65.239835123331588,"GeoRefNo":"3511234349","DateCreate":1114790400000,"BuildingBlockType":"Tower","BuildingCSUID":"3511234349T20050430","BuildingID":1106127903,"Status":"Active","BuildingNameEN":null,"BuildingNameTC":null,"BaseHeight":4,"TopHeight":13.699999999999999,"Storeys":null,"StoreysInBasement":null,"DateStamp":1362067200000}},{"type":"Feature","id":101290,"geometry":{"type":"Polygon","coordinates":[[[114.16499201235359,22.448677557574634],[114.16500920090556,22.448604208278304],[114.16513713849126,22.448631508438652],[114.16511991752537,22.448704057828731],[114.16499201235359,22.448677557574634]]]},"properties":{"OBJECTID":101290,"Shape__Length":43.540605916801709,"Shape__Area":111.64437498373051,"GeoRefNo":"3505534357","DateCreate":1114790400000,"BuildingBlockType":"Tower","BuildingCSUID":"3505534357T20050430","BuildingID":1106127816,"Status":"Active","BuildingNameEN":null,"BuildingNameTC":null,"BaseHeight":4.2000000000000002,"TopHeight":25.800000000000001,"Storeys":6,"StoreysInBasement":null,"DateStamp":1599580800000}},{"type":"Feature","id":101297,"geometry":{"type":"Polygon","coordinates":[[[114.16995745509298,22.448679918229139],[114.16995648863063,22.448680323203639],[114.16995551468857,22.448680712374518],[114.16995453355821,22.448681085741832],[114.16995354562822,22.448681443124912],[114.16995255109279,22.448681784433518],[114.16995155024347,22.448682109577337],[114.16995054356599,22.448682418375782],[114.16994953115749,22.448682710828873],[114.16994851350374,22.448682986846308],[114.1699474907019,22.448683246247487],[114.16994646323769,22.448683489032433],[114.16994543140254,22.448683715201163],[114.169944395488,22.448683924482751],[114.16994335578545,22.448684116967549],[114.16994231258634,22.448684292565233],[114.1699412662793,22.448684451185535],[114.16994021715576,22.448684592828474],[114.16993916550716,22.448684717403751],[114.16993811172213,22.448684824911357],[114.16993705599494,22.448684915351343],[114.16993599881137,22.448684988633374],[114.16993494036571,22.448685044757507],[114.16993388104655,22.448685083633446],[114.16993282124251,22.448685105351487],[114.16993176105068,22.448685109911647],[114.16993070105403,22.448685097223656],[114.1699296413497,22.448685067377816],[114.16992858242337,22.448685020374128],[114.16992752456657,22.448684956122335],[114.1699264680707,22.448684874803039],[114.1699254132272,22.448684776325951],[114.16992436042473,22.448684660691072],[114.16992330985752,22.448684528079056],[114.16992226210851,22.448684378399591],[114.16992121717765,22.448684211743004],[114.16992017564787,22.448684028109295],[114.16991913761633,22.448683827679105],[114.16991810356873,22.448683610452417],[114.16991707379655,22.448683376429294],[114.16991604849404,22.448683125790314],[114.16991502804989,22.448682858535509],[114.1699140128526,22.448682574755189],[114.16991300309647,22.448682274539699],[114.16991199917014,22.4486819579793],[114.16991100126791,22.448681625254682],[114.16991000987549,22.448681276365821],[114.16990902509001,22.448680911403045],[114.1699080473001,22.448680530546945],[114.1699070768943,22.448680133887891],[114.16990611396986,22.448679721516161],[114.16990515901239,22.448679293612379],[114.16990421221628,22.448678850266869],[114.1699032738729,22.448678391660273],[114.16990234427375,22.448677917882893],[114.16990142380739,22.448677429115353],[114.16990051257098,22.448676925447941],[114.1698996109531,22.448676407061335],[114.16989871914804,22.448675874226392],[114.16989783754437,22.448675326943167],[114.16989696633642,22.448674765392294],[114.16989610581561,22.448674189844667],[114.16989525627338,22.448673600390599],[114.16989441780686,22.448672997301038],[114.16989359090181,22.448672380666288],[114.16989277565534,22.448671750757278],[114.16989197235894,22.448671107664307],[114.16989118130401,22.44867045165832],[114.1698904025877,22.448669782919936],[114.16988963659858,22.448669101629775],[114.16988888353096,22.44866840805874],[114.16988814357913,22.448667702297151],[114.16988741703449,22.44866698470625],[114.16988670399422,22.448666255376352],[114.16988600484692,22.448665514668679],[114.16988531968966,22.448664762673541],[114.16988464871676,22.448663999752171],[114.16988399221971,22.448663225994864],[114.16988335029558,22.448662441762867],[114.16988272323584,22.448661647146494],[114.1698821111376,22.448660842506968],[114.16988151429231,22.448660028115192],[114.16988093279713,22.448659204151813],[114.16988036684631,22.448658370887738],[114.16987981673131,22.448657528503595],[114.1698792824521,22.448656677360574],[114.16987876420298,22.448655817729623],[114.16987826217822,22.448654949701069],[114.16987777657212,22.448654073726413],[114.16987730738467,22.448653190076584],[114.16987685500442,22.448652298841893],[114.16987641933423,22.448651400473867],[114.16987600056841,22.448650495153128],[114.16987559890119,22.448649583150594],[114.16987521442977,22.448648664827491],[114.16987484725122,22.448647740364397],[114.16987449755989,22.448646810122582],[114.16987416525856,22.448645874282658],[114.16987385063868,22.448644933205816],[114.16987355379739,22.448643987253291],[114.16987327463754,22.448643036515413],[114.16987301345051,22.448642081533979],[114.1698727702364,22.448641122309017],[114.16987254509222,22.448640159382347],[114.16987233801801,22.448639192934575],[114.16987214911089,22.448638223236639],[114.16987197846801,22.448637250649725],[114.16987182608933,22.448636275444787],[114.16987169197488,22.4486352978927],[114.16987157631891,22.448634318354738],[114.1698714791214,22.448633337101761],[114.16987140028522,22.448632354314412],[114.16987133990742,22.448631370534514],[114.1698712979881,22.448630385852372],[114.16987127462431,22.448629400629184],[114.16987126971893,22.448628415226214],[114.16987128336906,22.448627429824004],[114.16987131547758,22.448626444874158],[114.16987136614158,22.448625460466896],[114.16987143516675,22.448624477144111],[114.16987152274741,22.44862349508637],[114.16987162868921,22.448622514564612],[114.16987175299214,22.448621535940049],[114.16987189575333,22.448620559483565],[114.16987205677852,22.448619585466126],[114.16987223606762,22.448618614158583],[114.16987243352349,22.448617646012476],[114.16987264914614,22.448616681118136],[114.16987288293554,22.448615719927041],[114.16987313460019,22.448614762710143],[114.16987340433445,22.448613809648027],[114.1698736918468,22.44861286119221],[114.16987399713723,22.448611917432963],[114.16987432001144,22.448610978821844],[114.16987466056656,22.448610045629774],[114.16987501860829,22.448609118037322],[114.16987539394229,22.448608196496025],[114.16987578656857,22.448607281096184],[114.1698761962928,22.448606372198999],[114.16987662301783,22.448605470165671],[114.16987706664649,22.448604575086524],[114.16987752698446,22.44860368741309],[114.16987800393461,22.448602807325948],[114.16987849730258,22.448601935095969],[114.16987900699122,22.448601071084429],[114.16987953280623,22.4486002153816],[114.16988007465048,22.448599368348681],[114.16988063223245,22.448598530256589],[114.16988120555214,22.448597701285934],[114.1698817943181,22.448596881797908],[114.16988239843319,22.448596071973139],[114.16988301760593,22.448595272082493],[114.16988365164197,22.448594482396896],[114.16988430054138,22.448593703006665],[114.16988496391549,22.448592934363298],[114.16988564157,22.448592176557053],[114.16988633340776,22.448591429858883],[114.16988703913729,22.448590694539689],[114.16988775856431,22.448589970689738],[114.16988849149449,22.44858925867026],[114.16988923763638,22.44858855866185],[114.16988999679565,22.448587870935405],[114.16989076887516,22.448587195490941],[114.16989155338918,22.448586532779924],[114.16989235024049,22.448585882802366],[114.16989315923482,22.44858524591951],[114.16989398008072,22.448584622221588],[114.1698948124867,22.448584011979541],[114.16989565616132,22.448583415283654],[114.16989651091029,22.448582832404842],[114.16989737653927,22.448582263433362],[114.16989825275679,22.448581708640152],[114.16989913917432,22.448581168115489],[114.16990003559748,22.448580642130256],[114.169900941832,22.448580130684498],[114.16990185748925,22.448579634049086],[114.1699027822778,22.448579152314263],[114.16990371600335,22.448578685660699],[114.16990465837442,22.44857823426895],[114.16990560909953,22.448577798229302],[114.16990656779014,22.448577377632105],[114.16990753434906,22.448576972657904],[114.16990850829055,22.448576583487309],[114.16990948932313,22.448576210120269],[114.16991047734967,22.448575852737456],[114.16991147188443,22.448575511429112],[114.16991247263593,22.44857518628552],[114.16991347931273,22.44857487748731],[114.1699144917205,22.448574585034446],[114.16991550947067,22.448574309017225],[114.16991653217464,22.448574049616244],[114.16991755963811,22.448573806831487],[114.16991859147245,22.448573580662931],[114.16991962748337,22.44857337138151],[114.16992066718514,22.448573178896851],[114.16992171038343,22.448573003299305],[114.16992275668967,22.448572844679127],[114.1699238058124,22.448572703036294],[114.16992485736303,22.448572578461125],[114.16992591124436,22.448572470863294],[114.16992696687355,22.448572380513681],[114.16992802405626,22.448572307231711],[114.16992908250108,22.448572251107599],[114.16993014181936,22.448572212231721],[114.16993120171972,22.448572190423381],[114.16993226181354,22.448572185953537],[114.16993332190646,22.448572198551215],[114.16993438151283,22.448572228487343],[114.16993544043825,22.448572275490982],[114.16993649829423,22.448572339742721],[114.16993755488639,22.448572421061957],[114.16993860972904,22.448572519538978],[114.16993966253067,22.448572635173747],[114.16994071299992,22.448572767785674],[114.16994176084529,22.448572917465015],[114.16994280567815,22.448573084121467],[114.16994384730428,22.448573267664727],[114.16994488523791,22.448573468185071],[114.16994591928471,22.448573685411578],[114.16994694915329,22.448573919434516],[114.16994797435788,22.448574170073318],[114.16994899480133,22.448574437327903],[114.1699500099979,22.448574721108002],[114.16995101975331,22.448575021323272],[114.16995202377612,22.448575337793116],[114.16995302158053,22.448575670607791],[114.16995401306949,22.448576019496418],[114.16995499785432,22.448576384458917],[114.1699559755465,22.448576765314712],[114.16995694604884,22.44857716197351],[114.1699579088756,22.448577574344945],[114.16995886383253,22.448578002248414],[114.16995981062814,22.448578445593597],[114.16996074897102,22.44857890419987],[114.16996167856971,22.448579377976916],[114.16996259913279,22.448579866744137],[114.16996351036877,22.448580370411179],[114.16996441198627,22.448580888797462],[114.16996530369384,22.448581421632028],[114.1699661852972,22.448581968914901],[114.16996705650482,22.448582530465401],[114.16996791702537,22.448583106012663],[114.16996876666451,22.448583695466361],[114.16996960503364,22.448584298555538],[114.16997043203565,22.44858491518989],[114.16997124728196,22.448585545098531],[114.16997205048109,22.448586188191111],[114.16997284163307,22.44858684419669],[114.16997362025218,22.448587512934687],[114.16997438624125,22.448588194224474],[114.16997513930887,22.448588887795108],[114.16997587926073,22.448589593556299],[114.16997660580542,22.448590311146827],[114.16997731884577,22.448591040386013],[114.1699780179932,22.448591781183605],[114.16997870324774,22.448592533088057],[114.16997937412364,22.44859329609935],[114.16998003071805,22.448594069856263],[114.16998067254526,22.44859485408789],[114.1699812997024,22.448595648703886],[114.1699819117038,22.448596453252737],[114.16998250854935,22.448597267734453],[114.16998309004491,22.448598091697477],[114.16998365599611,22.4485989249612],[114.16998420620865,22.448599767345016],[114.16998474048827,22.448600618487681],[114.16998525873785,22.448601478118281],[114.16998576066595,22.448602346146519],[114.16998624636969,22.44860322203056],[114.16998671546052,22.448604105770379],[114.16998716793847,22.448604997004768],[114.16998760360919,22.448605895372499],[114.16998802227847,22.448606800692954],[114.16998842394629,22.448607712695214],[114.1699888084184,22.44860863101805],[114.16998917559756,22.448609555480893],[114.16998952538673,22.44861048572244],[114.16998985759159,22.448611421562155],[114.16999017221218,22.448612362548463],[114.16999046915134,22.448613308591082],[114.16999074821476,22.448614259238468],[114.16999100940254,22.448615214310006],[114.16999125261745,22.448616173534784],[114.16999147785955,22.448617136461309],[114.16999168493456,22.44861810290892],[114.16999187384248,22.448619072606736],[114.16999204448618,22.448620045193518],[114.16999219686566,22.448621020398338],[114.16999233088379,22.448621997950319],[114.16999244654063,22.448622977488192],[114.16999254383613,22.448623958741113],[114.16999262267316,22.44862494152839],[114.16999268295463,22.448625925308246],[114.16999272487483,22.448626909990352],[114.16999274823947,22.448627895213527],[114.16999275314571,22.448628880616521],[114.16999273949642,22.448629866018713],[114.16999270738879,22.448630850968591],[114.16999265682279,22.448631835285592],[114.16999258770129,22.44863281869873],[114.16999250021865,22.448633800756539],[114.16999239418054,22.448634781278354],[114.16999226987843,22.448635759903034],[114.16999212711806,22.448636736359607],[114.16999196619088,22.448637710377188],[114.16999178690257,22.448638681594545],[114.16999158935033,22.448639649831087],[114.16999137372848,22.448640614635295],[114.16999114003701,22.448641575826539],[114.16999088827595,22.448642533133928],[114.1699906186396,22.44864348619625],[114.16999033112801,22.44864443465228],[114.16999002583826,22.448645378411719],[114.16998970286761,22.448646316932759],[114.16998936231317,22.448647250215391],[114.16998900436927,22.448648177717775],[114.16998862893874,22.448649099349648],[114.16998823641023,22.448650014749763],[114.16998782668659,22.448650923647232],[114.16998739996215,22.448651825680844],[114.16998695633407,22.448652720669973],[114.16998649599661,22.448653608434014],[114.16998601904699,22.448654488521498],[114.16998552567951,22.448655360751776],[114.16998501599132,22.448656224763635],[114.16998449007959,22.448657080466809],[114.16998394833291,22.44865792750009],[114.16998339065418,22.448658765592519],[114.16998281733483,22.448659594473231],[114.16998222856918,22.448660414051922],[114.16998162455155,22.448661223877068],[114.16998100537909,22.44866202376809],[114.16998037124611,22.44866281345405],[114.16997972244411,22.448663592754382],[114.16997905907017,22.448664361488429],[114.16997838131867,22.448665119295043],[114.1699776895782,22.448665865993604],[114.16997698384876,22.448666601313196],[114.16997626432466,22.448667325163537],[114.16997553149167,22.448668037093086],[114.16997478525263,22.448668737192197],[114.16997402609334,22.448669424919029],[114.16997325411091,22.448670100363895],[114.1699724694997,22.448670763075288],[114.16997167264827,22.448671413053241],[114.16997086365379,22.448672049936487],[114.16997004290488,22.4486726736348],[114.16996921049869,22.448673283877209],[114.16996836672666,22.448673880573484],[114.16996751197746,22.448674463452686],[114.16996664634823,22.448675032334215],[114.16996577022749,22.448675587218098],[114.16996488380964,22.448676127652831],[114.16996398728895,22.44867665372869],[114.16996308115118,22.448677165174804],[114.1699621654935,22.448677661810578],[114.16996124060735,22.448678143545738],[114.16996030688135,22.448678610199622],[114.16995936450979,22.448679061591676],[114.16995841378412,22.448679497631627],[114.16995745509298,22.448679918229139]]]},"properties":{"OBJECTID":101297,"Shape__Length":39.284829130634833,"Shape__Area":122.80861902799043,"GeoRefNo":"3555434354","DateCreate":1114790400000,"BuildingBlockType":"Tower","BuildingCSUID":"3555434354T20050430","BuildingID":1106127830,"Status":"Active","BuildingNameEN":"TAI PO OLD MARKET PUBLIC SCHOOL (PLOVER COVE)","BuildingNameTC":"大埔舊墟公立學校(寶湖道)","BaseHeight":4.7000000000000002,"TopHeight":10.1,"Storeys":null,"StoreysInBasement":null,"DateStamp":1362067200000}},{"type":"Feature","id":101298,"geometry":{"type":"Polygon","coordinates":[[[114.16613631448783,22.448701274801998],[114.1660640781308,22.448564555295427],[114.16610330527639,22.448546960270068],[114.16616289771197,22.44866024219526],[114.16616609334733,22.448667818954632],[114.166142290934,22.448678373975646],[114.16615018791657,22.448694873131902],[114.16613631448783,22.448701274801998]]]},"properties":{"OBJECTID":101298,"Shape__Length":42.52427686448614,"Shape__Area":69.64945958140278,"GeoRefNo":"3515934350","DateCreate":1114790400000,"BuildingBlockType":"Tower","BuildingCSUID":"3515934350T20050430","BuildingID":1106127817,"Status":"Active","BuildingNameEN":null,"BuildingNameTC":null,"BaseHeight":3.8999999999999999,"TopHeight":25.300000000000001,"Storeys":6,"StoreysInBasement":null,"DateStamp":1599580800000}},{"type":"Feature","id":101309,"geometry":{"type":"Polygon","coordinates":[[[114.16527612928724,22.445360146773222],[114.16529660662158,22.445375545163074],[114.16528325737366,22.445390453487896],[114.16526351845181,22.445373908281631],[114.16527612928724,22.445360146773222]]]},"properties":{"OBJECTID":101309,"Shape__Length":9.5969248454599274,"Shape__Area":5.6488409979310958,"GeoRefNo":"3507433994","DateCreate":1114790400000,"BuildingBlockType":"Tower","BuildingCSUID":"3507433994T20050430","BuildingID":1106129750,"Status":"Active","BuildingNameEN":null,"BuildingNameTC":null,"BaseHeight":9.3000000000000007,"TopHeight":14,"Storeys":null,"StoreysInBasement":null,"DateStamp":1362067200000}},{"type":"Feature","id":101310,"geometry":{"type":"Polygon","coordinates":[[[114.17062369572803,22.445416908664466],[114.17076188677106,22.445434433007115],[114.17069865474863,22.445851764016012],[114.17072565187333,22.445855178552172],[114.1707139322874,22.445937255901885],[114.1705417976537,22.445914537687734],[114.17055706388346,22.445817731818217],[114.17058357525005,22.445821390181532],[114.17063201752264,22.445500404564342],[114.17061121843214,22.445497613352931],[114.17062369572803,22.445416908664466]]]},"properties":{"OBJECTID":101310,"Shape__Length":151.57457554214974,"Shape__Area":756.75963999601504,"GeoRefNo":"3562634050","DateCreate":1114790400000,"BuildingBlockType":"Tower","BuildingCSUID":"3562634050T20050430","BuildingID":1106129454,"Status":"Active","BuildingNameEN":"New Territories East Regional Headquarters Scout Association of Hong Kong Law Ting Pong Scout Centre","BuildingNameTC":"香港童軍總會新界東地域總部羅定邦童軍中心","BaseHeight":42.799999999999997,"TopHeight":48.5,"Storeys":null,"StoreysInBasement":null,"DateStamp":1362067200000}},{"type":"Feature","id":101316,"geometry":{"type":"Polygon","coordinates":[[[114.16950987731559,22.445920409081904],[114.16948047689904,22.445804230956945],[114.16948035079653,22.445800645861038],[114.16948165274137,22.445797431078827],[114.16948397686613,22.44579430998898],[114.16948764694942,22.445793385708591],[114.16949870245442,22.445790902836869],[114.16953067403939,22.445783734107163],[114.16953435593416,22.445783571725634],[114.16953812518548,22.445784863251031],[114.16954101032755,22.445787455121767],[114.16954241880801,22.445790453296105],[114.16957160554786,22.445906649461268],[114.16957165391928,22.445910532558546],[114.16957023540085,22.445913702183923],[114.16956778716182,22.445916049991624],[114.16956443549911,22.445917476652291],[114.16952162209519,22.445927119241798],[114.16951791937591,22.445927874742292],[114.16951417094111,22.445925999127621],[114.16951118865586,22.445923280825713],[114.16950987731559,22.445920409081904]]]},"properties":{"OBJECTID":101316,"Shape__Length":41.833430504328696,"Shape__Area":98.692449039310532,"GeoRefNo":"3551234047","DateCreate":1114790400000,"BuildingBlockType":"Tower","BuildingCSUID":"3551234047T20050430","BuildingID":1106129461,"Status":"Active","BuildingNameEN":null,"BuildingNameTC":null,"BaseHeight":14.6,"TopHeight":17.300000000000001,"Storeys":null,"StoreysInBasement":null,"DateStamp":1362067200000}},{"type":"Feature","id":101319,"geometry":{"type":"Polygon","coordinates":[[[114.16432311020611,22.445752277343786],[114.16440534477411,22.445759932493004],[114.16440284593848,22.445784025551056],[114.1643206113159,22.445776821923246],[114.16432311020611,22.445752277343786]]]},"properties":{"OBJECTID":101319,"Shape__Length":22.420179097047836,"Shape__Area":23.007498991561889,"GeoRefNo":"3498034038","DateCreate":1114790400000,"BuildingBlockType":"Tower","BuildingCSUID":"3498034038T20050430","BuildingID":1106129534,"Status":"Active","BuildingNameEN":null,"BuildingNameTC":null,"BaseHeight":11.800000000000001,"TopHeight":17.399999999999999,"Storeys":null,"StoreysInBasement":null,"DateStamp":1362067200000}},{"type":"Feature","id":101322,"geometry":{"type":"Polygon","coordinates":[[[114.1656332338079,22.445583350599321],[114.1656132735021,22.445540418434216],[114.16560099369303,22.445512824124467],[114.16564294530133,22.445495321143106],[114.16567690478936,22.445565296509713],[114.1656332338079,22.445583350599321]]]},"properties":{"OBJECTID":101322,"Shape__Length":26.640028818724858,"Shape__Area":41.124614951973491,"GeoRefNo":"3511234013","DateCreate":1114790400000,"BuildingBlockType":"Tower","BuildingCSUID":"3511234013T20050430","BuildingID":1106129626,"Status":"Active","BuildingNameEN":null,"BuildingNameTC":null,"BaseHeight":6.2999999999999998,"TopHeight":17.399999999999999,"Storeys":null,"StoreysInBasement":null,"DateStamp":1362067200000}},{"type":"Feature","id":101340,"geometry":{"type":"Polygon","coordinates":[[[114.16548865344397,22.448520007474819],[114.16556030169131,22.448649060255519],[114.16552139471546,22.448639547745259],[114.16550951737059,22.448636643802761],[114.16549726134548,22.448633647270658],[114.1654942717222,22.448628234479404],[114.16547657157957,22.448596187506478],[114.16544111764301,22.448527941891246],[114.16548273796856,22.448508746086706],[114.16548865344397,22.448520007474819]]]},"properties":{"OBJECTID":101340,"Shape__Length":42.01689177368975,"Shape__Area":75.046077435114142,"GeoRefNo":"3509934352","DateCreate":1114790400000,"BuildingBlockType":"Tower","BuildingCSUID":"3509934352T20050430","BuildingID":1106127870,"Status":"Active","BuildingNameEN":"Wai On Building","BuildingNameTC":"懷安樓","BaseHeight":3.8999999999999999,"TopHeight":24.399999999999999,"Storeys":6,"StoreysInBasement":null,"DateStamp":1599580800000}},{"type":"Feature","id":101342,"geometry":{"type":"Polygon","coordinates":[[[114.16252066578681,22.448414024900526],[114.16252560004936,22.448517631698682],[114.16241194468188,22.448521540795557],[114.16240874951964,22.448417500687878],[114.16252066578681,22.448414024900526]]]},"properties":{"OBJECTID":101342,"Shape__Length":46.243522880978801,"Shape__Area":133.64641649720195,"GeoRefNo":"3478534337","DateCreate":1114790400000,"BuildingBlockType":"Tower","BuildingCSUID":"3478534337T20050430","BuildingID":1106127989,"Status":"Active","BuildingNameEN":null,"BuildingNameTC":null,"BaseHeight":17.699999999999999,"TopHeight":27.399999999999999,"Storeys":null,"StoreysInBasement":null,"DateStamp":1362067200000}},{"type":"Feature","id":101343,"geometry":{"type":"Polygon","coordinates":[[[114.16583950946277,22.448518034230091],[114.16577554540538,22.448392959921346],[114.16581789508425,22.448373214577085],[114.1658847533954,22.448497646278323],[114.16583950946277,22.448518034230091]]]},"properties":{"OBJECTID":101343,"Shape__Length":40.790179582552163,"Shape__Area":77.24101982174858,"GeoRefNo":"3513434339","DateCreate":1114790400000,"BuildingBlockType":"Tower","BuildingCSUID":"3513434339T20050430","BuildingID":1106127993,"Status":"Active","BuildingNameEN":"Pak Cheong Building","BuildingNameTC":"伯昌樓","BaseHeight":4.0999999999999996,"TopHeight":27.699999999999999,"Storeys":6,"StoreysInBasement":null,"DateStamp":1599580800000}},{"type":"Feature","id":101348,"geometry":{"type":"Polygon","coordinates":[[[114.16616682190929,22.448287709269422],[114.16619581217132,22.448275140795836],[114.16620465749249,22.448289286677255],[114.16620615729234,22.44829168526384],[114.16629002192137,22.448253776327796],[114.16629003270339,22.448253796556706],[114.16630295772219,22.448278109813209],[114.16630254741925,22.448308244401318],[114.16620327691714,22.448354112581374],[114.16619157673057,22.44833280048768],[114.16618882973412,22.448327796804488],[114.16616682190929,22.448287709269422]]]},"properties":{"OBJECTID":101348,"Shape__Length":41.020357420707924,"Shape__Area":83.120605700141184,"GeoRefNo":"3517334318","DateCreate":1114790400000,"BuildingBlockType":"Tower","BuildingCSUID":"3517334318T20050430","BuildingID":1106128171,"Status":"Active","BuildingNameEN":"Po Yan Building","BuildingNameTC":"寶仁樓","BaseHeight":4.5999999999999996,"TopHeight":27.800000000000001,"Storeys":6,"StoreysInBasement":null,"DateStamp":1599580800000}},{"type":"Feature","id":101350,"geometry":{"type":"Polygon","coordinates":[[[114.16615284017648,22.448376840610749],[114.16609362165426,22.448266672492643],[114.16607786638879,22.448236572949792],[114.16611552266396,22.4482198871824],[114.16612611037912,22.448239881304044],[114.16613775892469,22.448235086907239],[114.16616682190929,22.448287709269422],[114.16618882973412,22.448327796804488],[114.16619157673057,22.44833280048768],[114.16620327691714,22.448354112581374],[114.16615287155676,22.44837682643502],[114.16615284017648,22.448376840610749]]]},"properties":{"OBJECTID":101350,"Shape__Length":45.992776694432436,"Shape__Area":95.307957892695498,"GeoRefNo":"3516534321","DateCreate":1114790400000,"BuildingBlockType":"Tower","BuildingCSUID":"3516534321T20050430","BuildingID":1106128150,"Status":"Active","BuildingNameEN":"Po Yan Building","BuildingNameTC":"寶仁樓","BaseHeight":4.0999999999999996,"TopHeight":28.300000000000001,"Storeys":6,"StoreysInBasement":null,"DateStamp":1599580800000}},{"type":"Feature","id":101351,"geometry":{"type":"Polygon","coordinates":[[[114.1650731518608,22.448340958155821],[114.16508265569395,22.448302678676626],[114.16511421891312,22.448309092592595],[114.16520843255792,22.448328325238712],[114.16519981734514,22.448363544369503],[114.1650731518608,22.448340958155821]]]},"properties":{"OBJECTID":101351,"Shape__Length":34.880529876721845,"Shape__Area":55.379032007039491,"GeoRefNo":"3506034322","DateCreate":1114790400000,"BuildingBlockType":"Tower","BuildingCSUID":"3506034322T20050430","BuildingID":1106128162,"Status":"Active","BuildingNameEN":null,"BuildingNameTC":null,"BaseHeight":4.2000000000000002,"TopHeight":15,"Storeys":null,"StoreysInBasement":null,"DateStamp":1362067200000}},{"type":"Feature","id":101368,"geometry":{"type":"Polygon","coordinates":[[[114.16519975021764,22.444329502975105],[114.16524788371136,22.444367065637174],[114.1652425206224,22.444374370890365],[114.16521464237537,22.44440987184943],[114.16521175905356,22.444407727179581],[114.16517513380232,22.444452756889319],[114.16513200751437,22.444422178813536],[114.16519975021764,22.444329502975105]]]},"properties":{"OBJECTID":101368,"Shape__Length":36.938082101289496,"Shape__Area":74.070378120898596,"GeoRefNo":"3506533885","DateCreate":1591804800000,"BuildingBlockType":"Open-sided Structure","BuildingCSUID":"3506533885T20200611","BuildingID":1810199196,"Status":"Active","BuildingNameEN":null,"BuildingNameTC":null,"BaseHeight":null,"TopHeight":null,"Storeys":null,"StoreysInBasement":null,"DateStamp":1591804800000}},{"type":"Feature","id":101369,"geometry":{"type":"Polygon","coordinates":[[[114.16593810103757,22.445456470657383],[114.16590481339234,22.445384261707396],[114.16593856748379,22.445370144965302],[114.16597158933986,22.44544246505545],[114.16593810103757,22.445456470657383]]]},"properties":{"OBJECTID":101369,"Shape__Length":24.989388412369621,"Shape__Area":33.008904862960364,"GeoRefNo":"3514333999","DateCreate":1114790400000,"BuildingBlockType":"Tower","BuildingCSUID":"3514333999T20050430","BuildingID":1106129708,"Status":"Active","BuildingNameEN":null,"BuildingNameTC":null,"BaseHeight":6.0999999999999996,"TopHeight":15,"Storeys":null,"StoreysInBasement":null,"DateStamp":1362067200000}},{"type":"Feature","id":101371,"geometry":{"type":"Polygon","coordinates":[[[114.16545596712302,22.445383954349698],[114.16539988894537,22.445408893764363],[114.16538178484737,22.445374016234318],[114.16543770185731,22.445348953006906],[114.16545596712302,22.445383954349698]]]},"properties":{"OBJECTID":101371,"Shape__Length":21.385410490638026,"Shape__Area":27.484479875108264,"GeoRefNo":"3508933994","DateCreate":1114790400000,"BuildingBlockType":"Tower","BuildingCSUID":"3508933994T20050430","BuildingID":1106129739,"Status":"Active","BuildingNameEN":null,"BuildingNameTC":null,"BaseHeight":7.2999999999999998,"TopHeight":18.100000000000001,"Storeys":null,"StoreysInBasement":null,"DateStamp":1362067200000}},{"type":"Feature","id":101372,"geometry":{"type":"Polygon","coordinates":[[[114.16520640073431,22.445433053650603],[114.16522147934671,22.445416547066312],[114.1652446765933,22.445434474185504],[114.16524076101668,22.445438709187243],[114.1652298408879,22.445450520236275],[114.16521398784413,22.445438707261449],[114.16520640073431,22.445433053650603]]]},"properties":{"OBJECTID":101372,"Shape__Length":10.938613815242228,"Shape__Area":7.3435530516544887,"GeoRefNo":"3506934000","DateCreate":1114790400000,"BuildingBlockType":"Tower","BuildingCSUID":"3506934000T20050430","BuildingID":1106129712,"Status":"Active","BuildingNameEN":null,"BuildingNameTC":null,"BaseHeight":10.300000000000001,"TopHeight":14,"Storeys":null,"StoreysInBasement":null,"DateStamp":1362067200000}},{"type":"Feature","id":101373,"geometry":{"type":"Polygon","coordinates":[[[114.1660214142352,22.445421627107123],[114.16598848095927,22.445349269917745],[114.16601860268368,22.445336672288576],[114.16605162457334,22.445408992362673],[114.1660214142352,22.445421627107123]]]},"properties":{"OBJECTID":101373,"Shape__Length":24.210202062475382,"Shape__Area":29.616692838019723,"GeoRefNo":"3515033996","DateCreate":1114790400000,"BuildingBlockType":"Tower","BuildingCSUID":"3515033996T20050430","BuildingID":1106129734,"Status":"Active","BuildingNameEN":null,"BuildingNameTC":null,"BaseHeight":6,"TopHeight":16.300000000000001,"Storeys":null,"StoreysInBasement":null,"DateStamp":1362067200000}},{"type":"Feature","id":101374,"geometry":{"type":"Polygon","coordinates":[[[114.1655440065919,22.445432039123176],[114.16550881598111,22.445360614885324],[114.16554103183331,22.445347072997063],[114.16557591410442,22.445418592748695],[114.1655440065919,22.445432039123176]]]},"properties":{"OBJECTID":101374,"Shape__Length":24.640812369443637,"Shape__Area":31.509786068278359,"GeoRefNo":"3510233998","DateCreate":1114790400000,"BuildingBlockType":"Tower","BuildingCSUID":"3510233998T20050430","BuildingID":1106129722,"Status":"Active","BuildingNameEN":null,"BuildingNameTC":null,"BaseHeight":6.9000000000000004,"TopHeight":14.4,"Storeys":null,"StoreysInBasement":null,"DateStamp":1362067200000}},{"type":"Feature","id":101377,"geometry":{"type":"Polygon","coordinates":[[[114.16539988894537,22.445408893764363],[114.16545596712302,22.445383954349698],[114.1654725465754,22.445415725016908],[114.16542636959059,22.445438722415947],[114.16542025975698,22.445441765246919],[114.16540791190286,22.445447263919593],[114.16540347637816,22.445438720795842],[114.16539706227921,22.445426366680078],[114.16540669963271,22.445422014683984],[114.16539988894537,22.445408893764363]]]},"properties":{"OBJECTID":101377,"Shape__Length":23.110421930110519,"Shape__Area":28.809345655743162,"GeoRefNo":"3509233998","DateCreate":1114790400000,"BuildingBlockType":"Tower","BuildingCSUID":"3509233998T20050430","BuildingID":1106129714,"Status":"Active","BuildingNameEN":null,"BuildingNameTC":null,"BaseHeight":7.0999999999999996,"TopHeight":17.899999999999999,"Storeys":null,"StoreysInBasement":null,"DateStamp":1362067200000}},{"type":"Feature","id":101379,"geometry":{"type":"Polygon","coordinates":[[[114.165786678361,22.44533840198271],[114.16582235429786,22.445410592969221],[114.16579493845865,22.445422186199071],[114.16575995182039,22.445349633132697],[114.165786678361,22.44533840198271]]]},"properties":{"OBJECTID":101379,"Shape__Length":23.721424885038264,"Shape__Area":26.928658546131807,"GeoRefNo":"3512833995","DateCreate":1114790400000,"BuildingBlockType":"Tower","BuildingCSUID":"3512833995T20050430","BuildingID":1106129731,"Status":"Active","BuildingNameEN":null,"BuildingNameTC":null,"BaseHeight":6.2999999999999998,"TopHeight":15.800000000000001,"Storeys":null,"StoreysInBasement":null,"DateStamp":1362067200000}},{"type":"Feature","id":101380,"geometry":{"type":"Polygon","coordinates":[[[114.16585383393215,22.445397281244951],[114.1658190268881,22.445324808303493],[114.16586454422611,22.445305680838427],[114.16589982199173,22.445377835749557],[114.16585383393215,22.445397281244951]]]},"properties":{"OBJECTID":101380,"Shape__Length":27.908055687227737,"Shape__Area":45.417553681955326,"GeoRefNo":"3513433992","DateCreate":1114790400000,"BuildingBlockType":"Tower","BuildingCSUID":"3513433992T20050430","BuildingID":1106129745,"Status":"Active","BuildingNameEN":null,"BuildingNameTC":null,"BaseHeight":6.2999999999999998,"TopHeight":14.1,"Storeys":null,"StoreysInBasement":null,"DateStamp":1362067200000}},{"type":"Feature","id":101381,"geometry":{"type":"Polygon","coordinates":[[[114.16599202831068,22.445433896980642],[114.1659599716324,22.445361193255636],[114.16598848095927,22.445349269917745],[114.1660214142352,22.445421627107123],[114.16599202831068,22.445433896980642]]]},"properties":{"OBJECTID":101381,"Shape__Length":23.935195451508072,"Shape__Area":28.413459682679701,"GeoRefNo":"3514733996","DateCreate":1114790400000,"BuildingBlockType":"Tower","BuildingCSUID":"3514733996T20050430","BuildingID":1106129721,"Status":"Active","BuildingNameEN":null,"BuildingNameTC":null,"BaseHeight":6,"TopHeight":14.199999999999999,"Storeys":null,"StoreysInBasement":null,"DateStamp":1362067200000}},{"type":"Feature","id":101397,"geometry":{"type":"Polygon","coordinates":[[[114.16843222260242,22.44684777813487],[114.16864304942428,22.446751593524677],[114.1687190593957,22.446895759512351],[114.1684322118107,22.447026828167527],[114.16831889491658,22.447078605549329],[114.16825857269636,22.446966895657553],[114.16828078384881,22.446916868129723],[114.16843222260242,22.44684777813487]]]},"properties":{"OBJECTID":101397,"Shape__Length":125.05080610725079,"Shape__Area":809.18284837541944,"GeoRefNo":"3538834175","DateCreate":1114790400000,"BuildingBlockType":"Tower","BuildingCSUID":"3538834175T20050430","BuildingID":1106128971,"Status":"Active","BuildingNameEN":"Mee Wah Building","BuildingNameTC":"美華大廈","BaseHeight":4.7000000000000002,"TopHeight":41.200000000000003,"Storeys":9,"StoreysInBasement":null,"DateStamp":1599580800000}},{"type":"Feature","id":101403,"geometry":{"type":"Polygon","coordinates":[[[114.16575607967219,22.448355599610721],[114.16567982799809,22.448209376726581],[114.16571915616589,22.448191296775242],[114.1657770094336,22.448307351347239],[114.16574950550932,22.448319919847648],[114.16576575606516,22.448351392084721],[114.16575607967219,22.448355599610721]]]},"properties":{"OBJECTID":101403,"Shape__Length":44.79477896093502,"Shape__Area":66.445729337102804,"GeoRefNo":"3512034311","DateCreate":1114790400000,"BuildingBlockType":"Tower","BuildingCSUID":"3512034311T20050430","BuildingID":1106128169,"Status":"Active","BuildingNameEN":null,"BuildingNameTC":null,"BaseHeight":4.2000000000000002,"TopHeight":29.399999999999999,"Storeys":6,"StoreysInBasement":null,"DateStamp":1599580800000}},{"type":"Feature","id":101404,"geometry":{"type":"Polygon","coordinates":[[[114.16536574099172,22.448391676079446],[114.16534658202139,22.44835252951809],[114.16544663429224,22.448307599280994],[114.16553185662265,22.448269433557297],[114.16555195836759,22.448307396812716],[114.16549004477869,22.448335418024282],[114.16540692329269,22.44837303762241],[114.16536574099172,22.448391676079446]]]},"properties":{"OBJECTID":101404,"Shape__Length":51.942502162774012,"Shape__Area":100.41582111670552,"GeoRefNo":"3508634323","DateCreate":1114790400000,"BuildingBlockType":"Tower","BuildingCSUID":"3508634323T20050430","BuildingID":1106128134,"Status":"Active","BuildingNameEN":"On Fu Building","BuildingNameTC":"安富樓","BaseHeight":4,"TopHeight":25.899999999999999,"Storeys":6,"StoreysInBasement":null,"DateStamp":1599580800000}},{"type":"Feature","id":101406,"geometry":{"type":"Polygon","coordinates":[[[114.16825672128893,22.448342914433397],[114.16820457058338,22.448243382355663],[114.1682506396876,22.448222456201265],[114.16830279236093,22.448321991966981],[114.16831575812463,22.448346737803597],[114.1682927226358,22.448357199085425],[114.16827975677809,22.448332453156674],[114.16825672128893,22.448342914433397]]]},"properties":{"OBJECTID":101406,"Shape__Length":41.171629116373921,"Shape__Area":72.750965835519011,"GeoRefNo":"3538034314","DateCreate":1114790400000,"BuildingBlockType":"Tower","BuildingCSUID":"3538034314T20050430","BuildingID":1106128167,"Status":"Active","BuildingNameEN":null,"BuildingNameTC":null,"BaseHeight":4.7999999999999998,"TopHeight":21.899999999999999,"Storeys":null,"StoreysInBasement":null,"DateStamp":1362067200000}},{"type":"Feature","id":101407,"geometry":{"type":"Polygon","coordinates":[[[114.16831575812463,22.448346737803597],[114.16830279236093,22.448321991966981],[114.1682506396876,22.448222456201265],[114.16829672616814,22.448201522087803],[114.16834888080932,22.448301061451172],[114.16832582784319,22.448311530683664],[114.16833879361,22.44833627651845],[114.16831575812463,22.448346737803597]]]},"properties":{"OBJECTID":101407,"Shape__Length":41.176517319547962,"Shape__Area":72.777824575120505,"GeoRefNo":"3538434312","DateCreate":1114790400000,"BuildingBlockType":"Tower","BuildingCSUID":"3538434312T20050430","BuildingID":1106128175,"Status":"Active","BuildingNameEN":null,"BuildingNameTC":null,"BaseHeight":4.7999999999999998,"TopHeight":22.100000000000001,"Storeys":null,"StoreysInBasement":null,"DateStamp":1362067200000}},{"type":"Feature","id":101410,"geometry":{"type":"Polygon","coordinates":[[[114.16366519208957,22.4470603944755],[114.16374755426298,22.447041193855789],[114.16375900603207,22.447083366544717],[114.16367670988592,22.447102675992504],[114.16366519208957,22.4470603944755]]]},"properties":{"OBJECTID":101410,"Shape__Length":27.123829633105711,"Shape__Area":42.148538774073216,"GeoRefNo":"3491334182","DateCreate":1114790400000,"BuildingBlockType":"Tower","BuildingCSUID":"3491334182T20050430","BuildingID":1106128960,"Status":"Active","BuildingNameEN":null,"BuildingNameTC":null,"BaseHeight":22.199999999999999,"TopHeight":28.800000000000001,"Storeys":null,"StoreysInBasement":null,"DateStamp":1362067200000}},{"type":"Feature","id":101411,"geometry":{"type":"Polygon","coordinates":[[[114.16393378130492,22.447024104723578],[114.16386612752318,22.447006634044566],[114.16388534070528,22.446946186100579],[114.16395296387969,22.446964478179169],[114.16393378130492,22.447024104723578]]]},"properties":{"OBJECTID":101411,"Shape__Length":28.348865394327127,"Shape__Area":50.201187721152174,"GeoRefNo":"3493334171","DateCreate":1114790400000,"BuildingBlockType":"Tower","BuildingCSUID":"3493334171T20050430","BuildingID":1106128996,"Status":"Active","BuildingNameEN":null,"BuildingNameTC":null,"BaseHeight":12.9,"TopHeight":18.100000000000001,"Storeys":null,"StoreysInBasement":null,"DateStamp":1362067200000}},{"type":"Feature","id":101412,"geometry":{"type":"Polygon","coordinates":[[[114.16643083216667,22.447015904785182],[114.16628762099248,22.447081140505819],[114.16625666431088,22.447022079320941],[114.16621659896079,22.447040580086281],[114.16615295669321,22.446919468488137],[114.16633614452745,22.446836009961391],[114.16643083216667,22.447015904785182]]]},"properties":{"OBJECTID":101412,"Shape__Length":86.399560824542505,"Shape__Area":432.44645573662194,"GeoRefNo":"3517534164","DateCreate":1114790400000,"BuildingBlockType":"Tower","BuildingCSUID":"3517534164T20050430","BuildingID":1106128970,"Status":"Active","BuildingNameEN":"Pauline Building","BuildingNameTC":"寶蓮樓","BaseHeight":5.2000000000000002,"TopHeight":32.399999999999999,"Storeys":8,"StoreysInBasement":null,"DateStamp":1599580800000}},{"type":"Feature","id":101413,"geometry":{"type":"Polygon","coordinates":[[[114.16755072334381,22.446980536440609],[114.16736825729181,22.447063744256564],[114.16718243097894,22.446711571063034],[114.16736677502345,22.446628565033016],[114.16755072334381,22.446980536440609]]]},"properties":{"OBJECTID":101413,"Shape__Length":128.77409602925809,"Shape__Area":911.18223046198841,"GeoRefNo":"3528434160","DateCreate":1114790400000,"BuildingBlockType":"Tower","BuildingCSUID":"3528434160T20050430","BuildingID":1106128978,"Status":"Active","BuildingNameEN":"Tai Wan Building","BuildingNameTC":"大運大廈","BaseHeight":4.9000000000000004,"TopHeight":71.299999999999997,"Storeys":20,"StoreysInBasement":null,"DateStamp":1599580800000}},{"type":"Feature","id":101431,"geometry":{"type":"Polygon","coordinates":[[[114.16589982199173,22.445377835749557],[114.16586454422611,22.445305680838427],[114.16589799024445,22.445291625942335],[114.16593290420283,22.445363845931258],[114.16589982199173,22.445377835749557]]]},"properties":{"OBJECTID":101431,"Shape__Length":25.063939382957297,"Shape__Area":32.981155870372682,"GeoRefNo":"3513833990","DateCreate":1114790400000,"BuildingBlockType":"Tower","BuildingCSUID":"3513833990T20050430","BuildingID":1106129759,"Status":"Active","BuildingNameEN":null,"BuildingNameTC":null,"BaseHeight":6.4000000000000004,"TopHeight":14.300000000000001,"Storeys":null,"StoreysInBasement":null,"DateStamp":1362067200000}},{"type":"Feature","id":101433,"geometry":{"type":"Polygon","coordinates":[[[114.16550695234203,22.445349472528559],[114.16547279972121,22.445280050226135],[114.1655013807783,22.445267995315188],[114.16553598991771,22.445337254914861],[114.16550695234203,22.445349472528559]]]},"properties":{"OBJECTID":101433,"Shape__Length":23.421567349555673,"Shape__Area":27.527299946840895,"GeoRefNo":"3509833989","DateCreate":1114790400000,"BuildingBlockType":"Tower","BuildingCSUID":"3509833989T20050430","BuildingID":1106129775,"Status":"Active","BuildingNameEN":null,"BuildingNameTC":null,"BaseHeight":7.5999999999999996,"TopHeight":16.699999999999999,"Storeys":null,"StoreysInBasement":null,"DateStamp":1362067200000}},{"type":"Feature","id":101470,"geometry":{"type":"Polygon","coordinates":[[[114.16617481414247,22.44705312153253],[114.16610642920782,22.447083773037896],[114.16605929947774,22.447104897543614],[114.16598667721989,22.447137448270652],[114.16596747787648,22.447101491510576],[114.16604701550126,22.44706546678799],[114.16609646521832,22.447043073571304],[114.16613786153562,22.447024320071378],[114.16615541682,22.447016564075646],[114.16617481414247,22.44705312153253]]]},"properties":{"OBJECTID":101470,"Shape__Length":51.969292868141565,"Shape__Area":96.516523435919765,"GeoRefNo":"3514934185","DateCreate":1114790400000,"BuildingBlockType":"Tower","BuildingCSUID":"3514934185T20050430","BuildingID":1106128951,"Status":"Active","BuildingNameEN":"PO HEUNG BUILDING","BuildingNameTC":"寶香樓","BaseHeight":5.0999999999999996,"TopHeight":31.399999999999999,"Storeys":7,"StoreysInBasement":null,"DateStamp":1599580800000}},{"type":"Feature","id":101472,"geometry":{"type":"Polygon","coordinates":[[[114.16374755426298,22.447041193855789],[114.16366519208957,22.4470603944755],[114.16365494650358,22.447022754713856],[114.16364135518319,22.447025706561092],[114.16363206140062,22.446990794072267],[114.16369282050441,22.446976628626768],[114.1636992797403,22.446975122692621],[114.16370538809315,22.4469992344975],[114.16373430976462,22.446992418856549],[114.16373844043888,22.447007630898522],[114.16374755426298,22.447041193855789]]]},"properties":{"OBJECTID":101472,"Shape__Length":36.977752099340833,"Shape__Area":69.958525002135787,"GeoRefNo":"3491134176","DateCreate":1114790400000,"BuildingBlockType":"Tower","BuildingCSUID":"3491134176T20050430","BuildingID":1106128981,"Status":"Active","BuildingNameEN":null,"BuildingNameTC":null,"BaseHeight":22.300000000000001,"TopHeight":28.899999999999999,"Storeys":null,"StoreysInBasement":null,"DateStamp":1362067200000}},{"type":"Feature","id":101495,"geometry":{"type":"Polygon","coordinates":[[[114.16491829568399,22.446262011843167],[114.16497063050892,22.446317000774208],[114.16491359193859,22.446364823836866],[114.16486115496043,22.446310481279891],[114.16491829568399,22.446262011843167]]]},"properties":{"OBJECTID":101495,"Shape__Length":32.083469194300804,"Shape__Area":64.323582212699293,"GeoRefNo":"3503834096","DateCreate":1114790400000,"BuildingBlockType":"Tower","BuildingCSUID":"3503834096T20050430","BuildingID":1106129257,"Status":"Active","BuildingNameEN":null,"BuildingNameTC":null,"BaseHeight":8.3000000000000007,"TopHeight":17.100000000000001,"Storeys":null,"StoreysInBasement":null,"DateStamp":1362067200000}},{"type":"Feature","id":101497,"geometry":{"type":"Polygon","coordinates":[[[114.16764029989446,22.446262305675624],[114.16767108524368,22.446273956711664],[114.16764379246209,22.4463343688913],[114.16761178293297,22.446324334231285],[114.16764029989446,22.446262305675624]]]},"properties":{"OBJECTID":101497,"Shape__Length":21.624322255529776,"Shape__Area":25.35917999513045,"GeoRefNo":"3531834096","DateCreate":1114790400000,"BuildingBlockType":"Tower","BuildingCSUID":"3531834096T20050430","BuildingID":1106129267,"Status":"Active","BuildingNameEN":"LOK SIN TONG CHU TING CHEONG HOME FOR THE AGED","BuildingNameTC":"樂善堂朱定昌頤養院","BaseHeight":5.2000000000000002,"TopHeight":7.7999999999999998,"Storeys":null,"StoreysInBasement":null,"DateStamp":1362067200000}},{"type":"Feature","id":101500,"geometry":{"type":"Polygon","coordinates":[[[114.16389611971,22.446365935225135],[114.1639056945249,22.446408622944023],[114.1638592570126,22.446417758035178],[114.16384942962783,22.446375061262831],[114.16389611971,22.446365935225135]]]},"properties":{"OBJECTID":101500,"Shape__Length":19.460973533110774,"Shape__Area":23.669395999863461,"GeoRefNo":"3493034107","DateCreate":1114790400000,"BuildingBlockType":"Tower","BuildingCSUID":"3493034107T20050430","BuildingID":1106129238,"Status":"Active","BuildingNameEN":null,"BuildingNameTC":null,"BaseHeight":21.300000000000001,"TopHeight":26.199999999999999,"Storeys":null,"StoreysInBasement":null,"DateStamp":1362067200000}},{"type":"Feature","id":101504,"geometry":{"type":"Polygon","coordinates":[[[114.16785480519563,22.446357190072565],[114.16790745796477,22.446378044310748],[114.16788935672417,22.446418626164505],[114.16783646096914,22.446399379327612],[114.16785480519563,22.446357190072565]]]},"properties":{"OBJECTID":101504,"Shape__Length":21.642405735309826,"Shape__Area":29.060757501859982,"GeoRefNo":"3534034106","DateCreate":1114790400000,"BuildingBlockType":"Tower","BuildingCSUID":"3534034106T20050430","BuildingID":1106129237,"Status":"Active","BuildingNameEN":"LOK SIN TONG CHU TING CHEONG HOME FOR THE AGED","BuildingNameTC":"樂善堂朱定昌頤養院","BaseHeight":5.2999999999999998,"TopHeight":10.199999999999999,"Storeys":null,"StoreysInBasement":null,"DateStamp":1362067200000}},{"type":"Feature","id":101536,"geometry":{"type":"Polygon","coordinates":[[[114.16350876076389,22.443079967525129],[114.16352414663201,22.443017256697662],[114.16352740518678,22.443003975241457],[114.1635993787724,22.443019612880512],[114.16358795072303,22.443065148743504],[114.16358077303266,22.443093748784559],[114.16352785931969,22.443083622462495],[114.16350876076389,22.443079967525129]]]},"properties":{"OBJECTID":101536,"Shape__Length":32.237990861869626,"Shape__Area":64.724193689121421,"GeoRefNo":"3489733737","DateCreate":1114790400000,"BuildingBlockType":"Tower","BuildingCSUID":"3489733737T20050430","BuildingID":1106130826,"Status":"Active","BuildingNameEN":null,"BuildingNameTC":null,"BaseHeight":22,"TopHeight":30.699999999999999,"Storeys":null,"StoreysInBasement":null,"DateStamp":1396540800000}},{"type":"Feature","id":101537,"geometry":{"type":"Polygon","coordinates":[[[114.16373001543847,22.442915133930818],[114.16370737936566,22.44292886759677],[114.1636741291653,22.442948937607767],[114.16365080603299,22.442963052565883],[114.16364565583794,22.442948989466188],[114.16364878426964,22.442945296264948],[114.16363753545139,22.442920254430451],[114.16367350522033,22.442898283556932],[114.16368279100816,22.442892611651761],[114.16370508666928,22.442878993190138],[114.16373001543847,22.442915133930818]]]},"properties":{"OBJECTID":101537,"Shape__Length":27.973581398575476,"Shape__Area":42.243065137220121,"GeoRefNo":"3490933722","DateCreate":1210780800000,"BuildingBlockType":"Open-sided Structure","BuildingCSUID":"3490933722T20080515","BuildingID":1106130915,"Status":"Active","BuildingNameEN":null,"BuildingNameTC":null,"BaseHeight":null,"TopHeight":null,"Storeys":null,"StoreysInBasement":null,"DateStamp":1396972800000}},{"type":"Feature","id":102778,"geometry":{"type":"Polygon","coordinates":[[[114.16993851803696,22.447818174704803],[114.16988558318565,22.447841917463695],[114.16981507833717,22.447706093980468],[114.16986801305177,22.447682351244286],[114.16993851803696,22.447818174704803]]]},"properties":{"OBJECTID":102778,"Shape__Length":45.499989017870369,"Shape__Area":101.03492265256141,"GeoRefNo":"3554834259","DateCreate":1453651200000,"BuildingBlockType":"Temporary Structure","BuildingCSUID":"3554834259T20160125","BuildingID":1810148795,"Status":"Active","BuildingNameEN":null,"BuildingNameTC":null,"BaseHeight":null,"TopHeight":null,"Storeys":null,"StoreysInBasement":null,"DateStamp":1536163200000}}]}