{"type":"FeatureCollection","features":[{"type":"Feature","id":244605,"geometry":{"type":"Polygon","coordinates":[[[114.16315123742454,22.449351304881905],[114.16309610713377,22.449328317702687],[114.1631243540787,22.449272593199858],[114.16317850313963,22.449295571256084],[114.16315123742454,22.449351304881905]]]},"properties":{"OBJECTID":244605,"Shape__Length":25.947984178385941,"Shape__Area":41.979965999404449,"GeoRefNo":"3485434430","DateCreate":1114790400000,"BuildingBlockType":"Tower","BuildingCSUID":"3485434430T20050430","BuildingID":1106127315,"Status":"Active","BuildingNameEN":"Water Works Depot","BuildingNameTC":null,"BaseHeight":4.5,"TopHeight":10.9,"Storeys":null,"StoreysInBasement":null,"DateStamp":1421424000000}},{"type":"Feature","id":244606,"geometry":{"type":"Polygon","coordinates":[[[114.16487037348192,22.449227047070352],[114.16488262992256,22.449179186955384],[114.16488821942913,22.449180377040808],[114.16497390221662,22.449198619994636],[114.16499879775594,22.449203920529641],[114.16498717466902,22.449250679346118],[114.16487037348192,22.449227047070352]]]},"properties":{"OBJECTID":244606,"Shape__Length":35.333855322417818,"Shape__Area":66.106408076951581,"GeoRefNo":"3504134419","DateCreate":1114790400000,"BuildingBlockType":"Tower","BuildingCSUID":"3504134419T20050430","BuildingID":1106127375,"Status":"Active","BuildingNameEN":"Tsing Yuen Building","BuildingNameTC":"靖遠樓","BaseHeight":4.2999999999999998,"TopHeight":27.5,"Storeys":6,"StoreysInBasement":null,"DateStamp":1599580800000}},{"type":"Feature","id":244607,"geometry":{"type":"Polygon","coordinates":[[[114.16528840363443,22.449057702407018],[114.16522872442458,22.448942984316894],[114.16547238468438,22.448831620086107],[114.16554505113089,22.448968779665805],[114.16538194051567,22.44904340484068],[114.16537425709967,22.449029750254532],[114.16536402683759,22.449034653061961],[114.16537023359795,22.44904806372152],[114.16529991575651,22.449080219574068],[114.16528840363443,22.449057702407018]]]},"properties":{"OBJECTID":244607,"Shape__Length":93.038269728478312,"Shape__Area":471.72039350558373,"GeoRefNo":"3508734384","DateCreate":1114790400000,"BuildingBlockType":"Tower","BuildingCSUID":"3508734384T20050430","BuildingID":1106127497,"Status":"Active","BuildingNameEN":"Tse Chong Building","BuildingNameTC":"子莊樓","BaseHeight":3.7999999999999998,"TopHeight":34.799999999999997,"Storeys":10,"StoreysInBasement":null,"DateStamp":1599580800000}},{"type":"Feature","id":244608,"geometry":{"type":"Polygon","coordinates":[[[114.16444533931497,22.449120325555185],[114.16444981342786,22.449101961665846],[114.16438316992425,22.449088591470609],[114.16439813602339,22.449032025885675],[114.16457273972888,22.449070364479475],[114.16455862841683,22.449129169696999],[114.16455511997395,22.449144358646901],[114.16444533931497,22.449120325555185]]]},"properties":{"OBJECTID":244608,"Shape__Length":54.022217029691475,"Shape__Area":141.6509571960045,"GeoRefNo":"3499734406","DateCreate":1114790400000,"BuildingBlockType":"Tower","BuildingCSUID":"3499734406T20050430","BuildingID":1106127445,"Status":"Active","BuildingNameEN":"Wah Ga Mansion","BuildingNameTC":"華基樓","BaseHeight":3.5,"TopHeight":27.5,"Storeys":6,"StoreysInBasement":null,"DateStamp":1599580800000}},{"type":"Feature","id":244609,"geometry":{"type":"Polygon","coordinates":[[[114.16489835550971,22.449058294505171],[114.16491690521839,22.448982740086915],[114.16504693241811,22.449010220900341],[114.16502825525212,22.449085380241794],[114.16489835550971,22.449058294505171]]]},"properties":{"OBJECTID":244609,"Shape__Length":44.552960561851819,"Shape__Area":117.42182726349446,"GeoRefNo":"3504634400","DateCreate":1114790400000,"BuildingBlockType":"Tower","BuildingCSUID":"3504634400T20050430","BuildingID":1106127494,"Status":"Active","BuildingNameEN":"Wonderful Building","BuildingNameTC":"彩威閣","BaseHeight":4.2000000000000002,"TopHeight":27.399999999999999,"Storeys":6,"StoreysInBasement":null,"DateStamp":1599580800000}},{"type":"Feature","id":244807,"geometry":{"type":"Polygon","coordinates":[[[114.1641477648442,22.449483597155364],[114.16425869390586,22.449507080583651],[114.16422575869905,22.449642434788387],[114.16411482546226,22.449618871688948],[114.1641477648442,22.449483597155364]]]},"properties":{"OBJECTID":244807,"Shape__Length":54.149791300251209,"Shape__Area":179.92955683090938,"GeoRefNo":"3496134460","DateCreate":1114790400000,"BuildingBlockType":"Tower","BuildingCSUID":"3496134460T20050430","BuildingID":1106127148,"Status":"Active","BuildingNameEN":"Yan Hing Street Refuse Collection Point","BuildingNameTC":"仁興街垃圾站","BaseHeight":4.5,"TopHeight":12.300000000000001,"Storeys":null,"StoreysInBasement":null,"DateStamp":1421424000000}},{"type":"Feature","id":244808,"geometry":{"type":"Polygon","coordinates":[[[114.16481771266403,22.449391547609807],[114.16483857330842,22.449304224713014],[114.16496750467252,22.449331446243779],[114.16494661538066,22.449418390959618],[114.16490575514143,22.449409882072946],[114.16483840007459,22.449395855680436],[114.16481771266403,22.449391547609807]]]},"properties":{"OBJECTID":244808,"Shape__Length":46.977254000754925,"Shape__Area":134.47213462257426,"GeoRefNo":"3503734436","DateCreate":1114790400000,"BuildingBlockType":"Tower","BuildingCSUID":"3503734436T20050430","BuildingID":1106127281,"Status":"Active","BuildingNameEN":"Ngan Fai Building","BuildingNameTC":"銀輝樓","BaseHeight":4.2000000000000002,"TopHeight":27.100000000000001,"Storeys":6,"StoreysInBasement":null,"DateStamp":1599580800000}},{"type":"Feature","id":244809,"geometry":{"type":"Polygon","coordinates":[[[114.16461978453333,22.449346763028057],[114.16463985850453,22.449260253921121],[114.16481286653767,22.44929688474646],[114.1647916617561,22.449382157792527],[114.16461978453333,22.449346763028057]]]},"properties":{"OBJECTID":244809,"Shape__Length":55.877270142856922,"Shape__Area":177.29900851738881,"GeoRefNo":"3501134429","DateCreate":1114790400000,"BuildingBlockType":"Tower","BuildingCSUID":"3501134429T20050430","BuildingID":1106127300,"Status":"Active","BuildingNameEN":"Wing Hang Building","BuildingNameTC":"永恆樓","BaseHeight":3.5,"TopHeight":27.100000000000001,"Storeys":6,"StoreysInBasement":null,"DateStamp":1599580800000}},{"type":"Feature","id":244810,"geometry":{"type":"Polygon","coordinates":[[[114.16461011206562,22.449387010468122],[114.16474878382436,22.449416307205318],[114.16478257199164,22.449422974204595],[114.1647707928723,22.449475530541203],[114.16475724071977,22.449472441113571],[114.16474834833546,22.449512282700976],[114.16459172074173,22.449472988255732],[114.16461011206562,22.449387010468122]]]},"properties":{"OBJECTID":244810,"Shape__Length":56.486888554135497,"Shape__Area":176.3123926534962,"GeoRefNo":"3501034443","DateCreate":1114790400000,"BuildingBlockType":"Tower","BuildingCSUID":"3501034443T20050430","BuildingID":1106127252,"Status":"Active","BuildingNameEN":"Fu Shin Building","BuildingNameTC":"富善大廈","BaseHeight":3.5,"TopHeight":52,"Storeys":12,"StoreysInBasement":null,"DateStamp":1599580800000}},{"type":"Feature","id":244811,"geometry":{"type":"Polygon","coordinates":[[[114.16389803079967,22.449222267175205],[114.1640205817212,22.449245951904235],[114.16397532315159,22.449433134355498],[114.16380518780421,22.449397450430126],[114.16382529580576,22.449315094351235],[114.16384579325515,22.449223373723839],[114.16384854671711,22.449211443366622],[114.1638755896326,22.44921759663179],[114.16389803079967,22.449222267175205]]]},"properties":{"OBJECTID":244811,"Shape__Length":78.391864922171621,"Shape__Area":379.74028560042461,"GeoRefNo":"3493934432","DateCreate":1114790400000,"BuildingBlockType":"Tower","BuildingCSUID":"3493934432T20050430","BuildingID":1106127277,"Status":"Active","BuildingNameEN":"Cheong Hing Building","BuildingNameTC":"昌慶大廈","BaseHeight":4.7999999999999998,"TopHeight":43.5,"Storeys":12,"StoreysInBasement":null,"DateStamp":1599580800000}},{"type":"Feature","id":244812,"geometry":{"type":"Polygon","coordinates":[[[114.16434036958931,22.449368992661022],[114.16434445172868,22.449350579890087],[114.16431823147208,22.449345060253414],[114.16432394581983,22.449323495982586],[114.16450278558321,22.449362078801382],[114.16449282577635,22.449402688333382],[114.16445853466659,22.449395109340038],[114.16435555634276,22.449372349190238],[114.16434036958931,22.449368992661022]]]},"properties":{"OBJECTID":244812,"Shape__Length":46.949112499425844,"Shape__Area":80.579171846577054,"GeoRefNo":"3499034437","DateCreate":1114790400000,"BuildingBlockType":"Tower","BuildingCSUID":"3499034437T20050430","BuildingID":1106127290,"Status":"Active","BuildingNameEN":"Cheung Fat Building","BuildingNameTC":"昌發樓","BaseHeight":3.5,"TopHeight":27.199999999999999,"Storeys":6,"StoreysInBasement":null,"DateStamp":1599580800000}},{"type":"Feature","id":244813,"geometry":{"type":"Polygon","coordinates":[[[114.16365659697529,22.449528405799089],[114.16359177646903,22.449514950269506],[114.1635819651934,22.449512913639396],[114.16356274093421,22.449483577817841],[114.16354887100402,22.449462412643825],[114.16356873653129,22.449377537082203],[114.16361341948351,22.449386514668824],[114.16368799684523,22.449401498576044],[114.16368786447659,22.449402033619382],[114.16367294821639,22.44946231968505],[114.16365659697529,22.449528405799089]]]},"properties":{"OBJECTID":244813,"Shape__Length":51.017708692199534,"Shape__Area":168.68624248526757,"GeoRefNo":"3490434449","DateCreate":1114790400000,"BuildingBlockType":"Tower","BuildingCSUID":"3490434449T20050430","BuildingID":1106127242,"Status":"Active","BuildingNameEN":"Hei Tai Building","BuildingNameTC":"熙泰樓","BaseHeight":4.4000000000000004,"TopHeight":27.699999999999999,"Storeys":6,"StoreysInBasement":null,"DateStamp":1599580800000}},{"type":"Feature","id":244814,"geometry":{"type":"Polygon","coordinates":[[[114.16389803079967,22.449222267175205],[114.1639129002514,22.449162559031954],[114.16389918831374,22.449159720204658],[114.16390270402724,22.449144426606761],[114.16391637965408,22.449146999845311],[114.16392593296898,22.449109244298558],[114.1639107876675,22.449105594784367],[114.16391448073219,22.449090749020328],[114.16392964544289,22.449094606236066],[114.16394464821114,22.449026954825417],[114.16406850987975,22.44904987230591],[114.16405309201826,22.44911149397328],[114.1640205817212,22.449245951904235],[114.16389803079967,22.449222267175205]]]},"properties":{"OBJECTID":244814,"Shape__Length":76.411730754199738,"Shape__Area":291.01384543111499,"GeoRefNo":"3494334412","DateCreate":1114790400000,"BuildingBlockType":"Tower","BuildingCSUID":"3494334412T20050430","BuildingID":1106127379,"Status":"Active","BuildingNameEN":"Mei Cheong Building","BuildingNameTC":"美昌大廈","BaseHeight":5.2999999999999998,"TopHeight":42.899999999999999,"Storeys":11,"StoreysInBasement":null,"DateStamp":1599580800000}},{"type":"Feature","id":244815,"geometry":{"type":"Polygon","coordinates":[[[114.16416920501143,22.449222198384856],[114.16419801060476,22.449107504898734],[114.16419845434162,22.449105835745097],[114.1643013759078,22.449129610472156],[114.16429492291702,22.449154615286741],[114.16431916124077,22.449160595326532],[114.16430624531903,22.449213124451333],[114.16428176400899,22.449208291257865],[114.16427282300475,22.449244078234866],[114.16416920501143,22.449222198384856]]]},"properties":{"OBJECTID":244815,"Shape__Length":53.126810375843348,"Shape__Area":158.85277330826631,"GeoRefNo":"3496534414","DateCreate":1114790400000,"BuildingBlockType":"Tower","BuildingCSUID":"3496534414T20050430","BuildingID":1106127380,"Status":"Active","BuildingNameEN":"Tak Kay Building","BuildingNameTC":"德基大廈","BaseHeight":4.4000000000000004,"TopHeight":46.200000000000003,"Storeys":11,"StoreysInBasement":null,"DateStamp":1599580800000}},{"type":"Feature","id":244816,"geometry":{"type":"Polygon","coordinates":[[[114.16465823149554,22.449181075240411],[114.16466842563177,22.449138570584491],[114.16470746659463,22.449146578295085],[114.16478097509626,22.449161655624383],[114.16480332594288,22.449166240065335],[114.16479790298074,22.449189475008566],[114.16483612096096,22.449198047752159],[114.16483166991685,22.449216451478001],[114.16478729269214,22.449207228081207],[114.16465823149554,22.449181075240411]]]},"properties":{"OBJECTID":244816,"Shape__Length":46.088179760812324,"Shape__Area":76.95549096923051,"GeoRefNo":"3501434414","DateCreate":1114790400000,"BuildingBlockType":"Tower","BuildingCSUID":"3501434414T20050430","BuildingID":1106127395,"Status":"Active","BuildingNameEN":"Ka On Building","BuildingNameTC":"家安樓","BaseHeight":3.8999999999999999,"TopHeight":27.600000000000001,"Storeys":6,"StoreysInBasement":null,"DateStamp":1599580800000}},{"type":"Feature","id":244817,"geometry":{"type":"Polygon","coordinates":[[[114.16419845434162,22.449105835745097],[114.16421167450773,22.449056104646683],[114.16422652429505,22.448997308547174],[114.16437128429689,22.449027120279354],[114.16436038982852,22.44907173889127],[114.16434342156546,22.449137903685749],[114.1643013759078,22.449129610472156],[114.16419845434162,22.449105835745097]]]},"properties":{"OBJECTID":244817,"Shape__Length":55.561976121508501,"Shape__Area":191.74748384554044,"GeoRefNo":"3496934402","DateCreate":1114790400000,"BuildingBlockType":"Tower","BuildingCSUID":"3496934402T20050430","BuildingID":1106127452,"Status":"Active","BuildingNameEN":"Leader Building","BuildingNameTC":"利達大廈","BaseHeight":4.2999999999999998,"TopHeight":44.100000000000001,"Storeys":10,"StoreysInBasement":null,"DateStamp":1599580800000}},{"type":"Feature","id":244818,"geometry":{"type":"Polygon","coordinates":[[[114.16467668782037,22.449104121304796],[114.16469690773985,22.449019813551942],[114.16487073308433,22.44905664358944],[114.16485011553831,22.449139766268242],[114.16467668782037,22.449104121304796]]]},"properties":{"OBJECTID":244818,"Shape__Length":55.645560844775936,"Shape__Area":174.11389505666696,"GeoRefNo":"3501734403","DateCreate":1114790400000,"BuildingBlockType":"Tower","BuildingCSUID":"3501734403T20050430","BuildingID":1106127448,"Status":"Active","BuildingNameEN":"Pak Cheung Court","BuildingNameTC":"伯祥閣","BaseHeight":3.6000000000000001,"TopHeight":24.600000000000001,"Storeys":6,"StoreysInBasement":null,"DateStamp":1599580800000}},{"type":"Feature","id":244819,"geometry":{"type":"Polygon","coordinates":[[[114.16363343472864,22.449108118917668],[114.16364085973785,22.449078833775612],[114.1636437682786,22.449067790314853],[114.16380362216528,22.449101955924188],[114.16379423388108,22.449140686765659],[114.16363343472864,22.449108118917668]]]},"properties":{"OBJECTID":244819,"Shape__Length":42.81102425394846,"Shape__Area":76.008625151329198,"GeoRefNo":"3490934406","DateCreate":1114790400000,"BuildingBlockType":"Tower","BuildingCSUID":"3490934406T20050430","BuildingID":1106127447,"Status":"Active","BuildingNameEN":"Cranbtown Building","BuildingNameTC":"康城樓","BaseHeight":5.7000000000000002,"TopHeight":26.399999999999999,"Storeys":6,"StoreysInBasement":null,"DateStamp":1599580800000}},{"type":"Feature","id":244820,"geometry":{"type":"Polygon","coordinates":[[[114.17097197885745,22.44907649837603],[114.17095929712939,22.449076545143807],[114.17095947067402,22.449117186962003],[114.17072824163539,22.449114626548685],[114.17072769552802,22.448986696925964],[114.17072715009519,22.448858916032776],[114.17095836052881,22.44885720206387],[114.17095853407315,22.448897839097025],[114.17097201746328,22.448897789378403],[114.17097197885745,22.44907649837603]]]},"properties":{"OBJECTID":244820,"Shape__Length":107.40339350473138,"Shape__Area":706.21956928428722,"GeoRefNo":"3564734393","DateCreate":1248710400000,"BuildingBlockType":"Tower","BuildingCSUID":"3564734393T20090728","BuildingID":1106127466,"Status":"Active","BuildingNameEN":"Mrs. Elisa Li Natatorium","BuildingNameTC":"李張綺雯游泳館","BaseHeight":5.7999999999999998,"TopHeight":15,"Storeys":2,"StoreysInBasement":null,"DateStamp":1599580800000}},{"type":"Feature","id":244821,"geometry":{"type":"Polygon","coordinates":[[[114.16327628227992,22.449018227293557],[114.16336238458413,22.448932463290301],[114.16337265276954,22.448937909508775],[114.16337452805132,22.448934857373047],[114.16337835566316,22.448935706554622],[114.16338026051578,22.44892823853117],[114.16355451406025,22.448966704623842],[114.16354535906449,22.449003448771649],[114.16353966392319,22.449026232128059],[114.16352766132735,22.44907457113775],[114.16348742276642,22.449065808277666],[114.16337215710794,22.449040576654745],[114.16330405662482,22.4490258422944],[114.16327628227992,22.449018227293557]]]},"properties":{"OBJECTID":244821,"Shape__Length":73.168521814094419,"Shape__Area":282.91451899278803,"GeoRefNo":"3488634394","DateCreate":1114790400000,"BuildingBlockType":"Tower","BuildingCSUID":"3488634394T20050430","BuildingID":1106127503,"Status":"Active","BuildingNameEN":"The Church of Christ in China Tai Po Church","BuildingNameTC":"中華基督教會大埔堂","BaseHeight":6,"TopHeight":17.100000000000001,"Storeys":null,"StoreysInBasement":null,"DateStamp":1421424000000}},{"type":"Feature","id":244823,"geometry":{"type":"Polygon","coordinates":[[[114.16359716879882,22.448800565905437],[114.16356204269157,22.448938918096644],[114.16349300294047,22.448924762138933],[114.16349316155052,22.448924115029975],[114.16352850496531,22.448785587771017],[114.16359716879882,22.448800565905437]]]},"properties":{"OBJECTID":244823,"Shape__Length":46.117749644434269,"Shape__Area":114.77174390407683,"GeoRefNo":"3489834378","DateCreate":1114790400000,"BuildingBlockType":"Tower","BuildingCSUID":"3489834378T20050430","BuildingID":1106127593,"Status":"Active","BuildingNameEN":null,"BuildingNameTC":"中華基督教會大埔堂幼稚園","BaseHeight":6.2999999999999998,"TopHeight":14.199999999999999,"Storeys":2,"StoreysInBasement":null,"DateStamp":1599580800000}},{"type":"Feature","id":244824,"geometry":{"type":"Polygon","coordinates":[[[114.16469690773985,22.449019813551942],[114.16473357897408,22.448866911549633],[114.16489336763372,22.448900841825807],[114.1648674871771,22.449011833171639],[114.16488077687801,22.449016150711962],[114.16487073308433,22.44905664358944],[114.16469690773985,22.449019813551942]]]},"properties":{"OBJECTID":244824,"Shape__Length":71.197313489767282,"Shape__Area":300.08798222152296,"GeoRefNo":"3502034391","DateCreate":1114790400000,"BuildingBlockType":"Tower","BuildingCSUID":"3502034391T20050430","BuildingID":1106127515,"Status":"Active","BuildingNameEN":"Wing Fu Building","BuildingNameTC":"永富大廈","BaseHeight":3.6000000000000001,"TopHeight":58.700000000000003,"Storeys":16,"StoreysInBasement":null,"DateStamp":1599580800000}},{"type":"Feature","id":244825,"geometry":{"type":"Polygon","coordinates":[[[114.16394464821114,22.449026954825417],[114.16392217923799,22.449021787611397],[114.16389559073667,22.44901658014938],[114.16393189196818,22.448859083245559],[114.16398191327394,22.448869824443172],[114.16403891955638,22.448881478254851],[114.16406137041049,22.448885923015254],[114.16408550883087,22.448921396532825],[114.16409689334239,22.448936929806315],[114.16407804919122,22.449011745597083],[114.16406850987975,22.44904987230591],[114.16394464821114,22.449026954825417]]]},"properties":{"OBJECTID":244825,"Shape__Length":69.244015980908841,"Shape__Area":313.39793563425349,"GeoRefNo":"3494834392","DateCreate":1114790400000,"BuildingBlockType":"Tower","BuildingCSUID":"3494834392T20050430","BuildingID":1106127522,"Status":"Active","BuildingNameEN":"Wan Kee Building","BuildingNameTC":"宏基大廈","BaseHeight":5.7999999999999998,"TopHeight":48.200000000000003,"Storeys":22,"StoreysInBasement":null,"DateStamp":1599580800000}},{"type":"Feature","id":244826,"geometry":{"type":"Polygon","coordinates":[[[114.16580190672732,22.448824093498803],[114.16574058534718,22.4487096554262],[114.16578245969873,22.44869087306661],[114.16579746684187,22.448720492978172],[114.16582883937676,22.448782413488381],[114.16584098972014,22.448806394677785],[114.16580190672732,22.448824093498803]]]},"properties":{"OBJECTID":244826,"Shape__Length":37.558496424493995,"Shape__Area":65.51105881186389,"GeoRefNo":"3512634365","DateCreate":1114790400000,"BuildingBlockType":"Tower","BuildingCSUID":"3512634365T20050430","BuildingID":1106127690,"Status":"Active","BuildingNameEN":"Hoi Lin Building","BuildingNameTC":"開連樓","BaseHeight":4,"TopHeight":27.300000000000001,"Storeys":6,"StoreysInBasement":null,"DateStamp":1599580800000}},{"type":"Feature","id":244827,"geometry":{"type":"Polygon","coordinates":[[[114.16580190672732,22.448824093498803],[114.16580472361233,22.448829791905595],[114.16564332321062,22.448903424113382],[114.16559677610323,22.448817017529372],[114.16561521914059,22.448766556656093],[114.16574058534718,22.4487096554262],[114.16580190672732,22.448824093498803]]]},"properties":{"OBJECTID":244827,"Shape__Length":64.321670117573291,"Shape__Area":266.95379949356033,"GeoRefNo":"3511334371","DateCreate":1114790400000,"BuildingBlockType":"Tower","BuildingCSUID":"3511334371T20050430","BuildingID":1106127615,"Status":"Active","BuildingNameEN":"On Dick Building","BuildingNameTC":"安迪大廈","BaseHeight":3.8999999999999999,"TopHeight":40.600000000000001,"Storeys":11,"StoreysInBasement":null,"DateStamp":1599580800000}},{"type":"Feature","id":245026,"geometry":{"type":"Polygon","coordinates":[[[114.16414338310314,22.449323364485174],[114.16416920501143,22.449222198384856],[114.16427282300475,22.449244078234866],[114.16431436345538,22.449253048700353],[114.1642885416466,22.449354214823551],[114.16426714965003,22.449349697933869],[114.16414338310314,22.449323364485174]]]},"properties":{"OBJECTID":245026,"Shape__Length":53.682141509970961,"Shape__Area":176.61072898435808,"GeoRefNo":"3496234426","DateCreate":1114790400000,"BuildingBlockType":"Tower","BuildingCSUID":"3496234426T20050430","BuildingID":1106127312,"Status":"Active","BuildingNameEN":"Kam Fai Building","BuildingNameTC":"錦魁樓","BaseHeight":4.2999999999999998,"TopHeight":26.300000000000001,"Storeys":6,"StoreysInBasement":null,"DateStamp":1599580800000}},{"type":"Feature","id":245028,"geometry":{"type":"Polygon","coordinates":[[[114.16483857330842,22.449304224713014],[114.16484840054055,22.449263088132238],[114.16487283330017,22.449267977405544],[114.16494805240291,22.449283029500101],[114.16497784415461,22.449288991156912],[114.16496750467252,22.449331446243779],[114.16483857330842,22.449304224713014]]]},"properties":{"OBJECTID":245028,"Shape__Length":36.725373839565243,"Shape__Area":64.59925615793405,"GeoRefNo":"3503934429","DateCreate":1114790400000,"BuildingBlockType":"Tower","BuildingCSUID":"3503934429T20050430","BuildingID":1106127324,"Status":"Active","BuildingNameEN":"Wai On Building","BuildingNameTC":"惠安樓","BaseHeight":4.2000000000000002,"TopHeight":28.199999999999999,"Storeys":6,"StoreysInBasement":null,"DateStamp":1599580800000}},{"type":"Feature","id":245030,"geometry":{"type":"Polygon","coordinates":[[[114.16436003130879,22.449179643891071],[114.16437762112662,22.4491059385368],[114.1644429591918,22.449119819938112],[114.16444533931497,22.449120325555185],[114.16455511997395,22.449144358646901],[114.16453801762079,22.449218344362524],[114.16436003130879,22.449179643891071]]]},"properties":{"OBJECTID":245030,"Shape__Length":54.315127817762395,"Shape__Area":157.50944768750537,"GeoRefNo":"3499534414","DateCreate":1114790400000,"BuildingBlockType":"Tower","BuildingCSUID":"3499534414T20050430","BuildingID":1106127392,"Status":"Active","BuildingNameEN":"Sun Hing Building","BuildingNameTC":"新興樓","BaseHeight":4,"TopHeight":25.600000000000001,"Storeys":6,"StoreysInBasement":null,"DateStamp":1599580800000}},{"type":"Feature","id":245031,"geometry":{"type":"Polygon","coordinates":[[[114.16435783453881,22.449261278265737],[114.16436236607632,22.449242992496959],[114.16434579265004,22.449239306791441],[114.16436003130879,22.449179643891071],[114.16453801762079,22.449218344362524],[114.16453775268937,22.449219490667634],[114.16451876326603,22.449296925417009],[114.16435783453881,22.449261278265737]]]},"properties":{"OBJECTID":245031,"Shape__Length":55.368378665757923,"Shape__Area":163.34042151393828,"GeoRefNo":"3499434423","DateCreate":1114790400000,"BuildingBlockType":"Tower","BuildingCSUID":"3499434423T20050430","BuildingID":1106127342,"Status":"Active","BuildingNameEN":"Kin Hang Building","BuildingNameTC":"建亨樓","BaseHeight":3.3999999999999999,"TopHeight":27.199999999999999,"Storeys":6,"StoreysInBasement":null,"DateStamp":1599580800000}},{"type":"Feature","id":245037,"geometry":{"type":"Polygon","coordinates":[[[114.16428315319065,22.448770849678677],[114.16429218866077,22.448731048761438],[114.16443846260137,22.448760529495612],[114.16442943010861,22.448798979646362],[114.16440771999757,22.448794804643413],[114.16432481949266,22.448778862382152],[114.16428315319065,22.448770849678677]]]},"properties":{"OBJECTID":245037,"Shape__Length":39.644814513601979,"Shape__Area":68.201371858524155,"GeoRefNo":"3497634369","DateCreate":1114790400000,"BuildingBlockType":"Tower","BuildingCSUID":"3497634369T20050430","BuildingID":1106127720,"Status":"Active","BuildingNameEN":"Sze Hing Building","BuildingNameTC":"思慶樓","BaseHeight":5.4000000000000004,"TopHeight":29,"Storeys":6,"StoreysInBasement":null,"DateStamp":1599580800000}},{"type":"Feature","id":245038,"geometry":{"type":"Polygon","coordinates":[[[114.16446989484791,22.448766852229308],[114.16448814653691,22.448687602393925],[114.16448838007332,22.448686627213448],[114.16466115722393,22.448718626106754],[114.16464154792391,22.448800567474894],[114.16446989484791,22.448766852229308]]]},"properties":{"OBJECTID":245038,"Shape__Length":54.574361428727187,"Shape__Area":166.30442723909852,"GeoRefNo":"3500634368","DateCreate":1114790400000,"BuildingBlockType":"Tower","BuildingCSUID":"3500634368T20050430","BuildingID":1106127718,"Status":"Active","BuildingNameEN":"Fu Yam Building","BuildingNameTC":"富蔭樓","BaseHeight":4,"TopHeight":27.899999999999999,"Storeys":6,"StoreysInBasement":null,"DateStamp":1599580800000}},{"type":"Feature","id":245039,"geometry":{"type":"Polygon","coordinates":[[[114.16429218866077,22.448731048761438],[114.16431007483133,22.448652261547448],[114.1644573025342,22.448680330608475],[114.16443846260137,22.448760529495612],[114.16429218866077,22.448731048761438]]]},"properties":{"OBJECTID":245039,"Shape__Length":48.883650386626229,"Shape__Area":138.99489678078032,"GeoRefNo":"3497834361","DateCreate":1114790400000,"BuildingBlockType":"Tower","BuildingCSUID":"3497834361T20050430","BuildingID":1106127758,"Status":"Active","BuildingNameEN":"Cheong Hing Building","BuildingNameTC":"昌興樓","BaseHeight":5.4000000000000004,"TopHeight":30.399999999999999,"Storeys":6,"StoreysInBasement":1,"DateStamp":1599580800000}},{"type":"Feature","id":245040,"geometry":{"type":"Polygon","coordinates":[[[114.16448838007332,22.448686627213448],[114.16450536583052,22.448615684751136],[114.16467811170419,22.448647775554132],[114.16467761062093,22.448649851436365],[114.16466115722393,22.448718626106754],[114.16448838007332,22.448686627213448]]]},"properties":{"OBJECTID":245040,"Shape__Length":52.352957911197265,"Shape__Area":145.80870500553161,"GeoRefNo":"3500834360","DateCreate":1114790400000,"BuildingBlockType":"Tower","BuildingCSUID":"3500834360T20050430","BuildingID":1106127803,"Status":"Active","BuildingNameEN":"Fu Shin Mansion","BuildingNameTC":"富善樓","BaseHeight":3.8999999999999999,"TopHeight":27.300000000000001,"Storeys":6,"StoreysInBasement":null,"DateStamp":1599580800000}},{"type":"Feature","id":245041,"geometry":{"type":"Polygon","coordinates":[[[114.16431007483133,22.448652261547448],[114.16432891884983,22.448576994203645],[114.16432924762981,22.448575614285982],[114.16444833263,22.448601620422998],[114.16444773981436,22.448603923142382],[114.16447387247111,22.44860979493933],[114.1644573025342,22.448680330608475],[114.16431007483133,22.448652261547448]]]},"properties":{"OBJECTID":245041,"Shape__Length":47.800530931984568,"Shape__Area":130.14153041501098,"GeoRefNo":"3497934353","DateCreate":1114790400000,"BuildingBlockType":"Tower","BuildingCSUID":"3497934353T20050430","BuildingID":1106127841,"Status":"Active","BuildingNameEN":"Sun Yan Hing Building","BuildingNameTC":"新仁興樓","BaseHeight":5.2000000000000002,"TopHeight":28.899999999999999,"Storeys":6,"StoreysInBasement":null,"DateStamp":1599580800000}},{"type":"Feature","id":245042,"geometry":{"type":"Polygon","coordinates":[[[114.16450536583052,22.448615684751136],[114.16452394045058,22.448538106110068],[114.16469658101876,22.4485713240664],[114.16467811170419,22.448647775554132],[114.16450536583052,22.448615684751136]]]},"properties":{"OBJECTID":245042,"Shape__Length":53.758220819525413,"Shape__Area":158.49498155845237,"GeoRefNo":"3500934351","DateCreate":1114790400000,"BuildingBlockType":"Tower","BuildingCSUID":"3500934351T20050430","BuildingID":1106127873,"Status":"Active","BuildingNameEN":"Ko Mei Building","BuildingNameTC":"高美樓","BaseHeight":4,"TopHeight":28.600000000000001,"Storeys":6,"StoreysInBasement":null,"DateStamp":1599580800000}},{"type":"Feature","id":245043,"geometry":{"type":"Polygon","coordinates":[[[114.16375170125529,22.448524562790077],[114.16378326439907,22.448531663280381],[114.16374629456138,22.448683362824561],[114.16363606126869,22.448660687414637],[114.16375170125529,22.448524562790077]]]},"properties":{"OBJECTID":245043,"Shape__Length":51.395441404739223,"Shape__Area":129.24996999980203,"GeoRefNo":"3491234355","DateCreate":1114790400000,"BuildingBlockType":"Tower","BuildingCSUID":"3491234355T20050430","BuildingID":1106127835,"Status":"Active","BuildingNameEN":"Tsat Yeuk Building","BuildingNameTC":"七約大樓","BaseHeight":6.5999999999999996,"TopHeight":27.300000000000001,"Storeys":6,"StoreysInBasement":null,"DateStamp":1599580800000}},{"type":"Feature","id":245242,"geometry":{"type":"Polygon","coordinates":[[[114.16575839544342,22.448554585752522],[114.16571890059747,22.448478465367398],[114.16568713778344,22.448415963426168],[114.16571390339821,22.448403394885649],[114.16572473385139,22.44842453591713],[114.16573881138916,22.448418044262631],[114.16575346215321,22.448446404316591],[114.16578403615958,22.448505588014338],[114.16579972676602,22.448535961022461],[114.16579971753653,22.448535965266135],[114.16575839544342,22.448554585752522]]]},"properties":{"OBJECTID":245242,"Shape__Length":43.52341451459543,"Shape__Area":76.433101725420485,"GeoRefNo":"3512534342","DateCreate":1114790400000,"BuildingBlockType":"Tower","BuildingCSUID":"3512534342T20050430","BuildingID":1106127958,"Status":"Active","BuildingNameEN":"Ko Koon Building","BuildingNameTC":"高冠樓","BaseHeight":4.0999999999999996,"TopHeight":26.800000000000001,"Storeys":6,"StoreysInBasement":null,"DateStamp":1599580800000}},{"type":"Feature","id":245243,"geometry":{"type":"Polygon","coordinates":[[[114.16540746958277,22.448469982711131],[114.16544899652916,22.448450860958229],[114.1655322082612,22.448412544645862],[114.16556904890962,22.448395580721026],[114.16558811225842,22.448432292639598],[114.16542706192527,22.448506105268304],[114.16540746958277,22.448469982711131]]]},"properties":{"OBJECTID":245243,"Shape__Length":46.037941786074079,"Shape__Area":83.289199314817537,"GeoRefNo":"3509134337","DateCreate":1114790400000,"BuildingBlockType":"Tower","BuildingCSUID":"3509134337T20050430","BuildingID":1106128005,"Status":"Active","BuildingNameEN":"Hung Wai Building","BuildingNameTC":"鴻威樓","BaseHeight":3.8999999999999999,"TopHeight":25.600000000000001,"Storeys":6,"StoreysInBasement":null,"DateStamp":1599580800000}},{"type":"Feature","id":245244,"geometry":{"type":"Polygon","coordinates":[[[114.16501805464242,22.448567175139317],[114.16503478851588,22.448497181069929],[114.16516255201779,22.448524436226069],[114.16514614897577,22.448593545438605],[114.16501805464242,22.448567175139317]]]},"properties":{"OBJECTID":245244,"Shape__Length":42.774863178673307,"Shape__Area":106.48454545173063,"GeoRefNo":"3505734346","DateCreate":1114790400000,"BuildingBlockType":"Tower","BuildingCSUID":"3505734346T20050430","BuildingID":1106127932,"Status":"Active","BuildingNameEN":"Hong Yu Building","BuildingNameTC":"康裕樓","BaseHeight":4.2000000000000002,"TopHeight":25,"Storeys":6,"StoreysInBasement":null,"DateStamp":1599580800000}},{"type":"Feature","id":245245,"geometry":{"type":"Polygon","coordinates":[[[114.16432924762981,22.448575614285982],[114.16434631891256,22.448503958079261],[114.16447445257192,22.448531744799141],[114.16449071497979,22.44853610775175],[114.16447901398523,22.448583697330939],[114.16445281338875,22.448577148245814],[114.16444833263,22.448601620422998],[114.16432924762981,22.448575614285982]]]},"properties":{"OBJECTID":245245,"Shape__Length":46.952144962091978,"Shape__Area":116.75859826370861,"GeoRefNo":"3497934344","DateCreate":1114790400000,"BuildingBlockType":"Tower","BuildingCSUID":"3497934344T20050430","BuildingID":1106127925,"Status":"Active","BuildingNameEN":"Frebong Building","BuildingNameTC":"富邦樓","BaseHeight":5,"TopHeight":30.199999999999999,"Storeys":6,"StoreysInBasement":null,"DateStamp":1599580800000}},{"type":"Feature","id":245246,"geometry":{"type":"Polygon","coordinates":[[[114.16480696253021,22.448566266249589],[114.16481477655347,22.448528953009816],[114.16499022518492,22.448564446625149],[114.16498092020234,22.44860238394849],[114.16480696253021,22.448566266249589]]]},"properties":{"OBJECTID":245246,"Shape__Length":45.348228092242607,"Shape__Area":78.419198631930371,"GeoRefNo":"3503034346","DateCreate":1114790400000,"BuildingBlockType":"Tower","BuildingCSUID":"3503034346T20050430","BuildingID":1106127922,"Status":"Active","BuildingNameEN":"Fu Cheong Building","BuildingNameTC":"富昌樓","BaseHeight":4,"TopHeight":24.5,"Storeys":6,"StoreysInBasement":null,"DateStamp":1599580800000}},{"type":"Feature","id":245247,"geometry":{"type":"Polygon","coordinates":[[[114.16473127580424,22.448427652202074],[114.16455825384796,22.44839282638155],[114.16456058865877,22.448381520795973],[114.16458504060688,22.448387284081797],[114.16459104270677,22.448362632580537],[114.16460308354763,22.448365121834488],[114.16469213967706,22.448383532619722],[114.16473956561101,22.448393337110662],[114.16473127580424,22.448427652202074]]]},"properties":{"OBJECTID":245247,"Shape__Length":44.449146585208993,"Shape__Area":64.85820438774374,"GeoRefNo":"3501534329","DateCreate":1114790400000,"BuildingBlockType":"Tower","BuildingCSUID":"3501534329T20050430","BuildingID":1106128089,"Status":"Active","BuildingNameEN":"Sun Hong Building","BuildingNameTC":"新康樓","BaseHeight":4.4000000000000004,"TopHeight":25.300000000000001,"Storeys":6,"StoreysInBasement":null,"DateStamp":1599580800000}},{"type":"Feature","id":245448,"geometry":{"type":"Polygon","coordinates":[[[114.16434631891256,22.448503958079261],[114.16435561055553,22.448464956462168],[114.16438782170039,22.448472077473852],[114.16447606900452,22.448491586418495],[114.16448379668981,22.448493294849033],[114.16447445257192,22.448531744799141],[114.16434631891256,22.448503958079261]]]},"properties":{"OBJECTID":245448,"Shape__Length":35.89494699548387,"Shape__Area":59.552799124302979,"GeoRefNo":"3498334339","DateCreate":1114790400000,"BuildingBlockType":"Tower","BuildingCSUID":"3498334339T20050430","BuildingID":1106127977,"Status":"Active","BuildingNameEN":"Kwong Yiu Building","BuildingNameTC":"廣耀樓","BaseHeight":5.2000000000000002,"TopHeight":30.199999999999999,"Storeys":6,"StoreysInBasement":1,"DateStamp":1599580800000}},{"type":"Feature","id":245449,"geometry":{"type":"Polygon","coordinates":[[[114.16452394045058,22.448538106110068],[114.16452622371843,22.448528570038057],[114.16454891738388,22.448533249541057],[114.16455555948085,22.448505688027566],[114.16456232037065,22.448507027035326],[114.16465451432674,22.4485252862778],[114.16470526930013,22.44853533837399],[114.16469658101876,22.4485713240664],[114.16452394045058,22.448538106110068]]]},"properties":{"OBJECTID":245449,"Shape__Length":44.589868897164735,"Shape__Area":67.610501250408618,"GeoRefNo":"3501134345","DateCreate":1114790400000,"BuildingBlockType":"Tower","BuildingCSUID":"3501134345T20050430","BuildingID":1106127947,"Status":"Active","BuildingNameEN":"Yuk Choi Building","BuildingNameTC":"育才樓","BaseHeight":4.0999999999999996,"TopHeight":27.399999999999999,"Storeys":6,"StoreysInBasement":null,"DateStamp":1599580800000}},{"type":"Feature","id":245450,"geometry":{"type":"Polygon","coordinates":[[[114.16481477655347,22.448528953009816],[114.16483337027249,22.448451956165595],[114.16500854805834,22.448489721802581],[114.16499022518492,22.448564446625149],[114.16481477655347,22.448528953009816]]]},"properties":{"OBJECTID":245450,"Shape__Length":54.218378701053027,"Shape__Area":159.30122572245872,"GeoRefNo":"3503134340","DateCreate":1114790400000,"BuildingBlockType":"Tower","BuildingCSUID":"3503134340T20050430","BuildingID":1106127952,"Status":"Active","BuildingNameEN":"Kang Yue Building","BuildingNameTC":"賡裕樓","BaseHeight":3.8999999999999999,"TopHeight":25.5,"Storeys":6,"StoreysInBasement":null,"DateStamp":1599580800000}},{"type":"Feature","id":245451,"geometry":{"type":"Polygon","coordinates":[[[114.16704971006462,22.448283699178852],[114.16713451841778,22.448444622239425],[114.16702814241228,22.448493068060266],[114.16698460497214,22.448410423598745],[114.16693695231659,22.448319967351548],[114.16695614543281,22.448311226419186],[114.16696468602656,22.448327448973071],[114.16698461147601,22.448318374497259],[114.16702915540415,22.448298088225499],[114.16702063190347,22.448281857909823],[114.16704329917317,22.448271534682107],[114.16704971006462,22.448283699178852]]]},"properties":{"OBJECTID":245451,"Shape__Length":71.068239368534506,"Shape__Area":245.4304326566743,"GeoRefNo":"3524934323","DateCreate":1114790400000,"BuildingBlockType":"Tower","BuildingCSUID":"3524934323T20050430","BuildingID":1106128023,"Status":"Active","BuildingNameEN":"Tak Hong Building","BuildingNameTC":"德康樓","BaseHeight":4.5999999999999996,"TopHeight":28.199999999999999,"Storeys":6,"StoreysInBasement":null,"DateStamp":1599580800000}},{"type":"Feature","id":245452,"geometry":{"type":"Polygon","coordinates":[[[114.16536574099172,22.448391676079446],[114.16540692329269,22.44837303762241],[114.16549004477869,22.448335418024282],[114.16555195836759,22.448307396812716],[114.16557249761661,22.44834618620164],[114.16554945288779,22.448357842903576],[114.16538687734749,22.448432016604244],[114.16536574099172,22.448391676079446]]]},"properties":{"OBJECTID":245452,"Shape__Length":52.418072192330222,"Shape__Area":105.10775961229538,"GeoRefNo":"3508934329","DateCreate":1114790400000,"BuildingBlockType":"Tower","BuildingCSUID":"3508934329T20050430","BuildingID":1106128083,"Status":"Active","BuildingNameEN":"On Fu Building","BuildingNameTC":"安富樓","BaseHeight":4,"TopHeight":26,"Storeys":6,"StoreysInBasement":null,"DateStamp":1599580800000}},{"type":"Feature","id":245453,"geometry":{"type":"Polygon","coordinates":[[[114.16436408068233,22.4484294032391],[114.16437333831651,22.448390364051296],[114.16440538917688,22.448397170516561],[114.16450786548999,22.448418932643552],[114.16451908562689,22.44842131537203],[114.1645098212695,22.448459919299797],[114.164492801045,22.448456242605371],[114.16436408068233,22.4484294032391]]]},"properties":{"OBJECTID":245453,"Shape__Length":39.573386582096532,"Shape__Area":67.64381814969947,"GeoRefNo":"3498534331","DateCreate":1114790400000,"BuildingBlockType":"Tower","BuildingCSUID":"3498534331T20050430","BuildingID":1106128059,"Status":"Active","BuildingNameEN":"Yan Hing Building","BuildingNameTC":"仁興樓","BaseHeight":5.0999999999999996,"TopHeight":29.199999999999999,"Storeys":6,"StoreysInBasement":null,"DateStamp":1599580800000}},{"type":"Feature","id":245454,"geometry":{"type":"Polygon","coordinates":[[[114.1645418767978,22.448464725222514],[114.16454589381634,22.448448263739245],[114.16456444896767,22.448452301762842],[114.16457396330938,22.448413299969211],[114.16455498075808,22.448408674934871],[114.16455825384796,22.44839282638155],[114.16473127580424,22.448427652202074],[114.16471368546009,22.44850049049726],[114.1645418767978,22.448464725222514]]]},"properties":{"OBJECTID":245454,"Shape__Length":56.678715731358679,"Shape__Area":140.00034750498261,"GeoRefNo":"3501334335","DateCreate":1114790400000,"BuildingBlockType":"Tower","BuildingCSUID":"3501334335T20050430","BuildingID":1106128012,"Status":"Active","BuildingNameEN":"Fu Yue House","BuildingNameTC":"富裕樓","BaseHeight":4,"TopHeight":25.300000000000001,"Storeys":6,"StoreysInBasement":null,"DateStamp":1599580800000}},{"type":"Feature","id":245455,"geometry":{"type":"Polygon","coordinates":[[[114.16713451841778,22.448444622239425],[114.16704971006462,22.448283699178852],[114.16710632853456,22.44825791380195],[114.1671404078336,22.448322589595328],[114.16719112566776,22.448418841980004],[114.16713451841778,22.448444622239425]]]},"properties":{"OBJECTID":245455,"Shape__Length":52.665362162373846,"Shape__Area":128.7689763690305,"GeoRefNo":"3526634328","DateCreate":1114790400000,"BuildingBlockType":"Tower","BuildingCSUID":"3526634328T20050430","BuildingID":1106128070,"Status":"Active","BuildingNameEN":"Kwong Yam Building","BuildingNameTC":"廣蔭樓","BaseHeight":4.7000000000000002,"TopHeight":28.199999999999999,"Storeys":6,"StoreysInBasement":null,"DateStamp":1599580800000}},{"type":"Feature","id":245456,"geometry":{"type":"Polygon","coordinates":[[[114.16407919705702,22.448358236640267],[114.16422681902775,22.448390551158479],[114.16420548975586,22.448479220931294],[114.16405734972649,22.448447638812713],[114.16407919705702,22.448358236640267]]]},"properties":{"OBJECTID":245456,"Shape__Length":51.469383356000527,"Shape__Area":157.94389209250676,"GeoRefNo":"3496034332","DateCreate":1114790400000,"BuildingBlockType":"Tower","BuildingCSUID":"3496034332T20050430","BuildingID":1106128043,"Status":"Active","BuildingNameEN":"Fu Hing Building","BuildingNameTC":"富興大樓","BaseHeight":7.4000000000000004,"TopHeight":30.699999999999999,"Storeys":6,"StoreysInBasement":null,"DateStamp":1599580800000}},{"type":"Feature","id":245457,"geometry":{"type":"Polygon","coordinates":[[[114.16505582977875,22.448453593614996],[114.16506340744778,22.44842105339016],[114.16507682899258,22.448423476425962],[114.16515214172732,22.448437072544365],[114.16518123282323,22.448442324229731],[114.16517313575966,22.448477914999039],[114.16505582977875,22.448453593614996]]]},"properties":{"OBJECTID":245457,"Shape__Length":32.441638976341693,"Shape__Area":47.687003178374582,"GeoRefNo":"3506034335","DateCreate":1114790400000,"BuildingBlockType":"Tower","BuildingCSUID":"3506034335T20050430","BuildingID":1106128044,"Status":"Active","BuildingNameEN":"Tsing On Building","BuildingNameTC":"靖安樓","BaseHeight":4.2000000000000002,"TopHeight":27.100000000000001,"Storeys":6,"StoreysInBasement":null,"DateStamp":1599580800000}},{"type":"Feature","id":245458,"geometry":{"type":"Polygon","coordinates":[[[114.16600441344366,22.448443724954398],[114.16594259728633,22.448326766340482],[114.16598227311265,22.448309166226924],[114.16599877408835,22.448339193585269],[114.16603149679648,22.448398739863556],[114.16604593550836,22.448425014203938],[114.16600442500484,22.44844371971752],[114.16600441344366,22.448443724954398]]]},"properties":{"OBJECTID":245458,"Shape__Length":38.110631583556192,"Shape__Area":66.851663834117488,"GeoRefNo":"3515034329","DateCreate":1114790400000,"BuildingBlockType":"Tower","BuildingCSUID":"3515034329T20050430","BuildingID":1106128072,"Status":"Active","BuildingNameEN":"Hoi Lee Building","BuildingNameTC":"開利樓","BaseHeight":4.0999999999999996,"TopHeight":27.600000000000001,"Storeys":6,"StoreysInBasement":null,"DateStamp":1599580800000}},{"type":"Feature","id":245459,"geometry":{"type":"Polygon","coordinates":[[[114.16483337027249,22.448451956165595],[114.16486958824161,22.448301976702982],[114.16504587225869,22.448336558245121],[114.16504193612602,22.448354221519409],[114.16501330681896,22.448347645256195],[114.16500285971622,22.448389663178254],[114.16503112957015,22.448396347782396],[114.16502229562705,22.448432694700383],[114.16499295710469,22.448426244808022],[114.16498225755845,22.448466420497855],[114.16501271331684,22.448472735017251],[114.16500854805834,22.448489721802581],[114.16483337027249,22.448451956165595]]]},"properties":{"OBJECTID":245459,"Shape__Length":83.842657446138887,"Shape__Area":289.91156034842209,"GeoRefNo":"3503634328","DateCreate":1114790400000,"BuildingBlockType":"Tower","BuildingCSUID":"3503634328T20050430","BuildingID":1106128026,"Status":"Active","BuildingNameEN":"Sun Fat Building","BuildingNameTC":"新發樓","BaseHeight":4.2999999999999998,"TopHeight":27.5,"Storeys":6,"StoreysInBasement":null,"DateStamp":1599580800000}},{"type":"Feature","id":245460,"geometry":{"type":"Polygon","coordinates":[[[114.16719112566776,22.448418841980004],[114.1671404078336,22.448322589595328],[114.1672398830252,22.448277621638297],[114.16722663011704,22.44825250906171],[114.1671793496769,22.448273641467932],[114.16715209059585,22.448221988724693],[114.16718878710191,22.448205276280319],[114.16728617323987,22.44816111829093],[114.16734792437484,22.448278290952793],[114.16735593969852,22.44829350005794],[114.16737736434985,22.448334153154548],[114.16728010596772,22.448378318339596],[114.16719112566776,22.448418841980004]]]},"properties":{"OBJECTID":245460,"Shape__Length":96.161278124614995,"Shape__Area":381.91383031389239,"GeoRefNo":"3527934319","DateCreate":1114790400000,"BuildingBlockType":"Tower","BuildingCSUID":"3527934319T20050430","BuildingID":1106128102,"Status":"Active","BuildingNameEN":"Kam Pak Building","BuildingNameTC":"金柏樓","BaseHeight":4.5999999999999996,"TopHeight":27.899999999999999,"Storeys":6,"StoreysInBasement":null,"DateStamp":1599580800000}},{"type":"Feature","id":245461,"geometry":{"type":"Polygon","coordinates":[[[114.16399143126536,22.448265977030321],[114.16404101531292,22.448275399729692],[114.16400404582448,22.448427090307465],[114.16391032773966,22.448407866028784],[114.16390822863831,22.448415180525767],[114.16384928932752,22.448403102080629],[114.16386748750841,22.448380175229545],[114.16389339678386,22.448384665443665],[114.16390192003766,22.44834942930795],[114.16392066952828,22.448352681771922],[114.16393051450994,22.448311955226174],[114.1639786122109,22.448321124973159],[114.16399143126536,22.448265977030321]]]},"properties":{"OBJECTID":245461,"Shape__Length":67.11740233908705,"Shape__Area":167.12226450570725,"GeoRefNo":"3493934329","DateCreate":1114790400000,"BuildingBlockType":"Tower","BuildingCSUID":"3493934329T20050430","BuildingID":1106128092,"Status":"Active","BuildingNameEN":"Sai Kung North Rural Committee","BuildingNameTC":"西貢北約鄉事委員會","BaseHeight":7.5,"TopHeight":16.399999999999999,"Storeys":2,"StoreysInBasement":null,"DateStamp":1599580800000}},{"type":"Feature","id":245670,"geometry":{"type":"Polygon","coordinates":[[[114.1658847533954,22.448497646278323],[114.16581789508425,22.448373214577085],[114.16584220192995,22.448361881664514],[114.16583627706827,22.448346177306654],[114.16585238700316,22.448339057532234],[114.1658722333959,22.448378818512257],[114.16590856761283,22.448451611919051],[114.16592295325852,22.448480432673158],[114.16592290361348,22.448480455065315],[114.16588478059815,22.448497634089069],[114.1658847533954,22.448497646278323]]]},"properties":{"OBJECTID":245670,"Shape__Length":43.508451206991857,"Shape__Area":74.35650814365323,"GeoRefNo":"3513734336","DateCreate":1114790400000,"BuildingBlockType":"Tower","BuildingCSUID":"3513734336T20050430","BuildingID":1106128015,"Status":"Active","BuildingNameEN":"Kwong Yue Building","BuildingNameTC":"光裕樓","BaseHeight":4.0999999999999996,"TopHeight":27.899999999999999,"Storeys":6,"StoreysInBasement":null,"DateStamp":1599580800000}},{"type":"Feature","id":245671,"geometry":{"type":"Polygon","coordinates":[[[114.16495645157265,22.448824845851362],[114.16496506762527,22.448788807041684],[114.16496917629836,22.448789631462798],[114.16505764232839,22.448807381424707],[114.16509408977628,22.448814694230514],[114.1650852323973,22.448852344332632],[114.16495645157265,22.448824845851362]]]},"properties":{"OBJECTID":245671,"Shape__Length":35.543772120585359,"Shape__Area":56.793409283082156,"GeoRefNo":"3505134376","DateCreate":1114790400000,"BuildingBlockType":"Tower","BuildingCSUID":"3505134376T20050430","BuildingID":1106127662,"Status":"Active","BuildingNameEN":"Luk Wo Building","BuildingNameTC":"六和樓","BaseHeight":4.2000000000000002,"TopHeight":25.100000000000001,"Storeys":6,"StoreysInBasement":null,"DateStamp":1599580800000}},{"type":"Feature","id":245672,"geometry":{"type":"Polygon","coordinates":[[[114.16446163016919,22.448802737883099],[114.16446989484791,22.448766852229308],[114.16464154792391,22.448800567474894],[114.16463285093157,22.448836914560665],[114.16457605802717,22.448825578395219],[114.16449032878909,22.44880846628984],[114.16446163016919,22.448802737883099]]]},"properties":{"OBJECTID":245672,"Shape__Length":44.272525136876425,"Shape__Area":73.857763925335476,"GeoRefNo":"3500434375","DateCreate":1114790400000,"BuildingBlockType":"Tower","BuildingCSUID":"3500434375T20050430","BuildingID":1106127675,"Status":"Active","BuildingNameEN":"Kai Hing Building","BuildingNameTC":"啓慶樓","BaseHeight":3.7999999999999998,"TopHeight":27.899999999999999,"Storeys":6,"StoreysInBasement":null,"DateStamp":1599580800000}},{"type":"Feature","id":245673,"geometry":{"type":"Polygon","coordinates":[[[114.16776933936147,22.44804636912809],[114.16781583727497,22.44813516066575],[114.16770960757644,22.448183397710359],[114.16761867584422,22.448010175573749],[114.16770867730804,22.447969226057783],[114.16775294616427,22.448053647923835],[114.16776933936147,22.44804636912809]]]},"properties":{"OBJECTID":245673,"Shape__Length":67.033602424309919,"Shape__Area":240.52934896091691,"GeoRefNo":"3532634295","DateCreate":1114790400000,"BuildingBlockType":"Tower","BuildingCSUID":"3532634295T20050430","BuildingID":1106128325,"Status":"Active","BuildingNameEN":"Po Kee Building","BuildingNameTC":"寶基樓","BaseHeight":4.5999999999999996,"TopHeight":23.600000000000001,"Storeys":6,"StoreysInBasement":null,"DateStamp":1599580800000}},{"type":"Feature","id":245674,"geometry":{"type":"Polygon","coordinates":[[[114.16781583727497,22.44813516066575],[114.16776933936147,22.44804636912809],[114.16774368075326,22.447997371796806],[114.16776292564562,22.447988729835103],[114.16775599395994,22.447975493241731],[114.16779136254992,22.447959470692179],[114.16777956925527,22.447937033964525],[114.16786104380705,22.447900060443704],[114.16787162327769,22.447920343425704],[114.16788634846472,22.447913675886845],[114.16787572750962,22.447893396967181],[114.16791134137475,22.447877235245514],[114.16800232691168,22.448050478715615],[114.16781583727497,22.44813516066575]]]},"properties":{"OBJECTID":245674,"Shape__Length":90.419928345699446,"Shape__Area":430.84207462967197,"GeoRefNo":"3534234291","DateCreate":1114790400000,"BuildingBlockType":"Tower","BuildingCSUID":"3534234291T20050430","BuildingID":1106128361,"Status":"Active","BuildingNameEN":"Pui Kam Building","BuildingNameTC":"培錦樓","BaseHeight":4.5999999999999996,"TopHeight":23.699999999999999,"Storeys":6,"StoreysInBasement":null,"DateStamp":1599580800000}},{"type":"Feature","id":245675,"geometry":{"type":"Polygon","coordinates":[[[114.16885436591309,22.448080193292366],[114.16878800334203,22.448110412929552],[114.1687215704797,22.447984136801814],[114.16878803306854,22.447953915300058],[114.16885436591309,22.448080193292366]]]},"properties":{"OBJECTID":245675,"Shape__Length":46.350049470743578,"Shape__Area":118.46033617177793,"GeoRefNo":"3543334285","DateCreate":1114790400000,"BuildingBlockType":"Tower","BuildingCSUID":"3543334285T20050430","BuildingID":1106128384,"Status":"Active","BuildingNameEN":"Man Wah Building","BuildingNameTC":"文華樓","BaseHeight":4.5,"TopHeight":26.199999999999999,"Storeys":6,"StoreysInBasement":null,"DateStamp":1599580800000}},{"type":"Feature","id":245676,"geometry":{"type":"Polygon","coordinates":[[[114.16554160109169,22.448144416675358],[114.16550168873948,22.448068296204102],[114.16549553053972,22.448055436408943],[114.16546588478765,22.447996626669745],[114.16548407241946,22.447988384502764],[114.16549516522012,22.448008143910123],[114.1655155967359,22.447999467893787],[114.16553216568848,22.448031737295857],[114.16556346128149,22.448092687986961],[114.16558087056028,22.448126594121316],[114.16554160109169,22.448144416675358]]]},"properties":{"OBJECTID":245676,"Shape__Length":45.087883497643993,"Shape__Area":76.170127045344572,"GeoRefNo":"3510234296","DateCreate":1114790400000,"BuildingBlockType":"Tower","BuildingCSUID":"3510234296T20050430","BuildingID":1106128352,"Status":"Active","BuildingNameEN":"Sing Hay Building","BuildingNameTC":"成熙樓","BaseHeight":4.2000000000000002,"TopHeight":25.199999999999999,"Storeys":6,"StoreysInBasement":null,"DateStamp":1599580800000}},{"type":"Feature","id":245872,"geometry":{"type":"Polygon","coordinates":[[[114.1656215382384,22.448108137897783],[114.1655457340832,22.447961097179377],[114.16556137666873,22.447953189223181],[114.1655690114584,22.4479669792556],[114.1656096503027,22.44794893021572],[114.1656020156024,22.447933993317871],[114.16562140868555,22.447925201716291],[114.16569807500564,22.448073403052941],[114.1656215382384,22.448108137897783]]]},"properties":{"OBJECTID":245872,"Shape__Length":57.271709653067091,"Shape__Area":150.77103285964597,"GeoRefNo":"3511234291","DateCreate":1114790400000,"BuildingBlockType":"Tower","BuildingCSUID":"3511234291T20050430","BuildingID":1106128386,"Status":"Active","BuildingNameEN":"Wah Sun Building","BuildingNameTC":"華新樓","BaseHeight":4,"TopHeight":27.5,"Storeys":6,"StoreysInBasement":null,"DateStamp":1599580800000}},{"type":"Feature","id":245873,"geometry":{"type":"Polygon","coordinates":[[[114.16644545700744,22.448004785356769],[114.16662864443492,22.447920083738961],[114.16670795379844,22.448065485143104],[114.16666261139243,22.448087622067469],[114.16668229817672,22.448125961004294],[114.16662727644336,22.448151478129496],[114.16654454595471,22.44818984542842],[114.16644545700744,22.448004785356769]]]},"properties":{"OBJECTID":245873,"Shape__Length":87.826301655375346,"Shape__Area":458.4174895543872,"GeoRefNo":"3520234293","DateCreate":1114790400000,"BuildingBlockType":"Tower","BuildingCSUID":"3520234293T20050430","BuildingID":1106128319,"Status":"Active","BuildingNameEN":"Tak Shun Building","BuildingNameTC":"德信大樓","BaseHeight":4.7000000000000002,"TopHeight":32.600000000000001,"Storeys":8,"StoreysInBasement":null,"DateStamp":1599580800000}},{"type":"Feature","id":245874,"geometry":{"type":"Polygon","coordinates":[[[114.17045521006939,22.447825549643937],[114.17047551068079,22.447902074491825],[114.17049084093823,22.447898435823511],[114.17049670768476,22.447921418553154],[114.17048163001208,22.447925057231952],[114.17050949711518,22.448033306348115],[114.17045783274558,22.448045359966446],[114.17045074211286,22.448018241240586],[114.17039907775464,22.448030060048382],[114.17041693057992,22.448098547702397],[114.1703991327137,22.44810218626516],[114.17039741348401,22.44809552172352],[114.17031189232081,22.448114617692312],[114.17031531131072,22.448128633090867],[114.17030121483727,22.448131820269811],[114.17027505736247,22.44803069621469],[114.1703225151181,22.448020240874946],[114.17033400575986,22.448064824676674],[114.17037306976694,22.448056184104342],[114.17036793148139,22.448036885823939],[114.17035655521089,22.448039612563761],[114.1703091161128,22.447858974531563],[114.17045521006939,22.447825549643937]]]},"properties":{"OBJECTID":245874,"Shape__Length":128.76413105624243,"Shape__Area":437.04700100558358,"GeoRefNo":"3560234270","DateCreate":1114790400000,"BuildingBlockType":"Tower","BuildingCSUID":"3560234270T20050430","BuildingID":1106128365,"Status":"Active","BuildingNameEN":"Norwegian International School (Kindergarten Section)","BuildingNameTC":null,"BaseHeight":19.899999999999999,"TopHeight":30.199999999999999,"Storeys":null,"StoreysInBasement":null,"DateStamp":1421424000000}},{"type":"Feature","id":245875,"geometry":{"type":"Polygon","coordinates":[[[114.16444646514334,22.44809522898823],[114.16448321867003,22.447946978617171],[114.16451233629522,22.447923221725993],[114.16463273069672,22.447948480017157],[114.16459097027054,22.448125473697495],[114.16444646514334,22.44809522898823]]]},"properties":{"OBJECTID":245875,"Shape__Length":68.851967936632036,"Shape__Area":300.1005883609198,"GeoRefNo":"3499234293","DateCreate":1114790400000,"BuildingBlockType":"Tower","BuildingCSUID":"3499234293T20050430","BuildingID":1106128372,"Status":"Active","BuildingNameEN":"Tai Po Merchant Assn. Ltd. & N.T. Heung Yee Kuk Building","BuildingNameTC":"大埔商會新界鄉議局大廈","BaseHeight":5.0999999999999996,"TopHeight":31.899999999999999,"Storeys":6,"StoreysInBasement":null,"DateStamp":1599580800000}},{"type":"Feature","id":245912,"geometry":{"type":"Polygon","coordinates":[[[114.16621012094636,22.443943400305923],[114.16625179263261,22.44401909659533],[114.16621673815672,22.444035184487742],[114.16617654149954,22.443958896701716],[114.16621012094636,22.443943400305923]]]},"properties":{"OBJECTID":245912,"Shape__Length":26.706259855642799,"Shape__Area":37.095073008834845,"GeoRefNo":"3517133841","DateCreate":1489334400000,"BuildingBlockType":"Tower","BuildingCSUID":"3517133841T20170313","BuildingID":1810159925,"Status":"Active","BuildingNameEN":null,"BuildingNameTC":null,"BaseHeight":11.1,"TopHeight":19.300000000000001,"Storeys":null,"StoreysInBasement":null,"DateStamp":1533744000000}},{"type":"Feature","id":246079,"geometry":{"type":"Polygon","coordinates":[[[114.16569807500564,22.448073403052941],[114.16562140868555,22.447925201716291],[114.1656453747304,22.44791433703794],[114.16565448593153,22.447931342009436],[114.16569214221094,22.447914204817597],[114.16568352642875,22.447897660435437],[114.16570412242582,22.447888531529351],[114.16578070319393,22.448035905270984],[114.16569807500564,22.448073403052941]]]},"properties":{"OBJECTID":246079,"Shape__Length":59.346940023722375,"Shape__Area":162.78455685361087,"GeoRefNo":"3512134287","DateCreate":1114790400000,"BuildingBlockType":"Tower","BuildingCSUID":"3512134287T20050430","BuildingID":1106128405,"Status":"Active","BuildingNameEN":"Lee Yee Building","BuildingNameTC":"利宜樓","BaseHeight":4,"TopHeight":27.5,"Storeys":6,"StoreysInBasement":null,"DateStamp":1599580800000}},{"type":"Feature","id":246080,"geometry":{"type":"Polygon","coordinates":[[[114.16578070319393,22.448035905270984],[114.16570412242582,22.447888531529351],[114.16583044008458,22.447832542906216],[114.16590628241154,22.447978904586602],[114.16578070319393,22.448035905270984]]]},"properties":{"OBJECTID":246080,"Shape__Length":64.90376392346846,"Shape__Area":259.9264453387716,"GeoRefNo":"3513034282","DateCreate":1114790400000,"BuildingBlockType":"Tower","BuildingCSUID":"3513034282T20050430","BuildingID":1106128437,"Status":"Active","BuildingNameEN":"Nam Shing Mansion","BuildingNameTC":"南盛大廈","BaseHeight":4.0999999999999996,"TopHeight":44.600000000000001,"Storeys":11,"StoreysInBasement":null,"DateStamp":1599580800000}},{"type":"Feature","id":246081,"geometry":{"type":"Polygon","coordinates":[[[114.16642636465579,22.447967836125006],[114.1664714751761,22.447946869056469],[114.1665484534563,22.447911089915777],[114.16658164987632,22.447895660341835],[114.16659515026143,22.447920847850579],[114.16662264428224,22.447908739757782],[114.16662864443492,22.447920083738961],[114.16644545700744,22.448004785356769],[114.16642636465579,22.447967836125006]]]},"properties":{"OBJECTID":246081,"Shape__Length":51.118218055997644,"Shape__Area":86.064416817480677,"GeoRefNo":"3519734281","DateCreate":1114790400000,"BuildingBlockType":"Tower","BuildingCSUID":"3519734281T20050430","BuildingID":1106128458,"Status":"Active","BuildingNameEN":"Yam Fat Building","BuildingNameTC":"欽發樓","BaseHeight":4.7999999999999998,"TopHeight":27.699999999999999,"Storeys":6,"StoreysInBasement":null,"DateStamp":1599580800000}},{"type":"Feature","id":246082,"geometry":{"type":"Polygon","coordinates":[[[114.16891934299949,22.448019431399498],[114.16888131150465,22.448036662068358],[114.16882817594801,22.447935661697972],[114.16886618070883,22.447918380288954],[114.16891934299949,22.448019431399498]]]},"properties":{"OBJECTID":246082,"Shape__Length":33.616592493177954,"Shape__Area":54.234091834286431,"GeoRefNo":"3544334280","DateCreate":1114790400000,"BuildingBlockType":"Tower","BuildingCSUID":"3544334280T20050430","BuildingID":1106128435,"Status":"Active","BuildingNameEN":"Fuk Wah Building","BuildingNameTC":"福華樓","BaseHeight":4.4000000000000004,"TopHeight":25.399999999999999,"Storeys":6,"StoreysInBasement":null,"DateStamp":1599580800000}},{"type":"Feature","id":246083,"geometry":{"type":"Polygon","coordinates":[[[114.16655968978158,22.447569836006814],[114.16660200512439,22.447650318984927],[114.16661581988011,22.447676594320853],[114.16666302974068,22.447766386271635],[114.16638591313563,22.447892316270515],[114.16628236728228,22.447696321642287],[114.16655968978158,22.447569836006814]]]},"properties":{"OBJECTID":246083,"Shape__Length":111.95373967074143,"Shape__Area":769.01952550986414,"GeoRefNo":"3518634260","DateCreate":1114790400000,"BuildingBlockType":"Tower","BuildingCSUID":"3518634260T20050430","BuildingID":1106128538,"Status":"Active","BuildingNameEN":"Luen Fung Building","BuildingNameTC":"聯豐大廈","BaseHeight":4.7999999999999998,"TopHeight":24.899999999999999,"Storeys":9,"StoreysInBasement":null,"DateStamp":1599580800000}},{"type":"Feature","id":246084,"geometry":{"type":"Polygon","coordinates":[[[114.16611031378719,22.448745693229633],[114.16611776395281,22.448760010510519],[114.16615823609924,22.448837786593256],[114.16616816069804,22.448856858928682],[114.16617537658524,22.448870725842664],[114.16617890327572,22.448877503247981],[114.1661788643174,22.448877521125691],[114.16613977753907,22.448895474867463],[114.16607751464025,22.44877507667373],[114.16607144312142,22.448763336141418],[114.16611031378719,22.448745693229633]]]},"properties":{"OBJECTID":246084,"Shape__Length":41.39431902437039,"Shape__Area":72.561899384218691,"GeoRefNo":"3516334377","DateCreate":1114790400000,"BuildingBlockType":"Tower","BuildingCSUID":"3516334377T20050430","BuildingID":1106127625,"Status":"Active","BuildingNameEN":"Fuk Wing Building","BuildingNameTC":"福榮樓","BaseHeight":3.8999999999999999,"TopHeight":59,"Storeys":6,"StoreysInBasement":null,"DateStamp":1599580800000}},{"type":"Feature","id":246085,"geometry":{"type":"Polygon","coordinates":[[[114.16902221404717,22.447847429341998],[114.16906062048049,22.447829965220404],[114.16906281318494,22.447828968183604],[114.16909116386962,22.447816076590637],[114.16913916066719,22.44779425156344],[114.16918984975277,22.447811053232254],[114.16923942774183,22.447904846295039],[114.16908856338314,22.447973546137312],[114.16907847806031,22.447954375900821],[114.16902221404717,22.447847429341998]]]},"properties":{"OBJECTID":246085,"Shape__Length":63.351604342060881,"Shape__Area":260.86729386636051,"GeoRefNo":"3546634269","DateCreate":1114790400000,"BuildingBlockType":"Tower","BuildingCSUID":"3546634269T20050430","BuildingID":1106128479,"Status":"Active","BuildingNameEN":"Wing Shing Building","BuildingNameTC":"永誠樓","BaseHeight":4.2000000000000002,"TopHeight":67.5,"Storeys":20,"StoreysInBasement":null,"DateStamp":1599580800000}},{"type":"Feature","id":246086,"geometry":{"type":"Polygon","coordinates":[[[114.16564305803136,22.447850067154565],[114.16558750461924,22.447741901420049],[114.16566645047216,22.447706083011969],[114.16573528364964,22.447837911854968],[114.16565587006464,22.447873736855929],[114.16564305803136,22.447850067154565]]]},"properties":{"OBJECTID":246086,"Shape__Length":50.562767722103359,"Shape__Area":147.39835938291262,"GeoRefNo":"3511134257","DateCreate":1124899200000,"BuildingBlockType":"Tower","BuildingCSUID":"3511134257T20050825","BuildingID":1106128546,"Status":"Active","BuildingNameEN":"Tai Po Wing Kwong Pentecostal Holiness Church","BuildingNameTC":"五旬節聖潔會大埔永光堂","BaseHeight":4.5999999999999996,"TopHeight":47.700000000000003,"Storeys":7,"StoreysInBasement":null,"DateStamp":1599580800000}},{"type":"Feature","id":246087,"geometry":{"type":"Polygon","coordinates":[[[114.16688046407616,22.447824521534681],[114.16683490699997,22.447743441607798],[114.16689486921901,22.447715324486655],[114.16688574803439,22.447700161796195],[114.16698465836146,22.447654789845309],[114.16701111173803,22.447642658775319],[114.16706077831,22.447737107041267],[114.16698464993301,22.447774082110811],[114.16688046407616,22.447824521534681]]]},"properties":{"OBJECTID":246087,"Shape__Length":65.930763330451484,"Shape__Area":237.0878620732648,"GeoRefNo":"3524534256","DateCreate":1114790400000,"BuildingBlockType":"Tower","BuildingCSUID":"3524534256T20050430","BuildingID":1106128571,"Status":"Active","BuildingNameEN":"Tung Lok Building","BuildingNameTC":"東樂樓","BaseHeight":4.7999999999999998,"TopHeight":27.699999999999999,"Storeys":6,"StoreysInBasement":null,"DateStamp":1599580800000}},{"type":"Feature","id":246088,"geometry":{"type":"Polygon","coordinates":[[[114.16468405369892,22.44783349445693],[114.16470869066563,22.447733786760718],[114.16476141310719,22.44774491306983],[114.16473733993013,22.447844628672733],[114.16468405369892,22.44783349445693]]]},"properties":{"OBJECTID":246088,"Shape__Length":33.832511619289683,"Shape__Area":63.333459277337937,"GeoRefNo":"3501734264","DateCreate":1114790400000,"BuildingBlockType":"Tower","BuildingCSUID":"3501734264T20050430","BuildingID":1106128559,"Status":"Active","BuildingNameEN":"Gold Fair House","BuildingNameTC":"高輝樓","BaseHeight":7.4000000000000004,"TopHeight":30.600000000000001,"Storeys":6,"StoreysInBasement":null,"DateStamp":1599580800000}},{"type":"Feature","id":246271,"geometry":{"type":"Polygon","coordinates":[[[114.16473733993013,22.447844628672733],[114.16476141310719,22.44774491306983],[114.16487439429251,22.44776875600618],[114.16485038027828,22.447868242708115],[114.16473733993013,22.447844628672733]]]},"properties":{"OBJECTID":246271,"Shape__Length":46.459139900771426,"Shape__Area":134.80626709553943,"GeoRefNo":"3502534265","DateCreate":1114790400000,"BuildingBlockType":"Tower","BuildingCSUID":"3502534265T20050430","BuildingID":1106128550,"Status":"Active","BuildingNameEN":"Shung Tak Building","BuildingNameTC":"崇德樓","BaseHeight":6.2999999999999998,"TopHeight":28.100000000000001,"Storeys":6,"StoreysInBasement":null,"DateStamp":1599580800000}},{"type":"Feature","id":246272,"geometry":{"type":"Polygon","coordinates":[[[114.16540787401247,22.447650962716768],[114.16534061950719,22.44752627349953],[114.1653931919776,22.447501223692246],[114.16541412904017,22.447539334856092],[114.16541922343444,22.447548608045693],[114.16544337623615,22.447592572971825],[114.16544697583581,22.447599125179842],[114.16546193518809,22.447626355214116],[114.16540787401247,22.447650962716768]]]},"properties":{"OBJECTID":246272,"Shape__Length":43.281972747441472,"Shape__Area":95.157650755816803,"GeoRefNo":"3508834241","DateCreate":1114790400000,"BuildingBlockType":"Tower","BuildingCSUID":"3508834241T20050430","BuildingID":1106128659,"Status":"Active","BuildingNameEN":"Kam Ming Building","BuildingNameTC":"錦明樓","BaseHeight":4.5999999999999996,"TopHeight":27.600000000000001,"Storeys":6,"StoreysInBasement":null,"DateStamp":1599580800000}},{"type":"Feature","id":246273,"geometry":{"type":"Polygon","coordinates":[[[114.16688574803439,22.447700161796195],[114.16682554303115,22.447727123001119],[114.1667989474256,22.447675422013425],[114.16686931462326,22.44764204982549],[114.16683533680758,22.447575186258579],[114.16686804789927,22.447559186321939],[114.16686164670824,22.447546552324336],[114.16680491003876,22.447572601660831],[114.16681721700522,22.447597183315111],[114.16678277666878,22.447612957372339],[114.16678991597028,22.447628580498449],[114.16677653811897,22.44763520801661],[114.16670716405481,22.44750407248662],[114.16689219935031,22.447418737193949],[114.16693748404077,22.447502632876393],[114.16698466277217,22.447592362332742],[114.16701111173803,22.447642658775319],[114.16698465836146,22.447654789845309],[114.16688574803439,22.447700161796195]]]},"properties":{"OBJECTID":246273,"Shape__Length":131.29211847110247,"Shape__Area":520.07232981057689,"GeoRefNo":"3523634225","DateCreate":1114790400000,"BuildingBlockType":"Tower","BuildingCSUID":"3523634225T20050430","BuildingID":1106128617,"Status":"Active","BuildingNameEN":"Hong Lok Building","BuildingNameTC":"康樂樓","BaseHeight":4.9000000000000004,"TopHeight":28.300000000000001,"Storeys":6,"StoreysInBasement":null,"DateStamp":1599580800000}},{"type":"Feature","id":246275,"geometry":{"type":"Polygon","coordinates":[[[114.16883810448931,22.447616904316455],[114.16879042139996,22.447527597550163],[114.16878546084838,22.447518306864144],[114.16886322064177,22.44748243273968],[114.16893923357514,22.447624798841957],[114.1688614737219,22.447660673002417],[114.16883810448931,22.447616904316455]]]},"properties":{"OBJECTID":246275,"Shape__Length":53.071624465339831,"Shape__Area":157.27028951801529,"GeoRefNo":"3544534240","DateCreate":1114790400000,"BuildingBlockType":"Tower","BuildingCSUID":"3544534240T20050430","BuildingID":1106128653,"Status":"Active","BuildingNameEN":"Tung Fuk Building","BuildingNameTC":"同福樓","BaseHeight":4.0999999999999996,"TopHeight":26.100000000000001,"Storeys":6,"StoreysInBasement":null,"DateStamp":1599580800000}},{"type":"Feature","id":246276,"geometry":{"type":"Polygon","coordinates":[[[114.16550879085351,22.447605027499279],[114.1654781451239,22.447548844557023],[114.16544120982692,22.447478376344343],[114.16556078314679,22.447423854359528],[114.16557897177304,22.447457653991979],[114.1656241579486,22.447541622911039],[114.16561354105812,22.447546497352764],[114.16561861999952,22.447556015982659],[114.16550879085351,22.447605027499279]]]},"properties":{"OBJECTID":246276,"Shape__Length":58.883077176127678,"Shape__Area":214.87382494014625,"GeoRefNo":"3510034231","DateCreate":1114790400000,"BuildingBlockType":"Tower","BuildingCSUID":"3510034231T20050430","BuildingID":1106128689,"Status":"Active","BuildingNameEN":"Tai Po Baptist Church Education Hall","BuildingNameTC":"大埔浸信會教育樓　","BaseHeight":4.5999999999999996,"TopHeight":26.399999999999999,"Storeys":7,"StoreysInBasement":null,"DateStamp":1599580800000}},{"type":"Feature","id":246452,"geometry":{"type":"Polygon","coordinates":[[[114.16457346921968,22.448322589685127],[114.16457698421664,22.448307734228308],[114.1646031265779,22.448313154482726],[114.16460961263702,22.448287753128593],[114.16462020140743,22.448289969912864],[114.16471663367749,22.44831015807446],[114.16475757382281,22.448318728874565],[114.16474844823743,22.44835655675001],[114.16457346921968,22.448322589685127]]]},"properties":{"OBJECTID":246452,"Shape__Length":45.637130866184769,"Shape__Area":73.625539172521499,"GeoRefNo":"3501734321","DateCreate":1114790400000,"BuildingBlockType":"Tower","BuildingCSUID":"3501734321T20050430","BuildingID":1106128168,"Status":"Active","BuildingNameEN":"Sun Cheung Building","BuildingNameTC":"新祥樓","BaseHeight":4.7000000000000002,"TopHeight":25.300000000000001,"Storeys":6,"StoreysInBasement":null,"DateStamp":1599580800000}},{"type":"Feature","id":246636,"geometry":{"type":"Polygon","coordinates":[[[114.16589273836776,22.448245374221507],[114.16583963636009,22.44813590971475],[114.16591919378929,22.448099335558357],[114.16592523714381,22.448111670750652],[114.16598014510519,22.44822374316476],[114.16595636215102,22.448234713561032],[114.16596793081756,22.448257696838414],[114.16594018402979,22.448270491116332],[114.16592960634068,22.448246830620146],[114.16590037320618,22.448259164237783],[114.16589273836776,22.448245374221507]]]},"properties":{"OBJECTID":246636,"Shape__Length":54.161250086525158,"Shape__Area":147.14323586028334,"GeoRefNo":"3513834302","DateCreate":1114790400000,"BuildingBlockType":"Tower","BuildingCSUID":"3513834302T20050430","BuildingID":1106128246,"Status":"Active","BuildingNameEN":"Nam Shing Building","BuildingNameTC":"南盛樓","BaseHeight":4.0999999999999996,"TopHeight":25.199999999999999,"Storeys":6,"StoreysInBasement":null,"DateStamp":1599580800000}},{"type":"Feature","id":246637,"geometry":{"type":"Polygon","coordinates":[[[114.16486958824161,22.448301976702982],[114.16491765471518,22.448108882125791],[114.16506118994383,22.448137763015254],[114.16508781677956,22.448158110562275],[114.16507318101822,22.448218739944455],[114.16504507630513,22.448212606217144],[114.16503415295908,22.448257369364228],[114.16506228687653,22.448262898055361],[114.16504587225869,22.448336558245121],[114.16486958824161,22.448301976702982]]]},"properties":{"OBJECTID":246637,"Shape__Length":85.383251711123251,"Shape__Area":384.7558526556536,"GeoRefNo":"3503834310","DateCreate":1114790400000,"BuildingBlockType":"Tower","BuildingCSUID":"3503834310T20050430","BuildingID":1106128184,"Status":"Active","BuildingNameEN":"Wing Cheung Building","BuildingNameTC":"永祥大廈","BaseHeight":4.4000000000000004,"TopHeight":43.600000000000001,"Storeys":8,"StoreysInBasement":null,"DateStamp":1599580800000}},{"type":"Feature","id":246638,"geometry":{"type":"Polygon","coordinates":[[[114.16466606326013,22.448183362944057],[114.16469944403305,22.448046474474896],[114.16473197092468,22.448053659106673],[114.16481698233397,22.448072436788685],[114.16478417171693,22.448208479803199],[114.16466606326013,22.448183362944057]]]},"properties":{"OBJECTID":246638,"Shape__Length":55.889153996407458,"Shape__Area":192.91139593260118,"GeoRefNo":"3502234304","DateCreate":1114790400000,"BuildingBlockType":"Tower","BuildingCSUID":"3502234304T20050430","BuildingID":1106128295,"Status":"Active","BuildingNameEN":"Fu Shing Building","BuildingNameTC":"富盛大廈","BaseHeight":4.7000000000000002,"TopHeight":65.400000000000006,"Storeys":13,"StoreysInBasement":null,"DateStamp":1599580800000}},{"type":"Feature","id":246639,"geometry":{"type":"Polygon","coordinates":[[[114.16598014510519,22.44822374316476],[114.16592523714381,22.448111670750652],[114.1660434621205,22.448056863952598],[114.16607297942119,22.448115483305205],[114.16611138617911,22.448193021315618],[114.16599196641582,22.448246040143186],[114.16598014510519,22.44822374316476]]]},"properties":{"OBJECTID":246639,"Shape__Length":60.23084374042466,"Shape__Area":225.36236064691965,"GeoRefNo":"3514934300","DateCreate":1114790400000,"BuildingBlockType":"Tower","BuildingCSUID":"3514934300T20050430","BuildingID":1106128267,"Status":"Active","BuildingNameEN":"Nam Shing Court","BuildingNameTC":"南盛閣","BaseHeight":4,"TopHeight":26.399999999999999,"Storeys":6,"StoreysInBasement":null,"DateStamp":1599580800000}},{"type":"Feature","id":246640,"geometry":{"type":"Polygon","coordinates":[[[114.17286067406485,22.448121536416863],[114.17288022123255,22.448104180641],[114.17285706155887,22.448081387212209],[114.17291352599314,22.448030303332001],[114.17293915318743,22.448055390547104],[114.17308029456242,22.447931459980179],[114.17311036136292,22.447960692248962],[114.17317127514035,22.447907088884541],[114.17320856966036,22.447942931589672],[114.17322278219036,22.447956585951342],[114.17330449596652,22.447884425423364],[114.17319325455792,22.447774422295652],[114.17307658110836,22.447659047289349],[114.17296638013551,22.447755370073548],[114.17286365907427,22.447845154738161],[114.17284332123432,22.447862931221753],[114.17281546945092,22.447835541170253],[114.17285113366233,22.447804838519819],[114.1727988885162,22.447753733894658],[114.17288457585339,22.447678819389075],[114.17286855646259,22.447663629775928],[114.17301514765443,22.447535572477349],[114.1730582707581,22.447578621657417],[114.17308030457717,22.447559838832071],[114.17334813677219,22.447822965119627],[114.1733201572889,22.44784770794946],[114.17338225331689,22.447908484230204],[114.17323367042732,22.448039982413789],[114.17322627756377,22.448033308744908],[114.17322626772398,22.448038131005735],[114.17322451889981,22.448043639541918],[114.17322105055675,22.448048452694788],[114.17321708677147,22.448052579522166],[114.17321214181722,22.448055324668339],[114.17320497218711,22.448056688105233],[114.17319855065799,22.448055983585324],[114.17320569090396,22.448063813147552],[114.17306603596167,22.448184989569228],[114.1730916632055,22.448210311551371],[114.17303618975306,22.448258885050716],[114.17301007677776,22.448233093464911],[114.17299051961525,22.448249961340707],[114.17286067406485,22.448121536416863]]]},"properties":{"OBJECTID":246640,"Shape__Length":338.14389035536203,"Shape__Area":1654.972854131317,"GeoRefNo":"3587834288","DateCreate":1114790400000,"BuildingBlockType":"Tower","BuildingCSUID":"3587834288T20050430","BuildingID":1106128257,"Status":"Active","BuildingNameEN":"The Church Of Christ in China Fung Leung Kit Memorial Secondary School","BuildingNameTC":"中華基督教會馮梁結紀念中學","BaseHeight":5.9000000000000004,"TopHeight":20.899999999999999,"Storeys":6,"StoreysInBasement":null,"DateStamp":1599580800000}},{"type":"Feature","id":246641,"geometry":{"type":"Polygon","coordinates":[[[114.16581394760405,22.44828125587123],[114.16576116447241,22.448171984793195],[114.16579956976675,22.448154329099712],[114.16581017311539,22.448175011183064],[114.16584826037895,22.448249301251341],[114.16586543652321,22.448282803587052],[114.16584385893087,22.448292564036127],[114.16583327127,22.448272344134846],[114.16581394760405,22.44828125587123]]]},"properties":{"OBJECTID":246641,"Shape__Length":40.614909349534152,"Shape__Area":66.638816506461581,"GeoRefNo":"3512834306","DateCreate":1114790400000,"BuildingBlockType":"Tower","BuildingCSUID":"3512834306T20050430","BuildingID":1106128224,"Status":"Active","BuildingNameEN":"Hung Cheong Building","BuildingNameTC":"鴻昌樓","BaseHeight":4.0999999999999996,"TopHeight":25,"Storeys":6,"StoreysInBasement":null,"DateStamp":1599580800000}},{"type":"Feature","id":246676,"geometry":{"type":"Polygon","coordinates":[[[114.16698510272406,22.441364192839696],[114.16722286337716,22.441365101190797],[114.16722243274732,22.441411454509566],[114.16730779346072,22.441411847880889],[114.16730823119076,22.441403350245139],[114.16737306529093,22.441403868795398],[114.16737476064866,22.441472690020007],[114.16736684336171,22.441472969499962],[114.1673673939699,22.441518853292258],[114.16730973885458,22.441517377934947],[114.16730991191238,22.441543764945003],[114.16719659291998,22.441543776278117],[114.16718110702519,22.441559244527951],[114.16698508888804,22.441560099607685],[114.16691174480296,22.441560420211232],[114.16691032104913,22.441363908314173],[114.16698510272406,22.441364192839696]]]},"properties":{"OBJECTID":246676,"Shape__Length":139.58381985019221,"Shape__Area":899.19571350981721,"GeoRefNo":"3524733561","DateCreate":1114790400000,"BuildingBlockType":"Tower","BuildingCSUID":"3524733561T20050430","BuildingID":1106131505,"Status":"Active","BuildingNameEN":"Po Leung Kuk Tin Ka Ping Primary School","BuildingNameTC":"保良局田家炳小學","BaseHeight":9.3000000000000007,"TopHeight":34,"Storeys":null,"StoreysInBasement":null,"DateStamp":1421078400000}},{"type":"Feature","id":246677,"geometry":{"type":"Polygon","coordinates":[[[114.16621203005798,22.441400410671399],[114.16623723447012,22.44140013184234],[114.16623753478252,22.441411121930223],[114.16632081669344,22.441410323666325],[114.16632134479575,22.441363591077117],[114.16663324607926,22.441363222784023],[114.16663367863613,22.441558822544458],[114.16636353932815,22.441559021974467],[114.16634468477326,22.441543289691388],[114.16623593157159,22.441543282586007],[114.16623555477955,22.441516028637498],[114.16617525716505,22.441516963833955],[114.16617429897146,22.44147070073155],[114.16617083089808,22.441470944324813],[114.16617149683846,22.441400858979566],[114.16621203005798,22.441400410671399]]]},"properties":{"OBJECTID":246677,"Shape__Length":139.58118137349479,"Shape__Area":902.98950397250121,"GeoRefNo":"3519333560","DateCreate":1114790400000,"BuildingBlockType":"Tower","BuildingCSUID":"3519333560T20050430","BuildingID":1106131506,"Status":"Active","BuildingNameEN":"Yan Chai Hospital Choi Hin To Primary School","BuildingNameTC":"仁濟醫院蔡衍濤小學","BaseHeight":10.199999999999999,"TopHeight":34.299999999999997,"Storeys":null,"StoreysInBasement":null,"DateStamp":1421078400000}},{"type":"Feature","id":246830,"geometry":{"type":"Polygon","coordinates":[[[114.16459845961998,22.448245741812624],[114.16460279399294,22.448228385614449],[114.16462398181218,22.448232938566552],[114.16462891401503,22.448213614858233],[114.16466333126658,22.448220827099252],[114.16474246825533,22.448237410519166],[114.16477552370714,22.448244337362247],[114.16476674799345,22.448280720393072],[114.16459845961998,22.448245741812624]]]},"properties":{"OBJECTID":246830,"Shape__Length":43.760126588369275,"Shape__Area":68.579722804876894,"GeoRefNo":"3501834313","DateCreate":1114790400000,"BuildingBlockType":"Tower","BuildingCSUID":"3501834313T20050430","BuildingID":1106128237,"Status":"Active","BuildingNameEN":"Fu Wing House","BuildingNameTC":"富榮樓","BaseHeight":4.7999999999999998,"TopHeight":25.300000000000001,"Storeys":6,"StoreysInBasement":null,"DateStamp":1599580800000}},{"type":"Feature","id":246831,"geometry":{"type":"Polygon","coordinates":[[[114.16550168873948,22.448068296204102],[114.16554160109169,22.448144416675358],[114.16550194339146,22.448162411583844],[114.16546278886874,22.448085668055256],[114.16550168873948,22.448068296204102]]]},"properties":{"OBJECTID":246831,"Shape__Length":27.767608503740043,"Shape__Area":42.189025501224201,"GeoRefNo":"3509834298","DateCreate":1114790400000,"BuildingBlockType":"Tower","BuildingCSUID":"3509834298T20050430","BuildingID":1106128338,"Status":"Active","BuildingNameEN":"Kwong Hung Building","BuildingNameTC":"廣興樓","BaseHeight":4.0999999999999996,"TopHeight":27.600000000000001,"Storeys":6,"StoreysInBasement":null,"DateStamp":1599580800000}},{"type":"Feature","id":246832,"geometry":{"type":"Polygon","coordinates":[[[114.16607297942119,22.448115483305205],[114.1660434621205,22.448056863952598],[114.16603728264728,22.448044591878396],[114.16606279481418,22.448033621585399],[114.16610937937561,22.448012376036914],[114.16615325532921,22.447992193270068],[114.16617563319218,22.448035462260858],[114.16618893091982,22.448061199924823],[114.16621454548266,22.448108764999297],[114.16622957214547,22.448138864481407],[114.16613330383186,22.448182312655831],[114.16609318711268,22.448106454200605],[114.16607297942119,22.448115483305205]]]},"properties":{"OBJECTID":246832,"Shape__Length":62.668236227064433,"Shape__Area":218.76820699454163,"GeoRefNo":"3516034291","DateCreate":1114790400000,"BuildingBlockType":"Tower","BuildingCSUID":"3516034291T20050430","BuildingID":1106128327,"Status":"Active","BuildingNameEN":"Po Shing Building","BuildingNameTC":"寶盛樓","BaseHeight":4.2999999999999998,"TopHeight":27.199999999999999,"Storeys":6,"StoreysInBasement":null,"DateStamp":1599580800000}},{"type":"Feature","id":246833,"geometry":{"type":"Polygon","coordinates":[[[114.16511421891312,22.448309092592595],[114.16511767861523,22.448294906005454],[114.16508586283115,22.448288257280055],[114.16511680621467,22.448156216275443],[114.16520843255792,22.448328325238712],[114.16511421891312,22.448309092592595]]]},"properties":{"OBJECTID":246833,"Shape__Length":51.125836249405936,"Shape__Area":104.68084600459774,"GeoRefNo":"3506134316","DateCreate":1114790400000,"BuildingBlockType":"Tower","BuildingCSUID":"3506134316T20050430","BuildingID":1106128192,"Status":"Active","BuildingNameEN":"Chap Biu Building","BuildingNameTC":"集鑣樓","BaseHeight":4.0999999999999996,"TopHeight":27,"Storeys":6,"StoreysInBasement":null,"DateStamp":1599580800000}},{"type":"Feature","id":246834,"geometry":{"type":"Polygon","coordinates":[[[114.16700184453754,22.448059905977043],[114.16718711357352,22.447974200118082],[114.16726449032667,22.44812040384927],[114.16707877637512,22.448205011936587],[114.16706845078103,22.448185695176999],[114.16709244738378,22.44817448983796],[114.16707745929571,22.448145745006276],[114.16705296723654,22.448156950313088],[114.16702986828237,22.448113024796537],[114.16705410773176,22.448102054269576],[114.16703910992797,22.448073544225213],[114.16701512307037,22.448084505734894],[114.16700184453754,22.448059905977043]]]},"properties":{"OBJECTID":246834,"Shape__Length":89.636510793218704,"Shape__Area":363.41494995897898,"GeoRefNo":"3527134292","DateCreate":1114790400000,"BuildingBlockType":"Tower","BuildingCSUID":"3527134292T20050430","BuildingID":1106128296,"Status":"Active","BuildingNameEN":"Mei Wing Building","BuildingNameTC":"美榮樓","BaseHeight":4.5999999999999996,"TopHeight":27.600000000000001,"Storeys":6,"StoreysInBasement":null,"DateStamp":1599580800000}},{"type":"Feature","id":246835,"geometry":{"type":"Polygon","coordinates":[[[114.16881409238599,22.446935800053829],[114.16890470160354,22.446864631743441],[114.16894825045289,22.446911745749283],[114.16896369773453,22.446898977443727],[114.1689862153227,22.446923098879537],[114.1689697868299,22.446936110961605],[114.16900356325078,22.446971846105303],[114.16891282275714,22.447043182249612],[114.16881409238599,22.446935800053829]]]},"properties":{"OBJECTID":246835,"Shape__Length":60.118150802646419,"Shape__Area":198.54246790809452,"GeoRefNo":"3544934163","DateCreate":1114790400000,"BuildingBlockType":"Tower","BuildingCSUID":"3544934163T20050430","BuildingID":1106128989,"Status":"Active","BuildingNameEN":"Prosperity Mansion","BuildingNameTC":"順景大廈","BaseHeight":4.7000000000000002,"TopHeight":49.600000000000001,"Storeys":1,"StoreysInBasement":null,"DateStamp":1599580800000}},{"type":"Feature","id":246836,"geometry":{"type":"Polygon","coordinates":[[[114.16621198677085,22.447123179433646],[114.16612672582615,22.447162107418858],[114.16609512080055,22.44717653742584],[114.1660247136255,22.447208683481971],[114.16600521674034,22.447172169437547],[114.16601392911606,22.447168240149839],[114.16603854668983,22.4471571375033],[114.16607692716151,22.447139827696475],[114.16612493661938,22.447118175143277],[114.16619303527547,22.447087462294501],[114.16621198677085,22.447123179433646]]]},"properties":{"OBJECTID":246836,"Shape__Length":51.88962464406228,"Shape__Area":95.856368454911035,"GeoRefNo":"3515534192","DateCreate":1114790400000,"BuildingBlockType":"Tower","BuildingCSUID":"3515534192T20050430","BuildingID":1106128916,"Status":"Active","BuildingNameEN":"Po Heung Building","BuildingNameTC":"寶香樓","BaseHeight":5.0999999999999996,"TopHeight":31.399999999999999,"Storeys":7,"StoreysInBasement":null,"DateStamp":1599580800000}},{"type":"Feature","id":246837,"geometry":{"type":"Polygon","coordinates":[[[114.16604701550126,22.44706546678799],[114.16603857323045,22.447048995761932],[114.16601798771228,22.44700883307183],[114.16600657753368,22.446986571518902],[114.16605522155109,22.446964540833228],[114.16606629171102,22.446985619732018],[114.1660883598704,22.447027639988594],[114.16609646521832,22.447043073571304],[114.16604701550126,22.44706546678799]]]},"properties":{"OBJECTID":246837,"Shape__Length":30.58680702954597,"Shape__Area":54.347100370026375,"GeoRefNo":"3515334175","DateCreate":1114790400000,"BuildingBlockType":"Tower","BuildingCSUID":"3515334175T20050430","BuildingID":1106128976,"Status":"Active","BuildingNameEN":"Man Hing Building","BuildingNameTC":"萬興樓","BaseHeight":5.0999999999999996,"TopHeight":26.100000000000001,"Storeys":6,"StoreysInBasement":null,"DateStamp":1599580800000}}]}