{"type":"FeatureCollection","features":[{"type":"Feature","id":103703,"geometry":{"type":"Polygon","coordinates":[[[114.16661196764352,22.444051338944682],[114.16656441380918,22.443965578111857],[114.16659901213201,22.44394941507176],[114.16664714180286,22.444034691447005],[114.16661196764352,22.444051338944682]]]},"properties":{"OBJECTID":103703,"Shape__Length":29.397086020762533,"Shape__Area":42.954417088908698,"GeoRefNo":"3521233843","DateCreate":1114790400000,"BuildingBlockType":"Tower","BuildingCSUID":"3521233843T20050430","BuildingID":1106130332,"Status":"Active","BuildingNameEN":null,"BuildingNameTC":null,"BaseHeight":10.6,"TopHeight":18.300000000000001,"Storeys":null,"StoreysInBasement":null,"DateStamp":1602000000000}},{"type":"Feature","id":105834,"geometry":{"type":"Polygon","coordinates":[[[114.16957572850936,22.449055253618624],[114.16939063709481,22.449139117204766],[114.16927160157097,22.448913469704582],[114.169280132526,22.448892709189273],[114.16923143662625,22.448799620386403],[114.16925904979281,22.448787535150011],[114.16923421575926,22.448739459385209],[114.16927856616212,22.448717481081175],[114.16927775195728,22.448715604063885],[114.16933998761678,22.448687043020037],[114.16936828480844,22.448739729245133],[114.16935002377197,22.448747858061971],[114.16938800999756,22.448818596061113],[114.16944238285811,22.448794234767824],[114.16957572850936,22.449055253618624]]]},"properties":{"OBJECTID":105834,"Shape__Length":140.10823528865529,"Shape__Area":876.63089910325914,"GeoRefNo":"3549634387","DateCreate":1114790400000,"BuildingBlockType":"Tower","BuildingCSUID":"3549634387T20050430","BuildingID":1106127449,"Status":"Active","BuildingNameEN":"Sung Tak Wong Kin Sheung Memorial School","BuildingNameTC":"大埔崇德黃建常紀念學校","BaseHeight":4.5999999999999996,"TopHeight":8.3000000000000007,"Storeys":null,"StoreysInBasement":null,"DateStamp":1599926400000}},{"type":"Feature","id":105853,"geometry":{"type":"Polygon","coordinates":[[[114.16646152209337,22.444393607448205],[114.16638657369555,22.444392672476067],[114.16639405660318,22.444357508367318],[114.16639939162197,22.444335040939439],[114.16640817363087,22.444335366603504],[114.1664081146923,22.444321982832665],[114.16646229862083,22.444323904844786],[114.16646152209337,22.444393607448205]]]},"properties":{"OBJECTID":105853,"Shape__Length":29.920380936543204,"Shape__Area":53.197483498862496,"GeoRefNo":"3519233882","DateCreate":1114790400000,"BuildingBlockType":"Tower","BuildingCSUID":"3519233882T20050430","BuildingID":1106130181,"Status":"Active","BuildingNameEN":null,"BuildingNameTC":null,"BaseHeight":6.5,"TopHeight":11.4,"Storeys":null,"StoreysInBasement":null,"DateStamp":1464883200000}},{"type":"Feature","id":105906,"geometry":{"type":"Polygon","coordinates":[[[114.16646152209337,22.444393607448205],[114.16646057495662,22.44445834672123],[114.16648139334612,22.444459684565643],[114.16647984032635,22.444483720467467],[114.16644611386926,22.444478683550059],[114.1664197326987,22.444469227685367],[114.16641995793417,22.444459454850929],[114.16638600528832,22.44445883858511],[114.16638657369555,22.444392672476067],[114.16646152209337,22.444393607448205]]]},"properties":{"OBJECTID":105906,"Shape__Length":38.031964779174487,"Shape__Area":69.422168368033454,"GeoRefNo":"3519133889","DateCreate":1114790400000,"BuildingBlockType":"Tower","BuildingCSUID":"3519133889T20050430","BuildingID":1106130131,"Status":"Active","BuildingNameEN":null,"BuildingNameTC":null,"BaseHeight":6.0999999999999996,"TopHeight":10.800000000000001,"Storeys":null,"StoreysInBasement":null,"DateStamp":1463932800000}},{"type":"Feature","id":105907,"geometry":{"type":"Polygon","coordinates":[[[114.16632996292132,22.44448624617106],[114.16629480787928,22.444489591016978],[114.16629169639222,22.444466225865391],[114.16632685269136,22.44446288092993],[114.16632996292132,22.44448624617106]]]},"properties":{"OBJECTID":105907,"Shape__Length":12.489711559419522,"Shape__Area":9.4818929283621678,"GeoRefNo":"3518033895","DateCreate":1114790400000,"BuildingBlockType":"Tower","BuildingCSUID":"3518033895T20050430","BuildingID":1106130132,"Status":"Active","BuildingNameEN":null,"BuildingNameTC":null,"BaseHeight":7.2000000000000002,"TopHeight":12.6,"Storeys":null,"StoreysInBasement":null,"DateStamp":1463932800000}},{"type":"Feature","id":106026,"geometry":{"type":"Polygon","coordinates":[[[114.16641713483371,22.444290731808479],[114.16646251640947,22.44429143603697],[114.16646229862083,22.444323904844786],[114.1664081146923,22.444321982832665],[114.16640822942745,22.444290730872122],[114.16641713483371,22.444290731808479]]]},"properties":{"OBJECTID":106026,"Shape__Length":18.226727819086047,"Shape__Area":19.734901004234214,"GeoRefNo":"3519333876","DateCreate":1114790400000,"BuildingBlockType":"Tower","BuildingCSUID":"3519333876T20050430","BuildingID":1106130210,"Status":"Active","BuildingNameEN":null,"BuildingNameTC":null,"BaseHeight":6.5,"TopHeight":11.199999999999999,"Storeys":null,"StoreysInBasement":null,"DateStamp":1464883200000}},{"type":"Feature","id":106029,"geometry":{"type":"Polygon","coordinates":[[[114.16646251640947,22.44429143603697],[114.16641713483371,22.444290731808479],[114.16641431971303,22.444280514027614],[114.1664581759281,22.4442637820651],[114.16646251640947,22.44429143603697]]]},"properties":{"OBJECTID":106029,"Shape__Length":13.814719986938295,"Shape__Area":9.9577571049074436,"GeoRefNo":"3519433873","DateCreate":1114790400000,"BuildingBlockType":"Tower","BuildingCSUID":"3519433873T20050430","BuildingID":1106130226,"Status":"Active","BuildingNameEN":null,"BuildingNameTC":null,"BaseHeight":6.9000000000000004,"TopHeight":11.199999999999999,"Storeys":null,"StoreysInBasement":null,"DateStamp":1463932800000}},{"type":"Feature","id":106491,"geometry":{"type":"Polygon","coordinates":[[[114.17158925613842,22.448002581580763],[114.17156183769526,22.448002592335968],[114.17156186975518,22.447820270681952],[114.17156160773128,22.447597254637685],[114.17158878020017,22.447597544498251],[114.17158904574956,22.447823549622079],[114.17158925613842,22.448002581580763]]]},"properties":{"OBJECTID":106491,"Shape__Length":95.357547696798648,"Shape__Area":125.75278094528535,"GeoRefNo":"3572234267","DateCreate":1207843200000,"BuildingBlockType":"Open-sided Structure","BuildingCSUID":"3572234267T20080411","BuildingID":1106128429,"Status":"Active","BuildingNameEN":null,"BuildingNameTC":null,"BaseHeight":null,"TopHeight":null,"Storeys":null,"StoreysInBasement":null,"DateStamp":1464192000000}},{"type":"Feature","id":106641,"geometry":{"type":"Polygon","coordinates":[[[114.16964663693015,22.446584691134625],[114.16963970992738,22.446606601955605],[114.16962205450517,22.446601778995657],[114.16962898151047,22.446579868175416],[114.16964663693015,22.446584691134625]]]},"properties":{"OBJECTID":106641,"Shape__Length":8.8463062321950243,"Shape__Area":4.7903588156529517,"GeoRefNo":"3552334129","DateCreate":1436457600000,"BuildingBlockType":"Tower","BuildingCSUID":"3552334129T20150710","BuildingID":1810143929,"Status":"Active","BuildingNameEN":null,"BuildingNameTC":null,"BaseHeight":28.800000000000001,"TopHeight":31.100000000000001,"Storeys":1,"StoreysInBasement":null,"DateStamp":1599580800000}},{"type":"Feature","id":106663,"geometry":{"type":"Polygon","coordinates":[[[114.17160591518093,22.447535469457545],[114.17160558415526,22.447554668187546],[114.17158130012039,22.447554306360903],[114.17158163114942,22.447535107630934],[114.17160591518093,22.447535469457545]]]},"properties":{"OBJECTID":106663,"Shape__Length":9.252543109683506,"Shape__Area":5.3156789988685622,"GeoRefNo":"3572434234","DateCreate":1464192000000,"BuildingBlockType":"Tower","BuildingCSUID":"3572434234T20160526","BuildingID":1810151626,"Status":"Active","BuildingNameEN":null,"BuildingNameTC":null,"BaseHeight":4.9000000000000004,"TopHeight":7.9000000000000004,"Storeys":null,"StoreysInBasement":null,"DateStamp":1464192000000}},{"type":"Feature","id":106702,"geometry":{"type":"Polygon","coordinates":[[[114.17219965235921,22.44697155420409],[114.1721990399389,22.446945207931417],[114.17222503806718,22.446945032492525],[114.17222524121814,22.44697104020171],[114.17219965235921,22.44697155420409]]]},"properties":{"OBJECTID":106702,"Shape__Length":11.109067285727109,"Shape__Area":7.6979655886428189,"GeoRefNo":"3578834169","DateCreate":1464278400000,"BuildingBlockType":"Tower","BuildingCSUID":"3578834169T20160527","BuildingID":1810151647,"Status":"Active","BuildingNameEN":null,"BuildingNameTC":null,"BaseHeight":2.2000000000000002,"TopHeight":8.1999999999999993,"Storeys":null,"StoreysInBasement":null,"DateStamp":1464278400000}},{"type":"Feature","id":106704,"geometry":{"type":"Polygon","coordinates":[[[114.17155432271474,22.448080148766969],[114.17155429582428,22.448020656152643],[114.17159509838537,22.448020640235217],[114.17159512529322,22.44808013284953],[114.17155432271474,22.448080148766969]]]},"properties":{"OBJECTID":106704,"Shape__Length":21.576002233203841,"Shape__Area":27.669605726159787,"GeoRefNo":"3572234290","DateCreate":1464278400000,"BuildingBlockType":"Tower","BuildingCSUID":"3572234290T20160527","BuildingID":1810151651,"Status":"Active","BuildingNameEN":null,"BuildingNameTC":null,"BaseHeight":5,"TopHeight":8,"Storeys":null,"StoreysInBasement":null,"DateStamp":1464710400000}},{"type":"Feature","id":106971,"geometry":{"type":"Polygon","coordinates":[[[114.16567622854552,22.444229923657847],[114.16573609647217,22.444199943513457],[114.16575201332965,22.444227798957048],[114.16569207490819,22.444258469570986],[114.16567622854552,22.444229923657847]]]},"properties":{"OBJECTID":106971,"Shape__Length":21.092819744000668,"Shape__Area":24.746230247629533,"GeoRefNo":"3511933867","DateCreate":1533744000000,"BuildingBlockType":"Tower","BuildingCSUID":"3511933867T20180809","BuildingID":1810178445,"Status":"Active","BuildingNameEN":null,"BuildingNameTC":null,"BaseHeight":12,"TopHeight":19.699999999999999,"Storeys":null,"StoreysInBasement":null,"DateStamp":1533744000000}},{"type":"Feature","id":106981,"geometry":{"type":"Polygon","coordinates":[[[114.1662476436842,22.4439260840735],[114.16628817367716,22.444002399948641],[114.16625179263261,22.44401909659533],[114.16621012094636,22.443943400305923],[114.1662476436842,22.4439260840735]]]},"properties":{"OBJECTID":106981,"Shape__Length":27.329665584786234,"Shape__Area":39.982354554507985,"GeoRefNo":"3517433839","DateCreate":1489334400000,"BuildingBlockType":"Tower","BuildingCSUID":"3517433839T20170313","BuildingID":1810159923,"Status":"Active","BuildingNameEN":null,"BuildingNameTC":null,"BaseHeight":11.1,"TopHeight":19.300000000000001,"Storeys":null,"StoreysInBasement":null,"DateStamp":1533744000000}},{"type":"Feature","id":107699,"geometry":{"type":"Polygon","coordinates":[[[114.16646118331185,22.449127214404566],[114.16650972848539,22.449104379420049],[114.16648289201547,22.449053747488577],[114.16652623587783,22.449033359146171],[114.1665545751534,22.449086826456746],[114.16656057252072,22.449083848235098],[114.16656673485777,22.449080737095528],[114.16653839140091,22.449027275475956],[114.16658135198122,22.449005707536813],[114.16660879758646,22.449057932281619],[114.16665697941507,22.449034507631502],[114.16667761303984,22.449074388392937],[114.16662636981077,22.449099258720786],[114.16662937559606,22.449104929491774],[114.16661723923615,22.449110638315986],[114.16662110370611,22.449117929294523],[114.16663323996933,22.44911222056032],[114.16663624565804,22.449117891331174],[114.16668793701533,22.449093412046899],[114.16670929822446,22.449133120639097],[114.16666075307357,22.449155955593248],[114.16668690570943,22.449206365934568],[114.16664424563794,22.449226975970127],[114.16661590629953,22.4491735086762],[114.16660374658922,22.449179597950746],[114.1666320901992,22.449233059557852],[114.16658855551572,22.44925307080446],[114.16656168392015,22.449202402853288],[114.16651360755719,22.449224042883678],[114.16649209892401,22.449185542440507],[114.16654411160488,22.449161076317292],[114.16654110591899,22.449155405544776],[114.16655324218877,22.449149696816612],[114.16654937772151,22.449142405836472],[114.16653724145219,22.449148114564355],[114.16653423576686,22.44914244379169],[114.16648222309122,22.449166909821471],[114.16646118331185,22.449127214404566]]]},"properties":{"OBJECTID":107699,"Shape__Length":150.29813680226539,"Shape__Area":367.49624256428672,"GeoRefNo":"3520934409","DateCreate":1158163200000,"BuildingBlockType":"Tower","BuildingCSUID":"3520934409T20060914","BuildingID":1106127373,"Status":"Active","BuildingNameEN":"Central Plaza","BuildingNameTC":"中嘉閣","BaseHeight":10.5,"TopHeight":48,"Storeys":13,"StoreysInBasement":null,"DateStamp":1599580800000}},{"type":"Feature","id":108084,"geometry":{"type":"Polygon","coordinates":[[[114.16661620591675,22.44929136329112],[114.16654432636474,22.44930899645534],[114.1664996439751,22.449224695071937],[114.16640081977265,22.449038244956014],[114.16658501141247,22.448954193837015],[114.16663687246044,22.448970582333494],[114.16671064691508,22.449109579694987],[114.16676875786588,22.449218881034824],[114.1667577780853,22.449256633319283],[114.16661620591675,22.44929136329112]]]},"properties":{"OBJECTID":108084,"Shape__Length":117.90147981598187,"Shape__Area":889.54148394250956,"GeoRefNo":"3520734404","DateCreate":1157558400000,"BuildingBlockType":"Podium","BuildingCSUID":"3520734404P20060907","BuildingID":1106137478,"Status":"Active","BuildingNameEN":"CENTRAL PLAZA","BuildingNameTC":"中嘉閣","BaseHeight":4.2000000000000002,"TopHeight":10.5,"Storeys":3,"StoreysInBasement":null,"DateStamp":1599580800000}},{"type":"Feature","id":109169,"geometry":{"type":"Polygon","coordinates":[[[114.16542501549526,22.444888545225069],[114.16546769431015,22.444976682855952],[114.16541809015359,22.444997008262177],[114.16537543292678,22.444908915320678],[114.16542501549526,22.444888545225069]]]},"properties":{"OBJECTID":109169,"Shape__Length":32.561304712007555,"Shape__Area":59.708787489406973,"GeoRefNo":"3508933946","DateCreate":1460995200000,"BuildingBlockType":"Tower","BuildingCSUID":"3508933946T20160419","BuildingID":1810150721,"Status":"Active","BuildingNameEN":null,"BuildingNameTC":null,"BaseHeight":11.199999999999999,"TopHeight":19.399999999999999,"Storeys":null,"StoreysInBasement":null,"DateStamp":1460995200000}},{"type":"Feature","id":109601,"geometry":{"type":"Polygon","coordinates":[[[114.16661444040548,22.444391937540953],[114.16654108501349,22.444393648664878],[114.16653899230754,22.444317034148064],[114.16661248365888,22.444315395277332],[114.16661444040548,22.444391937540953]]]},"properties":{"OBJECTID":109601,"Shape__Length":32.085734901925171,"Shape__Area":64.130714005127246,"GeoRefNo":"3520833881","DateCreate":1345132800000,"BuildingBlockType":"Tower","BuildingCSUID":"3520833881T20120817","BuildingID":1810088014,"Status":"Active","BuildingNameEN":null,"BuildingNameTC":null,"BaseHeight":5.4000000000000004,"TopHeight":13.800000000000001,"Storeys":null,"StoreysInBasement":null,"DateStamp":1483545600000}},{"type":"Feature","id":110545,"geometry":{"type":"Polygon","coordinates":[[[114.1668022931369,22.446407618951547],[114.16646666519215,22.446560113055082],[114.16632504777732,22.446624716783454],[114.16618118615338,22.446688778411708],[114.16617158931955,22.446670590445922],[114.1659187311534,22.446191110664525],[114.16628092961464,22.446026130316064],[114.16622339744758,22.445916614232686],[114.16636125757779,22.445812158951515],[114.16651529359308,22.445740646779022],[114.16656017449073,22.445719810606551],[114.16674781905367,22.445632695181576],[114.16675592840433,22.445628930350217],[114.16684955919847,22.445807367012666],[114.16688333198238,22.445871729323294],[114.16698477067654,22.446065045139164],[114.1670712884895,22.446229925164285],[114.16707598378173,22.446227873187503],[114.16707832530727,22.446226849907848],[114.16708390360175,22.446224412022641],[114.16708624172692,22.446223390187527],[114.16711047009765,22.446267595898863],[114.16710261390003,22.446271165434297],[114.16709563060211,22.44627433840451],[114.16708864730387,22.446277511374429],[114.16708166400532,22.44628068425375],[114.16707468070646,22.446283857223058],[114.16706769740729,22.446287030101765],[114.16706091180976,22.446290113229427],[114.16705392850993,22.44629328610754],[114.16704694520982,22.446296459075636],[114.16703996190937,22.446299631953121],[114.16703204858345,22.446303227489345],[114.16702506528232,22.446306400366201],[114.16701808198087,22.446309573333046],[114.16701109867911,22.44631274629959],[114.16700274117787,22.446316543547635],[114.16699575787541,22.446319716513511],[114.16698877457264,22.446322889388799],[114.16698475233154,22.446324716997331],[114.16698179126955,22.44632606235405],[114.16697320303335,22.446329964430046],[114.16696621972955,22.446333137394646],[114.16695923642541,22.446336310358948],[114.16695225312098,22.446339483232613],[114.16694344279611,22.446343486344183],[114.16693645949097,22.446346659217177],[114.16692947608837,22.446349832180172],[114.16692249278258,22.446353005052575],[114.16691391328662,22.446356903242826],[114.16690692998012,22.446360076204847],[114.16689994667333,22.446363249076256],[114.16689296326905,22.44636642203767],[114.16688410106217,22.446370448712265],[114.16687711775431,22.446373621582676],[114.16687013444614,22.446376794543099],[114.16686315113766,22.446379967412916],[114.16685529483021,22.446383537026541],[114.16684859588199,22.446386580687523],[114.1668022931369,22.446407618951547]]]},"properties":{"OBJECTID":110545,"Shape__Length":367.77294097699007,"Shape__Area":7536.9078938889497,"GeoRefNo":"3518934094","DateCreate":1142006400000,"BuildingBlockType":"Podium","BuildingCSUID":"3518934094P20060311","BuildingID":1106137488,"Status":"Active","BuildingNameEN":"Tai Po Hui Market and Cooked Food Centre","BuildingNameTC":"大埔墟街市及熟食中心","BaseHeight":4.7000000000000002,"TopHeight":18.600000000000001,"Storeys":null,"StoreysInBasement":null,"DateStamp":1407859200000}},{"type":"Feature","id":110597,"geometry":{"type":"Polygon","coordinates":[[[114.16827098696839,22.44575397379927],[114.16829261628746,22.44568356946364],[114.16834241475513,22.445696794392717],[114.16834239289464,22.445696832770999],[114.16830474319381,22.445762867784971],[114.16827098696839,22.44575397379927]]]},"properties":{"OBJECTID":110597,"Shape__Length":25.331601038169872,"Shape__Area":36.23404409612543,"GeoRefNo":"3538634033","DateCreate":1373990400000,"BuildingBlockType":"Open-sided Structure","BuildingCSUID":"3538634033T20130717","BuildingID":1810102784,"Status":"Active","BuildingNameEN":"VALTORTA COLLEGE","BuildingNameTC":"恩主教書院","BaseHeight":null,"TopHeight":null,"Storeys":null,"StoreysInBasement":null,"DateStamp":1407772800000}},{"type":"Feature","id":112021,"geometry":{"type":"Polygon","coordinates":[[[114.16661196764352,22.444051338944682],[114.16657860308099,22.444067129920676],[114.1665308791689,22.44398123442323],[114.16656441380918,22.443965578111857],[114.16661196764352,22.444051338944682]]]},"properties":{"OBJECTID":112021,"Shape__Length":29.106549045476878,"Shape__Area":41.263893155715614,"GeoRefNo":"3520733843","DateCreate":1602000000000,"BuildingBlockType":"Tower","BuildingCSUID":"3520733843T20201007","BuildingID":1810203384,"Status":"Active","BuildingNameEN":null,"BuildingNameTC":null,"BaseHeight":11,"TopHeight":19.199999999999999,"Storeys":null,"StoreysInBasement":null,"DateStamp":1602000000000}},{"type":"Feature","id":113622,"geometry":{"type":"Polygon","coordinates":[[[114.16636103869162,22.444321121258699],[114.16635610917272,22.444340783671642],[114.1662989063134,22.444368494324237],[114.16628180654719,22.444335850007164],[114.16633561830423,22.444312064137044],[114.16636099674356,22.444302758547355],[114.16636103869162,22.444321121258699]]]},"properties":{"OBJECTID":113622,"Shape__Length":23.871593096135847,"Shape__Area":30.691116075537334,"GeoRefNo":"3518233879","DateCreate":1114790400000,"BuildingBlockType":"Tower","BuildingCSUID":"3518233879T20050430","BuildingID":1106130188,"Status":"Active","BuildingNameEN":null,"BuildingNameTC":null,"BaseHeight":7,"TopHeight":12.9,"Storeys":null,"StoreysInBasement":null,"DateStamp":1458662400000}},{"type":"Feature","id":115105,"geometry":{"type":"Polygon","coordinates":[[[114.1642299925832,22.446955072264178],[114.16429364114812,22.44687977228044],[114.16433985151099,22.446913423331164],[114.16427592121923,22.446988795554475],[114.1642299925832,22.446955072264178]]]},"properties":{"OBJECTID":115105,"Shape__Length":33.300340219596677,"Shape__Area":64.055992506056256,"GeoRefNo":"3497234167","DateCreate":1289404800000,"BuildingBlockType":"Tower","BuildingCSUID":"3497234167T20101111","BuildingID":1810022163,"Status":"Active","BuildingNameEN":null,"BuildingNameTC":null,"BaseHeight":7.5,"TopHeight":15.5,"Storeys":null,"StoreysInBasement":null,"DateStamp":1454342400000}},{"type":"Feature","id":118423,"geometry":{"type":"Polygon","coordinates":[[[114.16536890850864,22.445035819204261],[114.16539981276838,22.445098684287558],[114.16534219918221,22.445122551207831],[114.16531145739501,22.445059417108048],[114.16536890850864,22.445035819204261]]]},"properties":{"OBJECTID":118423,"Shape__Length":28.286208633411764,"Shape__Area":49.653654703293547,"GeoRefNo":"3508133962","DateCreate":1114790400000,"BuildingBlockType":"Tower","BuildingCSUID":"3508133962T20050430","BuildingID":1106129896,"Status":"Active","BuildingNameEN":null,"BuildingNameTC":null,"BaseHeight":9.9000000000000004,"TopHeight":18.699999999999999,"Storeys":null,"StoreysInBasement":null,"DateStamp":1362067200000}},{"type":"Feature","id":118433,"geometry":{"type":"Polygon","coordinates":[[[114.16572712728191,22.445181253450105],[114.16575757209496,22.44524459433719],[114.16571683523742,22.445261700634457],[114.16568603494443,22.445198783333897],[114.16572712728191,22.445181253450105]]]},"properties":{"OBJECTID":118433,"Shape__Length":24.592514062952851,"Shape__Area":35.487188056162879,"GeoRefNo":"3512033978","DateCreate":1114790400000,"BuildingBlockType":"Tower","BuildingCSUID":"3512033978T20050430","BuildingID":1106129833,"Status":"Active","BuildingNameEN":null,"BuildingNameTC":null,"BaseHeight":7.2999999999999998,"TopHeight":15.199999999999999,"Storeys":null,"StoreysInBasement":null,"DateStamp":1362067200000}},{"type":"Feature","id":118434,"geometry":{"type":"Polygon","coordinates":[[[114.16525832828545,22.445170117646992],[114.16532655596031,22.445141866686622],[114.16535313181032,22.445196836504259],[114.16527875342199,22.445228889308122],[114.16525189696651,22.44517240189046],[114.16525832828545,22.445170117646992]]]},"properties":{"OBJECTID":118434,"Shape__Length":30.348599985522867,"Shape__Area":56.720207132652774,"GeoRefNo":"3507733973","DateCreate":1114790400000,"BuildingBlockType":"Tower","BuildingCSUID":"3507733973T20050430","BuildingID":1106129850,"Status":"Active","BuildingNameEN":null,"BuildingNameTC":null,"BaseHeight":9.5999999999999996,"TopHeight":19.100000000000001,"Storeys":null,"StoreysInBasement":null,"DateStamp":1362067200000}},{"type":"Feature","id":118484,"geometry":{"type":"Polygon","coordinates":[[[114.16589365070477,22.445285191900989],[114.16585890520294,22.445214667472449],[114.16588751807068,22.445202699458491],[114.16592217458836,22.445273338019895],[114.16589365070477,22.445285191900989]]]},"properties":{"OBJECTID":118484,"Shape__Length":23.632971022840021,"Shape__Area":27.69601303811605,"GeoRefNo":"3513833981","DateCreate":1114790400000,"BuildingBlockType":"Tower","BuildingCSUID":"3513833981T20050430","BuildingID":1106129822,"Status":"Active","BuildingNameEN":null,"BuildingNameTC":null,"BaseHeight":6.7999999999999998,"TopHeight":18.100000000000001,"Storeys":null,"StoreysInBasement":null,"DateStamp":1362067200000}},{"type":"Feature","id":118486,"geometry":{"type":"Polygon","coordinates":[[[114.1658515522363,22.445121028113061],[114.16591905030897,22.445092546937033],[114.16595280343242,22.445162110807612],[114.16588546865293,22.44519038963611],[114.1658515522363,22.445121028113061]]]},"properties":{"OBJECTID":118486,"Shape__Length":32.123782862019929,"Shape__Area":64.325536693727472,"GeoRefNo":"3514033968","DateCreate":1114790400000,"BuildingBlockType":"Tower","BuildingCSUID":"3514033968T20050430","BuildingID":1106129868,"Status":"Active","BuildingNameEN":null,"BuildingNameTC":null,"BaseHeight":7.4000000000000004,"TopHeight":16.399999999999999,"Storeys":null,"StoreysInBasement":null,"DateStamp":1362067200000}},{"type":"Feature","id":118487,"geometry":{"type":"Polygon","coordinates":[[[114.1659139980988,22.445191623594283],[114.16596859900821,22.445168785377863],[114.1660035858521,22.445239505218435],[114.16594863810606,22.445262340352738],[114.1659139980988,22.445191623594283]]]},"properties":{"OBJECTID":118487,"Shape__Length":29.583085667682777,"Shape__Area":53.216328164380108,"GeoRefNo":"3514433977","DateCreate":1114790400000,"BuildingBlockType":"Tower","BuildingCSUID":"3514433977T20050430","BuildingID":1106129832,"Status":"Active","BuildingNameEN":null,"BuildingNameTC":null,"BaseHeight":6.5999999999999996,"TopHeight":13.9,"Storeys":null,"StoreysInBasement":null,"DateStamp":1362067200000}},{"type":"Feature","id":118490,"geometry":{"type":"Polygon","coordinates":[[[114.1646685062631,22.445137205570401],[114.16458638316062,22.445075620327888],[114.16462279511038,22.445033142023213],[114.16470520919827,22.44509427538544],[114.1646685062631,22.445137205570401]]]},"properties":{"OBJECTID":118490,"Shape__Length":33.801830556731574,"Shape__Area":65.615911317311486,"GeoRefNo":"3500833961","DateCreate":1114790400000,"BuildingBlockType":"Tower","BuildingCSUID":"3500833961T20050430","BuildingID":1106129890,"Status":"Active","BuildingNameEN":null,"BuildingNameTC":null,"BaseHeight":30.899999999999999,"TopHeight":39.899999999999999,"Storeys":null,"StoreysInBasement":null,"DateStamp":1362067200000}},{"type":"Feature","id":118812,"geometry":{"type":"Polygon","coordinates":[[[114.16562223197604,22.443105392886501],[114.16563832755168,22.443123310430114],[114.1656107171013,22.443144277232669],[114.1655949379867,22.443126859363559],[114.16562223197604,22.443105392886501]]]},"properties":{"OBJECTID":118812,"Shape__Length":12.456802615686311,"Shape__Area":9.3831542334761018,"GeoRefNo":"3510933744","DateCreate":1120492800000,"BuildingBlockType":"Tower","BuildingCSUID":"3510933744T20050705","BuildingID":1106130790,"Status":"Active","BuildingNameEN":"LAW TING PONG SECONDARY SCHOOL","BuildingNameTC":"羅定邦中學","BaseHeight":12.199999999999999,"TopHeight":14.300000000000001,"Storeys":null,"StoreysInBasement":null,"DateStamp":1362067200000}},{"type":"Feature","id":118903,"geometry":{"type":"Polygon","coordinates":[[[114.16573919927602,22.445157739067579],[114.16570931363051,22.445170357069976],[114.16569584148839,22.445142324255436],[114.16567650139135,22.445102081588594],[114.16570623818075,22.445089655840253],[114.16573919927602,22.445157739067579]]]},"properties":{"OBJECTID":118903,"Shape__Length":23.283146999344346,"Shape__Area":27.862348925855237,"GeoRefNo":"3511933968","DateCreate":1114790400000,"BuildingBlockType":"Tower","BuildingCSUID":"3511933968T20050430","BuildingID":1106129878,"Status":"Active","BuildingNameEN":null,"BuildingNameTC":null,"BaseHeight":7.9000000000000004,"TopHeight":13.6,"Storeys":null,"StoreysInBasement":null,"DateStamp":1362067200000}},{"type":"Feature","id":118913,"geometry":{"type":"Polygon","coordinates":[[[114.16620574779692,22.44512510280348],[114.16615165019377,22.445079089065313],[114.16620732937251,22.44502282397935],[114.16626120352889,22.445068909928189],[114.16620574779692,22.44512510280348]]]},"properties":{"OBJECTID":118913,"Shape__Length":31.994668808595481,"Shape__Area":63.770283006134264,"GeoRefNo":"3517033960","DateCreate":1114790400000,"BuildingBlockType":"Tower","BuildingCSUID":"3517033960T20050430","BuildingID":1106129894,"Status":"Active","BuildingNameEN":null,"BuildingNameTC":null,"BaseHeight":7.2999999999999998,"TopHeight":15.4,"Storeys":null,"StoreysInBasement":null,"DateStamp":1362067200000}},{"type":"Feature","id":118915,"geometry":{"type":"Polygon","coordinates":[[[114.16532655596031,22.445141866686622],[114.16525832828545,22.445170117646992],[114.1652240801151,22.445099858250778],[114.16529252246839,22.445071471411651],[114.16532655596031,22.445141866686622]]]},"properties":{"OBJECTID":118915,"Shape__Length":32.491184790508228,"Shape__Area":65.801614270077849,"GeoRefNo":"3507433965","DateCreate":1114790400000,"BuildingBlockType":"Tower","BuildingCSUID":"3507433965T20050430","BuildingID":1106129879,"Status":"Active","BuildingNameEN":null,"BuildingNameTC":null,"BaseHeight":10,"TopHeight":18.899999999999999,"Storeys":null,"StoreysInBasement":null,"DateStamp":1362067200000}},{"type":"Feature","id":118963,"geometry":{"type":"Polygon","coordinates":[[[114.16573919927602,22.445157739067579],[114.16570623818075,22.445089655840253],[114.16573046985532,22.44507953048689],[114.1657637571988,22.445147370451281],[114.16573919927602,22.445157739067579]]]},"properties":{"OBJECTID":118963,"Shape__Length":22.035674416520088,"Shape__Area":22.76731136689698,"GeoRefNo":"3512233967","DateCreate":1114790400000,"BuildingBlockType":"Tower","BuildingCSUID":"3512233967T20050430","BuildingID":1106129881,"Status":"Active","BuildingNameEN":null,"BuildingNameTC":null,"BaseHeight":8,"TopHeight":17.800000000000001,"Storeys":null,"StoreysInBasement":null,"DateStamp":1362067200000}},{"type":"Feature","id":119009,"geometry":{"type":"Polygon","coordinates":[[[114.16590923986409,22.444826789022489],[114.16593560155576,22.444877072377444],[114.16586270978121,22.444909586105361],[114.16583634816382,22.444858616424138],[114.16590923986409,22.444826789022489]]]},"properties":{"OBJECTID":119009,"Shape__Length":29.069037565075458,"Shape__Area":51.731800008024365,"GeoRefNo":"3513633939","DateCreate":1114790400000,"BuildingBlockType":"Tower","BuildingCSUID":"3513633939T20050430","BuildingID":1106130003,"Status":"Active","BuildingNameEN":null,"BuildingNameTC":null,"BaseHeight":8.1999999999999993,"TopHeight":17.600000000000001,"Storeys":null,"StoreysInBasement":null,"DateStamp":1362067200000}},{"type":"Feature","id":119011,"geometry":{"type":"Polygon","coordinates":[[[114.16584178336278,22.445306746508585],[114.16580704787719,22.445236358068403],[114.16583087076269,22.445226393594918],[114.16586558691984,22.445296854362674],[114.16584178336278,22.445306746508585]]]},"properties":{"OBJECTID":119011,"Shape__Length":22.530568083714297,"Shape__Area":23.046246586652472,"GeoRefNo":"3513233983","DateCreate":1114790400000,"BuildingBlockType":"Tower","BuildingCSUID":"3513233983T20050430","BuildingID":1106129810,"Status":"Active","BuildingNameEN":null,"BuildingNameTC":null,"BaseHeight":7,"TopHeight":12.9,"Storeys":null,"StoreysInBasement":null,"DateStamp":1362067200000}},{"type":"Feature","id":119013,"geometry":{"type":"Polygon","coordinates":[[[114.16570529747391,22.444937928154044],[114.16568778951292,22.444902303878774],[114.16566668130591,22.444859354298945],[114.16569780820355,22.444845846889784],[114.16570052798205,22.444849983025737],[114.16573850719709,22.444930720435693],[114.16570832135731,22.444944080901646],[114.16570529747391,22.444937928154044]]]},"properties":{"OBJECTID":119013,"Shape__Length":27.58735160393833,"Shape__Area":36.293790782459162,"GeoRefNo":"3511833940","DateCreate":1114790400000,"BuildingBlockType":"Tower","BuildingCSUID":"3511833940T20050430","BuildingID":1106129987,"Status":"Active","BuildingNameEN":null,"BuildingNameTC":null,"BaseHeight":9.5,"TopHeight":20.300000000000001,"Storeys":null,"StoreysInBasement":null,"DateStamp":1362067200000}},{"type":"Feature","id":119014,"geometry":{"type":"Polygon","coordinates":[[[114.16625638276611,22.444970865966489],[114.166291403865,22.444975266089887],[114.16628519296319,22.445017817186237],[114.16624984145716,22.445014699364396],[114.16625638276611,22.444970865966489]]]},"properties":{"OBJECTID":119014,"Shape__Length":16.948626757829615,"Shape__Area":17.596921998731581,"GeoRefNo":"3517533951","DateCreate":1114790400000,"BuildingBlockType":"Tower","BuildingCSUID":"3517533951T20050430","BuildingID":1106129954,"Status":"Active","BuildingNameEN":null,"BuildingNameTC":null,"BaseHeight":6.9000000000000004,"TopHeight":9.8000000000000007,"Storeys":null,"StoreysInBasement":null,"DateStamp":1362067200000}},{"type":"Feature","id":119016,"geometry":{"type":"Polygon","coordinates":[[[114.16557756785954,22.444940625360335],[114.16553928428067,22.444955785992519],[114.16550991156645,22.444894600435948],[114.16554903689783,22.444878370573317],[114.16557756785954,22.444940625360335]]]},"properties":{"OBJECTID":119016,"Shape__Length":23.60662410916251,"Shape__Area":32.409867822241822,"GeoRefNo":"3510133944","DateCreate":1114790400000,"BuildingBlockType":"Tower","BuildingCSUID":"3510133944T20050430","BuildingID":1106129979,"Status":"Active","BuildingNameEN":null,"BuildingNameTC":null,"BaseHeight":9.6999999999999993,"TopHeight":15.800000000000001,"Storeys":null,"StoreysInBasement":null,"DateStamp":1362067200000}},{"type":"Feature","id":119020,"geometry":{"type":"Polygon","coordinates":[[[114.1668413096141,22.445025564593227],[114.16686222062278,22.445091443053126],[114.16681058603605,22.445105391906026],[114.16678991788433,22.445039964977422],[114.1668413096141,22.445025564593227]]]},"properties":{"OBJECTID":119020,"Shape__Length":26.217360752902316,"Shape__Area":41.909759996840513,"GeoRefNo":"3523333959","DateCreate":1114790400000,"BuildingBlockType":"Tower","BuildingCSUID":"3523333959T20050430","BuildingID":1106129908,"Status":"Active","BuildingNameEN":null,"BuildingNameTC":null,"BaseHeight":4.4000000000000004,"TopHeight":9.0999999999999996,"Storeys":null,"StoreysInBasement":null,"DateStamp":1362067200000}},{"type":"Feature","id":119030,"geometry":{"type":"Polygon","coordinates":[[[114.17271055449532,22.442716571234222],[114.17271266331157,22.442717012425991],[114.17271457152468,22.442717393018206],[114.17271648721831,22.44271776078736],[114.1727184085467,22.442718118803725],[114.17272033385828,22.442718469866726],[114.17272226140429,22.442718817136974],[114.1727241894361,22.442719163413869],[114.17272611639923,22.442719511677385],[114.17272804044788,22.442719864907563],[114.17272996002762,22.442720226084433],[114.17273187319546,22.44272059809764],[114.17273377839699,22.442720983927227],[114.17273567398068,22.442721386462903],[114.17273755810062,22.442721808774962],[114.17273942920247,22.442722253753114],[114.17274128544035,22.442722724377365],[114.17274312506555,22.442723223537413],[114.17274494662084,22.442723754303593],[114.17274674816321,22.442724319475271],[114.17274847120761,22.442725040962173],[114.17275002287798,22.442726097745595],[114.17275143581789,22.442727394464733],[114.17275274568264,22.442728828715104],[114.17275398822476,22.442730298363163],[114.17275519492175,22.442731717800971],[114.17275634546769,22.442733174352536],[114.1727574247073,22.442734691225734],[114.17275842525778,22.442736257312916],[114.17275933983363,22.442737861325853],[114.17276016124639,22.442739492247192],[114.17276089202159,22.442741158565621],[114.17276153837622,22.442742871027551],[114.1727620966191,22.442744616899972],[114.17276256276769,22.442746383540086],[114.17276293293651,22.442748158485806],[114.17276320459993,22.442749935957561],[114.17276338115741,22.44275173789946],[114.1727634631921,22.44275355600351],[114.17276345050998,22.442755376994885],[114.17276334301442,22.442757188050386],[114.17276314080283,22.442758976166118],[114.17276285184066,22.442760759132309],[114.17276247457342,22.442762541554433],[114.17276199938418,22.442764308170783],[114.17276141723885,22.442766043719676],[114.17276071852051,22.442767732939327],[114.1727599246011,22.442769377275255],[114.17275911902435,22.442771016644095],[114.17275830742466,22.442772654026108],[114.17275749019055,22.442774289511551],[114.1727566676135,22.442775923190762],[114.17275583988777,22.442777555063767],[114.17275500749911,22.442779185401452],[114.17275417064177,22.442780814113551],[114.1727533296072,22.442782441470975],[114.17275248468688,22.442784067473735],[114.1727516362693,22.442785692302415],[114.17275078454882,22.442787315957062],[114.17274992991398,22.442788938618278],[114.17274907255907,22.442790560286067],[114.17274821287269,22.442792181231354],[114.17274735114627,22.442793801363848],[114.17274648757406,22.442795420954461],[114.17274562264181,22.442797039912904],[114.17274475654384,22.442798658510096],[114.17274388957154,22.442800276746031],[114.17274302201635,22.442801894801352],[114.17274215426684,22.442803512676051],[114.17274128651734,22.442805130550735],[114.17274041905922,22.442806748515743],[114.17273955237826,22.442808366571064],[114.17273868647443,22.442809984987615],[114.17273782193062,22.442811603675111],[114.17273695894106,22.442813222904469],[114.17273609770012,22.442814842675691],[114.17273523869346,22.442816463169383],[114.17273438211539,22.442818084385589],[114.17273343762227,22.442819654758093],[114.17273224511655,22.442821244359124],[114.17273115500377,22.442822772645986],[114.17272999504567,22.442824226520063],[114.17272866712852,22.442825501315909],[114.17272714201137,22.442826606063189],[114.17272548244833,22.442827598648794],[114.17272373069839,22.442828452885379],[114.17272192863204,22.442829142134251],[114.17272008868431,22.442829651405106],[114.17271816131051,22.442830000202477],[114.17271619032321,22.442830186179584],[114.17271422691825,22.442830204370953],[114.17271231383963,22.442830050984906],[114.17271039241142,22.44282973225096],[114.1727084835199,22.442829245550808],[114.17270664302391,22.44282858420333],[114.17270492639362,22.44282774152741],[114.17270330603795,22.442826778748866],[114.17270171249579,22.442825768019286],[114.17270014139548,22.442824716833808],[114.1726985886566,22.442823632868208],[114.17269705000461,22.4428225236177],[114.17269552126194,22.442821396577404],[114.17269399815406,22.44282025951345],[114.17269247640631,22.442819119920973],[114.17269095193836,22.442817985295175],[114.17268942037846,22.442816863311833],[114.17268787754912,22.44281576146609],[114.17260699636392,22.44275892139763],[114.17261943243025,22.442710337862962],[114.17262267581322,22.44269766704214],[114.17262923730553,22.442632912422482],[114.17261195480096,22.442625993195687],[114.17259252650098,22.442601700755429],[114.17258156288371,22.442598732877777],[114.17257207217467,22.442592830229955],[114.17256493779558,22.442584542158322],[114.17256143453578,22.442575387439309],[114.17256091112378,22.442565682934635],[114.17256341163774,22.442556248340132],[114.17256872495626,22.442547880678223],[114.17257640224689,22.442541286570123],[114.17258632186048,22.442537231885385],[114.17259688428925,22.442536161060683],[114.17275804259455,22.44255053935494],[114.17275971532474,22.442534337853406],[114.17283278994078,22.44254085741585],[114.17283374002996,22.442530366305416],[114.17285336330237,22.442531901968795],[114.17285562357095,22.442532153071291],[114.17285756782842,22.442532335263564],[114.17285950674236,22.442532535968144],[114.17286142671117,22.442532801601207],[114.17286331423036,22.442533178308071],[114.17286516842506,22.442533684872092],[114.17286700182798,22.442534287248723],[114.17286881103952,22.442534969724871],[114.17287059236858,22.442535717309955],[114.1728723422212,22.442536514832661],[114.17287406564945,22.442537345135243],[114.17287579238008,22.442538194582468],[114.17287750900677,22.442539074552379],[114.17287919648875,22.442539998048371],[114.17288083597938,22.442540978525344],[114.17288240853509,22.442542029167289],[114.17288389618361,22.442543163158302],[114.1728853207825,22.442544382395266],[114.17288669272664,22.442545676944928],[114.17288800317607,22.442547037054215],[114.17288924329085,22.442548453240882],[114.17289040423105,22.442549915842172],[114.1728914772539,22.442551415375881],[114.17289246313639,22.442552955815412],[114.17289337538119,22.44255455657661],[114.17289420971419,22.442556206913093],[114.17289496069561,22.442557895265782],[114.17289562307991,22.442559610075541],[114.17289619171876,22.442561339512331],[114.17289665573207,22.442563075719406],[114.17289697101538,22.442564841271835],[114.17289716370068,22.442566634996325],[114.17289727653215,22.442568446960376],[114.17289735225395,22.44257026741213],[114.17289743351306,22.442572086599789],[114.17289756315078,22.44257389468115],[114.17291990648437,22.442575791621096],[114.17291766826457,22.442589448779078],[114.17291232841457,22.442602340981846],[114.17290303956896,22.442613302105517],[114.17289145358853,22.442622173976162],[114.17287810157781,22.442628549784221],[114.17286359546311,22.442632137318729],[114.17284860030604,22.442632772060879],[114.17284636523252,22.442658418504589],[114.17271991125348,22.442643563928108],[114.17271055449532,22.442716571234222]]]},"properties":{"OBJECTID":119030,"Shape__Length":135.97756326996725,"Shape__Area":592.21695869907569,"GeoRefNo":"3584233686","DateCreate":1114790400000,"BuildingBlockType":"Tower","BuildingCSUID":"3584233686T20050430","BuildingID":1106131030,"Status":"Active","BuildingNameEN":"The Paragon Club House","BuildingNameTC":"悠然山莊會所","BaseHeight":36,"TopHeight":46.299999999999997,"Storeys":null,"StoreysInBasement":null,"DateStamp":1362067200000}},{"type":"Feature","id":119056,"geometry":{"type":"Polygon","coordinates":[[[114.16736653516703,22.442578351721213],[114.16742752809279,22.442789388043611],[114.16761891093837,22.442836727712368],[114.16757952902064,22.4429709812628],[114.16739062315031,22.442924553769224],[114.16722382367014,22.443077438587043],[114.16711711621046,22.442978666090017],[114.16723994491443,22.442866424859481],[114.16726722990957,22.44277055914694],[114.16722143667477,22.44261429339355],[114.16736653516703,22.442578351721213]]]},"properties":{"OBJECTID":119056,"Shape__Length":181.82520658138964,"Shape__Area":1180.0244129883788,"GeoRefNo":"3528833712","DateCreate":1114790400000,"BuildingBlockType":"Tower","BuildingCSUID":"3528833712T20050430","BuildingID":1106130842,"Status":"Active","BuildingNameEN":"Yat Yan House","BuildingNameTC":"逸欣閣","BaseHeight":8.4000000000000004,"TopHeight":106.90000000000001,"Storeys":35,"StoreysInBasement":null,"DateStamp":1788105600000}},{"type":"Feature","id":119068,"geometry":{"type":"Polygon","coordinates":[[[114.16549794036568,22.445054693211162],[114.16544844294977,22.44507502423286],[114.16542059588035,22.445014588657543],[114.16547009327886,22.444994257644208],[114.16549794036568,22.445054693211162]]]},"properties":{"OBJECTID":119068,"Shape__Length":25.701652963478594,"Shape__Area":40.552182051042543,"GeoRefNo":"3509233956","DateCreate":1173715200000,"BuildingBlockType":"Tower","BuildingCSUID":"3509233956T20070313","BuildingID":1106129925,"Status":"Active","BuildingNameEN":null,"BuildingNameTC":null,"BaseHeight":9.6999999999999993,"TopHeight":20.5,"Storeys":null,"StoreysInBasement":null,"DateStamp":1362067200000}},{"type":"Feature","id":119090,"geometry":{"type":"Polygon","coordinates":[[[114.16480205812738,22.442839544807914],[114.16477248961961,22.442800128629138],[114.16485708127655,22.442741960363573],[114.16488713876791,22.442780912939682],[114.16480205812738,22.442839544807914]]]},"properties":{"OBJECTID":119090,"Shape__Length":32.363162622428483,"Shape__Area":57.739952600283928,"GeoRefNo":"3502733709","DateCreate":1114790400000,"BuildingBlockType":"Tower","BuildingCSUID":"3502733709T20050430","BuildingID":1106131022,"Status":"Active","BuildingNameEN":null,"BuildingNameTC":null,"BaseHeight":12.1,"TopHeight":16.300000000000001,"Storeys":null,"StoreysInBasement":null,"DateStamp":1362067200000}},{"type":"Feature","id":119094,"geometry":{"type":"Polygon","coordinates":[[[114.16933054609689,22.442795417792645],[114.16926319834852,22.442786671628774],[114.16926782151167,22.442755909593249],[114.16933516914831,22.442764655755219],[114.16933054609689,22.442795417792645]]]},"properties":{"OBJECTID":119094,"Shape__Length":20.879119362610357,"Shape__Area":24.076910375792455,"GeoRefNo":"3548833706","DateCreate":1114790400000,"BuildingBlockType":"Tower","BuildingCSUID":"3548833706T20050430","BuildingID":1106131058,"Status":"Active","BuildingNameEN":"Hong Kong Teachers' Association Lee Heng Kwei Secondary School","BuildingNameTC":"香港教師會李興貴中學","BaseHeight":8.0999999999999996,"TopHeight":10.6,"Storeys":null,"StoreysInBasement":null,"DateStamp":1362067200000}},{"type":"Feature","id":119120,"geometry":{"type":"Polygon","coordinates":[[[114.17308416584591,22.44296535816212],[114.17310619782712,22.442922537690546],[114.17311428275332,22.442926175345352],[114.17314093575786,22.442874986992575],[114.17314386931879,22.442876306951348],[114.17322091033351,22.442910970389999],[114.17319549485156,22.442959799667108],[114.17320495981539,22.442964007892773],[114.1731816886209,22.44300871743086],[114.17314403616274,22.442991976905738],[114.17313071762636,22.443017264950303],[114.17313024189195,22.443017755835012],[114.17312883596851,22.443019042371915],[114.17312723527408,22.443020114430993],[114.17312547750176,22.443020947179303],[114.17312360374463,22.443021520841121],[114.17312165771851,22.443021822232993],[114.17311968498481,22.443021844221875],[114.17311773178483,22.443021586267005],[114.17311584367961,22.443021054419852],[114.17311406496721,22.443020261143481],[114.17311243722537,22.443019224951311],[114.17311099853448,22.443017970136101],[114.17310978250609,22.44301652595734],[114.17310881760292,22.443014926370196],[114.1731081263617,22.443013208671015],[114.17310772510179,22.44301141313597],[114.17310762314804,22.443009581666654],[114.17310782283077,22.443007757157737],[114.17310713902219,22.443007819271461],[114.17312072697071,22.442981613469673],[114.17308416584591,22.44296535816212]]]},"properties":{"OBJECTID":119120,"Shape__Length":52.615222949280188,"Shape__Area":126.45817957291119,"GeoRefNo":"3588533726","DateCreate":1114790400000,"BuildingBlockType":"Tower","BuildingCSUID":"3588533726T20050430","BuildingID":1106130882,"Status":"Active","BuildingNameEN":"The Paragon Block 5","BuildingNameTC":"悠然山莊第５座","BaseHeight":33.5,"TopHeight":46.299999999999997,"Storeys":4,"StoreysInBasement":null,"DateStamp":1599580800000}},{"type":"Feature","id":119175,"geometry":{"type":"Polygon","coordinates":[[[114.17308416584591,22.44296535816212],[114.17304735817751,22.442948993210727],[114.17303387669541,22.442974993566043],[114.17303374806953,22.442975188349962],[114.17303234214563,22.442976474886038],[114.17303074154808,22.44297754703447],[114.17302898377572,22.442978379691425],[114.17302710992163,22.442978953352132],[114.17302516389586,22.442979254742827],[114.17302319116277,22.442979276730519],[114.17302123796355,22.442979018774498],[114.1730193498593,22.442978486926236],[114.17301757114797,22.4429776936488],[114.17301594340736,22.442976657455642],[114.17301450471777,22.442975402639554],[114.17301328869074,22.442973958460048],[114.17301232378898,22.442972358872332],[114.17301163264629,22.442970641172739],[114.17301123129063,22.442968845637434],[114.17301112933816,22.442967014168023],[114.17301132902209,22.442965189659226],[114.17301064270623,22.442964583428381],[114.17302409038329,22.442938648183752],[114.17298778428457,22.442922506192549],[114.17300981667718,22.44287968501148],[114.1730180441089,22.442883386881064],[114.17304491349452,22.442831783147955],[114.17304736706438,22.442832887088684],[114.17311758209686,22.442864479338496],[114.17312376658799,22.442867262035683],[114.17309723170604,22.442918503397205],[114.17310619782712,22.442922537690546],[114.17308416584591,22.44296535816212]]]},"properties":{"OBJECTID":119175,"Shape__Length":52.445088879575266,"Shape__Area":125.2526414999423,"GeoRefNo":"3587433721","DateCreate":1114790400000,"BuildingBlockType":"Tower","BuildingCSUID":"3587433721T20050430","BuildingID":1106130905,"Status":"Active","BuildingNameEN":"The Paragon Block 3","BuildingNameTC":"悠然山莊第３座","BaseHeight":33.399999999999999,"TopHeight":46.399999999999999,"Storeys":4,"StoreysInBasement":null,"DateStamp":1599580800000}},{"type":"Feature","id":119177,"geometry":{"type":"Polygon","coordinates":[[[114.17298778428457,22.442922506192549],[114.1729509766388,22.442906141219108],[114.1729376350398,22.442931871739834],[114.17293885462509,22.442931091447509],[114.17293757148957,22.442932484635428],[114.17293607901108,22.442933684114955],[114.17293441070554,22.442934663156766],[114.17293260397454,22.442935399817756],[114.17293069913394,22.442935877573138],[114.17292873892796,22.442936085677712],[114.17292676736368,22.442936019617321],[114.17292482835076,22.442935680657257],[114.17292296550728,22.442935076564819],[114.17292122050826,22.442934220886674],[114.1729196325028,22.442933132587761],[114.17291823685112,22.44293183623175],[114.17291706502751,22.442930360807217],[114.17291614326032,22.442928739366256],[114.17291549204619,22.442927008121519],[114.17291512605298,22.442925205994602],[114.17291505343977,22.442923373261575],[114.17291454785001,22.442921521915277],[114.17292785175796,22.442895859665757],[114.17289104422338,22.442879494678589],[114.17291307644463,22.442836673691115],[114.17292126413928,22.442840357684371],[114.17294823109947,22.442788282128056],[114.17302774307245,22.442824057548656],[114.17300099307216,22.442875715013013],[114.17300981667718,22.44287968501148],[114.17298778428457,22.442922506192549]]]},"properties":{"OBJECTID":119177,"Shape__Length":52.833887779454557,"Shape__Area":126.19650972272163,"GeoRefNo":"3586533715","DateCreate":1114790400000,"BuildingBlockType":"Tower","BuildingCSUID":"3586533715T20050430","BuildingID":1106130940,"Status":"Active","BuildingNameEN":"The Paragon Block 2","BuildingNameTC":"悠然山莊第２座","BaseHeight":34.299999999999997,"TopHeight":46.399999999999999,"Storeys":4,"StoreysInBasement":null,"DateStamp":1599580800000}},{"type":"Feature","id":119183,"geometry":{"type":"Polygon","coordinates":[[[114.16867446837421,22.442414375870733],[114.16879039155928,22.442414399752202],[114.16879047827456,22.442426798574775],[114.16880803235257,22.442427386428648],[114.16880960999872,22.442697279787758],[114.16907628524265,22.442838980703339],[114.16906748304044,22.442853952777753],[114.16908161731142,22.442860753391681],[114.16902366487899,22.442954035217891],[114.16901052149784,22.44294699985511],[114.16900171934671,22.442960816027266],[114.16875960149549,22.442832752211615],[114.16870374294679,22.442832379157874],[114.16846337812134,22.442962739575314],[114.16845388787854,22.442948335503836],[114.16844156944848,22.442954827762144],[114.16838336539806,22.442864276331772],[114.16839666506088,22.44285662823064],[114.16838692231008,22.442841303035209],[114.16865609150423,22.442694942221834],[114.16865551465543,22.442426647302966],[114.16867529339588,22.442426530908328],[114.16867446837421,22.442414375870733]]]},"properties":{"OBJECTID":119183,"Shape__Length":242.27314515589558,"Shape__Area":1629.1410740235594,"GeoRefNo":"3543033701","DateCreate":1114790400000,"BuildingBlockType":"Tower","BuildingCSUID":"3543033701T20050430","BuildingID":1106130918,"Status":"Active","BuildingNameEN":"Wan Loi House","BuildingNameTC":"運來樓","BaseHeight":8.1999999999999993,"TopHeight":106.40000000000001,"Storeys":35,"StoreysInBasement":null,"DateStamp":1786636800000}},{"type":"Feature","id":119533,"geometry":{"type":"Polygon","coordinates":[[[114.16493206632737,22.442821958693344],[114.16496444135119,22.442863257357708],[114.16487851116169,22.442922960395943],[114.16484565044202,22.442881435917165],[114.16493206632737,22.442821958693344]]]},"properties":{"OBJECTID":119533,"Shape__Length":33.478788791396269,"Shape__Area":62.83450600255938,"GeoRefNo":"3503633716","DateCreate":1114790400000,"BuildingBlockType":"Tower","BuildingCSUID":"3503633716T20050430","BuildingID":1106130954,"Status":"Active","BuildingNameEN":"Law Ting Pong Secondary School Electric Sub-station","BuildingNameTC":"羅定邦中學電力變壓站","BaseHeight":12,"TopHeight":16.399999999999999,"Storeys":null,"StoreysInBasement":null,"DateStamp":1362067200000}},{"type":"Feature","id":119762,"geometry":{"type":"Polygon","coordinates":[[[114.17289104422338,22.442879494678589],[114.17285468161757,22.44286332755129],[114.17284158025861,22.442888598961712],[114.17284079151074,22.442889455300435],[114.17283929903186,22.442890654869384],[114.17283763082331,22.442891633910211],[114.17283582399521,22.44289237057011],[114.17283391915485,22.442892848324352],[114.1728319590465,22.442893056427767],[114.17282998738573,22.442892990275876],[114.17282804837362,22.442892651404957],[114.17282618553114,22.442892047311396],[114.17282444063039,22.442891191632206],[114.17282285252904,22.442890103332328],[114.17282145697583,22.442888806975493],[114.17282028505646,22.442887331550228],[114.17281936329067,22.442885710108726],[114.17281871207797,22.442883978863566],[114.17281834608612,22.442882176736433],[114.17281827347419,22.442880343913057],[114.1728186725375,22.442877316101015],[114.17283107190465,22.442852830415081],[114.17279357097829,22.442836157178881],[114.17281745509167,22.442790382207413],[114.1728268846705,22.442794633710378],[114.17285248290172,22.442745201350593],[114.17293118007817,22.442780610162234],[114.17290421311311,22.442832685715768],[114.17291307644463,22.442836673691115],[114.17289104422338,22.442879494678589]]]},"properties":{"OBJECTID":119762,"Shape__Length":52.701442405442634,"Shape__Area":126.94961428677578,"GeoRefNo":"3585433711","DateCreate":1114790400000,"BuildingBlockType":"Tower","BuildingCSUID":"3585433711T20050430","BuildingID":1106130984,"Status":"Active","BuildingNameEN":"The Paragon Block 1","BuildingNameTC":"悠然山莊第１座","BaseHeight":34.299999999999997,"TopHeight":46.299999999999997,"Storeys":4,"StoreysInBasement":null,"DateStamp":1599580800000}},{"type":"Feature","id":119768,"geometry":{"type":"Polygon","coordinates":[[[114.16987230022342,22.442829138778134],[114.16983180015949,22.442797761424519],[114.16984127313489,22.442787195658639],[114.16990004476897,22.442721080438503],[114.16994079245121,22.442752419496752],[114.16994055278049,22.442752688774736],[114.16987274156196,22.442828993226208],[114.16987230022342,22.442829138778134]]]},"properties":{"OBJECTID":119768,"Shape__Length":32.938747343990386,"Shape__Area":60.061892667740956,"GeoRefNo":"3554833706","DateCreate":1114790400000,"BuildingBlockType":"Tower","BuildingCSUID":"3554833706T20050430","BuildingID":1106131031,"Status":"Active","BuildingNameEN":"Hong Kong Teachers' Association Lee Heng Kwei Secondary School Electric Sub-station","BuildingNameTC":"香港教師會李興貴中學電力變壓站","BaseHeight":8.0999999999999996,"TopHeight":12.1,"Storeys":null,"StoreysInBasement":null,"DateStamp":1362067200000}},{"type":"Feature","id":119769,"geometry":{"type":"Polygon","coordinates":[[[114.16411773613603,22.442712537746491],[114.16416738618065,22.442722393879755],[114.16415283821229,22.442780928160126],[114.16410417907191,22.442770611547285],[114.16411773613603,22.442712537746491]]]},"properties":{"OBJECTID":119769,"Shape__Length":23.596858697212966,"Shape__Area":34.284349002656455,"GeoRefNo":"3495733702","DateCreate":1114790400000,"BuildingBlockType":"Tower","BuildingCSUID":"3495733702T20050430","BuildingID":1106131067,"Status":"Active","BuildingNameEN":null,"BuildingNameTC":null,"BaseHeight":13.5,"TopHeight":16.800000000000001,"Storeys":null,"StoreysInBasement":null,"DateStamp":1362067200000}},{"type":"Feature","id":119776,"geometry":{"type":"Polygon","coordinates":[[[114.16612470834727,22.44499179890531],[114.16612715200945,22.444923086337791],[114.1662094545907,22.444925493878934],[114.1662073509885,22.444994134226445],[114.16612470834727,22.44499179890531]]]},"properties":{"OBJECTID":119776,"Shape__Length":32.204293479336663,"Shape__Area":64.623824504919455,"GeoRefNo":"3516533947","DateCreate":1114790400000,"BuildingBlockType":"Tower","BuildingCSUID":"3516533947T20050430","BuildingID":1106129965,"Status":"Active","BuildingNameEN":null,"BuildingNameTC":null,"BaseHeight":7.4000000000000004,"TopHeight":15.300000000000001,"Storeys":null,"StoreysInBasement":null,"DateStamp":1362067200000}},{"type":"Feature","id":119783,"geometry":{"type":"Polygon","coordinates":[[[114.1657459370829,22.445061416458657],[114.16571035789362,22.444988538060677],[114.16573984285971,22.444976005638921],[114.16577542204831,22.445049046488414],[114.1657459370829,22.445061416458657]]]},"properties":{"OBJECTID":119783,"Shape__Length":24.408482787061764,"Shape__Area":29.57111209689058,"GeoRefNo":"3512233956","DateCreate":1114790400000,"BuildingBlockType":"Tower","BuildingCSUID":"3512233956T20050430","BuildingID":1106129934,"Status":"Active","BuildingNameEN":null,"BuildingNameTC":null,"BaseHeight":8.4000000000000004,"TopHeight":12.800000000000001,"Storeys":null,"StoreysInBasement":null,"DateStamp":1362067200000}},{"type":"Feature","id":119785,"geometry":{"type":"Polygon","coordinates":[[[114.16467422994232,22.444972614770148],[114.16475664401703,22.445033748106574],[114.16471905404805,22.445077994516012],[114.16463689256527,22.445016635418447],[114.16467422994232,22.444972614770148]]]},"properties":{"OBJECTID":119785,"Shape__Length":34.153176418508977,"Shape__Area":67.551476502728065,"GeoRefNo":"3501433954","DateCreate":1114790400000,"BuildingBlockType":"Tower","BuildingCSUID":"3501433954T20050430","BuildingID":1106129923,"Status":"Active","BuildingNameEN":null,"BuildingNameTC":null,"BaseHeight":30.800000000000001,"TopHeight":39.899999999999999,"Storeys":null,"StoreysInBasement":null,"DateStamp":1362067200000}},{"type":"Feature","id":119786,"geometry":{"type":"Polygon","coordinates":[[[114.16569844999391,22.445081343130806],[114.165663054709,22.44500864389947],[114.16571035789362,22.444988538060677],[114.1657459370829,22.445061416458657],[114.16569844999391,22.445081343130806]]]},"properties":{"OBJECTID":119786,"Shape__Length":28.416267198720163,"Shape__Area":47.421067931560167,"GeoRefNo":"3511933957","DateCreate":1114790400000,"BuildingBlockType":"Tower","BuildingCSUID":"3511933957T20050430","BuildingID":1106129921,"Status":"Active","BuildingNameEN":null,"BuildingNameTC":null,"BaseHeight":8.5,"TopHeight":18.199999999999999,"Storeys":null,"StoreysInBasement":null,"DateStamp":1362067200000}},{"type":"Feature","id":119788,"geometry":{"type":"Polygon","coordinates":[[[114.1669848622219,22.444769162687024],[114.16725517373676,22.444615309037985],[114.16731273694189,22.444701101767944],[114.16733707306658,22.444688018072892],[114.16747307446241,22.444890624276216],[114.16720027037266,22.444980894704837],[114.16717811072678,22.444987431429393],[114.16715556257795,22.444992721924869],[114.16713406371576,22.444996540516161],[114.16711237063804,22.444999221255618],[114.16708918157374,22.445000818247237],[114.16706730408121,22.445001132990374],[114.16704680614865,22.445000382220581],[114.16702365620014,22.444998312840571],[114.16698484639575,22.44499319923889],[114.16696174545409,22.444989154350719],[114.16692719925734,22.444979624019982],[114.16688854668988,22.444965713658263],[114.16685670307943,22.444950079975268],[114.16682413125439,22.444929163424753],[114.1668021677185,22.444910324532128],[114.166781457895,22.444884369716203],[114.1669848622219,22.444769162687024]]]},"properties":{"OBJECTID":119788,"Shape__Length":174.80038622208147,"Shape__Area":1673.2431998425313,"GeoRefNo":"3524133940","DateCreate":1114790400000,"BuildingBlockType":"Tower","BuildingCSUID":"3524133940T20050430","BuildingID":1106129961,"Status":"Active","BuildingNameEN":null,"BuildingNameTC":null,"BaseHeight":6,"TopHeight":9.6999999999999993,"Storeys":null,"StoreysInBasement":null,"DateStamp":1362067200000}},{"type":"Feature","id":119789,"geometry":{"type":"Polygon","coordinates":[[[114.165663054709,22.44500864389947],[114.16569844999391,22.445081343130806],[114.16564070392882,22.445105567844852],[114.16560571745013,22.445033014742286],[114.165663054709,22.44500864389947]]]},"properties":{"OBJECTID":119789,"Shape__Length":30.652405276375568,"Shape__Area":57.382904107180984,"GeoRefNo":"3511333959","DateCreate":1114790400000,"BuildingBlockType":"Tower","BuildingCSUID":"3511333959T20050430","BuildingID":1106129907,"Status":"Active","BuildingNameEN":null,"BuildingNameTC":null,"BaseHeight":8.4000000000000004,"TopHeight":17.899999999999999,"Storeys":null,"StoreysInBasement":null,"DateStamp":1362067200000}},{"type":"Feature","id":119807,"geometry":{"type":"Polygon","coordinates":[[[114.16498792708612,22.44747752319422],[114.16500426187388,22.447506910566581],[114.16503725288602,22.447566263459073],[114.16500058224976,22.4475838790948],[114.16499522581169,22.447586758241993],[114.16496287912685,22.447525974694017],[114.1649471926257,22.44749649778322],[114.16498792708612,22.44747752319422]]]},"properties":{"OBJECTID":119807,"Shape__Length":31.788010386807937,"Shape__Area":53.102440312057411,"GeoRefNo":"3504334229","DateCreate":1207843200000,"BuildingBlockType":"Open-sided Structure","BuildingCSUID":"3504334229T20080411","BuildingID":1106128741,"Status":"Active","BuildingNameEN":"KAM FU BUILDING","BuildingNameTC":"金富樓","BaseHeight":null,"TopHeight":null,"Storeys":null,"StoreysInBasement":null,"DateStamp":1462982400000}},{"type":"Feature","id":120613,"geometry":{"type":"Polygon","coordinates":[[[114.16538270247391,22.444515543711127],[114.16536676782441,22.444529703597475],[114.1653347800528,22.444498446915855],[114.16535132525489,22.444484441858048],[114.16538270247391,22.444515543711127]]]},"properties":{"OBJECTID":120613,"Shape__Length":14.071542356863432,"Shape__Area":10.857650200968315,"GeoRefNo":"3508333898","DateCreate":1114790400000,"BuildingBlockType":"Tower","BuildingCSUID":"3508333898T20050430","BuildingID":1106130112,"Status":"Active","BuildingNameEN":null,"BuildingNameTC":null,"BaseHeight":15.1,"TopHeight":19,"Storeys":null,"StoreysInBasement":null,"DateStamp":1362067200000}},{"type":"Feature","id":120834,"geometry":{"type":"Polygon","coordinates":[[[114.16246965776885,22.444687360196593],[114.16251139183818,22.44468855592601],[114.16251060059,22.444731008024061],[114.16246837101258,22.444730272803518],[114.16246965776885,22.444687360196593]]]},"properties":{"OBJECTID":120834,"Shape__Length":18.101312803746556,"Shape__Area":20.4369119957965,"GeoRefNo":"3478833920","DateCreate":1114790400000,"BuildingBlockType":"Tower","BuildingCSUID":"3478833920T20050430","BuildingID":1106130053,"Status":"Active","BuildingNameEN":null,"BuildingNameTC":null,"BaseHeight":63.5,"TopHeight":65.5,"Storeys":null,"StoreysInBasement":null,"DateStamp":1362067200000}},{"type":"Feature","id":120890,"geometry":{"type":"Polygon","coordinates":[[[114.16583308039692,22.444671986047833],[114.16580397070408,22.444611805830778],[114.16588013451356,22.444581899171766],[114.16590772910067,22.444642513457008],[114.16583308039692,22.444671986047833]]]},"properties":{"OBJECTID":120890,"Shape__Length":31.454682999546428,"Shape__Area":61.509528825098648,"GeoRefNo":"3513333911","DateCreate":1114790400000,"BuildingBlockType":"Tower","BuildingCSUID":"3513333911T20050430","BuildingID":1106130065,"Status":"Active","BuildingNameEN":null,"BuildingNameTC":null,"BaseHeight":12.300000000000001,"TopHeight":20.899999999999999,"Storeys":null,"StoreysInBasement":null,"DateStamp":1362067200000}},{"type":"Feature","id":120895,"geometry":{"type":"Polygon","coordinates":[[[114.17004419481404,22.444594409558654],[114.1700458165364,22.444607250934141],[114.17006409960834,22.444605472702776],[114.17006661442403,22.444631850767763],[114.17001323218922,22.444635569067046],[114.1700098436709,22.444596801179792],[114.17004419481404,22.444594409558654]]]},"properties":{"OBJECTID":120895,"Shape__Length":19.620017629568945,"Shape__Area":20.982224998783877,"GeoRefNo":"3556433910","DateCreate":1114790400000,"BuildingBlockType":"Tower","BuildingCSUID":"3556433910T20050430","BuildingID":1106130074,"Status":"Active","BuildingNameEN":null,"BuildingNameTC":null,"BaseHeight":9,"TopHeight":17.5,"Storeys":null,"StoreysInBasement":null,"DateStamp":1362067200000}},{"type":"Feature","id":120954,"geometry":{"type":"Polygon","coordinates":[[[114.16636562103683,22.444627146887047],[114.16643521347594,22.444672430088499],[114.16638203019085,22.444742132734202],[114.16631317597921,22.444697770664735],[114.16636562103683,22.444627146887047]]]},"properties":{"OBJECTID":120954,"Shape__Length":36.333907967280865,"Shape__Area":82.347888004667851,"GeoRefNo":"3518733918","DateCreate":1114790400000,"BuildingBlockType":"Tower","BuildingCSUID":"3518733918T20050430","BuildingID":1106130050,"Status":"Active","BuildingNameEN":null,"BuildingNameTC":null,"BaseHeight":6.2999999999999998,"TopHeight":14.6,"Storeys":null,"StoreysInBasement":null,"DateStamp":1362067200000}},{"type":"Feature","id":120956,"geometry":{"type":"Polygon","coordinates":[[[114.16250515966999,22.444737888747625],[114.16254788460444,22.444739536078327],[114.16254584979501,22.444782909172591],[114.1625033774055,22.444781487625121],[114.16250515966999,22.444737888747625]]]},"properties":{"OBJECTID":120956,"Shape__Length":18.415594318776126,"Shape__Area":21.149189501152236,"GeoRefNo":"3479133926","DateCreate":1114790400000,"BuildingBlockType":"Tower","BuildingCSUID":"3479133926T20050430","BuildingID":1106130038,"Status":"Active","BuildingNameEN":null,"BuildingNameTC":null,"BaseHeight":62.100000000000001,"TopHeight":64,"Storeys":null,"StoreysInBasement":null,"DateStamp":1362067200000}},{"type":"Feature","id":120957,"geometry":{"type":"Polygon","coordinates":[[[114.16622629222337,22.444631107575773],[114.16629795351318,22.444643462772699],[114.16628576638556,22.444720371652497],[114.16621350802335,22.44470890690414],[114.16622629222337,22.444631107575773]]]},"properties":{"OBJECTID":120957,"Shape__Length":32.371716616028024,"Shape__Area":65.145717375072607,"GeoRefNo":"3517433916","DateCreate":1114790400000,"BuildingBlockType":"Tower","BuildingCSUID":"3517433916T20050430","BuildingID":1106130054,"Status":"Active","BuildingNameEN":null,"BuildingNameTC":null,"BaseHeight":7.7000000000000002,"TopHeight":17.100000000000001,"Storeys":null,"StoreysInBasement":null,"DateStamp":1362067200000}},{"type":"Feature","id":121009,"geometry":{"type":"Polygon","coordinates":[[[114.16562501212313,22.444533406168421],[114.16568364270213,22.444500241368683],[114.1657296359668,22.444570600816323],[114.16567104423065,22.444603729513343],[114.16562501212313,22.444533406168421]]]},"properties":{"OBJECTID":121009,"Shape__Length":32.356895152762924,"Shape__Area":64.380564002900627,"GeoRefNo":"3511533902","DateCreate":1114790400000,"BuildingBlockType":"Tower","BuildingCSUID":"3511533902T20050430","BuildingID":1106130082,"Status":"Active","BuildingNameEN":null,"BuildingNameTC":null,"BaseHeight":13,"TopHeight":20.699999999999999,"Storeys":null,"StoreysInBasement":null,"DateStamp":1362067200000}},{"type":"Feature","id":121129,"geometry":{"type":"Polygon","coordinates":[[[114.16536857477782,22.445017297266652],[114.16532593923613,22.444929248924296],[114.16537543292678,22.444908915320678],[114.16541809015359,22.444997008262177],[114.16536857477782,22.445017297266652]]]},"properties":{"OBJECTID":121129,"Shape__Length":32.530468462606251,"Shape__Area":59.571628931995946,"GeoRefNo":"3508333949","DateCreate":1114790400000,"BuildingBlockType":"Tower","BuildingCSUID":"3508333949T20050430","BuildingID":1106129953,"Status":"Active","BuildingNameEN":null,"BuildingNameTC":null,"BaseHeight":10.800000000000001,"TopHeight":18.800000000000001,"Storeys":null,"StoreysInBasement":null,"DateStamp":1362067200000}},{"type":"Feature","id":121181,"geometry":{"type":"Polygon","coordinates":[[[114.1656530275697,22.44491694056336],[114.16567069567232,22.444953144879516],[114.16568407059781,22.444980544203695],[114.16559981223369,22.445016714360715],[114.16556827380546,22.444952884908517],[114.1656530275697,22.44491694056336]]]},"properties":{"OBJECTID":121181,"Shape__Length":34.655254185268383,"Shape__Area":74.236553494007708,"GeoRefNo":"3511033949","DateCreate":1114790400000,"BuildingBlockType":"Tower","BuildingCSUID":"3511033949T20050430","BuildingID":1106129955,"Status":"Active","BuildingNameEN":null,"BuildingNameTC":null,"BaseHeight":9,"TopHeight":17.600000000000001,"Storeys":null,"StoreysInBasement":null,"DateStamp":1362067200000}},{"type":"Feature","id":121184,"geometry":{"type":"Polygon","coordinates":[[[114.16577542204831,22.445049046488414],[114.16573984285971,22.444976005638921],[114.16576212860934,22.44496653322933],[114.16579742751965,22.44503981191701],[114.16577542204831,22.445049046488414]]]},"properties":{"OBJECTID":121184,"Shape__Length":22.777591809771259,"Shape__Area":22.246557485208896,"GeoRefNo":"3512533954","DateCreate":1114790400000,"BuildingBlockType":"Tower","BuildingCSUID":"3512533954T20050430","BuildingID":1106129942,"Status":"Active","BuildingNameEN":null,"BuildingNameTC":null,"BaseHeight":8.3000000000000007,"TopHeight":12.800000000000001,"Storeys":null,"StoreysInBasement":null,"DateStamp":1362067200000}},{"type":"Feature","id":121185,"geometry":{"type":"Polygon","coordinates":[[[114.16547009327886,22.444994257644208],[114.16552101255137,22.444973342535231],[114.16554885965607,22.445033778183852],[114.16549794036568,22.445054693211162],[114.16547009327886,22.444994257644208]]]},"properties":{"OBJECTID":121185,"Shape__Length":26.021695898775793,"Shape__Area":41.717130552850755,"GeoRefNo":"3509833954","DateCreate":1173715200000,"BuildingBlockType":"Tower","BuildingCSUID":"3509833954T20070313","BuildingID":1106129941,"Status":"Active","BuildingNameEN":null,"BuildingNameTC":null,"BaseHeight":9.6999999999999993,"TopHeight":20.5,"Storeys":null,"StoreysInBasement":null,"DateStamp":1362067200000}},{"type":"Feature","id":121186,"geometry":{"type":"Polygon","coordinates":[[[114.16579277985292,22.444953505105925],[114.16584539652534,22.44493114062265],[114.16588185968142,22.445004380088999],[114.16582811626283,22.445026934507865],[114.16579277985292,22.444953505105925]]]},"properties":{"OBJECTID":121186,"Shape__Length":29.869904251470874,"Shape__Area":53.645558635768374,"GeoRefNo":"3513233951","DateCreate":1114790400000,"BuildingBlockType":"Tower","BuildingCSUID":"3513233951T20050430","BuildingID":1106129952,"Status":"Active","BuildingNameEN":null,"BuildingNameTC":null,"BaseHeight":7.9000000000000004,"TopHeight":12.800000000000001,"Storeys":null,"StoreysInBasement":null,"DateStamp":1362067200000}},{"type":"Feature","id":121188,"geometry":{"type":"Polygon","coordinates":[[[114.16698488182101,22.444491710986711],[114.16701515884276,22.444473014190805],[114.16698754955321,22.444431292256539],[114.16702838020078,22.444407901980671],[114.1670710909581,22.444472607782675],[114.16709768101819,22.444457311798132],[114.16709418411241,22.444452055862129],[114.16713874700206,22.444426095986991],[114.16714946260923,22.444441981111041],[114.16715884586225,22.444436762161104],[114.16717306669368,22.444457108628946],[114.1671262887474,22.444484693862144],[114.16713795483504,22.444502033037629],[114.16718530589908,22.444475170271804],[114.16719829296095,22.444495760485822],[114.16718991137368,22.444501114141975],[114.1672015580629,22.444518140767624],[114.16715704647852,22.44454507378471],[114.16715052381508,22.44453601620808],[114.16712314774894,22.444552480152922],[114.16716524511588,22.444615755196978],[114.16712609023311,22.444638802540677],[114.16709716562008,22.444596938859014],[114.16701710411211,22.444643987916482],[114.16704465938982,22.444685027680759],[114.16700344753208,22.444708779064584],[114.16698486845877,22.444680871929236],[114.16696176935432,22.444647493955806],[114.16694028721982,22.444659941754416],[114.16694445643078,22.444667215409407],[114.16689873733989,22.444693780199394],[114.16688567254273,22.444673804027936],[114.16687529684177,22.444679989249579],[114.16686321321392,22.444660238898194],[114.16690769842504,22.444635272432802],[114.16689512896507,22.444616903713445],[114.16685138203871,22.444642330774332],[114.16683744025967,22.444621714827147],[114.16684564202289,22.444616730523855],[114.16683537520949,22.444601466974017],[114.16688377226671,22.444574304460396],[114.16688734026816,22.444579711123556],[114.16690925763785,22.444566893922719],[114.16686761677231,22.444503951160517],[114.16690713628846,22.444480373001099],[114.16693475203463,22.444522628197625],[114.16698488182101,22.444491710986711]]]},"properties":{"OBJECTID":121188,"Shape__Length":182.07643096464648,"Shape__Area":607.98868579312386,"GeoRefNo":"3524533906","DateCreate":1114790400000,"BuildingBlockType":"Tower","BuildingCSUID":"3524533906T20050430","BuildingID":1106130058,"Status":"Active","BuildingNameEN":"Elegance Garden Block 1","BuildingNameTC":"富雅花園第１座","BaseHeight":6.5,"TopHeight":84.299999999999997,"Storeys":28,"StoreysInBasement":null,"DateStamp":1599580800000}},{"type":"Feature","id":121251,"geometry":{"type":"Polygon","coordinates":[[[114.16622629222337,22.444631107575773],[114.1662371110028,22.444565269135012],[114.16631802189617,22.444577338845459],[114.16630715372516,22.444644215429484],[114.1662980020125,22.444643156372525],[114.16629795351318,22.444643462772699],[114.16622629222337,22.444631107575773]]]},"properties":{"OBJECTID":121251,"Shape__Length":31.786317949070082,"Shape__Area":63.062720571537028,"GeoRefNo":"3517633908","DateCreate":1114790400000,"BuildingBlockType":"Tower","BuildingCSUID":"3517633908T20050430","BuildingID":1106130073,"Status":"Active","BuildingNameEN":null,"BuildingNameTC":null,"BaseHeight":7.5999999999999996,"TopHeight":17,"Storeys":null,"StoreysInBasement":null,"DateStamp":1362067200000}},{"type":"Feature","id":121252,"geometry":{"type":"Polygon","coordinates":[[[114.1660671067883,22.444781575115663],[114.16609423727957,22.444688960577963],[114.16615115438252,22.444703431145072],[114.16612384907602,22.444795865071498],[114.1660671067883,22.444781575115663]]]},"properties":{"OBJECTID":121252,"Shape__Length":33.369452966824682,"Shape__Area":64.398291996842616,"GeoRefNo":"3515933924","DateCreate":1177430400000,"BuildingBlockType":"Tower","BuildingCSUID":"3515933924T20070425","BuildingID":1106130035,"Status":"Active","BuildingNameEN":null,"BuildingNameTC":null,"BaseHeight":7.2999999999999998,"TopHeight":15.5,"Storeys":null,"StoreysInBasement":null,"DateStamp":1473868800000}},{"type":"Feature","id":121254,"geometry":{"type":"Polygon","coordinates":[[[114.16605699454536,22.4448978415463],[114.16605948743296,22.444821100907973],[114.16613298848105,22.444823227956046],[114.16613066079795,22.444899778966917],[114.16605699454536,22.4448978415463]]]},"properties":{"OBJECTID":121254,"Shape__Length":32.137891315775803,"Shape__Area":64.344132495422215,"GeoRefNo":"3515833937","DateCreate":1170777600000,"BuildingBlockType":"Tower","BuildingCSUID":"3515833937T20070207","BuildingID":1106130006,"Status":"Active","BuildingNameEN":null,"BuildingNameTC":null,"BaseHeight":7.5,"TopHeight":15.5,"Storeys":null,"StoreysInBasement":null,"DateStamp":1362067200000}},{"type":"Feature","id":121305,"geometry":{"type":"Polygon","coordinates":[[[114.16536676782441,22.444529703597475],[114.16538270247391,22.444515543711127],[114.16540271157199,22.444535377273599],[114.1653869143973,22.444549382389635],[114.16536676782441,22.444529703597475]]]},"properties":{"OBJECTID":121305,"Shape__Length":10.535502680199073,"Shape__Area":6.7959800996819304,"GeoRefNo":"3508533900","DateCreate":1114790400000,"BuildingBlockType":"Tower","BuildingCSUID":"3508533900T20050430","BuildingID":1106130103,"Status":"Active","BuildingNameEN":null,"BuildingNameTC":null,"BaseHeight":14.800000000000001,"TopHeight":17.699999999999999,"Storeys":null,"StoreysInBasement":null,"DateStamp":1362067200000}},{"type":"Feature","id":121308,"geometry":{"type":"Polygon","coordinates":[[[114.17005417556713,22.444716005056364],[114.17005536954481,22.444735050336199],[114.17006944616972,22.444733542841089],[114.17007193197833,22.444757166615606],[114.17002300870813,22.444761300505803],[114.17002006724979,22.444718622451227],[114.17005417556713,22.444716005056364]]]},"properties":{"OBJECTID":121308,"Shape__Length":19.515114733615537,"Shape__Area":20.5054430017024,"GeoRefNo":"3556533924","DateCreate":1114790400000,"BuildingBlockType":"Tower","BuildingCSUID":"3556533924T20050430","BuildingID":1106130044,"Status":"Active","BuildingNameEN":null,"BuildingNameTC":null,"BaseHeight":9.0999999999999996,"TopHeight":18.399999999999999,"Storeys":null,"StoreysInBasement":null,"DateStamp":1362067200000}},{"type":"Feature","id":121309,"geometry":{"type":"Polygon","coordinates":[[[114.16894832268289,22.444776215018059],[114.16895589674259,22.444836069243248],[114.16863403775891,22.444872382725411],[114.16862646384865,22.444812302724046],[114.16894832268289,22.444776215018059]]]},"properties":{"OBJECTID":121309,"Shape__Length":80.118015299529304,"Shape__Area":223.13459552374462,"GeoRefNo":"3543533934","DateCreate":1114790400000,"BuildingBlockType":"Tower","BuildingCSUID":"3543533934T20050430","BuildingID":1106130013,"Status":"Active","BuildingNameEN":null,"BuildingNameTC":null,"BaseHeight":9.5999999999999996,"TopHeight":13.4,"Storeys":null,"StoreysInBasement":null,"DateStamp":1362067200000}},{"type":"Feature","id":121367,"geometry":{"type":"Polygon","coordinates":[[[114.16583308039692,22.444671986047833],[114.16575874040338,22.444701336714044],[114.16573090302087,22.444640496625713],[114.16580397070408,22.444611805830778],[114.16583308039692,22.444671986047833]]]},"properties":{"OBJECTID":121367,"Shape__Length":31.106952678554812,"Shape__Area":60.256303178012104,"GeoRefNo":"3512633914","DateCreate":1114790400000,"BuildingBlockType":"Tower","BuildingCSUID":"3512633914T20050430","BuildingID":1106130061,"Status":"Active","BuildingNameEN":null,"BuildingNameTC":null,"BaseHeight":12.199999999999999,"TopHeight":23.100000000000001,"Storeys":null,"StoreysInBasement":null,"DateStamp":1362067200000}},{"type":"Feature","id":121379,"geometry":{"type":"Polygon","coordinates":[[[114.16566027538508,22.444423733735661],[114.16567264745176,22.444478585576967],[114.16565090571792,22.444482954812003],[114.16565659647883,22.44450819532852],[114.16560646806695,22.444518314988652],[114.16560127259596,22.444495133448669],[114.16561163836769,22.444492145089225],[114.16559878066501,22.444436381133539],[114.16566027538508,22.444423733735661]]]},"properties":{"OBJECTID":121379,"Shape__Length":33.169894287026239,"Shape__Area":54.92315299588482,"GeoRefNo":"3511133893","DateCreate":1114790400000,"BuildingBlockType":"Tower","BuildingCSUID":"3511133893T20050430","BuildingID":1106130117,"Status":"Active","BuildingNameEN":null,"BuildingNameTC":null,"BaseHeight":13.1,"TopHeight":17.699999999999999,"Storeys":null,"StoreysInBasement":null,"DateStamp":1362067200000}},{"type":"Feature","id":121433,"geometry":{"type":"Polygon","coordinates":[[[114.16799919380368,22.444099414485091],[114.16802665457104,22.444138508828953],[114.16801680357534,22.444144296812979],[114.16803378313809,22.444169682350715],[114.16810197266001,22.444128895487452],[114.16812743240617,22.444165470208606],[114.16808065481828,22.444191908851618],[114.16813084559445,22.444267361022774],[114.16817664203373,22.444240705581922],[114.16820310229974,22.444279339288187],[114.16813392185487,22.444319900378584],[114.16815088214574,22.444343443689533],[114.16815803233706,22.444339958318398],[114.16818450224567,22.444379973687443],[114.16816653915345,22.444391549767232],[114.16817152238184,22.444397717835866],[114.16814936247242,22.444410702439384],[114.16811964814946,22.444366343240485],[114.1681006941738,22.444377702528531],[114.16813039885064,22.44442090583204],[114.16810602390805,22.444435271969724],[114.16810127391869,22.444427731282524],[114.16808551624031,22.444436083600035],[114.16805955138132,22.444398127186325],[114.16806767315728,22.44439280868961],[114.16805069350322,22.444368344262561],[114.16798274680301,22.444407749456584],[114.16795677233564,22.444368646157866],[114.16799961545898,22.444344076640267],[114.16794868635536,22.44426954549483],[114.16790608618528,22.44429296814474],[114.16788186981479,22.444258452402103],[114.16795056458528,22.444217665631282],[114.16793432334363,22.44419228012568],[114.1679259490522,22.444196686525871],[114.16789923635739,22.444157131653359],[114.16791647074184,22.444147162983789],[114.16790973906187,22.444138484343732],[114.16793262760592,22.444124578706401],[114.16796183677398,22.444167104730745],[114.16798006203275,22.444157361870275],[114.16795035744417,22.444114384299116],[114.1679725173537,22.444100948199655],[114.16797974443796,22.44411031317895],[114.16799919380368,22.444099414485091]]]},"properties":{"OBJECTID":121433,"Shape__Length":182.76220761481804,"Shape__Area":601.45442300885213,"GeoRefNo":"3535833868","DateCreate":1114790400000,"BuildingBlockType":"Tower","BuildingCSUID":"3535833868T20050430","BuildingID":1106130159,"Status":"Active","BuildingNameEN":"Elegance Garden Block 3","BuildingNameTC":"富雅花園第３座","BaseHeight":6.2000000000000002,"TopHeight":80.900000000000006,"Storeys":27,"StoreysInBasement":null,"DateStamp":1599580800000}},{"type":"Feature","id":121436,"geometry":{"type":"Polygon","coordinates":[[[114.16740182888446,22.444145047684639],[114.16742829858545,22.444184376863927],[114.16741992423216,22.444189469552484],[114.16743615581133,22.444212687799926],[114.1675041025333,22.444173842723277],[114.16753131062684,22.444212476583171],[114.16748453286489,22.444239592337389],[114.16753421831186,22.444312985720373],[114.16757927649107,22.444287486304908],[114.16760350236946,22.44432407006763],[114.16753431209003,22.444363484032397],[114.16755071847038,22.444388228424874],[114.16755916082187,22.444383307312204],[114.16758564015993,22.444425155962147],[114.16756816283635,22.444435350343468],[114.16757291276593,22.444443360630022],[114.16750790961837,22.444479993442936],[114.16750252821495,22.444472344336184],[114.16748498288592,22.444482403247676],[114.16745771663355,22.444441258911315],[114.16746558585415,22.444435940430246],[114.16744960690939,22.444411466967804],[114.16737967812035,22.44445249727438],[114.16735546194639,22.444416599793829],[114.16739978189479,22.444390865593586],[114.16734894050796,22.444316605178287],[114.16730626233608,22.444342511040389],[114.1672795497891,22.444302956066103],[114.16735169353164,22.444261004825858],[114.16733521907052,22.444238147773984],[114.16732734021906,22.444242328410862],[114.16730088025022,22.444202999215893],[114.16731747351821,22.444193021542002],[114.16731113048927,22.444183891377207],[114.1673766290123,22.444147023879356],[114.16738304003641,22.444156298532892],[114.16740182888446,22.444145047684639]]]},"properties":{"OBJECTID":121436,"Shape__Length":160.88329089974124,"Shape__Area":635.44850400644464,"GeoRefNo":"3529633873","DateCreate":1114790400000,"BuildingBlockType":"Tower","BuildingCSUID":"3529633873T20050430","BuildingID":1106130134,"Status":"Active","BuildingNameEN":"Elegance Garden Block 2","BuildingNameTC":"富雅花園第２座","BaseHeight":6.5,"TopHeight":84.400000000000006,"Storeys":28,"StoreysInBasement":null,"DateStamp":1599580800000}},{"type":"Feature","id":121916,"geometry":{"type":"Polygon","coordinates":[[[114.16731159977991,22.446558133283848],[114.1673312794909,22.44659422916444],[114.16727049209949,22.446622120641539],[114.16725105528569,22.446585799006773],[114.16731159977991,22.446558133283848]]]},"properties":{"OBJECTID":121916,"Shape__Length":22.895868834767434,"Shape__Area":31.231855498284165,"GeoRefNo":"3528134128","DateCreate":1114790400000,"BuildingBlockType":"Tower","BuildingCSUID":"3528134128T20050430","BuildingID":1106129158,"Status":"Active","BuildingNameEN":null,"BuildingNameTC":null,"BaseHeight":5.2000000000000002,"TopHeight":9.3000000000000007,"Storeys":null,"StoreysInBasement":null,"DateStamp":1123516800000}},{"type":"Feature","id":135090,"geometry":{"type":"Polygon","coordinates":[[[114.16567782028979,22.447339254835438],[114.16530528921442,22.447507078920907],[114.1652168079391,22.447336707048667],[114.16496179673301,22.44745253952193],[114.16495136278097,22.447432055431364],[114.16489097254929,22.447338801803376],[114.16498406989349,22.447296999029255],[114.16499417672875,22.447292464949111],[114.16503454646185,22.447274237500686],[114.16504573639484,22.447268634832795],[114.16503733434561,22.447252243225744],[114.16511467977212,22.447163999581264],[114.16512205363284,22.447155796041184],[114.16510059953555,22.447114834518452],[114.16511238698857,22.447109515264859],[114.16513815694393,22.447097886363927],[114.16512304162212,22.447054131732838],[114.16510976726103,22.447011628673962],[114.16510674456923,22.446980696716651],[114.16509170709199,22.446951862652703],[114.16511617563287,22.446840705702044],[114.1651642660911,22.4467815543046],[114.16521529856844,22.446758200179875],[114.16529144795884,22.446723351619877],[114.16528184357128,22.446706247706633],[114.16526976820245,22.446684743527602],[114.16542226923599,22.446615756940087],[114.16558729477768,22.446930234083403],[114.16563374400846,22.447020222160635],[114.16577380461615,22.447286864954869],[114.1656737128956,22.447331430838673],[114.16567782028979,22.447339254835438]]]},"properties":{"OBJECTID":135090,"Shape__Length":319.87907413853009,"Shape__Area":4537.0339837059319,"GeoRefNo":"3508034182","DateCreate":1463673600000,"BuildingBlockType":"Podium","BuildingCSUID":"3508034182P20160520","BuildingID":1810151374,"Status":"Active","BuildingNameEN":null,"BuildingNameTC":null,"BaseHeight":5.2000000000000002,"TopHeight":22.199999999999999,"Storeys":null,"StoreysInBasement":null,"DateStamp":1468771200000}},{"type":"Feature","id":137906,"geometry":{"type":"Polygon","coordinates":[[[114.16636732837244,22.444530295366732],[114.16645369033078,22.444547747784942],[114.16643893870025,22.444611953371105],[114.16638581975062,22.444601284972872],[114.1663887837486,22.44458756790349],[114.16635579327598,22.44458091934959],[114.16636732837244,22.444530295366732]]]},"properties":{"OBJECTID":137906,"Shape__Length":32.716285304611638,"Shape__Area":60.74891349737139,"GeoRefNo":"3518933905","DateCreate":1122825600000,"BuildingBlockType":"Tower","BuildingCSUID":"3518933905T20050801","BuildingID":1106138404,"Status":"Active","BuildingNameEN":null,"BuildingNameTC":null,"BaseHeight":6.2000000000000002,"TopHeight":14.4,"Storeys":null,"StoreysInBasement":null,"DateStamp":1570636800000}},{"type":"Feature","id":140283,"geometry":{"type":"Polygon","coordinates":[[[114.17003339718536,22.446083476841629],[114.17003492367358,22.446057424047552],[114.17005146784986,22.446058607733455],[114.17004956244864,22.446085491313465],[114.17003339718536,22.446083476841629]]]},"properties":{"OBJECTID":140283,"Shape__Length":9.2596210652888136,"Shape__Area":4.9655790007383596,"GeoRefNo":"3556534071","DateCreate":1468944000000,"BuildingBlockType":"Tower","BuildingCSUID":"3556534071T20160720","BuildingID":1810152976,"Status":"Active","BuildingNameEN":"S. K. H. BISHOP MOK SAU TSENG SECONDARY SCHOOL","BuildingNameTC":"聖公會莫壽增會督中學","BaseHeight":25.399999999999999,"TopHeight":27.699999999999999,"Storeys":null,"StoreysInBasement":null,"DateStamp":1470758400000}},{"type":"Feature","id":141779,"geometry":{"type":"Polygon","coordinates":[[[114.16859198886037,22.44420508520956],[114.16862001058909,22.444198881631976],[114.16863492896138,22.444254961519775],[114.16860789468322,22.444261696411949],[114.16859198886037,22.44420508520956]]]},"properties":{"OBJECTID":141779,"Shape__Length":18.722553434011822,"Shape__Area":18.817177981337892,"GeoRefNo":"3541833868","DateCreate":1114790400000,"BuildingBlockType":"Tower","BuildingCSUID":"3541833868T20050430","BuildingID":1106130245,"Status":"Active","BuildingNameEN":null,"BuildingNameTC":null,"BaseHeight":28.300000000000001,"TopHeight":30.5,"Storeys":null,"StoreysInBasement":null,"DateStamp":1473609600000}},{"type":"Feature","id":142009,"geometry":{"type":"Polygon","coordinates":[[[114.16910574096181,22.444043184452411],[114.16914467765736,22.444034020400245],[114.16915501192091,22.444071957837075],[114.16911607521546,22.44408112189171],[114.16910574096181,22.444043184452411]]]},"properties":{"OBJECTID":142009,"Shape__Length":16.936342227306511,"Shape__Area":17.917567998980143,"GeoRefNo":"3547133848","DateCreate":1114790400000,"BuildingBlockType":"Tower","BuildingCSUID":"3547133848T20050430","BuildingID":1106130322,"Status":"Active","BuildingNameEN":null,"BuildingNameTC":null,"BaseHeight":28.300000000000001,"TopHeight":31.300000000000001,"Storeys":null,"StoreysInBasement":null,"DateStamp":1473609600000}},{"type":"Feature","id":142225,"geometry":{"type":"Polygon","coordinates":[[[114.16909693159769,22.444010845968027],[114.16908718011435,22.443975012651382],[114.16912611679159,22.443965857634069],[114.16913586828431,22.444001690948397],[114.16909693159769,22.444010845968027]]]},"properties":{"OBJECTID":142225,"Shape__Length":16.454652838289903,"Shape__Area":16.921799998367952,"GeoRefNo":"3546833840","DateCreate":1114790400000,"BuildingBlockType":"Tower","BuildingCSUID":"3546833840T20050430","BuildingID":1106130342,"Status":"Active","BuildingNameEN":null,"BuildingNameTC":null,"BaseHeight":28.300000000000001,"TopHeight":31,"Storeys":null,"StoreysInBasement":null,"DateStamp":1473609600000}},{"type":"Feature","id":142227,"geometry":{"type":"Polygon","coordinates":[[[114.1697878407646,22.443706388708012],[114.16980455656656,22.443766198148118],[114.16986526383599,22.443751390833857],[114.16989645163932,22.443867352264064],[114.16983623981389,22.443881238504819],[114.16985420872798,22.44394333269819],[114.16983051453055,22.443948515152996],[114.16983304954941,22.443958367490378],[114.1698017098532,22.443965436974267],[114.16978752905493,22.443915254112099],[114.16976531149282,22.443920192799546],[114.1697764714677,22.443961904963906],[114.16974758961271,22.44396803537736],[114.16974372389943,22.443954218610038],[114.16972280811896,22.443958543277787],[114.16971013297388,22.443911105733779],[114.16964917307446,22.443925217633005],[114.16963549738789,22.443877102754168],[114.16969670018044,22.443862060733778],[114.16969163009547,22.443843728683724],[114.16963091311209,22.443857389064156],[114.16961724710588,22.443810186259856],[114.16967944074874,22.44379537005161],[114.16966477421079,22.443746568815847],[114.16968500993528,22.443742325399448],[114.16968147438618,22.443731326147191],[114.16971109455145,22.443724274671439],[114.16972932556693,22.443788662627309],[114.16975055220867,22.443783949662635],[114.16973280693725,22.443719101177251],[114.1697878407646,22.443706388708012]]]},"properties":{"OBJECTID":142227,"Shape__Length":146.17353266653851,"Shape__Area":488.626698992108,"GeoRefNo":"3553733827","DateCreate":1114790400000,"BuildingBlockType":"Tower","BuildingCSUID":"3553733827T20050430","BuildingID":1106130356,"Status":"Active","BuildingNameEN":"Uptown Plaza Block 5","BuildingNameTC":"新達廣場第５座","BaseHeight":28.300000000000001,"TopHeight":107.09999999999999,"Storeys":26,"StoreysInBasement":null,"DateStamp":1599580800000}},{"type":"Feature","id":142228,"geometry":{"type":"Polygon","coordinates":[[[114.16983957584449,22.443609476103255],[114.16985607795453,22.443668915280778],[114.16982717666505,22.44367642736767],[114.16980946997202,22.443616699160216],[114.16983957584449,22.443609476103255]]]},"properties":{"OBJECTID":142228,"Shape__Length":19.948124072322219,"Shape__Area":21.475101998664393,"GeoRefNo":"3554333802","DateCreate":1114790400000,"BuildingBlockType":"Tower","BuildingCSUID":"3554333802T20050430","BuildingID":1106130487,"Status":"Active","BuildingNameEN":null,"BuildingNameTC":null,"BaseHeight":28.300000000000001,"TopHeight":30.399999999999999,"Storeys":null,"StoreysInBasement":null,"DateStamp":1473609600000}},{"type":"Feature","id":142229,"geometry":{"type":"Polygon","coordinates":[[[114.16861711307281,22.443582932146583],[114.16864770480051,22.443574490225032],[114.16874000430836,22.44355330943127],[114.16875520445888,22.443608079910387],[114.16882010852628,22.443592334031528],[114.16883556130534,22.443646869723509],[114.16879527438189,22.44365581690338],[114.16880014999731,22.443675070078797],[114.16884084494455,22.443666023582953],[114.16884896484203,22.443692239399258],[114.16883489793453,22.443695300027073],[114.16883996783575,22.443714778972247],[114.16878765400682,22.443727473193093],[114.16880335931521,22.443782920975902],[114.16875226953745,22.443794919900935],[114.16873654499241,22.443736483031312],[114.16871606633454,22.443741421661716],[114.16873079998223,22.443799858483541],[114.1686789718817,22.443811866378731],[114.16866401464412,22.443756409591472],[114.16861415868682,22.443767243606477],[114.16860921505547,22.443748604493209],[114.16859353549459,22.443751990114187],[114.1685861928446,22.443725178314857],[114.16865701321626,22.443708710367638],[114.16865219583968,22.443690604058855],[114.16858062743896,22.443707306757585],[114.16856567988485,22.443653222590321],[114.1686320703003,22.443637928386128],[114.16861711307281,22.443582932146583]]]},"properties":{"OBJECTID":142229,"Shape__Length":143.43580423126485,"Shape__Area":487.05047498606763,"GeoRefNo":"3542733808","DateCreate":1114790400000,"BuildingBlockType":"Tower","BuildingCSUID":"3542733808T20050430","BuildingID":1106130426,"Status":"Active","BuildingNameEN":"Uptown Plaza Block 1","BuildingNameTC":"新達廣場第１座","BaseHeight":28.300000000000001,"TopHeight":106.5,"Storeys":26,"StoreysInBasement":null,"DateStamp":1599580800000}},{"type":"Feature","id":142652,"geometry":{"type":"Polygon","coordinates":[[[114.16927033999865,22.443427495755301],[114.16936609772875,22.443405836151033],[114.16938253191017,22.443459676492271],[114.1694484267007,22.443444381929037],[114.16946313166154,22.443499387111519],[114.16939451676336,22.443514690585701],[114.16939983936396,22.443533257449303],[114.16946770628465,22.443517258593616],[114.16947554454929,22.443543835584318],[114.1694632068788,22.443546661553953],[114.16946877229427,22.443566366263809],[114.16941447683867,22.443578383313312],[114.16942992978765,22.443634065816525],[114.16937851943628,22.443647943260185],[114.16936220209389,22.443588793016911],[114.16934166521753,22.443593262140368],[114.1693586140389,22.443651689978434],[114.16930801982591,22.443663228549291],[114.16929280981245,22.443607076462239],[114.16924099153417,22.443619310300058],[114.16923623240146,22.443600671214309],[114.16922111631895,22.4436040478924],[114.16921351129983,22.443576549794013],[114.16925793665065,22.443566428744727],[114.169253119201,22.443548322453545],[114.16920869385558,22.443558443501519],[114.16919448435675,22.443504819979566],[114.16925988374562,22.443489525469943],[114.16924492629927,22.443434294495596],[114.16927033999865,22.443427495755301]]]},"properties":{"OBJECTID":142652,"Shape__Length":143.7949701753123,"Shape__Area":484.51642749377083,"GeoRefNo":"3549233792","DateCreate":1114790400000,"BuildingBlockType":"Tower","BuildingCSUID":"3549233792T20050430","BuildingID":1106130493,"Status":"Active","BuildingNameEN":"Uptown Plaza Block 3","BuildingNameTC":"新達廣場第３座","BaseHeight":28.300000000000001,"TopHeight":107,"Storeys":26,"StoreysInBasement":null,"DateStamp":1599580800000}},{"type":"Feature","id":142655,"geometry":{"type":"Polygon","coordinates":[[[114.16951765302201,22.443624759418171],[114.16954435324624,22.443723851822515],[114.16941299085005,22.443754441018886],[114.16938629071328,22.443655348593214],[114.16951765302201,22.443624759418171]]]},"properties":{"OBJECTID":142655,"Shape__Length":50.50416989202823,"Shape__Area":157.69051799609107,"GeoRefNo":"3550533808","DateCreate":1114790400000,"BuildingBlockType":"Tower","BuildingCSUID":"3550533808T20050430","BuildingID":1106130451,"Status":"Active","BuildingNameEN":null,"BuildingNameTC":null,"BaseHeight":28.300000000000001,"TopHeight":32.799999999999997,"Storeys":null,"StoreysInBasement":null,"DateStamp":1473609600000}},{"type":"Feature","id":142659,"geometry":{"type":"Polygon","coordinates":[[[114.16861711307281,22.443582932146583],[114.1685865116952,22.443590218163443],[114.16857946043005,22.443564462941556],[114.16864084774386,22.44354997218813],[114.16864770480051,22.443574490225032],[114.16861711307281,22.443582932146583]]]},"properties":{"OBJECTID":142659,"Shape__Length":18.804500600956754,"Shape__Area":18.961331001631223,"GeoRefNo":"3541833794","DateCreate":1114790400000,"BuildingBlockType":"Tower","BuildingCSUID":"3541833794T20050430","BuildingID":1106130535,"Status":"Active","BuildingNameEN":null,"BuildingNameTC":null,"BaseHeight":28.300000000000001,"TopHeight":30.699999999999999,"Storeys":null,"StoreysInBasement":null,"DateStamp":1473609600000}},{"type":"Feature","id":142869,"geometry":{"type":"Polygon","coordinates":[[[114.16927033999865,22.443427495755301],[114.16924492629927,22.443434294495596],[114.16917361064171,22.443451692814829],[114.16916718102138,22.44342569382535],[114.16923056944155,22.443410724328285],[114.16923394944438,22.443422996877882],[114.16926705713776,22.443415232241495],[114.16927033999865,22.443427495755301]]]},"properties":{"OBJECTID":142869,"Shape__Length":26.315520238360257,"Shape__Area":24.916557493084223,"GeoRefNo":"3547833779","DateCreate":1114790400000,"BuildingBlockType":"Tower","BuildingCSUID":"3547833779T20050430","BuildingID":1106130611,"Status":"Active","BuildingNameEN":null,"BuildingNameTC":null,"BaseHeight":28.300000000000001,"TopHeight":30.600000000000001,"Storeys":null,"StoreysInBasement":null,"DateStamp":1473609600000}},{"type":"Feature","id":143746,"geometry":{"type":"Polygon","coordinates":[[[114.16893101506061,22.443507471273726],[114.16889078641856,22.443517339586986],[114.16888445393039,22.44349245133737],[114.16894437426004,22.443478303553444],[114.16895099821967,22.443502767383563],[114.16893101506061,22.443507471273726]]]},"properties":{"OBJECTID":143746,"Shape__Length":18.394313342476824,"Shape__Area":17.910491000899501,"GeoRefNo":"3544833786","DateCreate":1114790400000,"BuildingBlockType":"Tower","BuildingCSUID":"3544833786T20050430","BuildingID":1106130573,"Status":"Active","BuildingNameEN":null,"BuildingNameTC":null,"BaseHeight":28.300000000000001,"TopHeight":30.600000000000001,"Storeys":null,"StoreysInBasement":null,"DateStamp":1473609600000}}]}