{"type":"FeatureCollection","features":[{"type":"Feature","id":339212,"geometry":{"type":"Polygon","coordinates":[[[114.16537549119271,22.447436460550584],[114.16538452547918,22.447453539040737],[114.16530992247773,22.447487638675799],[114.16511238698857,22.447109515264859],[114.16513815694393,22.447097886363927],[114.16514316503164,22.447095626404678],[114.16517645415537,22.44708060439827],[114.16518253845425,22.447092251050833],[114.16522571890445,22.447072759493743],[114.16524686452924,22.447113236494143],[114.16521366614487,22.447128222219128],[114.16522530295153,22.447150497660555],[114.16520034586432,22.447161763158238],[114.16520598003635,22.447172772588644],[114.16519000940939,22.44717998171113],[114.16520030061619,22.447199906881938],[114.16524383201032,22.447180256861138],[114.1652845709137,22.447258500251859],[114.16524114228778,22.447278103784019],[114.16525235318768,22.44729950883751],[114.1652961815023,22.447279724812255],[114.16533699851425,22.447357483981559],[114.16532053802334,22.447365018358756],[114.16529321416795,22.447377525208118],[114.16531032602222,22.447410197161449],[114.16533780726901,22.447397618347754],[114.16535322263393,22.447426718631856],[114.16536969995269,22.447418994071239],[114.16535436238907,22.447390040719693],[114.16536469782564,22.447385309949421],[114.16535993644261,22.447376321511747],[114.16541312002495,22.447352325865609],[114.1654178546044,22.447361231580903],[114.16542832952476,22.447356710503499],[114.16544338090245,22.447384452031617],[114.16545754433682,22.447377812126824],[114.16544248246657,22.447350051364406],[114.16545267391092,22.447345470303205],[114.16544850407836,22.447337454670119],[114.16547410451737,22.447325904088224],[114.16546366307649,22.44730590749371],[114.16550673977292,22.447286737970888],[114.16552814662811,22.447327445228275],[114.16555123130233,22.447317092798833],[114.16552985824443,22.447276449933934],[114.16557288792039,22.447257062936796],[114.16558835580815,22.447287006014715],[114.1656112486004,22.447276686704996],[114.16562481018035,22.447302682616776],[114.16564302336124,22.447294417766464],[114.16565726567522,22.447321537110895],[114.1656327778317,22.44733264928033],[114.16564001710344,22.447346433955001],[114.16560484904798,22.447362278870838],[114.16560087172321,22.447354651113017],[114.16555947222402,22.447373405738443],[114.16555036779906,22.447356092822488],[114.16553599317925,22.447362624535831],[114.16552186513007,22.447369044197284],[114.16553111739798,22.447386534573543],[114.1654631647276,22.447417594463275],[114.16545413043382,22.447400516067773],[114.16537549119271,22.447436460550584]]]},"properties":{"OBJECTID":339212,"Shape__Length":253.84115457668742,"Shape__Area":606.48792044800825,"GeoRefNo":"3508534218","DateCreate":1463673600000,"BuildingBlockType":"Tower","BuildingCSUID":"3508534218T20160520","BuildingID":1810151373,"Status":"Active","BuildingNameEN":"Po Shun House","BuildingNameTC":"寶順樓","BaseHeight":10.699999999999999,"TopHeight":80.200000000000003,"Storeys":22,"StoreysInBasement":null,"DateStamp":1786636800000}},{"type":"Feature","id":339222,"geometry":{"type":"Polygon","coordinates":[[[114.16488503724123,22.447326588038823],[114.16497813457907,22.447284785268057],[114.16498406989349,22.447296999029255],[114.16489097254929,22.447338801803376],[114.16488503724123,22.447326588038823]]]},"properties":{"OBJECTID":339222,"Shape__Length":24.253146222840652,"Shape__Area":15.789239917469157,"GeoRefNo":"3503934208","DateCreate":1463587200000,"BuildingBlockType":"Tower","BuildingCSUID":"3503934208T20160519","BuildingID":1810151444,"Status":"Active","BuildingNameEN":null,"BuildingNameTC":null,"BaseHeight":10,"TopHeight":12.5,"Storeys":null,"StoreysInBasement":null,"DateStamp":1684944000000}},{"type":"Feature","id":339262,"geometry":{"type":"Polygon","coordinates":[[[114.16841358771173,22.443324278816085],[114.16845558189596,22.443308917847649],[114.1684664772784,22.443334656478502],[114.16842448308763,22.443350017359407],[114.16841358771173,22.443324278816085]]]},"properties":{"OBJECTID":339262,"Shape__Length":15.416722969812643,"Shape__Area":14.228621810812241,"GeoRefNo":"3540033767","DateCreate":1484496000000,"BuildingBlockType":"Tower","BuildingCSUID":"3540033767T20170116","BuildingID":1810158101,"Status":"Active","BuildingNameEN":null,"BuildingNameTC":null,"BaseHeight":7.7000000000000002,"TopHeight":21.100000000000001,"Storeys":null,"StoreysInBasement":null,"DateStamp":1684944000000}},{"type":"Feature","id":339281,"geometry":{"type":"Polygon","coordinates":[[[114.16592349957538,22.443635784615406],[114.16594772255831,22.443616584882733],[114.16598737519426,22.443663821895637],[114.16599487552465,22.443672756771672],[114.16595567249041,22.443697543999892],[114.16591181997035,22.443645042210164],[114.16592349957538,22.443635784615406]]]},"properties":{"OBJECTID":339281,"Shape__Length":24.987868096909999,"Shape__Area":37.068182838450376,"GeoRefNo":"3514433804","DateCreate":1492963200000,"BuildingBlockType":"Temporary Structure","BuildingCSUID":"3514433804T20170424","BuildingID":1810160998,"Status":"Active","BuildingNameEN":null,"BuildingNameTC":null,"BaseHeight":null,"TopHeight":null,"Storeys":null,"StoreysInBasement":null,"DateStamp":1684944000000}},{"type":"Feature","id":339428,"geometry":{"type":"Polygon","coordinates":[[[114.16557288792039,22.447257062936796],[114.16552985824443,22.447276449933934],[114.16552425626919,22.447278942849174],[114.1655090741223,22.447250039370797],[114.16560779154484,22.447205859635162],[114.16562285364904,22.447234550880449],[114.16557288792039,22.447257062936796]]]},"properties":{"OBJECTID":339428,"Shape__Length":29.651983593515151,"Shape__Area":40.034614422666586,"GeoRefNo":"3510434201","DateCreate":1463673600000,"BuildingBlockType":"Tower","BuildingCSUID":"3510434201T20160520","BuildingID":1810151452,"Status":"Active","BuildingNameEN":null,"BuildingNameTC":null,"BaseHeight":15.300000000000001,"TopHeight":20.100000000000001,"Storeys":null,"StoreysInBasement":null,"DateStamp":1684944000000}},{"type":"Feature","id":339429,"geometry":{"type":"Polygon","coordinates":[[[114.1655677094078,22.446993984369922],[114.16558047087389,22.446997885964425],[114.1655565228414,22.447056980295027],[114.16551091719721,22.447042214659309],[114.16551630660415,22.447027737235601],[114.16549751609615,22.447021693098961],[114.16550875559994,22.446991383626361],[114.16550170973152,22.446988973084512],[114.16546725555503,22.447004126649809],[114.16546003235442,22.446990258075058],[114.16543552570877,22.447001343935089],[114.16542130582445,22.446974105189067],[114.16545249961935,22.446959994330523],[114.1654294477821,22.446916338773203],[114.16545305747353,22.446906083742626],[114.16539032563588,22.446781290642285],[114.16537010275353,22.446790174088445],[114.16538086240082,22.446811338892235],[114.16533798291167,22.446830943212966],[114.16531628716591,22.446790316007423],[114.16529337070997,22.446800848031696],[114.16531491141286,22.44684134708708],[114.16523113996411,22.446879095058918],[114.1652101427359,22.446838481615849],[114.1651869341533,22.44684884952057],[114.16520797974827,22.44688955661589],[114.16514118114111,22.446919854465605],[114.16512649899707,22.446891427523223],[114.16514953177025,22.446880854442625],[114.16513441493956,22.446851845456692],[114.16514330656787,22.44684779937478],[114.16513584658536,22.446833633756512],[114.16519890957966,22.446804905312607],[114.1651867199097,22.446781784487754],[114.16521979425842,22.446766740512288],[114.16525570222474,22.446750407636262],[114.16526793395118,22.446773737333373],[114.16532548565667,22.446747664391065],[114.16530509689193,22.446709001400269],[114.1653572535328,22.446684263845391],[114.16536456341684,22.446665597877498],[114.16537552200558,22.446669120261777],[114.16538393163398,22.446646512939648],[114.16541411627902,22.446656174863882],[114.16540578184352,22.446678830867018],[114.16542132968416,22.446683816687102],[114.16540534133198,22.446726753642295],[114.16545494392714,22.446741452223137],[114.16545002073006,22.446754843405024],[114.16546904308304,22.446761003695329],[114.16545528348784,22.446799432539194],[114.16549089407393,22.446810449941154],[114.16548595125512,22.446825019957938],[114.16550504124436,22.44683105707335],[114.16549079500919,22.446868634494663],[114.16552723063951,22.44688033690635],[114.1655219402121,22.446893879505165],[114.16554104410973,22.446899851868906],[114.16552725374385,22.446936846589924],[114.16556306319396,22.446948347841378],[114.16555796369447,22.446962710961515],[114.16557715211671,22.446968749339437],[114.1655677094078,22.446993984369922]]]},"properties":{"OBJECTID":339429,"Shape__Length":229.97910298002674,"Shape__Area":615.00903864017721,"GeoRefNo":"3508234147","DateCreate":1463673600000,"BuildingBlockType":"Tower","BuildingCSUID":"3508234147T20160520","BuildingID":1810151455,"Status":"Active","BuildingNameEN":"Po Hing House","BuildingNameTC":"寶興樓","BaseHeight":10.699999999999999,"TopHeight":80.200000000000003,"Storeys":22,"StoreysInBasement":null,"DateStamp":1786636800000}},{"type":"Feature","id":339549,"geometry":{"type":"Polygon","coordinates":[[[114.17185093684576,22.447597037173541],[114.17188095454257,22.447604553150082],[114.17187305441405,22.447631815841284],[114.17184303671181,22.44762429986331],[114.17185093684576,22.447597037173541]]]},"properties":{"OBJECTID":339549,"Shape__Length":12.653163775917877,"Shape__Area":10.005061786712396,"GeoRefNo":"3575234242","DateCreate":1519660800000,"BuildingBlockType":"Tower","BuildingCSUID":"3575234242T20180227","BuildingID":1810172155,"Status":"Active","BuildingNameEN":null,"BuildingNameTC":null,"BaseHeight":2.7999999999999998,"TopHeight":12.800000000000001,"Storeys":null,"StoreysInBasement":null,"DateStamp":1684944000000}},{"type":"Feature","id":339550,"geometry":{"type":"Polygon","coordinates":[[[114.17215124160015,22.447661018797973],[114.17214527090427,22.44768800251741],[114.1721148207089,22.447682180690169],[114.17212079141044,22.447655196971859],[114.17215124160015,22.447661018797973]]]},"properties":{"OBJECTID":339550,"Shape__Length":12.501269750412625,"Shape__Area":9.7620310797469863,"GeoRefNo":"3578034248","DateCreate":1519660800000,"BuildingBlockType":"Tower","BuildingCSUID":"3578034248T20180227","BuildingID":1810172156,"Status":"Active","BuildingNameEN":null,"BuildingNameTC":null,"BaseHeight":3,"TopHeight":13.199999999999999,"Storeys":null,"StoreysInBasement":null,"DateStamp":1684944000000}},{"type":"Feature","id":339656,"geometry":{"type":"Polygon","coordinates":[[[114.16502767422713,22.445376139781061],[114.16494830052608,22.445315106144399],[114.16498569600348,22.445273081160366],[114.16506509883959,22.44533413284195],[114.16502767422713,22.445376139781061]]]},"properties":{"OBJECTID":339656,"Shape__Length":33.289935705427055,"Shape__Area":64.052172002123001,"GeoRefNo":"3504633988","DateCreate":1464710400000,"BuildingBlockType":"Tower","BuildingCSUID":"3504633988T20160601","BuildingID":1810151795,"Status":"Active","BuildingNameEN":null,"BuildingNameTC":null,"BaseHeight":12.6,"TopHeight":20.699999999999999,"Storeys":3,"StoreysInBasement":null,"DateStamp":1684944000000}},{"type":"Feature","id":339769,"geometry":{"type":"Polygon","coordinates":[[[114.17291538528541,22.446353366984969],[114.17292660772681,22.446380163682438],[114.17289824680886,22.446389580310409],[114.172887136084,22.446363069427566],[114.17291538528541,22.446353366984969]]]},"properties":{"OBJECTID":339769,"Shape__Length":12.534931962664588,"Shape__Area":9.8164316650847656,"GeoRefNo":"3586034104","DateCreate":1521475200000,"BuildingBlockType":"Tower","BuildingCSUID":"3586034104T20180320","BuildingID":1810172870,"Status":"Active","BuildingNameEN":null,"BuildingNameTC":null,"BaseHeight":5,"TopHeight":17.399999999999999,"Storeys":null,"StoreysInBasement":null,"DateStamp":1684944000000}},{"type":"Feature","id":339936,"geometry":{"type":"Polygon","coordinates":[[[114.17220589068721,22.446490331666574],[114.1722308917507,22.446488679628679],[114.17223269597929,22.446512272641883],[114.17220769491162,22.446513924680051],[114.17220589068721,22.446490331666574]]]},"properties":{"OBJECTID":339936,"Shape__Length":10.398396299124737,"Shape__Area":6.7575312150092257,"GeoRefNo":"3578934119","DateCreate":1485964800000,"BuildingBlockType":"Tower","BuildingCSUID":"3578934119T20170202","BuildingID":1810158604,"Status":"Active","BuildingNameEN":null,"BuildingNameTC":null,"BaseHeight":5.0999999999999996,"TopHeight":10.199999999999999,"Storeys":null,"StoreysInBasement":null,"DateStamp":1684944000000}},{"type":"Feature","id":339939,"geometry":{"type":"Polygon","coordinates":[[[114.16703685801704,22.449034181670079],[114.16709158454749,22.449009298598821],[114.16711455816875,22.449052984606656],[114.16710779371439,22.449056053739284],[114.16706000893278,22.449077734226236],[114.16703685801704,22.449034181670079]]]},"properties":{"OBJECTID":339939,"Shape__Length":23.283314650988192,"Shape__Area":33.689381787805559,"GeoRefNo":"3525934400","DateCreate":1494950400000,"BuildingBlockType":"Tower","BuildingCSUID":"3525934400T20170517","BuildingID":1810161760,"Status":"Active","BuildingNameEN":null,"BuildingNameTC":null,"BaseHeight":4.5,"TopHeight":10.1,"Storeys":null,"StoreysInBasement":null,"DateStamp":1684944000000}},{"type":"Feature","id":339940,"geometry":{"type":"Polygon","coordinates":[[[114.16711455816875,22.449052984606656],[114.16713717725489,22.449095996285955],[114.16711838946283,22.449104520532572],[114.16708282483769,22.44912065661379],[114.16706000893278,22.449077734226236],[114.16710779371439,22.449056053739284],[114.16711455816875,22.449052984606656]]]},"properties":{"OBJECTID":339940,"Shape__Length":23.076931452104642,"Shape__Area":33.065166321755143,"GeoRefNo":"3526234405","DateCreate":1494950400000,"BuildingBlockType":"Tower","BuildingCSUID":"3526234405T20170517","BuildingID":1810161761,"Status":"Active","BuildingNameEN":null,"BuildingNameTC":null,"BaseHeight":4.5999999999999996,"TopHeight":10.199999999999999,"Storeys":null,"StoreysInBasement":null,"DateStamp":1684944000000}},{"type":"Feature","id":339941,"geometry":{"type":"Polygon","coordinates":[[[114.16708282483769,22.44912065661379],[114.16711838946283,22.449104520532572],[114.16713717725489,22.449095996285955],[114.16715964802692,22.44913872593202],[114.16715516510563,22.449140759952602],[114.16710549116567,22.449163297600077],[114.16708282483769,22.44912065661379]]]},"properties":{"OBJECTID":339941,"Shape__Length":22.962467771713662,"Shape__Area":32.730042123588994,"GeoRefNo":"3526434410","DateCreate":1494950400000,"BuildingBlockType":"Tower","BuildingCSUID":"3526434410T20170517","BuildingID":1810161763,"Status":"Active","BuildingNameEN":null,"BuildingNameTC":null,"BaseHeight":4.7000000000000002,"TopHeight":10.300000000000001,"Storeys":null,"StoreysInBasement":null,"DateStamp":1684944000000}},{"type":"Feature","id":339942,"geometry":{"type":"Polygon","coordinates":[[[114.16724908539314,22.449308796767976],[114.1672717830491,22.449351957705076],[114.16721858832967,22.449376060696814],[114.16719570687074,22.449333015240793],[114.16724158247025,22.449312200891903],[114.16724908539314,22.449308796767976]]]},"properties":{"OBJECTID":339942,"Shape__Length":22.842262645684244,"Shape__Area":32.456563923918544,"GeoRefNo":"3527634433","DateCreate":1494950400000,"BuildingBlockType":"Temporary Structure","BuildingCSUID":"3527634433T20170517","BuildingID":1810161772,"Status":"Active","BuildingNameEN":null,"BuildingNameTC":null,"BaseHeight":null,"TopHeight":null,"Storeys":null,"StoreysInBasement":null,"DateStamp":1684944000000}},{"type":"Feature","id":339943,"geometry":{"type":"Polygon","coordinates":[[[114.16717307943961,22.449290447597665],[114.16721609970583,22.449270928773835],[114.16722665312975,22.449266140555089],[114.16724908539314,22.449308796767976],[114.16724158247025,22.449312200891903],[114.16719570687074,22.449333015240793],[114.16717307943961,22.449290447597665]]]},"properties":{"OBJECTID":339943,"Shape__Length":22.766002790050859,"Shape__Area":32.204869950882554,"GeoRefNo":"3527334429","DateCreate":1494950400000,"BuildingBlockType":"Tower","BuildingCSUID":"3527334429T20170517","BuildingID":1810161773,"Status":"Active","BuildingNameEN":null,"BuildingNameTC":null,"BaseHeight":4.5,"TopHeight":7.2000000000000002,"Storeys":null,"StoreysInBasement":null,"DateStamp":1684944000000}},{"type":"Feature","id":339944,"geometry":{"type":"Polygon","coordinates":[[[114.16722665312975,22.449266140555089],[114.16721609970583,22.449270928773835],[114.16717307943961,22.449290447597665],[114.16715052740071,22.449248021824022],[114.16719875145461,22.449226142034927],[114.16720429577272,22.449223626572927],[114.16722665312975,22.449266140555089]]]},"properties":{"OBJECTID":339944,"Shape__Length":22.775596803244838,"Shape__Area":32.21452318304901,"GeoRefNo":"3527134424","DateCreate":1494950400000,"BuildingBlockType":"Temporary Structure","BuildingCSUID":"3527134424T20170517","BuildingID":1810161775,"Status":"Active","BuildingNameEN":null,"BuildingNameTC":null,"BaseHeight":null,"TopHeight":null,"Storeys":null,"StoreysInBasement":null,"DateStamp":1684944000000}},{"type":"Feature","id":339945,"geometry":{"type":"Polygon","coordinates":[[[114.16712793982336,22.449205529038938],[114.16717398948889,22.449184635793248],[114.16718190307148,22.449181045308475],[114.16720429577272,22.449223626572927],[114.16719875145461,22.449226142034927],[114.16715052740071,22.449248021824022],[114.16712793982336,22.449205529038938]]]},"properties":{"OBJECTID":339945,"Shape__Length":22.836782628071013,"Shape__Area":32.382504442198261,"GeoRefNo":"3526934419","DateCreate":1494950400000,"BuildingBlockType":"Temporary Structure","BuildingCSUID":"3526934419T20170517","BuildingID":1810161778,"Status":"Active","BuildingNameEN":null,"BuildingNameTC":null,"BaseHeight":null,"TopHeight":null,"Storeys":null,"StoreysInBasement":null,"DateStamp":1684944000000}},{"type":"Feature","id":339946,"geometry":{"type":"Polygon","coordinates":[[[114.16710549116567,22.449163297600077],[114.16715516510563,22.449140759952602],[114.16715964802692,22.44913872593202],[114.16718190307148,22.449181045308475],[114.16717398948889,22.449184635793248],[114.16712793982336,22.449205529038938],[114.16710549116567,22.449163297600077]]]},"properties":{"OBJECTID":339946,"Shape__Length":22.816734191067574,"Shape__Area":32.299434336150526,"GeoRefNo":"3526634414","DateCreate":1494950400000,"BuildingBlockType":"Temporary Structure","BuildingCSUID":"3526634414T20170517","BuildingID":1810161780,"Status":"Active","BuildingNameEN":null,"BuildingNameTC":null,"BaseHeight":null,"TopHeight":null,"Storeys":null,"StoreysInBasement":null,"DateStamp":1684944000000}},{"type":"Feature","id":339947,"geometry":{"type":"Polygon","coordinates":[[[114.16727518786141,22.449296701216429],[114.1672840836632,22.449292664861293],[114.16732841314619,22.449272551068667],[114.1673513358857,22.449316172199776],[114.16729823560415,22.449340555980079],[114.16727742366764,22.449300955413229],[114.16727518786141,22.449296701216429]]]},"properties":{"OBJECTID":339947,"Shape__Length":22.973685392151449,"Shape__Area":32.862084437544205,"GeoRefNo":"3528434429","DateCreate":1495036800000,"BuildingBlockType":"Temporary Structure","BuildingCSUID":"3528434429T20170518","BuildingID":1810161828,"Status":"Active","BuildingNameEN":null,"BuildingNameTC":null,"BaseHeight":null,"TopHeight":null,"Storeys":null,"StoreysInBasement":null,"DateStamp":1684944000000}},{"type":"Feature","id":339948,"geometry":{"type":"Polygon","coordinates":[[[114.16725280183113,22.449254105513873],[114.16726557257167,22.449248310980622],[114.16730602885228,22.44922995456071],[114.16732841314619,22.449272551068667],[114.1672840836632,22.449292664861293],[114.16727518786141,22.449296701216429],[114.16725280183113,22.449254105513873]]]},"properties":{"OBJECTID":339948,"Shape__Length":22.692586037136852,"Shape__Area":32.005235233685909,"GeoRefNo":"3528234425","DateCreate":1495036800000,"BuildingBlockType":"Temporary Structure","BuildingCSUID":"3528234425T20170518","BuildingID":1810161829,"Status":"Active","BuildingNameEN":null,"BuildingNameTC":null,"BaseHeight":null,"TopHeight":null,"Storeys":null,"StoreysInBasement":null,"DateStamp":1684944000000}},{"type":"Feature","id":339949,"geometry":{"type":"Polygon","coordinates":[[[114.16723037365705,22.449211429434477],[114.16723821408365,22.449207871994062],[114.16728360231737,22.449187277766235],[114.16730602885228,22.44922995456071],[114.16726557257167,22.449248310980622],[114.16725280183113,22.449254105513873],[114.16723037365705,22.449211429434477]]]},"properties":{"OBJECTID":339949,"Shape__Length":22.712774132934097,"Shape__Area":32.066607531749909,"GeoRefNo":"3527934420","DateCreate":1495036800000,"BuildingBlockType":"Tower","BuildingCSUID":"3527934420T20170518","BuildingID":1810161830,"Status":"Active","BuildingNameEN":null,"BuildingNameTC":null,"BaseHeight":4.5999999999999996,"TopHeight":10.199999999999999,"Storeys":null,"StoreysInBasement":null,"DateStamp":1684944000000}},{"type":"Feature","id":339950,"geometry":{"type":"Polygon","coordinates":[[[114.16726120367451,22.449144653978841],[114.16728360231737,22.449187277766235],[114.16723821408365,22.449207871994062],[114.16723037365705,22.449211429434477],[114.16720797337499,22.449168806452441],[114.16722161187829,22.449162618156453],[114.16726120367451,22.449144653978841]]]},"properties":{"OBJECTID":339950,"Shape__Length":22.700077160505344,"Shape__Area":32.027768374001582,"GeoRefNo":"3527734415","DateCreate":1495036800000,"BuildingBlockType":"Temporary Structure","BuildingCSUID":"3527734415T20170518","BuildingID":1810161831,"Status":"Active","BuildingNameEN":null,"BuildingNameTC":null,"BaseHeight":null,"TopHeight":null,"Storeys":null,"StoreysInBasement":null,"DateStamp":1684944000000}},{"type":"Feature","id":339951,"geometry":{"type":"Polygon","coordinates":[[[114.16726120367451,22.449144653978841],[114.16722161187829,22.449162618156453],[114.16720797337499,22.449168806452441],[114.16718568199713,22.449126390722434],[114.16719677460902,22.449121357632002],[114.16723891403308,22.449102237533715],[114.16726120367451,22.449144653978841]]]},"properties":{"OBJECTID":339951,"Shape__Length":22.649369952834803,"Shape__Area":31.87299211074604,"GeoRefNo":"3527534410","DateCreate":1495036800000,"BuildingBlockType":"Temporary Structure","BuildingCSUID":"3527534410T20170518","BuildingID":1810161832,"Status":"Active","BuildingNameEN":null,"BuildingNameTC":null,"BaseHeight":null,"TopHeight":null,"Storeys":null,"StoreysInBasement":null,"DateStamp":1684944000000}},{"type":"Feature","id":339952,"geometry":{"type":"Polygon","coordinates":[[[114.16723891403308,22.449102237533715],[114.16719677460902,22.449121357632002],[114.16718568199713,22.449126390722434],[114.16716327037739,22.449083746060008],[114.16717650462178,22.449077741242274],[114.16721650405252,22.449059592065904],[114.16723891403308,22.449102237533715]]]},"properties":{"OBJECTID":339952,"Shape__Length":22.706195362017887,"Shape__Area":32.046070031578459,"GeoRefNo":"3527234406","DateCreate":1495036800000,"BuildingBlockType":"Tower","BuildingCSUID":"3527234406T20170518","BuildingID":1810161834,"Status":"Active","BuildingNameEN":null,"BuildingNameTC":null,"BaseHeight":4.5,"TopHeight":7.5999999999999996,"Storeys":null,"StoreysInBasement":null,"DateStamp":1684944000000}},{"type":"Feature","id":339953,"geometry":{"type":"Polygon","coordinates":[[[114.16714086702795,22.449041117198043],[114.16714982227477,22.449037053943002],[114.16719410243944,22.449016962488859],[114.16721650405252,22.449059592065904],[114.16717650462178,22.449077741242274],[114.16716327037739,22.449083746060008],[114.16714086702795,22.449041117198043]]]},"properties":{"OBJECTID":339953,"Shape__Length":22.702680081795805,"Shape__Area":32.035188913359875,"GeoRefNo":"3527034401","DateCreate":1495036800000,"BuildingBlockType":"Temporary Structure","BuildingCSUID":"3527034401T20170518","BuildingID":1810161835,"Status":"Active","BuildingNameEN":null,"BuildingNameTC":null,"BaseHeight":null,"TopHeight":null,"Storeys":null,"StoreysInBasement":null,"DateStamp":1684944000000}},{"type":"Feature","id":339954,"geometry":{"type":"Polygon","coordinates":[[[114.16717117659273,22.448973335192946],[114.16719410243944,22.449016962488859],[114.16714982227477,22.449037053943002],[114.16714086702795,22.449041117198043],[114.16711786892391,22.448997356600902],[114.16717117659273,22.448973335192946]]]},"properties":{"OBJECTID":339954,"Shape__Length":22.965545714685113,"Shape__Area":32.836407121131117,"GeoRefNo":"3526834396","DateCreate":1495036800000,"BuildingBlockType":"Tower","BuildingCSUID":"3526834396T20170518","BuildingID":1810161836,"Status":"Active","BuildingNameEN":null,"BuildingNameTC":null,"BaseHeight":4.7000000000000002,"TopHeight":7.9000000000000004,"Storeys":null,"StoreysInBasement":null,"DateStamp":1684944000000}},{"type":"Feature","id":340178,"geometry":{"type":"Polygon","coordinates":[[[114.16784973777384,22.448877428224232],[114.1678357531715,22.448883785694587],[114.16779665165507,22.4489015613951],[114.16777439608478,22.448859166787901],[114.16781738329878,22.448839624592583],[114.1678274745162,22.448835037055364],[114.16784973777384,22.448877428224232]]]},"properties":{"OBJECTID":340178,"Shape__Length":22.612347073765267,"Shape__Area":31.773049810529248,"GeoRefNo":"3533534381","DateCreate":1495123200000,"BuildingBlockType":"Temporary Structure","BuildingCSUID":"3533534381T20170519","BuildingID":1810161866,"Status":"Active","BuildingNameEN":null,"BuildingNameTC":null,"BaseHeight":null,"TopHeight":null,"Storeys":null,"StoreysInBasement":null,"DateStamp":1684944000000}},{"type":"Feature","id":340179,"geometry":{"type":"Polygon","coordinates":[[[114.16780506508013,22.44879236764686],[114.1678274745162,22.448835037055364],[114.16781738329878,22.448839624592583],[114.16777439608478,22.448859166787901],[114.16775199443327,22.448816493760432],[114.16779456203625,22.448797142360849],[114.16780506508013,22.44879236764686]]]},"properties":{"OBJECTID":340179,"Shape__Length":22.679168313881373,"Shape__Area":31.977006774404252,"GeoRefNo":"3533334376","DateCreate":1495123200000,"BuildingBlockType":"Tower","BuildingCSUID":"3533334376T20170519","BuildingID":1810161867,"Status":"Active","BuildingNameEN":null,"BuildingNameTC":null,"BaseHeight":4.5999999999999996,"TopHeight":7.7999999999999998,"Storeys":null,"StoreysInBasement":null,"DateStamp":1684944000000}},{"type":"Feature","id":340180,"geometry":{"type":"Polygon","coordinates":[[[114.16778253579018,22.448749469848188],[114.16780501592855,22.448792274088643],[114.16780506508013,22.44879236764686],[114.16779456203625,22.448797142360849],[114.16775199443327,22.448816493760432],[114.16772947292793,22.448773592433042],[114.1677729549187,22.44875382532874],[114.16778253579018,22.448749469848188]]]},"properties":{"OBJECTID":340180,"Shape__Length":22.733654940094674,"Shape__Area":32.143389401204701,"GeoRefNo":"3533134371","DateCreate":1495123200000,"BuildingBlockType":"Temporary Structure","BuildingCSUID":"3533134371T20170519","BuildingID":1810161869,"Status":"Active","BuildingNameEN":null,"BuildingNameTC":null,"BaseHeight":null,"TopHeight":null,"Storeys":null,"StoreysInBasement":null,"DateStamp":1684944000000}},{"type":"Feature","id":340181,"geometry":{"type":"Polygon","coordinates":[[[114.16778253579018,22.448749469848188],[114.1677729549187,22.44875382532874],[114.16772947292793,22.448773592433042],[114.16770658697718,22.448729997001255],[114.16775949566855,22.448705599437908],[114.16778253579018,22.448749469848188]]]},"properties":{"OBJECTID":340181,"Shape__Length":22.937368389864321,"Shape__Area":32.762979963408604,"GeoRefNo":"3532834367","DateCreate":1495123200000,"BuildingBlockType":"Temporary Structure","BuildingCSUID":"3532834367T20170519","BuildingID":1810161871,"Status":"Active","BuildingNameEN":null,"BuildingNameTC":null,"BaseHeight":null,"TopHeight":null,"Storeys":null,"StoreysInBasement":null,"DateStamp":1684944000000}},{"type":"Feature","id":340413,"geometry":{"type":"Polygon","coordinates":[[[114.16791715066978,22.449005787985474],[114.16790608607236,22.449010818056699],[114.16786404129437,22.449029931832765],[114.16784164230788,22.448987264146719],[114.16788160713929,22.448969095929716],[114.16789474399589,22.448963123828118],[114.16791715066978,22.449005787985474]]]},"properties":{"OBJECTID":340413,"Shape__Length":22.684964292916266,"Shape__Area":31.991705525641166,"GeoRefNo":"3534234395","DateCreate":1495123200000,"BuildingBlockType":"Tower","BuildingCSUID":"3534234395T20170519","BuildingID":1810161862,"Status":"Active","BuildingNameEN":null,"BuildingNameTC":null,"BaseHeight":4.5999999999999996,"TopHeight":7.7999999999999998,"Storeys":null,"StoreysInBasement":null,"DateStamp":1684944000000}},{"type":"Feature","id":340414,"geometry":{"type":"Polygon","coordinates":[[[114.16784164230788,22.448987264146719],[114.16781908840056,22.448944301152942],[114.16785887640518,22.448926213392902],[114.16787218230391,22.448920164453384],[114.16789474399589,22.448963123828118],[114.16788160713929,22.448969095929716],[114.16784164230788,22.448987264146719]]]},"properties":{"OBJECTID":340414,"Shape__Length":22.755949452959882,"Shape__Area":32.20837305550647,"GeoRefNo":"3534034390","DateCreate":1495123200000,"BuildingBlockType":"Temporary Structure","BuildingCSUID":"3534034390T20170519","BuildingID":1810161863,"Status":"Active","BuildingNameEN":null,"BuildingNameTC":null,"BaseHeight":null,"TopHeight":null,"Storeys":null,"StoreysInBasement":null,"DateStamp":1684944000000}},{"type":"Feature","id":340415,"geometry":{"type":"Polygon","coordinates":[[[114.16781908840056,22.448944301152942],[114.16779665165507,22.4489015613951],[114.1678357531715,22.448883785694587],[114.16784973777384,22.448877428224232],[114.16787218230391,22.448920164453384],[114.16785887640518,22.448926213392902],[114.16781908840056,22.448944301152942]]]},"properties":{"OBJECTID":340415,"Shape__Length":22.699164156850138,"Shape__Area":32.036363629480704,"GeoRefNo":"3533734385","DateCreate":1495123200000,"BuildingBlockType":"Temporary Structure","BuildingCSUID":"3533734385T20170519","BuildingID":1810161865,"Status":"Active","BuildingNameEN":null,"BuildingNameTC":null,"BaseHeight":null,"TopHeight":null,"Storeys":null,"StoreysInBasement":null,"DateStamp":1684944000000}},{"type":"Feature","id":340420,"geometry":{"type":"Polygon","coordinates":[[[114.16791715066978,22.449005787985474],[114.16793982322378,22.449048958310893],[114.16788663787287,22.449072976005926],[114.16786404129437,22.449029931832765],[114.16790608607236,22.449010818056699],[114.16791715066978,22.449005787985474]]]},"properties":{"OBJECTID":340420,"Shape__Length":22.79551549249873,"Shape__Area":32.327330980494594,"GeoRefNo":"3534434400","DateCreate":1495123200000,"BuildingBlockType":"Temporary Structure","BuildingCSUID":"3534434400T20170519","BuildingID":1810161859,"Status":"Active","BuildingNameEN":null,"BuildingNameTC":null,"BaseHeight":null,"TopHeight":null,"Storeys":null,"StoreysInBasement":null,"DateStamp":1684944000000}},{"type":"Feature","id":340424,"geometry":{"type":"Polygon","coordinates":[[[114.16794314782406,22.448993478027031],[114.16796320397515,22.448984343205268],[114.16799644040425,22.448969205299107],[114.16801934056861,22.449012847828271],[114.16796610791523,22.449037148651605],[114.16794314782406,22.448993478027031]]]},"properties":{"OBJECTID":340424,"Shape__Length":22.97288951499808,"Shape__Area":32.852462565239207,"GeoRefNo":"3535334396","DateCreate":1495123200000,"BuildingBlockType":"Tower","BuildingCSUID":"3535334396T20170519","BuildingID":1810161921,"Status":"Active","BuildingNameEN":null,"BuildingNameTC":null,"BaseHeight":4.5999999999999996,"TopHeight":9.9000000000000004,"Storeys":null,"StoreysInBasement":null,"DateStamp":1684944000000}},{"type":"Feature","id":340425,"geometry":{"type":"Polygon","coordinates":[[[114.16799644040425,22.448969205299107],[114.16796320397515,22.448984343205268],[114.16794314782406,22.448993478027031],[114.16792074580383,22.448950868778578],[114.16792797102993,22.448947577939752],[114.16797407392943,22.448926579895375],[114.16799644040425,22.448969205299107]]]},"properties":{"OBJECTID":340425,"Shape__Length":22.724998172521168,"Shape__Area":32.092073283082868,"GeoRefNo":"3535034391","DateCreate":1495123200000,"BuildingBlockType":"Temporary Structure","BuildingCSUID":"3535034391T20170519","BuildingID":1810161922,"Status":"Active","BuildingNameEN":null,"BuildingNameTC":null,"BaseHeight":null,"TopHeight":null,"Storeys":null,"StoreysInBasement":null,"DateStamp":1684944000000}},{"type":"Feature","id":340426,"geometry":{"type":"Polygon","coordinates":[[[114.16789889009989,22.448909298600707],[114.16790425330134,22.448906855889948],[114.16795225289677,22.448884994013504],[114.16797407392943,22.448926579895375],[114.16792797102993,22.448947577939752],[114.16792074580383,22.448950868778578],[114.16789899403726,22.448909496373322],[114.16789889009989,22.448909298600707]]]},"properties":{"OBJECTID":340426,"Shape__Length":22.476899889037792,"Shape__Area":31.330059970840995,"GeoRefNo":"3534834386","DateCreate":1495123200000,"BuildingBlockType":"Temporary Structure","BuildingCSUID":"3534834386T20170519","BuildingID":1810161923,"Status":"Active","BuildingNameEN":null,"BuildingNameTC":null,"BaseHeight":null,"TopHeight":null,"Storeys":null,"StoreysInBasement":null,"DateStamp":1684944000000}},{"type":"Feature","id":340427,"geometry":{"type":"Polygon","coordinates":[[[114.16792986012464,22.448842318482775],[114.16795225289677,22.448884994013504],[114.16790425330134,22.448906855889948],[114.16789889009989,22.448909298600707],[114.16787646178237,22.448866639315536],[114.16790078543467,22.448855560843569],[114.16792986012464,22.448842318482775]]]},"properties":{"OBJECTID":340427,"Shape__Length":22.753437621199993,"Shape__Area":32.172105169503233,"GeoRefNo":"3534634382","DateCreate":1495123200000,"BuildingBlockType":"Tower","BuildingCSUID":"3534634382T20170519","BuildingID":1810161924,"Status":"Active","BuildingNameEN":null,"BuildingNameTC":null,"BaseHeight":4.5999999999999996,"TopHeight":7.5,"Storeys":null,"StoreysInBasement":null,"DateStamp":1684944000000}},{"type":"Feature","id":340428,"geometry":{"type":"Polygon","coordinates":[[[114.16790712981287,22.448798999600761],[114.16792986012464,22.448842318482775],[114.16790078543467,22.448855560843569],[114.16787646178237,22.448866639315536],[114.16785369524544,22.448823336769234],[114.16786629260319,22.448817599250905],[114.16790712981287,22.448798999600761]]]},"properties":{"OBJECTID":340428,"Shape__Length":22.920210922452473,"Shape__Area":32.679095681761858,"GeoRefNo":"3534334377","DateCreate":1495123200000,"BuildingBlockType":"Tower","BuildingCSUID":"3534334377T20170519","BuildingID":1810161925,"Status":"Active","BuildingNameEN":null,"BuildingNameTC":null,"BaseHeight":4.5999999999999996,"TopHeight":7.5,"Storeys":null,"StoreysInBasement":null,"DateStamp":1684944000000}},{"type":"Feature","id":340429,"geometry":{"type":"Polygon","coordinates":[[[114.16788477164931,22.448756389987548],[114.16790712981287,22.448798999600761],[114.16786629260319,22.448817599250905],[114.16785369524544,22.448823336769234],[114.1678313016337,22.448780743401567],[114.16784398681423,22.448774965794687],[114.16788477164931,22.448756389987548]]]},"properties":{"OBJECTID":340429,"Shape__Length":22.753629862443717,"Shape__Area":32.165562763305424,"GeoRefNo":"3534134372","DateCreate":1495123200000,"BuildingBlockType":"Tower","BuildingCSUID":"3534134372T20170519","BuildingID":1810161926,"Status":"Active","BuildingNameEN":null,"BuildingNameTC":null,"BaseHeight":4.5,"TopHeight":9.9000000000000004,"Storeys":null,"StoreysInBasement":null,"DateStamp":1684944000000}},{"type":"Feature","id":340430,"geometry":{"type":"Polygon","coordinates":[[[114.16788477164931,22.448756389987548],[114.16784398681423,22.448774965794687],[114.1678313016337,22.448780743401567],[114.16780876912901,22.448737885882135],[114.16781408122334,22.44873546637972],[114.16786227488416,22.448713516132308],[114.16788477164931,22.448756389987548]]]},"properties":{"OBJECTID":340430,"Shape__Length":22.826913303014003,"Shape__Area":32.386605891987841,"GeoRefNo":"3533934367","DateCreate":1495123200000,"BuildingBlockType":"Tower","BuildingCSUID":"3533934367T20170519","BuildingID":1810161927,"Status":"Active","BuildingNameEN":null,"BuildingNameTC":null,"BaseHeight":4.5999999999999996,"TopHeight":9.8000000000000007,"Storeys":null,"StoreysInBasement":null,"DateStamp":1684944000000}},{"type":"Feature","id":340645,"geometry":{"type":"Polygon","coordinates":[[[114.16857530168573,22.448653246064126],[114.16859789347127,22.448696238033826],[114.16859257818624,22.448698655394562],[114.1685446723146,22.448720442514059],[114.16852211561344,22.44867743455497],[114.16856544998569,22.44865772655935],[114.16857530168573,22.448653246064126]]]},"properties":{"OBJECTID":340645,"Shape__Length":22.79038686363327,"Shape__Area":32.303209929434857,"GeoRefNo":"3541234361","DateCreate":1495468800000,"BuildingBlockType":"Tower","BuildingCSUID":"3541234361T20170523","BuildingID":1810162028,"Status":"Active","BuildingNameEN":null,"BuildingNameTC":null,"BaseHeight":4.5999999999999996,"TopHeight":7.9000000000000004,"Storeys":null,"StoreysInBasement":null,"DateStamp":1684944000000}},{"type":"Feature","id":340646,"geometry":{"type":"Polygon","coordinates":[[[114.16786227488416,22.448713516132308],[114.16781408122334,22.44873546637972],[114.16780876912901,22.448737885882135],[114.16778569344565,22.448693995245339],[114.16783928098329,22.448669694861433],[114.16783937316676,22.448669870508834],[114.16786227488416,22.448713516132308]]]},"properties":{"OBJECTID":340646,"Shape__Length":23.079268879618052,"Shape__Area":33.157198953239387,"GeoRefNo":"3533634363","DateCreate":1495123200000,"BuildingBlockType":"Tower","BuildingCSUID":"3533634363T20170519","BuildingID":1810161929,"Status":"Active","BuildingNameEN":null,"BuildingNameTC":null,"BaseHeight":4.5999999999999996,"TopHeight":9.8000000000000007,"Storeys":null,"StoreysInBasement":null,"DateStamp":1684944000000}},{"type":"Feature","id":340647,"geometry":{"type":"Polygon","coordinates":[[[114.16856503670546,22.448446593245524],[114.16858749634584,22.448489339943929],[114.16854220713724,22.448509951703251],[114.16853446237992,22.448513476431735],[114.16851200751235,22.448470727559005],[114.16852193954573,22.448466207337102],[114.16856503670546,22.448446593245524]]]},"properties":{"OBJECTID":340647,"Shape__Length":22.691890005543698,"Shape__Area":32.018611634564138,"GeoRefNo":"3541134338","DateCreate":1495468800000,"BuildingBlockType":"Tower","BuildingCSUID":"3541134338T20170523","BuildingID":1810162040,"Status":"Active","BuildingNameEN":null,"BuildingNameTC":null,"BaseHeight":4.5999999999999996,"TopHeight":10.1,"Storeys":null,"StoreysInBasement":null,"DateStamp":1684944000000}},{"type":"Feature","id":340648,"geometry":{"type":"Polygon","coordinates":[[[114.16856503670546,22.448446593245524],[114.16852193954573,22.448466207337102],[114.16851200751235,22.448470727559005],[114.16848956713211,22.448428006226568],[114.16849604978572,22.448425055861946],[114.16854259155241,22.448403873997076],[114.16856503670546,22.448446593245524]]]},"properties":{"OBJECTID":340648,"Shape__Length":22.684023160973727,"Shape__Area":31.995133383507913,"GeoRefNo":"3540934333","DateCreate":1495987200000,"BuildingBlockType":"Temporary Structure","BuildingCSUID":"3540934333T20170529","BuildingID":1810162041,"Status":"Active","BuildingNameEN":null,"BuildingNameTC":null,"BaseHeight":null,"TopHeight":null,"Storeys":null,"StoreysInBasement":null,"DateStamp":1684944000000}},{"type":"Feature","id":340649,"geometry":{"type":"Polygon","coordinates":[[[114.16849974640316,22.44863478393712],[114.16854799413022,22.448612841343927],[114.16855289758549,22.448610611345327],[114.16857530168573,22.448653246064126],[114.16856544998569,22.44865772655935],[114.16852211561344,22.44867743455497],[114.16849974640316,22.44863478393712]]]},"properties":{"OBJECTID":340649,"Shape__Length":22.694316608896941,"Shape__Area":32.013757601349411,"GeoRefNo":"3541034356","DateCreate":1495468800000,"BuildingBlockType":"Temporary Structure","BuildingCSUID":"3541034356T20170523","BuildingID":1810162029,"Status":"Active","BuildingNameEN":null,"BuildingNameTC":null,"BaseHeight":null,"TopHeight":null,"Storeys":null,"StoreysInBasement":null,"DateStamp":1684944000000}},{"type":"Feature","id":340650,"geometry":{"type":"Polygon","coordinates":[[[114.16846680358714,22.448384669810011],[114.16851993105782,22.448360744842031],[114.16854259155241,22.448403873997076],[114.16849604978572,22.448425055861946],[114.16848956713211,22.448428006226568],[114.16846680358714,22.448384669810011]]]},"properties":{"OBJECTID":340650,"Shape__Length":22.809286804916194,"Shape__Area":32.37609520296337,"GeoRefNo":"3540634328","DateCreate":1495987200000,"BuildingBlockType":"Temporary Structure","BuildingCSUID":"3540634328T20170529","BuildingID":1810162043,"Status":"Active","BuildingNameEN":null,"BuildingNameTC":null,"BaseHeight":null,"TopHeight":null,"Storeys":null,"StoreysInBasement":null,"DateStamp":1684944000000}},{"type":"Feature","id":340651,"geometry":{"type":"Polygon","coordinates":[[[114.16847734165394,22.448592065495426],[114.16852191168191,22.448571795520028],[114.16853045794632,22.448567908802662],[114.16855289758549,22.448610611345327],[114.16854799413022,22.448612841343927],[114.16849974640316,22.44863478393712],[114.16847734165394,22.448592065495426]]]},"properties":{"OBJECTID":340651,"Shape__Length":22.703028947619025,"Shape__Area":32.043589491011183,"GeoRefNo":"3540834351","DateCreate":1495468800000,"BuildingBlockType":"Tower","BuildingCSUID":"3540834351T20170523","BuildingID":1810162030,"Status":"Active","BuildingNameEN":null,"BuildingNameTC":null,"BaseHeight":4.5,"TopHeight":7.5999999999999996,"Storeys":null,"StoreysInBasement":null,"DateStamp":1684944000000}},{"type":"Feature","id":340652,"geometry":{"type":"Polygon","coordinates":[[[114.1685084677796,22.448526061553871],[114.16853045794632,22.448567908802662],[114.16852191168191,22.448571795520028],[114.16847734165394,22.448592065495426],[114.16845538559971,22.448550202708912],[114.16850522154451,22.448527537864987],[114.1685084677796,22.448526061553871]]]},"properties":{"OBJECTID":340652,"Shape__Length":22.484304624294179,"Shape__Area":31.381394591405279,"GeoRefNo":"3540534347","DateCreate":1495468800000,"BuildingBlockType":"Tower","BuildingCSUID":"3540534347T20170523","BuildingID":1810162031,"Status":"Active","BuildingNameEN":null,"BuildingNameTC":null,"BaseHeight":4.5,"TopHeight":7.5999999999999996,"Storeys":null,"StoreysInBasement":null,"DateStamp":1684944000000}},{"type":"Feature","id":340653,"geometry":{"type":"Polygon","coordinates":[[[114.1685084677796,22.448526061553871],[114.16850522154451,22.448527537864987],[114.16845538559971,22.448550202708912],[114.16843301264184,22.448507545037202],[114.16848078234788,22.448485819892113],[114.16848606002895,22.448483419690888],[114.1685084677796,22.448526061553871]]]},"properties":{"OBJECTID":340653,"Shape__Length":22.672268247910072,"Shape__Area":31.956527756502538,"GeoRefNo":"3540334342","DateCreate":1495468800000,"BuildingBlockType":"Temporary Structure","BuildingCSUID":"3540334342T20170523","BuildingID":1810162032,"Status":"Active","BuildingNameEN":null,"BuildingNameTC":null,"BaseHeight":null,"TopHeight":null,"Storeys":null,"StoreysInBasement":null,"DateStamp":1684944000000}},{"type":"Feature","id":340654,"geometry":{"type":"Polygon","coordinates":[[[114.16841056868968,22.448464751901703],[114.16845948681724,22.448442504411183],[114.16846358108977,22.448440642364098],[114.16848606002895,22.448483419690888],[114.16848078234788,22.448485819892113],[114.16843301264184,22.448507545037202],[114.16841056868968,22.448464751901703]]]},"properties":{"OBJECTID":340654,"Shape__Length":22.697662197974978,"Shape__Area":32.036959076877302,"GeoRefNo":"3540134337","DateCreate":1495987200000,"BuildingBlockType":"Temporary Structure","BuildingCSUID":"3540134337T20170529","BuildingID":1810162033,"Status":"Active","BuildingNameEN":null,"BuildingNameTC":null,"BaseHeight":null,"TopHeight":null,"Storeys":null,"StoreysInBasement":null,"DateStamp":1684944000000}},{"type":"Feature","id":340655,"geometry":{"type":"Polygon","coordinates":[[[114.16844046600701,22.44839665428831],[114.16846358108977,22.448440642364098],[114.16845948681724,22.448442504411183],[114.16841056868968,22.448464751901703],[114.16838767694509,22.448421104910302],[114.16838724895503,22.44842028889634],[114.16844046600701,22.44839665428831]]]},"properties":{"OBJECTID":340655,"Shape__Length":23.044662850290159,"Shape__Area":33.093245704577036,"GeoRefNo":"3539834332","DateCreate":1495468800000,"BuildingBlockType":"Tower","BuildingCSUID":"3539834332T20170523","BuildingID":1810162034,"Status":"Active","BuildingNameEN":null,"BuildingNameTC":null,"BaseHeight":4.5,"TopHeight":7.5,"Storeys":null,"StoreysInBasement":null,"DateStamp":1684944000000}},{"type":"Feature","id":340656,"geometry":{"type":"Polygon","coordinates":[[[114.1686242211792,22.448684356025375],[114.16863409454433,22.448679862523843],[114.16867727413921,22.448660210840352],[114.16869997358656,22.448703413933089],[114.16864684766229,22.448727431340874],[114.16862423788702,22.448684387813415],[114.1686242211792,22.448684356025375]]]},"properties":{"OBJECTID":340656,"Shape__Length":22.793802630543503,"Shape__Area":32.326222469179136,"GeoRefNo":"3542334361","DateCreate":1495987200000,"BuildingBlockType":"Temporary Structure","BuildingCSUID":"3542334361T20170529","BuildingID":1810162035,"Status":"Active","BuildingNameEN":null,"BuildingNameTC":null,"BaseHeight":null,"TopHeight":null,"Storeys":null,"StoreysInBasement":null,"DateStamp":1684944000000}},{"type":"Feature","id":340657,"geometry":{"type":"Polygon","coordinates":[[[114.16860178791846,22.448641648436293],[114.16861344479756,22.448636343189499],[114.16865483610569,22.448617505425574],[114.16867727413921,22.448660210840352],[114.16863409454433,22.448679862523843],[114.1686242211792,22.448684356025375],[114.16860178791846,22.448641648436293]]]},"properties":{"OBJECTID":340657,"Shape__Length":22.686066881706662,"Shape__Area":31.999146230855455,"GeoRefNo":"3542034357","DateCreate":1495987200000,"BuildingBlockType":"Temporary Structure","BuildingCSUID":"3542034357T20170529","BuildingID":1810162036,"Status":"Active","BuildingNameEN":null,"BuildingNameTC":null,"BaseHeight":null,"TopHeight":null,"Storeys":null,"StoreysInBasement":null,"DateStamp":1684944000000}},{"type":"Feature","id":340658,"geometry":{"type":"Polygon","coordinates":[[[114.16863242178766,22.448574845070603],[114.16865483610569,22.448617505425574],[114.16861344479756,22.448636343189499],[114.16860178791846,22.448641648436293],[114.16857937837328,22.448598985907047],[114.16859441730385,22.448592141503994],[114.16863242178766,22.448574845070603]]]},"properties":{"OBJECTID":340658,"Shape__Length":22.67386642618764,"Shape__Area":31.962472823815784,"GeoRefNo":"3541834352","DateCreate":1495468800000,"BuildingBlockType":"Tower","BuildingCSUID":"3541834352T20170523","BuildingID":1810162037,"Status":"Active","BuildingNameEN":null,"BuildingNameTC":null,"BaseHeight":4.5,"TopHeight":7.5999999999999996,"Storeys":null,"StoreysInBasement":null,"DateStamp":1684944000000}},{"type":"Feature","id":340659,"geometry":{"type":"Polygon","coordinates":[[[114.16855686296095,22.448556121899642],[114.16856725773366,22.448551391108627],[114.16860990169965,22.448531983237565],[114.16863242178766,22.448574845070603],[114.16859441730385,22.448592141503994],[114.16857937837328,22.448598985907047],[114.16855686296095,22.448556121899642]]]},"properties":{"OBJECTID":340659,"Shape__Length":22.722440471116819,"Shape__Area":32.110584548764692,"GeoRefNo":"3541634347","DateCreate":1495987200000,"BuildingBlockType":"Temporary Structure","BuildingCSUID":"3541634347T20170529","BuildingID":1810162038,"Status":"Active","BuildingNameEN":null,"BuildingNameTC":null,"BaseHeight":null,"TopHeight":null,"Storeys":null,"StoreysInBasement":null,"DateStamp":1684944000000}},{"type":"Feature","id":340660,"geometry":{"type":"Polygon","coordinates":[[[114.16860990169965,22.448531983237565],[114.16856725773366,22.448551391108627],[114.16855686296095,22.448556121899642],[114.16853446237992,22.448513476431735],[114.16854220713724,22.448509951703251],[114.16858749634584,22.448489339943929],[114.16860990169965,22.448531983237565]]]},"properties":{"OBJECTID":340660,"Shape__Length":22.667497868324503,"Shape__Area":31.94402411744948,"GeoRefNo":"3541334342","DateCreate":1495468800000,"BuildingBlockType":"Tower","BuildingCSUID":"3541334342T20170523","BuildingID":1810162039,"Status":"Active","BuildingNameEN":null,"BuildingNameTC":null,"BaseHeight":4.5,"TopHeight":7.7000000000000002,"Storeys":null,"StoreysInBasement":null,"DateStamp":1684944000000}},{"type":"Feature","id":340661,"geometry":{"type":"Polygon","coordinates":[[[114.16859789347127,22.448696238033826],[114.16861740092729,22.44873336050172],[114.16862089490402,22.448740009439145],[114.16856746964167,22.448763909138687],[114.1685446723146,22.448720442514059],[114.16859257818624,22.448698655394562],[114.16859789347127,22.448696238033826]]]},"properties":{"OBJECTID":340661,"Shape__Length":22.951142431821204,"Shape__Area":32.790060755217432,"GeoRefNo":"3541534365","DateCreate":1495468800000,"BuildingBlockType":"Tower","BuildingCSUID":"3541534365T20170523","BuildingID":1810162027,"Status":"Active","BuildingNameEN":null,"BuildingNameTC":null,"BaseHeight":4.5999999999999996,"TopHeight":7.9000000000000004,"Storeys":null,"StoreysInBasement":null,"DateStamp":1684944000000}},{"type":"Feature","id":340898,"geometry":{"type":"Polygon","coordinates":[[[114.16927787345506,22.448228858073815],[114.16930035981088,22.448271415939079],[114.16928020776814,22.448280573228562],[114.16924722044944,22.448295562951571],[114.16922485039633,22.448252952256372],[114.16923937445151,22.448246352403547],[114.16927787345506,22.448228858073815]]]},"properties":{"OBJECTID":340898,"Shape__Length":22.664495329973526,"Shape__Area":31.932128048874002,"GeoRefNo":"3548434314","DateCreate":1495641600000,"BuildingBlockType":"Tower","BuildingCSUID":"3548434314T20170525","BuildingID":1810162109,"Status":"Active","BuildingNameEN":null,"BuildingNameTC":null,"BaseHeight":4.5,"TopHeight":7.9000000000000004,"Storeys":null,"StoreysInBasement":null,"DateStamp":1684944000000}},{"type":"Feature","id":340899,"geometry":{"type":"Polygon","coordinates":[[[114.16925536622807,22.448186260741178],[114.16927787345506,22.448228858073815],[114.16923937445151,22.448246352403547],[114.16922485039633,22.448252952256372],[114.16920245966629,22.448210302093852],[114.16921971746392,22.448202459962612],[114.16925536622807,22.448186260741178]]]},"properties":{"OBJECTID":340899,"Shape__Length":22.647562993711556,"Shape__Area":31.891659051987649,"GeoRefNo":"3548234309","DateCreate":1495641600000,"BuildingBlockType":"Tower","BuildingCSUID":"3548234309T20170525","BuildingID":1810162111,"Status":"Active","BuildingNameEN":null,"BuildingNameTC":null,"BaseHeight":4.5999999999999996,"TopHeight":7.2999999999999998,"Storeys":null,"StoreysInBasement":null,"DateStamp":1684944000000}},{"type":"Feature","id":340900,"geometry":{"type":"Polygon","coordinates":[[[114.16925536622807,22.448186260741178],[114.16921971746392,22.448202459962612],[114.16920245966629,22.448210302093852],[114.16918004233389,22.448167601265887],[114.16920131199733,22.448157936169075],[114.16923283239873,22.448143613013983],[114.16925536622807,22.448186260741178]]]},"properties":{"OBJECTID":340900,"Shape__Length":22.633327608068136,"Shape__Area":31.859232913166665,"GeoRefNo":"3548034304","DateCreate":1495641600000,"BuildingBlockType":"Tower","BuildingCSUID":"3548034304T20170525","BuildingID":1810162112,"Status":"Active","BuildingNameEN":null,"BuildingNameTC":null,"BaseHeight":4.7000000000000002,"TopHeight":7.4000000000000004,"Storeys":null,"StoreysInBasement":null,"DateStamp":1684944000000}},{"type":"Feature","id":340901,"geometry":{"type":"Polygon","coordinates":[[[114.169210463428,22.448101277293333],[114.16923283239873,22.448143613013983],[114.16920131199733,22.448157936169075],[114.16918004233389,22.448167601265887],[114.1691577890827,22.448125213076612],[114.16916781909597,22.448120655343057],[114.169210463428,22.448101277293333]]]},"properties":{"OBJECTID":340901,"Shape__Length":22.529708874569952,"Shape__Area":31.556593662982149,"GeoRefNo":"3547834299","DateCreate":1495641600000,"BuildingBlockType":"Tower","BuildingCSUID":"3547834299T20170525","BuildingID":1810162113,"Status":"Active","BuildingNameEN":null,"BuildingNameTC":null,"BaseHeight":4.5,"TopHeight":9.9000000000000004,"Storeys":null,"StoreysInBasement":null,"DateStamp":1684944000000}},{"type":"Feature","id":340903,"geometry":{"type":"Polygon","coordinates":[[[114.16918743450917,22.448057692446032],[114.16918750240927,22.448057820952592],[114.169210463428,22.448101277293333],[114.16916781909597,22.448120655343057],[114.1691577890827,22.448125213076612],[114.16913479263627,22.448081409235055],[114.16918743450917,22.448057692446032]]]},"properties":{"OBJECTID":340903,"Shape__Length":22.831379167125863,"Shape__Area":32.476584616899416,"GeoRefNo":"3547534295","DateCreate":1495641600000,"BuildingBlockType":"Temporary Structure","BuildingCSUID":"3547534295T20170525","BuildingID":1810162114,"Status":"Active","BuildingNameEN":null,"BuildingNameTC":null,"BaseHeight":null,"TopHeight":null,"Storeys":null,"StoreysInBasement":null,"DateStamp":1684944000000}},{"type":"Feature","id":340905,"geometry":{"type":"Polygon","coordinates":[[[114.16934535189436,22.448356567962822],[114.16936814525174,22.448399706761116],[114.16931477918263,22.448424249228399],[114.16929197973305,22.448380820815849],[114.16930654829378,22.448374200730949],[114.16934535189436,22.448356567962822]]]},"properties":{"OBJECTID":340905,"Shape__Length":22.917187191746379,"Shape__Area":32.670493477156214,"GeoRefNo":"3549134328","DateCreate":1495641600000,"BuildingBlockType":"Tower","BuildingCSUID":"3549134328T20170525","BuildingID":1810162103,"Status":"Active","BuildingNameEN":null,"BuildingNameTC":null,"BaseHeight":4.5,"TopHeight":7.7999999999999998,"Storeys":null,"StoreysInBasement":null,"DateStamp":1684944000000}},{"type":"Feature","id":340906,"geometry":{"type":"Polygon","coordinates":[[[114.16928854376729,22.448436315756027],[114.16923531468417,22.448460243139309],[114.16921226550737,22.448416364445642],[114.16924971513079,22.448399323311747],[114.16926535926146,22.448392204529366],[114.16928854376729,22.448436315756027]]]},"properties":{"OBJECTID":340906,"Shape__Length":23.014824872688092,"Shape__Area":32.994895552825653,"GeoRefNo":"3548334332","DateCreate":1495641600000,"BuildingBlockType":"Temporary Structure","BuildingCSUID":"3548334332T20170525","BuildingID":1810162126,"Status":"Active","BuildingNameEN":null,"BuildingNameTC":null,"BaseHeight":null,"TopHeight":null,"Storeys":null,"StoreysInBasement":null,"DateStamp":1684944000000}},{"type":"Feature","id":340909,"geometry":{"type":"Polygon","coordinates":[[[114.16934535189436,22.448356567962822],[114.16930654829378,22.448374200730949],[114.16929197973305,22.448380820815849],[114.16926961353816,22.44833821744216],[114.16928436920941,22.448331512301177],[114.16932286929952,22.448314017419104],[114.16934535189436,22.448356567962822]]]},"properties":{"OBJECTID":340909,"Shape__Length":22.716029665107769,"Shape__Area":32.066647477006498,"GeoRefNo":"3548934323","DateCreate":1495641600000,"BuildingBlockType":"Tower","BuildingCSUID":"3548934323T20170525","BuildingID":1810162104,"Status":"Active","BuildingNameEN":null,"BuildingNameTC":null,"BaseHeight":4.5999999999999996,"TopHeight":7.9000000000000004,"Storeys":null,"StoreysInBasement":null,"DateStamp":1684944000000}},{"type":"Feature","id":340910,"geometry":{"type":"Polygon","coordinates":[[[114.16919057794325,22.448375077642716],[114.16922948706673,22.448357372392909],[114.16924366167878,22.448350922338498],[114.16926535926146,22.448392204529366],[114.16924971513079,22.448399323311747],[114.16921226550737,22.448416364445642],[114.16919057794325,22.448375077642716]]]},"properties":{"OBJECTID":340910,"Shape__Length":22.344340906946009,"Shape__Area":30.956113912557587,"GeoRefNo":"3548134327","DateCreate":1495641600000,"BuildingBlockType":"Temporary Structure","BuildingCSUID":"3548134327T20170525","BuildingID":1810162127,"Status":"Active","BuildingNameEN":null,"BuildingNameTC":null,"BaseHeight":null,"TopHeight":null,"Storeys":null,"StoreysInBasement":null,"DateStamp":1684944000000}},{"type":"Feature","id":340911,"geometry":{"type":"Polygon","coordinates":[[[114.16916764089304,22.448331412246798],[114.16920696717611,22.44831351711176],[114.16922071402638,22.448307261735636],[114.16924366167878,22.448350922338498],[114.16922948706673,22.448357372392909],[114.16919057794325,22.448375077642716],[114.16916764089304,22.448331412246798]]]},"properties":{"OBJECTID":340911,"Shape__Length":22.928230083042628,"Shape__Area":32.733230007434017,"GeoRefNo":"3547934322","DateCreate":1495641600000,"BuildingBlockType":"Tower","BuildingCSUID":"3547934322T20170525","BuildingID":1810162128,"Status":"Active","BuildingNameEN":null,"BuildingNameTC":null,"BaseHeight":4.5,"TopHeight":9.6999999999999993,"Storeys":null,"StoreysInBasement":null,"DateStamp":1684944000000}},{"type":"Feature","id":340912,"geometry":{"type":"Polygon","coordinates":[[[114.16919834310258,22.448264698266058],[114.16922071402638,22.448307261735636],[114.16920696717611,22.44831351711176],[114.16916764089304,22.448331412246798],[114.16914528018246,22.448288844074661],[114.16919165548153,22.448267741391977],[114.16919834310258,22.448264698266058]]]},"properties":{"OBJECTID":340912,"Shape__Length":22.655413695177721,"Shape__Area":31.904427174370639,"GeoRefNo":"3547634318","DateCreate":1495641600000,"BuildingBlockType":"Tower","BuildingCSUID":"3547634318T20170525","BuildingID":1810162129,"Status":"Active","BuildingNameEN":null,"BuildingNameTC":null,"BaseHeight":4.5,"TopHeight":7.2000000000000002,"Storeys":null,"StoreysInBasement":null,"DateStamp":1684944000000}},{"type":"Feature","id":340913,"geometry":{"type":"Polygon","coordinates":[[[114.16919834310258,22.448264698266058],[114.16919165548153,22.448267741391977],[114.16914528018246,22.448288844074661],[114.16912288762401,22.448246215213054],[114.16916898505889,22.448225238949789],[114.1691759402337,22.448222074107029],[114.16919834310258,22.448264698266058]]]},"properties":{"OBJECTID":340913,"Shape__Length":22.668021215460321,"Shape__Area":31.943751277065591,"GeoRefNo":"3547434313","DateCreate":1495641600000,"BuildingBlockType":"Tower","BuildingCSUID":"3547434313T20170525","BuildingID":1810162130,"Status":"Active","BuildingNameEN":null,"BuildingNameTC":null,"BaseHeight":4.5999999999999996,"TopHeight":7.2999999999999998,"Storeys":null,"StoreysInBasement":null,"DateStamp":1684944000000}},{"type":"Feature","id":340914,"geometry":{"type":"Polygon","coordinates":[[[114.16932286929952,22.448314017419104],[114.16928436920941,22.448331512301177],[114.16926961353816,22.44833821744216],[114.16924722044944,22.448295562951571],[114.16928020776814,22.448280573228562],[114.16930035981088,22.448271415939079],[114.16932286929952,22.448314017419104]]]},"properties":{"OBJECTID":340914,"Shape__Length":22.70194180270288,"Shape__Area":32.034983271418028,"GeoRefNo":"3548734318","DateCreate":1495641600000,"BuildingBlockType":"Tower","BuildingCSUID":"3548734318T20170525","BuildingID":1810162108,"Status":"Active","BuildingNameEN":null,"BuildingNameTC":null,"BaseHeight":4.5,"TopHeight":7.9000000000000004,"Storeys":null,"StoreysInBasement":null,"DateStamp":1684944000000}},{"type":"Feature","id":340915,"geometry":{"type":"Polygon","coordinates":[[[114.1691759402337,22.448222074107029],[114.16916898505889,22.448225238949789],[114.16912288762401,22.448246215213054],[114.16910047953705,22.448203556637203],[114.16914038879885,22.448185396321676],[114.16915352183631,22.448179420233753],[114.1691759402337,22.448222074107029]]]},"properties":{"OBJECTID":340915,"Shape__Length":22.672976709015526,"Shape__Area":31.95976131447053,"GeoRefNo":"3547234308","DateCreate":1495641600000,"BuildingBlockType":"Tower","BuildingCSUID":"3547234308T20170525","BuildingID":1810162131,"Status":"Active","BuildingNameEN":null,"BuildingNameTC":null,"BaseHeight":4.5,"TopHeight":7.2000000000000002,"Storeys":null,"StoreysInBasement":null,"DateStamp":1684944000000}},{"type":"Feature","id":341045,"geometry":{"type":"Polygon","coordinates":[[[114.16563162902925,22.443913520041441],[114.16558698930412,22.443927107772321],[114.16556574704008,22.443882703539032],[114.16555442272443,22.443846653167956],[114.16559746922034,22.443833209822301],[114.16560716202444,22.44386264978321],[114.16561356410431,22.44386072674137],[114.16563162902925,22.443913520041441]]]},"properties":{"OBJECTID":341045,"Shape__Length":29.28658945917023,"Shape__Area":47.640293005393417,"GeoRefNo":"3510733828","DateCreate":1429804800000,"BuildingBlockType":"Temporary Structure","BuildingCSUID":"3510733828T20150424","BuildingID":1810141465,"Status":"Active","BuildingNameEN":null,"BuildingNameTC":null,"BaseHeight":null,"TopHeight":29.699999999999999,"Storeys":null,"StoreysInBasement":null,"DateStamp":1684944000000}},{"type":"Feature","id":341140,"geometry":{"type":"Polygon","coordinates":[[[114.16913107664227,22.448136715514401],[114.16915352183631,22.448179420233753],[114.16914038879885,22.448185396321676],[114.16910047953705,22.448203556637203],[114.16907804475059,22.448160847215274],[114.16912313713192,22.448140328308913],[114.16913107664227,22.448136715514401]]]},"properties":{"OBJECTID":341140,"Shape__Length":22.683142227882875,"Shape__Area":31.991659718167828,"GeoRefNo":"3546934303","DateCreate":1495641600000,"BuildingBlockType":"Tower","BuildingCSUID":"3546934303T20170525","BuildingID":1810162132,"Status":"Active","BuildingNameEN":null,"BuildingNameTC":null,"BaseHeight":4.5999999999999996,"TopHeight":9.9000000000000004,"Storeys":null,"StoreysInBasement":null,"DateStamp":1684944000000}},{"type":"Feature","id":341141,"geometry":{"type":"Polygon","coordinates":[[[114.16913107664227,22.448136715514401],[114.16912313713192,22.448140328308913],[114.16907804475059,22.448160847215274],[114.16905533167551,22.448117607960015],[114.16910830604718,22.44809339164842],[114.16913107664227,22.448136715514401]]]},"properties":{"OBJECTID":341141,"Shape__Length":22.822364155378835,"Shape__Area":32.415600785771439,"GeoRefNo":"3546734299","DateCreate":1495641600000,"BuildingBlockType":"Temporary Structure","BuildingCSUID":"3546734299T20170525","BuildingID":1810162133,"Status":"Active","BuildingNameEN":null,"BuildingNameTC":null,"BaseHeight":null,"TopHeight":null,"Storeys":null,"StoreysInBasement":null,"DateStamp":1684944000000}},{"type":"Feature","id":341272,"geometry":{"type":"Polygon","coordinates":[[[114.16641198963887,22.444749955046014],[114.16640201823799,22.444756110191854],[114.16631517555494,22.444809715926411],[114.16628954656585,22.444762634880156],[114.16628149198047,22.444749264223276],[114.16628779866308,22.444737471222684],[114.16628789232571,22.444737296037978],[114.16635418792184,22.444613329548648],[114.16636370986389,22.444592325328276],[114.16646945806897,22.444666923714223],[114.16644418563992,22.444728575714169],[114.16641198963887,22.444749955046014]],[[114.16631317597921,22.444697770664735],[114.16638203019085,22.444742132734202],[114.16643521347594,22.444672430088499],[114.16636562103683,22.444627146887047],[114.16631317597921,22.444697770664735]]]},"properties":{"OBJECTID":341272,"Shape__Length":100.2150573304003,"Shape__Area":160.70785241578454,"GeoRefNo":"3518733910","DateCreate":1430236800000,"BuildingBlockType":"Temporary Structure","BuildingCSUID":"3518733910T20150429","BuildingID":1810141660,"Status":"Active","BuildingNameEN":null,"BuildingNameTC":null,"BaseHeight":null,"TopHeight":null,"Storeys":null,"StoreysInBasement":null,"DateStamp":1684944000000}},{"type":"Feature","id":341276,"geometry":{"type":"Polygon","coordinates":[[[114.16530477627227,22.444398422910993],[114.16530171994901,22.444394892326414],[114.16533611250634,22.444361879436059],[114.16533143051601,22.444356226037353],[114.16540819213077,22.444280023477901],[114.16542175304603,22.444288756887911],[114.16545541702793,22.444254804752795],[114.16546921867919,22.4442658376007],[114.16530477627227,22.444398422910993]]]},"properties":{"OBJECTID":341276,"Shape__Length":49.033834600794691,"Shape__Area":39.640807213145116,"GeoRefNo":"3508533877","DateCreate":1429804800000,"BuildingBlockType":"Open-sided Structure","BuildingCSUID":"3508533877T20150424","BuildingID":1810141507,"Status":"Active","BuildingNameEN":null,"BuildingNameTC":null,"BaseHeight":null,"TopHeight":19.699999999999999,"Storeys":null,"StoreysInBasement":null,"DateStamp":1684944000000}},{"type":"Feature","id":341610,"geometry":{"type":"Polygon","coordinates":[[[114.16610709065893,22.44418883197363],[114.16614440059051,22.444256907287372],[114.16610905898671,22.444274106424743],[114.16607172395513,22.444205406193756],[114.16610709065893,22.44418883197363]]]},"properties":{"OBJECTID":341610,"Shape__Length":25.167028785373617,"Shape__Area":34.744441690595743,"GeoRefNo":"3516033867","DateCreate":1489334400000,"BuildingBlockType":"Tower","BuildingCSUID":"3516033867T20170313","BuildingID":1810159927,"Status":"Active","BuildingNameEN":null,"BuildingNameTC":null,"BaseHeight":10.699999999999999,"TopHeight":17,"Storeys":null,"StoreysInBasement":null,"DateStamp":1684944000000}},{"type":"Feature","id":341752,"geometry":{"type":"Polygon","coordinates":[[[114.16640118927991,22.444317344162553],[114.16638995711708,22.444356279960104],[114.16638413630365,22.444379551066667],[114.16638610828048,22.444380824488569],[114.16637116262143,22.444441327570644],[114.16637330951347,22.444441923719875],[114.16636943258354,22.444452398796585],[114.16635553966766,22.444465320476453],[114.16632996292132,22.44448624617106],[114.16632685269136,22.44446288092993],[114.1663212578277,22.444450047746791],[114.16632534784429,22.444448052282585],[114.16629480013457,22.444383843753148],[114.16634377344003,22.444359979450947],[114.16635462836628,22.444353762958677],[114.16636305302568,22.444350822015348],[114.16636614019325,22.44433851822021],[114.16637211463524,22.444312139834754],[114.16637320494661,22.444298688680878],[114.16640445163436,22.444286375239326],[114.16640118927991,22.444317344162553]]]},"properties":{"OBJECTID":341752,"Shape__Length":54.357061692256814,"Shape__Area":102.53964976801112,"GeoRefNo":"3518433888","DateCreate":1430928000000,"BuildingBlockType":"Temporary Structure","BuildingCSUID":"3518433888T20150507","BuildingID":1810142004,"Status":"Active","BuildingNameEN":null,"BuildingNameTC":null,"BaseHeight":null,"TopHeight":10,"Storeys":null,"StoreysInBasement":null,"DateStamp":1684944000000}},{"type":"Feature","id":341957,"geometry":{"type":"Polygon","coordinates":[[[114.16444219395395,22.445965278812103],[114.16444575051381,22.445970868032866],[114.16441397685981,22.445988338524526],[114.16441042030077,22.445982749303081],[114.16438175608687,22.445937703191458],[114.16441352973338,22.445920232706015],[114.16444219395395,22.445965278812103]]]},"properties":{"OBJECTID":341957,"Shape__Length":20.629314570844329,"Shape__Area":24.755686814008044,"GeoRefNo":"3498534058","DateCreate":1431273600000,"BuildingBlockType":"Temporary Structure","BuildingCSUID":"3498534058T20150511","BuildingID":1810142069,"Status":"Active","BuildingNameEN":null,"BuildingNameTC":null,"BaseHeight":null,"TopHeight":17.699999999999999,"Storeys":null,"StoreysInBasement":null,"DateStamp":1684944000000}},{"type":"Feature","id":341958,"geometry":{"type":"Polygon","coordinates":[[[114.16600476434819,22.44353078204826],[114.1659820184196,22.443549644149975],[114.16595291725275,22.443519319633964],[114.16597566327748,22.443500457445975],[114.16600476434819,22.44353078204826]]]},"properties":{"OBJECTID":341958,"Shape__Length":15.275380114007612,"Shape__Area":14.119594848998851,"GeoRefNo":"3514633789","DateCreate":1431532800000,"BuildingBlockType":"Temporary Structure","BuildingCSUID":"3514633789T20150514","BuildingID":1810142207,"Status":"Active","BuildingNameEN":null,"BuildingNameTC":null,"BaseHeight":null,"TopHeight":null,"Storeys":null,"StoreysInBasement":null,"DateStamp":1684944000000}},{"type":"Feature","id":341959,"geometry":{"type":"Polygon","coordinates":[[[114.1659820184196,22.443549644149975],[114.16595927248487,22.44356850633875],[114.16593017131903,22.443538181818703],[114.16595291725275,22.443519319633964],[114.1659820184196,22.443549644149975]]]},"properties":{"OBJECTID":341959,"Shape__Length":15.275378502750364,"Shape__Area":14.119591771602209,"GeoRefNo":"3514433791","DateCreate":1431532800000,"BuildingBlockType":"Temporary Structure","BuildingCSUID":"3514433791T20150514","BuildingID":1810142208,"Status":"Active","BuildingNameEN":null,"BuildingNameTC":null,"BaseHeight":null,"TopHeight":null,"Storeys":null,"StoreysInBasement":null,"DateStamp":1684944000000}},{"type":"Feature","id":341960,"geometry":{"type":"Polygon","coordinates":[[[114.16595927248487,22.44356850633875],[114.165936526544,22.44358736843396],[114.16590742537917,22.44355704390988],[114.16593017131903,22.443538181818703],[114.16595927248487,22.44356850633875]]]},"properties":{"OBJECTID":341960,"Shape__Length":15.275365187196829,"Shape__Area":14.11956181196992,"GeoRefNo":"3514233793","DateCreate":1431532800000,"BuildingBlockType":"Temporary Structure","BuildingCSUID":"3514233793T20150514","BuildingID":1810142209,"Status":"Active","BuildingNameEN":null,"BuildingNameTC":null,"BaseHeight":null,"TopHeight":null,"Storeys":null,"StoreysInBasement":null,"DateStamp":1684944000000}},{"type":"Feature","id":341961,"geometry":{"type":"Polygon","coordinates":[[[114.165936526544,22.44358736843396],[114.16591378049984,22.443606230525905],[114.16588467943315,22.443575905997811],[114.16590742537917,22.44355704390988],[114.165936526544,22.44358736843396]]]},"properties":{"OBJECTID":341961,"Shape__Length":15.275365991520884,"Shape__Area":14.11956815632279,"GeoRefNo":"3513933795","DateCreate":1431532800000,"BuildingBlockType":"Temporary Structure","BuildingCSUID":"3513933795T20150514","BuildingID":1810142210,"Status":"Active","BuildingNameEN":null,"BuildingNameTC":null,"BaseHeight":null,"TopHeight":null,"Storeys":null,"StoreysInBasement":null,"DateStamp":1684944000000}},{"type":"Feature","id":341975,"geometry":{"type":"Polygon","coordinates":[[[114.1660748597611,22.444290749535043],[114.16603699988909,22.444221679193124],[114.16607172395513,22.444205406193756],[114.16610905898671,22.444274106424743],[114.1660748597611,22.444290749535043]]]},"properties":{"OBJECTID":341975,"Shape__Length":25.084080522479979,"Shape__Area":34.113355309525829,"GeoRefNo":"3515633869","DateCreate":1489334400000,"BuildingBlockType":"Tower","BuildingCSUID":"3515633869T20170313","BuildingID":1810145135,"Status":"Active","BuildingNameEN":null,"BuildingNameTC":null,"BaseHeight":10.699999999999999,"TopHeight":17,"Storeys":null,"StoreysInBasement":null,"DateStamp":1684944000000}},{"type":"Feature","id":342183,"geometry":{"type":"Polygon","coordinates":[[[114.16403232361081,22.446759908623886],[114.16401555662966,22.446751463819577],[114.16401149551493,22.446755003434333],[114.16400318007231,22.446750306937968],[114.16399607773712,22.446759120094818],[114.16398416799517,22.44675248176414],[114.1639925918513,22.446740336475955],[114.16400517182537,22.446747941117739],[114.16401210904009,22.446738775759705],[114.16402369812558,22.446746154559992],[114.16404181284159,22.446721776393794],[114.16408294630702,22.446666420355715],[114.1640263206783,22.44663043538667],[114.16404552097262,22.446603258407336],[114.16411418186223,22.446639340493267],[114.16409577017407,22.446662809187515],[114.16409898542825,22.446666584170526],[114.16403232361081,22.446759908623886]]]},"properties":{"OBJECTID":342183,"Shape__Length":57.684059910959697,"Shape__Area":53.629921799362236,"GeoRefNo":"3494834132","DateCreate":1431878400000,"BuildingBlockType":"Temporary Structure","BuildingCSUID":"3494834132T20150518","BuildingID":1810142354,"Status":"Active","BuildingNameEN":null,"BuildingNameTC":null,"BaseHeight":null,"TopHeight":20.800000000000001,"Storeys":null,"StoreysInBasement":null,"DateStamp":1684944000000}}]}