{"type":"FeatureCollection","features":[{"type":"Feature","id":331289,"geometry":{"type":"Polygon","coordinates":[[[114.16442894481858,22.445820719918437],[114.16444155845903,22.445790988570362],[114.16447277188259,22.44580563709615],[114.16445671608716,22.445833546469181],[114.16442894481858,22.445820719918437]]]},"properties":{"OBJECTID":331289,"Shape__Length":13.83520680459938,"Shape__Area":11.933448322592961,"GeoRefNo":"3498934042","DateCreate":1711555200000,"BuildingBlockType":"Temporary Structure","BuildingCSUID":"3498934042T20240328","BuildingID":1910245916,"Status":"Active","BuildingNameEN":null,"BuildingNameTC":null,"BaseHeight":null,"TopHeight":null,"Storeys":null,"StoreysInBasement":null,"DateStamp":1711555200000}},{"type":"Feature","id":331290,"geometry":{"type":"Polygon","coordinates":[[[114.16369740390726,22.446416242543279],[114.16372092820005,22.446400302727103],[114.16374179886166,22.446422998401705],[114.16371862107846,22.446440134332533],[114.16369740390726,22.446416242543279]]]},"properties":{"OBJECTID":331290,"Shape__Length":12.781975150335965,"Shape__Area":10.167168211990536,"GeoRefNo":"3491434110","DateCreate":1711555200000,"BuildingBlockType":"Tower","BuildingCSUID":"3491434110T20240328","BuildingID":1910245965,"Status":"Active","BuildingNameEN":null,"BuildingNameTC":null,"BaseHeight":24.699999999999999,"TopHeight":27,"Storeys":null,"StoreysInBasement":null,"DateStamp":1711555200000}},{"type":"Feature","id":331313,"geometry":{"type":"Polygon","coordinates":[[[114.16577985805245,22.445247730877991],[114.16581424010026,22.445318192807694],[114.16578807801874,22.445329064679154],[114.16575391767272,22.445258580995809],[114.16577985805245,22.445247730877991]]]},"properties":{"OBJECTID":331313,"Shape__Length":23.006452365167529,"Shape__Area":25.170044045430515,"GeoRefNo":"3512633984","DateCreate":1700668800000,"BuildingBlockType":"Tower","BuildingCSUID":"3512633984T20231123","BuildingID":1910237044,"Status":"Active","BuildingNameEN":null,"BuildingNameTC":null,"BaseHeight":6.9000000000000004,"TopHeight":13.9,"Storeys":null,"StoreysInBasement":null,"DateStamp":1714320000000}},{"type":"Feature","id":331319,"geometry":{"type":"Polygon","coordinates":[[[114.16533271903523,22.447642353885005],[114.16535094934909,22.447676876071647],[114.16535321565998,22.44768128237088],[114.16523425204431,22.447738031424162],[114.1651668352084,22.447607673980617],[114.16528548753635,22.44755254275923],[114.16531106458753,22.447601275704933],[114.16531857241917,22.447615524126441],[114.16532352476636,22.447624943963369],[114.16533271903523,22.447642353885005]]]},"properties":{"OBJECTID":331319,"Shape__Length":59.304454382775809,"Shape__Area":218.49848665926277,"GeoRefNo":"3507234245","DateCreate":1689868800000,"BuildingBlockType":"Podium","BuildingCSUID":"3507234245P20230721","BuildingID":1910233716,"Status":"Active","BuildingNameEN":null,"BuildingNameTC":null,"BaseHeight":5.2000000000000002,"TopHeight":13.6,"Storeys":null,"StoreysInBasement":null,"DateStamp":1714320000000}},{"type":"Feature","id":331446,"geometry":{"type":"Polygon","coordinates":[[[114.16291184890244,22.443528656048173],[114.162899919815,22.443532234601175],[114.16284956690866,22.443547641802908],[114.16283606315429,22.44355148751621],[114.1628335223258,22.443507734735618],[114.16289749448252,22.443491304842357],[114.16291184890244,22.443528656048173]]]},"properties":{"OBJECTID":331446,"Shape__Length":24.277056638439884,"Shape__Area":34.267537295121656,"GeoRefNo":"3482633789","DateCreate":1210694400000,"BuildingBlockType":"Temporary Structure","BuildingCSUID":"3482633789T20080514","BuildingID":1106130557,"Status":"Active","BuildingNameEN":null,"BuildingNameTC":null,"BaseHeight":null,"TopHeight":null,"Storeys":null,"StoreysInBasement":null,"DateStamp":1712246400000}},{"type":"Feature","id":331447,"geometry":{"type":"Polygon","coordinates":[[[114.16393772405058,22.443447721660107],[114.16390147947754,22.443505046173051],[114.16387922833896,22.443493421288142],[114.16391462538849,22.443434323672459],[114.16393772405058,22.443447721660107]]]},"properties":{"OBJECTID":331447,"Shape__Length":20.283486897776871,"Shape__Area":20.154552146849827,"GeoRefNo":"3493333784","DateCreate":1114790400000,"BuildingBlockType":"Tower","BuildingCSUID":"3493333784T20050430","BuildingID":1106130571,"Status":"Active","BuildingNameEN":null,"BuildingNameTC":null,"BaseHeight":37.700000000000003,"TopHeight":41.799999999999997,"Storeys":null,"StoreysInBasement":null,"DateStamp":1710259200000}},{"type":"Feature","id":331448,"geometry":{"type":"Polygon","coordinates":[[[114.16253824962189,22.443531061429038],[114.16263731462055,22.443534304612463],[114.16263587767135,22.443575021548554],[114.16253108175802,22.443570445864164],[114.16253292801271,22.443530680414145],[114.16253824962189,22.443531061429038]]]},"properties":{"OBJECTID":331448,"Shape__Length":30.471524555185148,"Shape__Area":47.936879256896773,"GeoRefNo":"3479633792","DateCreate":1114790400000,"BuildingBlockType":"Tower","BuildingCSUID":"3479633792T20050430","BuildingID":1106130545,"Status":"Active","BuildingNameEN":null,"BuildingNameTC":null,"BaseHeight":44.600000000000001,"TopHeight":49.299999999999997,"Storeys":null,"StoreysInBasement":null,"DateStamp":1712246400000}},{"type":"Feature","id":331449,"geometry":{"type":"Polygon","coordinates":[[[114.16397629260693,22.443468409900795],[114.16394301492024,22.443526325612343],[114.16390147947754,22.443505046173051],[114.16393772405058,22.443447721660107],[114.16397629260693,22.443468409900795]]]},"properties":{"OBJECTID":331449,"Shape__Length":24.099696201484704,"Shape__Area":34.621265766955062,"GeoRefNo":"3493733785","DateCreate":1114790400000,"BuildingBlockType":"Tower","BuildingCSUID":"3493733785T20050430","BuildingID":1106130565,"Status":"Active","BuildingNameEN":null,"BuildingNameTC":null,"BaseHeight":37.5,"TopHeight":42.899999999999999,"Storeys":null,"StoreysInBasement":null,"DateStamp":1710259200000}},{"type":"Feature","id":331450,"geometry":{"type":"Polygon","coordinates":[[[114.16648529491009,22.443593618959301],[114.16641056857137,22.443603848546239],[114.16640114013043,22.443557708446338],[114.16641619794264,22.443554946099567],[114.16641100278396,22.443526265034983],[114.16645323246736,22.443520966879341],[114.16645942748482,22.443559753087431],[114.16647988622935,22.443556816974677],[114.16648529491009,22.443593618959301]]]},"properties":{"OBJECTID":331450,"Shape__Length":32.749240524677603,"Shape__Area":53.071612198508149,"GeoRefNo":"3519433794","DateCreate":1114790400000,"BuildingBlockType":"Tower","BuildingCSUID":"3519433794T20050430","BuildingID":1106130529,"Status":"Active","BuildingNameEN":null,"BuildingNameTC":null,"BaseHeight":21.699999999999999,"TopHeight":27.300000000000001,"Storeys":null,"StoreysInBasement":null,"DateStamp":1710345600000}},{"type":"Feature","id":331451,"geometry":{"type":"Polygon","coordinates":[[[114.16272624247763,22.443587275132995],[114.16268975199426,22.443618598771785],[114.16263882705897,22.443567953218476],[114.1626748105394,22.443538513931806],[114.16272624247763,22.443587275132995]]]},"properties":{"OBJECTID":331451,"Shape__Length":25.286073707244121,"Shape__Area":38.254708688900394,"GeoRefNo":"3480733795","DateCreate":1114790400000,"BuildingBlockType":"Tower","BuildingCSUID":"3480733795T20050430","BuildingID":1106130519,"Status":"Active","BuildingNameEN":null,"BuildingNameTC":null,"BaseHeight":45.100000000000001,"TopHeight":49.700000000000003,"Storeys":null,"StoreysInBasement":null,"DateStamp":1712246400000}},{"type":"Feature","id":331452,"geometry":{"type":"Polygon","coordinates":[[[114.16637933386005,22.443573788381176],[114.1663754392475,22.443607933186783],[114.16633224201847,22.443615059294299],[114.1662920009866,22.443621495295318],[114.16628354462541,22.443563796358479],[114.1663169731308,22.443555589855929],[114.16636871460994,22.443534227160381],[114.16637933386005,22.443573788381176]]]},"properties":{"OBJECTID":331452,"Shape__Length":32.872078203742532,"Shape__Area":66.349328764718294,"GeoRefNo":"3518433796","DateCreate":1210780800000,"BuildingBlockType":"Temporary Structure","BuildingCSUID":"3518433796T20080515","BuildingID":1106130520,"Status":"Active","BuildingNameEN":null,"BuildingNameTC":null,"BaseHeight":null,"TopHeight":null,"Storeys":null,"StoreysInBasement":null,"DateStamp":1710345600000}},{"type":"Feature","id":331454,"geometry":{"type":"Polygon","coordinates":[[[114.16315465508805,22.44343047963061],[114.16314966334089,22.443459288349665],[114.1631213605468,22.443457848118019],[114.16312368673965,22.443413003069693],[114.16315777469889,22.44341098151434],[114.16315465508805,22.44343047963061]]]},"properties":{"OBJECTID":331454,"Shape__Length":16.819820063911617,"Shape__Area":16.587426141011463,"GeoRefNo":"3485433779","DateCreate":1210694400000,"BuildingBlockType":"Temporary Structure","BuildingCSUID":"3485433779T20080514","BuildingID":1106130605,"Status":"Active","BuildingNameEN":null,"BuildingNameTC":null,"BaseHeight":null,"TopHeight":null,"Storeys":null,"StoreysInBasement":null,"DateStamp":1712419200000}},{"type":"Feature","id":331457,"geometry":{"type":"Polygon","coordinates":[[[114.16641722342058,22.44310621691238],[114.16637816961536,22.443159860085689],[114.16634464843101,22.443131951360762],[114.16637795444078,22.443082089597741],[114.16641722342058,22.44310621691238]]]},"properties":{"OBJECTID":331457,"Shape__Length":23.149803461255388,"Shape__Area":32.200684712639415,"GeoRefNo":"3518933745","DateCreate":1114790400000,"BuildingBlockType":"Tower","BuildingCSUID":"3518933745T20050430","BuildingID":1106130772,"Status":"Active","BuildingNameEN":null,"BuildingNameTC":null,"BaseHeight":10.699999999999999,"TopHeight":18.300000000000001,"Storeys":null,"StoreysInBasement":null,"DateStamp":1710345600000}},{"type":"Feature","id":331458,"geometry":{"type":"Polygon","coordinates":[[[114.16628863227263,22.443207682176624],[114.16625679560913,22.443237272718687],[114.16619289360578,22.443178745740198],[114.16621648674406,22.443156121033532],[114.16622377995799,22.443149596827681],[114.16628863227263,22.443207682176624]]]},"properties":{"OBJECTID":331458,"Shape__Length":27.670261502830041,"Shape__Area":42.459597228789221,"GeoRefNo":"3517233752","DateCreate":1114790400000,"BuildingBlockType":"Tower","BuildingCSUID":"3517233752T20050430","BuildingID":1106130710,"Status":"Active","BuildingNameEN":null,"BuildingNameTC":null,"BaseHeight":18.699999999999999,"TopHeight":23.800000000000001,"Storeys":null,"StoreysInBasement":null,"DateStamp":1710345600000}},{"type":"Feature","id":331462,"geometry":{"type":"Polygon","coordinates":[[[114.1664551669671,22.443196814795314],[114.16642982044428,22.443225120303374],[114.16639853337057,22.443203938250122],[114.16642284880542,22.443174161528688],[114.1664551669671,22.443196814795314]]]},"properties":{"OBJECTID":331462,"Shape__Length":16.368864474710815,"Shape__Area":16.731701228310623,"GeoRefNo":"3519233753","DateCreate":1249228800000,"BuildingBlockType":"Tower","BuildingCSUID":"3519233753T20090803","BuildingID":1106130723,"Status":"Active","BuildingNameEN":null,"BuildingNameTC":null,"BaseHeight":12.5,"TopHeight":19,"Storeys":null,"StoreysInBasement":null,"DateStamp":1710345600000}},{"type":"Feature","id":331463,"geometry":{"type":"Polygon","coordinates":[[[114.16648859813199,22.443215600833742],[114.16646177934189,22.443246904093023],[114.16643226499833,22.443226665843007],[114.16645924098756,22.443195163386797],[114.16648859813199,22.443215600833742]]]},"properties":{"OBJECTID":331463,"Shape__Length":16.440935336896658,"Shape__Area":16.772519738535937,"GeoRefNo":"3519633755","DateCreate":1114790400000,"BuildingBlockType":"Tower","BuildingCSUID":"3519633755T20050430","BuildingID":1106130708,"Status":"Active","BuildingNameEN":null,"BuildingNameTC":null,"BaseHeight":12.300000000000001,"TopHeight":15.800000000000001,"Storeys":null,"StoreysInBasement":null,"DateStamp":1710345600000}},{"type":"Feature","id":331464,"geometry":{"type":"Polygon","coordinates":[[[114.1662913885266,22.443119792443678],[114.16626249899119,22.443153192768179],[114.16623247686528,22.443129796587741],[114.16625035563077,22.443104171040908],[114.16625740506746,22.443108352514294],[114.16626432986315,22.443101048141223],[114.1662913885266,22.443119792443678]]]},"properties":{"OBJECTID":331464,"Shape__Length":17.573548102208814,"Shape__Area":18.668321780243666,"GeoRefNo":"3517533745","DateCreate":1114790400000,"BuildingBlockType":"Tower","BuildingCSUID":"3517533745T20050430","BuildingID":1106130774,"Status":"Active","BuildingNameEN":null,"BuildingNameTC":null,"BaseHeight":15.4,"TopHeight":17.800000000000001,"Storeys":null,"StoreysInBasement":null,"DateStamp":1710345600000}},{"type":"Feature","id":331465,"geometry":{"type":"Polygon","coordinates":[[[114.16650684074139,22.443195592497027],[114.16649961966807,22.443204093848458],[114.16646705624716,22.443179565400655],[114.16647539360768,22.443169935766775],[114.16650684074139,22.443195592497027]]]},"properties":{"OBJECTID":331465,"Shape__Length":11.189759274026379,"Shape__Area":5.5324455688736762,"GeoRefNo":"3519833751","DateCreate":1249228800000,"BuildingBlockType":"Tower","BuildingCSUID":"3519833751T20090803","BuildingID":1106130738,"Status":"Active","BuildingNameEN":null,"BuildingNameTC":null,"BaseHeight":10.1,"TopHeight":15.800000000000001,"Storeys":null,"StoreysInBasement":null,"DateStamp":1710345600000}},{"type":"Feature","id":331466,"geometry":{"type":"Polygon","coordinates":[[[114.16636535973309,22.443049556109024],[114.16635582983353,22.443071854939305],[114.16637524568013,22.443080196457842],[114.1663536440788,22.443118131553657],[114.16630492799948,22.443096533128696],[114.16633555622342,22.44303732241903],[114.16636535973309,22.443049556109024]]]},"properties":{"OBJECTID":331466,"Shape__Length":25.796846690119427,"Shape__Area":35.66531330001353,"GeoRefNo":"3518433742","DateCreate":1114790400000,"BuildingBlockType":"Tower","BuildingCSUID":"3518433742T20050430","BuildingID":1106130799,"Status":"Active","BuildingNameEN":null,"BuildingNameTC":null,"BaseHeight":11.800000000000001,"TopHeight":17.5,"Storeys":null,"StoreysInBasement":null,"DateStamp":1710345600000}},{"type":"Feature","id":331467,"geometry":{"type":"Polygon","coordinates":[[[114.16637938437185,22.443189017251385],[114.16637259662284,22.44319668701046],[114.16636653097635,22.443213148507429],[114.16634814245533,22.443231552016282],[114.16630625050053,22.443196115402337],[114.16631101380747,22.443191402085567],[114.16634288809362,22.443159865291044],[114.16637938437185,22.443189017251385]]]},"properties":{"OBJECTID":331467,"Shape__Length":22.099778857707555,"Shape__Area":30.902801258425395,"GeoRefNo":"3518433753","DateCreate":1114790400000,"BuildingBlockType":"Tower","BuildingCSUID":"3518433753T20050430","BuildingID":1106130719,"Status":"Active","BuildingNameEN":null,"BuildingNameTC":null,"BaseHeight":15.1,"TopHeight":22.199999999999999,"Storeys":null,"StoreysInBasement":null,"DateStamp":1710345600000}},{"type":"Feature","id":331469,"geometry":{"type":"Polygon","coordinates":[[[114.16634288809362,22.443159865291044],[114.16631101380747,22.443191402085567],[114.16628588934653,22.443170704625235],[114.16631742634226,22.443139194182557],[114.16634288809362,22.443159865291044]]]},"properties":{"OBJECTID":331469,"Shape__Length":16.493326791933921,"Shape__Area":16.564348557307884,"GeoRefNo":"3518133750","DateCreate":1114790400000,"BuildingBlockType":"Tower","BuildingCSUID":"3518133750T20050430","BuildingID":1106130741,"Status":"Active","BuildingNameEN":null,"BuildingNameTC":null,"BaseHeight":15.1,"TopHeight":18.699999999999999,"Storeys":null,"StoreysInBasement":null,"DateStamp":1710345600000}},{"type":"Feature","id":331470,"geometry":{"type":"Polygon","coordinates":[[[114.16610484917354,22.443075640992006],[114.16607791072097,22.443112203879316],[114.16603323232245,22.443084633800396],[114.16606252392545,22.443048214661768],[114.16610484917354,22.443075640992006]]]},"properties":{"OBJECTID":331470,"Shape__Length":20.774078951897451,"Shape__Area":26.90782606123885,"GeoRefNo":"3515633740","DateCreate":1114790400000,"BuildingBlockType":"Tower","BuildingCSUID":"3515633740T20050430","BuildingID":1106130800,"Status":"Active","BuildingNameEN":null,"BuildingNameTC":null,"BaseHeight":18.899999999999999,"TopHeight":23.899999999999999,"Storeys":null,"StoreysInBasement":null,"DateStamp":1710345600000}},{"type":"Feature","id":331495,"geometry":{"type":"Polygon","coordinates":[[[114.16430430214132,22.4463786805991],[114.16432805169633,22.446394652436521],[114.16432502676828,22.446399389487393],[114.1642810079834,22.446460235428511],[114.16419194915269,22.446407544180708],[114.16424130649645,22.446340527810396],[114.16430430214132,22.4463786805991]]]},"properties":{"OBJECTID":331495,"Shape__Length":39.346963002258221,"Shape__Area":96.483857365459542,"GeoRefNo":"3496834108","DateCreate":1114790400000,"BuildingBlockType":"Tower","BuildingCSUID":"3496834108T20050430","BuildingID":1106129220,"Status":"Active","BuildingNameEN":null,"BuildingNameTC":null,"BaseHeight":11.5,"TopHeight":16.600000000000001,"Storeys":null,"StoreysInBasement":null,"DateStamp":1711814400000}},{"type":"Feature","id":331496,"geometry":{"type":"Polygon","coordinates":[[[114.16457395235761,22.445894124748733],[114.16453933918949,22.445915171289709],[114.16451159314026,22.445926699166066],[114.16451355137902,22.445929581836371],[114.16448399743625,22.445944101449477],[114.16443112637755,22.44588387745339],[114.16445641974866,22.445859154194174],[114.16448749407182,22.445892476600719],[114.16453340682583,22.445858503567269],[114.16454852249274,22.445837440914794],[114.16458112785892,22.445889761688299],[114.16457395235761,22.445894124748733]]]},"properties":{"OBJECTID":331496,"Shape__Length":44.896402983602236,"Shape__Area":80.108612119643027,"GeoRefNo":"3499734051","DateCreate":1210780800000,"BuildingBlockType":"Temporary Structure","BuildingCSUID":"3499734051T20080515","BuildingID":1106129398,"Status":"Active","BuildingNameEN":null,"BuildingNameTC":null,"BaseHeight":null,"TopHeight":null,"Storeys":null,"StoreysInBasement":null,"DateStamp":1711468800000}},{"type":"Feature","id":331497,"geometry":{"type":"Polygon","coordinates":[[[114.16457502628496,22.446023833117394],[114.1645554745825,22.446028002797274],[114.1645385172106,22.44598253055397],[114.1645587020481,22.445975808195701],[114.16457502628496,22.446023833117394]]]},"properties":{"OBJECTID":331497,"Shape__Length":15.17860158837621,"Shape__Area":11.620373967269316,"GeoRefNo":"3499934063","DateCreate":1114790400000,"BuildingBlockType":"Tower","BuildingCSUID":"3499934063T20050430","BuildingID":1106129394,"Status":"Active","BuildingNameEN":null,"BuildingNameTC":null,"BaseHeight":8.5999999999999996,"TopHeight":11.800000000000001,"Storeys":null,"StoreysInBasement":null,"DateStamp":1711468800000}},{"type":"Feature","id":331624,"geometry":{"type":"Polygon","coordinates":[[[114.1663957475927,22.443174500226107],[114.16637816961536,22.443159860085689],[114.16641722342058,22.44310621691238],[114.16645361446328,22.443144885505831],[114.16645111133417,22.443147220349989],[114.16643965744775,22.443158135718974],[114.16642284880542,22.443174161528688],[114.16640692221733,22.443160626013082],[114.1663957475927,22.443174500226107]]]},"properties":{"OBJECTID":331624,"Shape__Length":23.964276439504218,"Shape__Area":29.861263703622448,"GeoRefNo":"3519033747","DateCreate":1114790400000,"BuildingBlockType":"Tower","BuildingCSUID":"3519033747T20050430","BuildingID":1106130762,"Status":"Active","BuildingNameEN":null,"BuildingNameTC":null,"BaseHeight":9.8000000000000007,"TopHeight":19.899999999999999,"Storeys":null,"StoreysInBasement":null,"DateStamp":1710345600000}},{"type":"Feature","id":331625,"geometry":{"type":"Polygon","coordinates":[[[114.16631742634226,22.443139194182557],[114.16628588934653,22.443170704625235],[114.16626249899119,22.443153192768179],[114.1662913885266,22.443119792443678],[114.16631742634226,22.443139194182557]]]},"properties":{"OBJECTID":331625,"Shape__Length":16.038544201242427,"Shape__Area":15.499757303836093,"GeoRefNo":"3518033749","DateCreate":1114790400000,"BuildingBlockType":"Tower","BuildingCSUID":"3518033749T20050430","BuildingID":1106130760,"Status":"Active","BuildingNameEN":null,"BuildingNameTC":null,"BaseHeight":15.4,"TopHeight":17.199999999999999,"Storeys":null,"StoreysInBasement":null,"DateStamp":1710345600000}},{"type":"Feature","id":331626,"geometry":{"type":"Polygon","coordinates":[[[114.16621648674406,22.443156121033532],[114.16619289360578,22.443178745740198],[114.16613392341448,22.443134524841742],[114.1661557613119,22.443108321889554],[114.16621648674406,22.443156121033532]]]},"properties":{"OBJECTID":331626,"Shape__Length":23.149975550943694,"Shape__Area":28.568847688656025,"GeoRefNo":"3516633747","DateCreate":1114790400000,"BuildingBlockType":"Tower","BuildingCSUID":"3516633747T20050430","BuildingID":1106130758,"Status":"Active","BuildingNameEN":null,"BuildingNameTC":null,"BaseHeight":19.199999999999999,"TopHeight":23.5,"Storeys":null,"StoreysInBasement":null,"DateStamp":1710432000000}},{"type":"Feature","id":331627,"geometry":{"type":"Polygon","coordinates":[[[114.16457332437906,22.443066994054671],[114.16454928911597,22.443090251161482],[114.16451698275762,22.443053233669541],[114.16449661837105,22.443034242056747],[114.16451664852281,22.443018653496512],[114.16457332437906,22.443066994054671]]]},"properties":{"OBJECTID":331627,"Shape__Length":22.426111726859713,"Shape__Area":24.408941373402079,"GeoRefNo":"3499733736","DateCreate":1210780800000,"BuildingBlockType":"Open-sided Structure","BuildingCSUID":"3499733736T20080515","BuildingID":1106130840,"Status":"Active","BuildingNameEN":null,"BuildingNameTC":null,"BaseHeight":13.5,"TopHeight":16,"Storeys":null,"StoreysInBasement":null,"DateStamp":1710259200000}},{"type":"Feature","id":331628,"geometry":{"type":"Polygon","coordinates":[[[114.16629319328939,22.443017074637432],[114.16625525267861,22.443080609003921],[114.16624969255641,22.443086992720747],[114.16622058784357,22.443070574612658],[114.16626343448262,22.443000960549703],[114.16629319328939,22.443017074637432]]]},"properties":{"OBJECTID":331628,"Shape__Length":24.887460820392377,"Shape__Area":32.044182855376683,"GeoRefNo":"3517433736","DateCreate":1114790400000,"BuildingBlockType":"Tower","BuildingCSUID":"3517433736T20050430","BuildingID":1106130829,"Status":"Active","BuildingNameEN":null,"BuildingNameTC":null,"BaseHeight":11.800000000000001,"TopHeight":17.300000000000001,"Storeys":null,"StoreysInBasement":null,"DateStamp":1710345600000}},{"type":"Feature","id":331632,"geometry":{"type":"Polygon","coordinates":[[[114.1664180863725,22.44304888359131],[114.16641585261758,22.443085177485091],[114.16637485808572,22.44306832400088],[114.16638183288065,22.443032808117671],[114.1664180863725,22.44304888359131]]]},"properties":{"OBJECTID":331632,"Shape__Length":16.772414738898789,"Shape__Area":16.672185496629034,"GeoRefNo":"3519033739","DateCreate":1114790400000,"BuildingBlockType":"Tower","BuildingCSUID":"3519033739T20050430","BuildingID":1106130831,"Status":"Active","BuildingNameEN":null,"BuildingNameTC":null,"BaseHeight":9.3000000000000007,"TopHeight":16.399999999999999,"Storeys":null,"StoreysInBasement":null,"DateStamp":1710345600000}},{"type":"Feature","id":331633,"geometry":{"type":"Polygon","coordinates":[[[114.16420103729813,22.447142369707887],[114.16422707692324,22.447152215298619],[114.16419915550469,22.447242398253429],[114.16417694599662,22.447237284825363],[114.16420103729813,22.447142369707887]]]},"properties":{"OBJECTID":331633,"Shape__Length":26.439909795502579,"Shape__Area":27.667132409117031,"GeoRefNo":"3496434195","DateCreate":1711900800000,"BuildingBlockType":"Open-sided Structure","BuildingCSUID":"3496434195T20240401","BuildingID":1910246036,"Status":"Active","BuildingNameEN":null,"BuildingNameTC":null,"BaseHeight":null,"TopHeight":null,"Storeys":null,"StoreysInBasement":null,"DateStamp":1711900800000}},{"type":"Feature","id":331634,"geometry":{"type":"Polygon","coordinates":[[[114.16260455222944,22.446908786353038],[114.16258209967536,22.446877019755131],[114.16262673507599,22.446850315495961],[114.16264974555779,22.446882082136788],[114.16260455222944,22.446908786353038]]]},"properties":{"OBJECTID":331634,"Shape__Length":19.426119979250384,"Shape__Area":23.182769765524526,"GeoRefNo":"3480034161","DateCreate":1711900800000,"BuildingBlockType":"Open-sided Structure","BuildingCSUID":"3480034161T20240401","BuildingID":1910246037,"Status":"Active","BuildingNameEN":null,"BuildingNameTC":null,"BaseHeight":null,"TopHeight":null,"Storeys":null,"StoreysInBasement":null,"DateStamp":1711900800000}},{"type":"Feature","id":331638,"geometry":{"type":"Polygon","coordinates":[[[114.16251475792606,22.446624528479923],[114.16246906254037,22.446609324902322],[114.16245528345976,22.446586728669587],[114.16252520136069,22.44655137298604],[114.16255270207525,22.446574312862655],[114.16256940852742,22.446584588376773],[114.16254755642582,22.446621859727603],[114.16253239030688,22.446630937781958],[114.16251475792606,22.446624528479923]]]},"properties":{"OBJECTID":331638,"Shape__Length":30.436860542975037,"Shape__Area":59.674188563965501,"GeoRefNo":"3479034129","DateCreate":1712073600000,"BuildingBlockType":"Open-sided Structure","BuildingCSUID":"3479034129T20240403","BuildingID":1910246211,"Status":"Active","BuildingNameEN":null,"BuildingNameTC":null,"BaseHeight":null,"TopHeight":null,"Storeys":null,"StoreysInBasement":null,"DateStamp":1712073600000}},{"type":"Feature","id":331639,"geometry":{"type":"Polygon","coordinates":[[[114.16272918953256,22.446278982726266],[114.162634953142,22.446274928367195],[114.16263517452292,22.446237906237954],[114.16273136955502,22.446243174641598],[114.16272918953256,22.446278982726266]]]},"properties":{"OBJECTID":331639,"Shape__Length":27.701173420007219,"Shape__Area":39.586627936430929,"GeoRefNo":"3480734092","DateCreate":1712160000000,"BuildingBlockType":"Open-sided Structure","BuildingCSUID":"3480734092T20240404","BuildingID":1910246219,"Status":"Active","BuildingNameEN":null,"BuildingNameTC":null,"BaseHeight":null,"TopHeight":null,"Storeys":null,"StoreysInBasement":null,"DateStamp":1712160000000}},{"type":"Feature","id":331640,"geometry":{"type":"Polygon","coordinates":[[[114.16269110758844,22.446234269709919],[114.1626963373495,22.44617094817885],[114.16277207439938,22.446176214764606],[114.16276640947119,22.446239333887721],[114.16269110758844,22.446234269709919]]]},"properties":{"OBJECTID":331640,"Shape__Length":29.635896576026308,"Shape__Area":54.742627198921241,"GeoRefNo":"3481234086","DateCreate":1712160000000,"BuildingBlockType":"Open-sided Structure","BuildingCSUID":"3481234086T20240404","BuildingID":1910246220,"Status":"Active","BuildingNameEN":null,"BuildingNameTC":null,"BaseHeight":null,"TopHeight":null,"Storeys":null,"StoreysInBasement":null,"DateStamp":1712160000000}},{"type":"Feature","id":331641,"geometry":{"type":"Polygon","coordinates":[[[114.16578979765329,22.444511802052926],[114.16582440959746,22.444551132050353],[114.16586052248523,22.444524916118922],[114.16587334174007,22.444539813809612],[114.16583786965464,22.444569406455294],[114.16582398214311,22.444553714189514],[114.16581201581322,22.444561261026983],[114.16577612203226,22.444519348861078],[114.16578979765329,22.444511802052926]]]},"properties":{"OBJECTID":331641,"Shape__Length":28.670448205982375,"Shape__Area":20.933782868972742,"GeoRefNo":"3513333902","DateCreate":1712419200000,"BuildingBlockType":"Temporary Structure","BuildingCSUID":"3513333902T20240407","BuildingID":1910246344,"Status":"Active","BuildingNameEN":null,"BuildingNameTC":null,"BaseHeight":null,"TopHeight":null,"Storeys":null,"StoreysInBasement":null,"DateStamp":1712419200000}},{"type":"Feature","id":331642,"geometry":{"type":"Polygon","coordinates":[[[114.16453933918949,22.445915171289709],[114.16456430461814,22.4459738850449],[114.1645587020481,22.445975808195701],[114.1645385172106,22.44598253055397],[114.16451991188381,22.445980556974451],[114.16448090866058,22.445945964015007],[114.16448399743625,22.445944101449477],[114.16451355137902,22.445929581836371],[114.16451159314026,22.445926699166066],[114.16453933918949,22.445915171289709]]]},"properties":{"OBJECTID":331642,"Shape__Length":24.615635959556641,"Shape__Area":35.752593748418548,"GeoRefNo":"3499734058","DateCreate":1712419200000,"BuildingBlockType":"Tower","BuildingCSUID":"3499734058T20240407","BuildingID":1910246345,"Status":"Active","BuildingNameEN":null,"BuildingNameTC":null,"BaseHeight":8.5999999999999996,"TopHeight":12.699999999999999,"Storeys":null,"StoreysInBasement":null,"DateStamp":1712419200000}},{"type":"Feature","id":331643,"geometry":{"type":"Polygon","coordinates":[[[114.16434893651564,22.445903394684787],[114.16434104661577,22.445867283638105],[114.16437556288024,22.445858931963162],[114.16440743661057,22.445874813480266],[114.16440250473885,22.445884471441431],[114.1643887682862,22.445886598499275],[114.16439193712696,22.445898712645619],[114.16439017581331,22.445902313944984],[114.16435336831289,22.445917207919106],[114.16434893651564,22.445903394684787]]]},"properties":{"OBJECTID":331643,"Shape__Length":21.638814286054316,"Shape__Area":26.714280391033132,"GeoRefNo":"3498134050","DateCreate":1712419200000,"BuildingBlockType":"Temporary Structure","BuildingCSUID":"3498134050T20240407","BuildingID":1910246347,"Status":"Active","BuildingNameEN":null,"BuildingNameTC":null,"BaseHeight":null,"TopHeight":null,"Storeys":null,"StoreysInBasement":null,"DateStamp":1712419200000}},{"type":"Feature","id":331644,"geometry":{"type":"Polygon","coordinates":[[[114.16417223953177,22.445658448823526],[114.16417104219494,22.445699056603431],[114.16412640279231,22.445695946437493],[114.16412807655334,22.445665990025432],[114.16413285188879,22.445654673436614],[114.16417223953177,22.445658448823526]]]},"properties":{"OBJECTID":331644,"Shape__Length":17.850135287607166,"Shape__Area":20.46392126800621,"GeoRefNo":"3495834027","DateCreate":1712419200000,"BuildingBlockType":"Temporary Structure","BuildingCSUID":"3495834027T20240407","BuildingID":1910246351,"Status":"Active","BuildingNameEN":null,"BuildingNameTC":null,"BaseHeight":null,"TopHeight":null,"Storeys":null,"StoreysInBasement":null,"DateStamp":1712419200000}},{"type":"Feature","id":331645,"geometry":{"type":"Polygon","coordinates":[[[114.16338127540759,22.446656131879493],[114.16336686682133,22.446648918416223],[114.16340649810465,22.446587875226196],[114.16348990106601,22.446631670810387],[114.16346412646932,22.446675972529391],[114.16345636801674,22.446672108116893],[114.16347133392678,22.446646093796641],[114.16340704421425,22.446612670456766],[114.16338127540759,22.446656131879493]]]},"properties":{"OBJECTID":331645,"Shape__Length":42.26799382144366,"Shape__Area":34.939868745497023,"GeoRefNo":"3488434131","DateCreate":1712419200000,"BuildingBlockType":"Open-sided Structure","BuildingCSUID":"3488434131T20240407","BuildingID":1910246357,"Status":"Active","BuildingNameEN":null,"BuildingNameTC":null,"BaseHeight":null,"TopHeight":null,"Storeys":null,"StoreysInBasement":null,"DateStamp":1712419200000}},{"type":"Feature","id":331646,"geometry":{"type":"Polygon","coordinates":[[[114.16332506682716,22.446664255223162],[114.16336626760223,22.446549453888998],[114.16339612966689,22.446554932535502],[114.16334702119524,22.446671418298958],[114.16332506682716,22.446664255223162]]]},"properties":{"OBJECTID":331646,"Shape__Length":32.78402530163163,"Shape__Area":37.405349346627304,"GeoRefNo":"3487734130","DateCreate":1712419200000,"BuildingBlockType":"Temporary Structure","BuildingCSUID":"3487734130T20240407","BuildingID":1910246359,"Status":"Active","BuildingNameEN":null,"BuildingNameTC":null,"BaseHeight":null,"TopHeight":null,"Storeys":null,"StoreysInBasement":null,"DateStamp":1712419200000}},{"type":"Feature","id":331649,"geometry":{"type":"Polygon","coordinates":[[[114.16465632272975,22.446678251736156],[114.16467425371846,22.446692840159329],[114.16462468359825,22.446748856648679],[114.16459207102855,22.446786063706185],[114.1645785985518,22.446776987168917],[114.16461160173769,22.446738872673485],[114.16460574406,22.446734878963507],[114.16465632272975,22.446678251736156]]]},"properties":{"OBJECTID":331649,"Shape__Length":31.828372804473819,"Shape__Area":29.216086783412333,"GeoRefNo":"3500734144","DateCreate":1716220800000,"BuildingBlockType":"Open-sided Structure","BuildingCSUID":"3500734144T20240521","BuildingID":1910246527,"Status":"Active","BuildingNameEN":null,"BuildingNameTC":null,"BaseHeight":7.7000000000000002,"TopHeight":10.1,"Storeys":null,"StoreysInBasement":null,"DateStamp":1716220800000}},{"type":"Feature","id":331650,"geometry":{"type":"Polygon","coordinates":[[[114.16583027219991,22.445556797193206],[114.16581496587303,22.445524870242711],[114.16584995817773,22.445509151962618],[114.16586509271541,22.445541577198615],[114.16583027219991,22.445556797193206]]]},"properties":{"OBJECTID":331650,"Shape__Length":15.746001751068817,"Shape__Area":15.486429031065867,"GeoRefNo":"3513234011","DateCreate":1716480000000,"BuildingBlockType":"Tower","BuildingCSUID":"3513234011T20240524","BuildingID":1910248459,"Status":"Active","BuildingNameEN":null,"BuildingNameTC":null,"BaseHeight":5.9000000000000004,"TopHeight":16.800000000000001,"Storeys":null,"StoreysInBasement":null,"DateStamp":1716480000000}},{"type":"Feature","id":331700,"geometry":{"type":"Polygon","coordinates":[[[114.16499904705458,22.445423730254376],[114.16497317141646,22.445453549442487],[114.16488322947305,22.445382028201756],[114.16490958417471,22.445353049256649],[114.16499904705458,22.445423730254376]]]},"properties":{"OBJECTID":331700,"Shape__Length":32.714047529066505,"Shape__Area":51.226190375447494,"GeoRefNo":"3503533994","DateCreate":1114790400000,"BuildingBlockType":"Tower","BuildingCSUID":"3503533994T20050430","BuildingID":1106129709,"Status":"Active","BuildingNameEN":null,"BuildingNameTC":null,"BaseHeight":12.199999999999999,"TopHeight":21,"Storeys":null,"StoreysInBasement":null,"DateStamp":1711555200000}},{"type":"Feature","id":331701,"geometry":{"type":"Polygon","coordinates":[[[114.16616461470288,22.44534997592179],[114.16608610005288,22.445382501387172],[114.1660735789908,22.445354351272279],[114.16615107156099,22.445320329940749],[114.16616461470288,22.44534997592179]]]},"properties":{"OBJECTID":331701,"Shape__Length":24.609831695420993,"Shape__Area":30.637505727514281,"GeoRefNo":"3516233991","DateCreate":1114790400000,"BuildingBlockType":"Tower","BuildingCSUID":"3516233991T20050430","BuildingID":1106129753,"Status":"Active","BuildingNameEN":null,"BuildingNameTC":null,"BaseHeight":5.7000000000000002,"TopHeight":16.399999999999999,"Storeys":null,"StoreysInBasement":null,"DateStamp":1707408000000}},{"type":"Feature","id":331702,"geometry":{"type":"Polygon","coordinates":[[[114.1661261244755,22.445300206990126],[114.16606096269611,22.445327892644347],[114.1660502818158,22.445305864666192],[114.16611311890939,22.445276250859749],[114.1661261244755,22.445300206990126]]]},"properties":{"OBJECTID":331702,"Shape__Length":20.274128120396327,"Shape__Area":20.640837537575383,"GeoRefNo":"3515833986","DateCreate":1114790400000,"BuildingBlockType":"Tower","BuildingCSUID":"3515833986T20050430","BuildingID":1106129792,"Status":"Active","BuildingNameEN":null,"BuildingNameTC":null,"BaseHeight":5.7000000000000002,"TopHeight":14.6,"Storeys":null,"StoreysInBasement":null,"DateStamp":1707408000000}},{"type":"Feature","id":331703,"geometry":{"type":"Polygon","coordinates":[[[114.16617825936417,22.44537587526316],[114.16612058860984,22.445399313239147],[114.16609803801813,22.445408449927779],[114.16608610005288,22.445382501387172],[114.16616461470288,22.44534997592179],[114.16617825936417,22.44537587526316]]]},"properties":{"OBJECTID":331703,"Shape__Length":24.178118008070619,"Shape__Area":28.208693140728894,"GeoRefNo":"3516433994","DateCreate":1114790400000,"BuildingBlockType":"Tower","BuildingCSUID":"3516433994T20050430","BuildingID":1106129736,"Status":"Active","BuildingNameEN":null,"BuildingNameTC":null,"BaseHeight":5.7000000000000002,"TopHeight":15.800000000000001,"Storeys":null,"StoreysInBasement":null,"DateStamp":1707408000000}},{"type":"Feature","id":331707,"geometry":{"type":"Polygon","coordinates":[[[114.16619462829601,22.445414917164097],[114.16615805542675,22.445429927065721],[114.16616360646496,22.445444504030764],[114.16612408298735,22.445455020897949],[114.16611806439356,22.445442841937609],[114.16613795432632,22.445434933211612],[114.16612058860984,22.445399313239147],[114.16617825936417,22.44537587526316],[114.16619462829601,22.445414917164097]]]},"properties":{"OBJECTID":331707,"Shape__Length":29.220139868437123,"Shape__Area":36.355824842908959,"GeoRefNo":"3516533998","DateCreate":1114790400000,"BuildingBlockType":"Tower","BuildingCSUID":"3516533998T20050430","BuildingID":1106129706,"Status":"Active","BuildingNameEN":null,"BuildingNameTC":null,"BaseHeight":5.5999999999999996,"TopHeight":14.199999999999999,"Storeys":null,"StoreysInBasement":null,"DateStamp":1712419200000}},{"type":"Feature","id":331708,"geometry":{"type":"Polygon","coordinates":[[[114.16546498304535,22.4451731949279],[114.16543198072316,22.44518674749196],[114.16539760342091,22.445120397407294],[114.16542630789256,22.445107557952255],[114.16546498304535,22.4451731949279]]]},"properties":{"OBJECTID":331708,"Shape__Length":23.435314760425378,"Shape__Area":28.70374126955155,"GeoRefNo":"3509033971","DateCreate":1114790400000,"BuildingBlockType":"Tower","BuildingCSUID":"3509033971T20050430","BuildingID":1106129867,"Status":"Active","BuildingNameEN":null,"BuildingNameTC":null,"BaseHeight":9.1999999999999993,"TopHeight":18.5,"Storeys":null,"StoreysInBasement":null,"DateStamp":1711382400000}},{"type":"Feature","id":331709,"geometry":{"type":"Polygon","coordinates":[[[114.16553944160901,22.445142287105213],[114.1655037299293,22.445157534510642],[114.16546948167593,22.445086814613141],[114.16550554973142,22.445072082066382],[114.16553944160901,22.445142287105213]]]},"properties":{"OBJECTID":331709,"Shape__Length":25.20999053184989,"Shape__Area":34.647945639195669,"GeoRefNo":"3509833966","DateCreate":1114790400000,"BuildingBlockType":"Tower","BuildingCSUID":"3509833966T20050430","BuildingID":1106129882,"Status":"Active","BuildingNameEN":null,"BuildingNameTC":null,"BaseHeight":9,"TopHeight":17.899999999999999,"Storeys":null,"StoreysInBasement":null,"DateStamp":1711382400000}},{"type":"Feature","id":331710,"geometry":{"type":"Polygon","coordinates":[[[114.16611311890939,22.445276250859749],[114.1660502818158,22.445305864666192],[114.16603739610369,22.445278635088375],[114.1660972363243,22.445247434707539],[114.16611311890939,22.445276250859749]]]},"properties":{"OBJECTID":331710,"Shape__Length":21.194197390344215,"Shape__Area":24.578929907615354,"GeoRefNo":"3515733983","DateCreate":1114790400000,"BuildingBlockType":"Tower","BuildingCSUID":"3515733983T20050430","BuildingID":1106129808,"Status":"Active","BuildingNameEN":null,"BuildingNameTC":null,"BaseHeight":5.9000000000000004,"TopHeight":15.4,"Storeys":null,"StoreysInBasement":null,"DateStamp":1707408000000}},{"type":"Feature","id":331711,"geometry":{"type":"Polygon","coordinates":[[[114.16562618267029,22.445105917489428],[114.16559303165711,22.445119353312439],[114.16555864116285,22.445049611602435],[114.16559204136314,22.445035944172577],[114.16562618267029,22.445105917489428]]]},"properties":{"OBJECTID":331711,"Shape__Length":24.483169628364074,"Shape__Area":31.79039377915586,"GeoRefNo":"3510833963","DateCreate":1114790400000,"BuildingBlockType":"Tower","BuildingCSUID":"3510833963T20050430","BuildingID":1106129897,"Status":"Active","BuildingNameEN":null,"BuildingNameTC":null,"BaseHeight":8.5,"TopHeight":17.899999999999999,"Storeys":null,"StoreysInBasement":null,"DateStamp":1711382400000}},{"type":"Feature","id":331801,"geometry":{"type":"Polygon","coordinates":[[[114.16634910514864,22.445027583273344],[114.16633266942917,22.445136245664088],[114.16628701081679,22.44513028258611],[114.16629285226854,22.445091650683427],[114.16628381769524,22.445090467103395],[114.16628797377568,22.445061702758508],[114.16629441200229,22.445020436620524],[114.16634910514864,22.445027583273344]]]},"properties":{"OBJECTID":331801,"Shape__Length":35.673169869760933,"Shape__Area":65.1061853176395,"GeoRefNo":"3518033961","DateCreate":1249488000000,"BuildingBlockType":"Tower","BuildingCSUID":"3518033961T20090806","BuildingID":1106138397,"Status":"Active","BuildingNameEN":null,"BuildingNameTC":null,"BaseHeight":7.5,"TopHeight":16.100000000000001,"Storeys":3,"StoreysInBasement":null,"DateStamp":1712592000000}},{"type":"Feature","id":331802,"geometry":{"type":"Polygon","coordinates":[[[114.16619556229267,22.442962268076968],[114.16618422765798,22.442987674158591],[114.16613989237624,22.44297049484604],[114.16615118306095,22.44294570130047],[114.16619556229267,22.442962268076968]]]},"properties":{"OBJECTID":331802,"Shape__Length":15.894492133985294,"Shape__Area":14.867046640105301,"GeoRefNo":"3516533728","DateCreate":1114790400000,"BuildingBlockType":"Tower","BuildingCSUID":"3516533728T20050430","BuildingID":1106130896,"Status":"Active","BuildingNameEN":null,"BuildingNameTC":null,"BaseHeight":11.300000000000001,"TopHeight":17.100000000000001,"Storeys":null,"StoreysInBasement":null,"DateStamp":1710345600000}},{"type":"Feature","id":331803,"geometry":{"type":"Polygon","coordinates":[[[114.16614290545762,22.443042476365765],[114.16612548725482,22.44306926695068],[114.16611505177232,22.443063147130044],[114.16607087083314,22.443037237614803],[114.16606544326943,22.443034054739098],[114.16606042592471,22.443034988604968],[114.16604998109699,22.443030444232964],[114.16605343666868,22.443017750170078],[114.16607535680841,22.443015946444653],[114.16611426143102,22.443033633557985],[114.1661150086629,22.443032514643708],[114.16611656675539,22.443030297137906],[114.16614290545762,22.443042476365765]]]},"properties":{"OBJECTID":331803,"Shape__Length":24.128918435145486,"Shape__Area":24.404959673261516,"GeoRefNo":"3515933735","DateCreate":1489507200000,"BuildingBlockType":"Tower","BuildingCSUID":"3515933735T20170315","BuildingID":1106130843,"Status":"Active","BuildingNameEN":null,"BuildingNameTC":null,"BaseHeight":16.100000000000001,"TopHeight":20.600000000000001,"Storeys":null,"StoreysInBasement":null,"DateStamp":1710345600000}},{"type":"Feature","id":331804,"geometry":{"type":"Polygon","coordinates":[[[114.16543198072316,22.44518674749196],[114.16540082025462,22.445200870904486],[114.16536480418311,22.445135809523293],[114.16539760342091,22.445120397407294],[114.16543198072316,22.44518674749196]]]},"properties":{"OBJECTID":331804,"Shape__Length":23.609348398977772,"Shape__Area":29.87680675230224,"GeoRefNo":"3508633970","DateCreate":1268323200000,"BuildingBlockType":"Tower","BuildingCSUID":"3508633970T20100312","BuildingID":1109564530,"Status":"Active","BuildingNameEN":null,"BuildingNameTC":null,"BaseHeight":9.1999999999999993,"TopHeight":18.5,"Storeys":null,"StoreysInBasement":null,"DateStamp":1711382400000}},{"type":"Feature","id":331805,"geometry":{"type":"Polygon","coordinates":[[[114.166182345827,22.442991836713798],[114.16616893500547,22.443015829751886],[114.1661438994357,22.443031261146078],[114.16610484824629,22.443014461904653],[114.16612407342001,22.442969072041812],[114.166182345827,22.442991836713798]]]},"properties":{"OBJECTID":331805,"Shape__Length":22.424296005588165,"Shape__Area":32.269528491071107,"GeoRefNo":"3516333732","DateCreate":1210780800000,"BuildingBlockType":"Temporary Structure","BuildingCSUID":"3516333732T20080515","BuildingID":1106130871,"Status":"Active","BuildingNameEN":null,"BuildingNameTC":null,"BaseHeight":null,"TopHeight":null,"Storeys":null,"StoreysInBasement":null,"DateStamp":1710345600000}},{"type":"Feature","id":331806,"geometry":{"type":"Polygon","coordinates":[[[114.16633555622342,22.44303732241903],[114.16630492799948,22.443096533128696],[114.16630179425803,22.443103244269341],[114.16625525267861,22.443080609003921],[114.16629319328939,22.443017074637432],[114.16633555622342,22.44303732241903]]]},"properties":{"OBJECTID":331806,"Shape__Length":26.442892691019328,"Shape__Area":41.447039640023142,"GeoRefNo":"3517933738","DateCreate":1114790400000,"BuildingBlockType":"Tower","BuildingCSUID":"3517933738T20050430","BuildingID":1106130808,"Status":"Active","BuildingNameEN":null,"BuildingNameTC":null,"BaseHeight":12,"TopHeight":16.699999999999999,"Storeys":null,"StoreysInBasement":null,"DateStamp":1710432000000}},{"type":"Feature","id":331807,"geometry":{"type":"Polygon","coordinates":[[[114.16626343448262,22.443000960549703],[114.16622058784357,22.443070574612658],[114.16616893315727,22.443039995254264],[114.16620978801922,22.442971926365409],[114.16626343448262,22.443000960549703]]]},"properties":{"OBJECTID":331807,"Shape__Length":30.20691540135698,"Shape__Area":55.53581352817038,"GeoRefNo":"3517033734","DateCreate":1114790400000,"BuildingBlockType":"Tower","BuildingCSUID":"3517033734T20050430","BuildingID":1106130844,"Status":"Active","BuildingNameEN":null,"BuildingNameTC":null,"BaseHeight":11.699999999999999,"TopHeight":17.800000000000001,"Storeys":null,"StoreysInBasement":null,"DateStamp":1710345600000}},{"type":"Feature","id":331808,"geometry":{"type":"Polygon","coordinates":[[[114.16606252392545,22.443048214661768],[114.16603323232245,22.443084633800396],[114.16597514938627,22.443073683002066],[114.16596869095818,22.443041273251261],[114.16603199631827,22.443034752093165],[114.16606252392545,22.443048214661768]]]},"properties":{"OBJECTID":331808,"Shape__Length":24.820769050670584,"Shape__Area":36.953907503464485,"GeoRefNo":"3515033739","DateCreate":1210780800000,"BuildingBlockType":"Temporary Structure","BuildingCSUID":"3515033739T20080515","BuildingID":1106130827,"Status":"Active","BuildingNameEN":null,"BuildingNameTC":null,"BaseHeight":null,"TopHeight":24.399999999999999,"Storeys":null,"StoreysInBasement":null,"DateStamp":1710345600000}},{"type":"Feature","id":331844,"geometry":{"type":"Polygon","coordinates":[[[114.16420103729813,22.447142369707887],[114.16417694599662,22.447237284825363],[114.1641162589198,22.44722474379931],[114.16414002911522,22.447129530209047],[114.16420103729813,22.447142369707887]]]},"properties":{"OBJECTID":331844,"Shape__Length":34.4611297897439,"Shape__Area":69.39669319661806,"GeoRefNo":"3495834194","DateCreate":1114790400000,"BuildingBlockType":"Tower","BuildingCSUID":"3495834194T20050430","BuildingID":1106128901,"Status":"Active","BuildingNameEN":null,"BuildingNameTC":null,"BaseHeight":13,"TopHeight":22.600000000000001,"Storeys":null,"StoreysInBasement":null,"DateStamp":1711900800000}},{"type":"Feature","id":331847,"geometry":{"type":"Polygon","coordinates":[[[114.16383864207937,22.447044885190504],[114.16382603162461,22.447051413191399],[114.16381353017128,22.44703503094264],[114.1638470414029,22.44702735793944],[114.16383864207937,22.447044885190504]]]},"properties":{"OBJECTID":331847,"Shape__Length":9.3873186978279648,"Shape__Area":4.6227942595784732,"GeoRefNo":"3492534178","DateCreate":1114790400000,"BuildingBlockType":"Tower","BuildingCSUID":"3492534178T20050430","BuildingID":1106128980,"Status":"Active","BuildingNameEN":null,"BuildingNameTC":null,"BaseHeight":16.5,"TopHeight":20.5,"Storeys":null,"StoreysInBasement":null,"DateStamp":1711900800000}},{"type":"Feature","id":331848,"geometry":{"type":"Polygon","coordinates":[[[114.16393378130492,22.447024104723578],[114.16393098571729,22.447037235319531],[114.16394412646723,22.447036296660944],[114.16394587728993,22.447097072196112],[114.16390247325599,22.447097239669905],[114.16390229054348,22.447084417767634],[114.16387911717685,22.447084415908765],[114.16387620020114,22.447038431437605],[114.16385815561436,22.447032955456422],[114.16386612752318,22.447006634044566],[114.16393378130492,22.447024104723578]]]},"properties":{"OBJECTID":331848,"Shape__Length":35.155200340626934,"Shape__Area":60.427693665141128,"GeoRefNo":"3493434179","DateCreate":1114790400000,"BuildingBlockType":"Tower","BuildingCSUID":"3493434179T20050430","BuildingID":1106128963,"Status":"Active","BuildingNameEN":null,"BuildingNameTC":null,"BaseHeight":12.800000000000001,"TopHeight":20.5,"Storeys":null,"StoreysInBasement":null,"DateStamp":1711900800000}},{"type":"Feature","id":331849,"geometry":{"type":"Polygon","coordinates":[[[114.16323798328372,22.446952896662022],[114.16322383606567,22.446977882731044],[114.16323122866318,22.44698180257074],[114.16321782959447,22.447005641834799],[114.1631744259727,22.446983043974665],[114.1631878249344,22.446960351581602],[114.16317598319984,22.44695389380627],[114.1631906927938,22.446929123165184],[114.16323798328372,22.446952896662022]]]},"properties":{"OBJECTID":331849,"Shape__Length":25.049081912030658,"Shape__Area":32.500634754028539,"GeoRefNo":"3486134170","DateCreate":1114790400000,"BuildingBlockType":"Tower","BuildingCSUID":"3486134170T20050430","BuildingID":1106129004,"Status":"Active","BuildingNameEN":null,"BuildingNameTC":null,"BaseHeight":45.200000000000003,"TopHeight":51.600000000000001,"Storeys":null,"StoreysInBasement":null,"DateStamp":1712419200000}},{"type":"Feature","id":331851,"geometry":{"type":"Polygon","coordinates":[[[114.16326520537609,22.447040756224141],[114.16319639196283,22.447049606045638],[114.16318602029432,22.447029976487361],[114.16317288766635,22.44700647425605],[114.1631744259727,22.446983043974665],[114.16321782959447,22.447005641834799],[114.16323122866318,22.44698180257074],[114.16322383606567,22.446977882731044],[114.16323798328372,22.446952896662022],[114.1631906927938,22.446929123165184],[114.16320970653554,22.446909291459985],[114.16322072515503,22.446900581796154],[114.16326971334034,22.446927986120368],[114.16326307640612,22.446939594931312],[114.16323928888198,22.446985535445691],[114.16325909927448,22.446994285002994],[114.1632797330752,22.446999271547234],[114.16326520537609,22.447040756224141]]]},"properties":{"OBJECTID":331851,"Shape__Length":59.441718271664001,"Shape__Area":87.310739750370928,"GeoRefNo":"3486434172","DateCreate":1210694400000,"BuildingBlockType":"Temporary Structure","BuildingCSUID":"3486434172T20080514","BuildingID":1106128991,"Status":"Active","BuildingNameEN":null,"BuildingNameTC":null,"BaseHeight":null,"TopHeight":null,"Storeys":null,"StoreysInBasement":null,"DateStamp":1712419200000}},{"type":"Feature","id":331854,"geometry":{"type":"Polygon","coordinates":[[[114.16404776141846,22.447090342229885],[114.16398401589268,22.447063095723035],[114.16398341253633,22.447053266298582],[114.16404867114015,22.447052990635591],[114.16404776141846,22.447090342229885]]]},"properties":{"OBJECTID":331854,"Shape__Length":19.167093031052055,"Shape__Area":17.36822714674333,"GeoRefNo":"3494534180","DateCreate":1210780800000,"BuildingBlockType":"Temporary Structure","BuildingCSUID":"3494534180T20080515","BuildingID":1106128969,"Status":"Active","BuildingNameEN":null,"BuildingNameTC":null,"BaseHeight":null,"TopHeight":null,"Storeys":null,"StoreysInBasement":null,"DateStamp":1707235200000}},{"type":"Feature","id":331859,"geometry":{"type":"Polygon","coordinates":[[[114.16426031908514,22.445903256501079],[114.1641700757488,22.44592501572675],[114.16415762347849,22.445890842699942],[114.16424942407403,22.445865791279807],[114.16426031908514,22.445903256501079]]]},"properties":{"OBJECTID":331859,"Shape__Length":27.738184976953079,"Shape__Area":40.278238389527111,"GeoRefNo":"3496434052","DateCreate":1114790400000,"BuildingBlockType":"Tower","BuildingCSUID":"3496434052T20050430","BuildingID":1106129460,"Status":"Active","BuildingNameEN":null,"BuildingNameTC":null,"BaseHeight":14.5,"TopHeight":20.5,"Storeys":null,"StoreysInBasement":null,"DateStamp":1707062400000}},{"type":"Feature","id":331860,"geometry":{"type":"Polygon","coordinates":[[[114.16445671608716,22.445833546469181],[114.16443203787584,22.445875548736083],[114.16438596084141,22.445854819484307],[114.16438938093177,22.445848125201923],[114.16440354198302,22.445822350850154],[114.16442329127544,22.445831093849481],[114.16442894481858,22.445820719918437],[114.16445671608716,22.445833546469181]]]},"properties":{"OBJECTID":331860,"Shape__Length":21.326003498876045,"Shape__Area":25.611321386791481,"GeoRefNo":"3498634047","DateCreate":1114790400000,"BuildingBlockType":"Tower","BuildingCSUID":"3498634047T20050430","BuildingID":1106129481,"Status":"Active","BuildingNameEN":null,"BuildingNameTC":null,"BaseHeight":9.1999999999999993,"TopHeight":16.600000000000001,"Storeys":null,"StoreysInBasement":null,"DateStamp":1711555200000}},{"type":"Feature","id":331862,"geometry":{"type":"Polygon","coordinates":[[[114.16397025534323,22.44599727515558],[114.1639499636636,22.446006593325858],[114.16386378372913,22.44604475336233],[114.16385137273485,22.446020787076069],[114.16387500725628,22.446003258788728],[114.16394519262924,22.445971088813966],[114.16396166454497,22.445965098874439],[114.16397025534323,22.44599727515558]]]},"properties":{"OBJECTID":331862,"Shape__Length":31.760537120540359,"Shape__Area":45.158760591897156,"GeoRefNo":"3493434064","DateCreate":1114790400000,"BuildingBlockType":"Tower","BuildingCSUID":"3493434064T20050430","BuildingID":1106129384,"Status":"Active","BuildingNameEN":null,"BuildingNameTC":null,"BaseHeight":17,"TopHeight":21.300000000000001,"Storeys":null,"StoreysInBasement":null,"DateStamp":1711555200000}},{"type":"Feature","id":331863,"geometry":{"type":"Polygon","coordinates":[[[114.16387500725628,22.446003258788728],[114.16385137273485,22.446020787076069],[114.16386378372913,22.44604475336233],[114.16384110492511,22.446054071326966],[114.16383012274508,22.446066940734802],[114.16381054929069,22.446054068863745],[114.16379953670481,22.446039873907907],[114.16382316586845,22.446009072938221],[114.16386832560725,22.445977517847432],[114.16387596494474,22.445972858476143],[114.16388145489545,22.445978628383351],[114.16389506239048,22.445970862923826],[114.16391869456041,22.445977521886729],[114.16394256712148,22.445966872556397],[114.16394519262924,22.445971088813966],[114.16387500725628,22.446003258788728]]]},"properties":{"OBJECTID":331863,"Shape__Length":42.139125445513514,"Shape__Area":47.986688398658607,"GeoRefNo":"3492934062","DateCreate":1210694400000,"BuildingBlockType":"Temporary Structure","BuildingCSUID":"3492934062T20080514","BuildingID":1106129405,"Status":"Active","BuildingNameEN":null,"BuildingNameTC":null,"BaseHeight":null,"TopHeight":null,"Storeys":null,"StoreysInBasement":null,"DateStamp":1712419200000}},{"type":"Feature","id":331864,"geometry":{"type":"Polygon","coordinates":[[[114.16398108353319,22.446067584871191],[114.16387454701496,22.446115672544725],[114.16384110492511,22.446054071326966],[114.16386378372913,22.44604475336233],[114.1639499636636,22.446006593325858],[114.16398108353319,22.446067584871191]]]},"properties":{"OBJECTID":331864,"Shape__Length":39.685396850690317,"Shape__Area":92.475475967008521,"GeoRefNo":"3493534069","DateCreate":1114790400000,"BuildingBlockType":"Tower","BuildingCSUID":"3493534069T20050430","BuildingID":1106129352,"Status":"Active","BuildingNameEN":null,"BuildingNameTC":null,"BaseHeight":18.199999999999999,"TopHeight":23.899999999999999,"Storeys":null,"StoreysInBasement":null,"DateStamp":1711555200000}},{"type":"Feature","id":331865,"geometry":{"type":"Polygon","coordinates":[[[114.16434104661577,22.445867283638105],[114.16434893651564,22.445903394684787],[114.16427665845598,22.44591791961788],[114.16426443622616,22.445868428619931],[114.16433764299704,22.445852752832845],[114.16434104661577,22.445867283638105]]]},"properties":{"OBJECTID":331865,"Shape__Length":26.695145158643065,"Shape__Area":43.584795527235357,"GeoRefNo":"3497434050","DateCreate":1114790400000,"BuildingBlockType":"Tower","BuildingCSUID":"3497434050T20050430","BuildingID":1106129465,"Status":"Active","BuildingNameEN":null,"BuildingNameTC":null,"BaseHeight":14.300000000000001,"TopHeight":19.300000000000001,"Storeys":null,"StoreysInBasement":null,"DateStamp":1712419200000}},{"type":"Feature","id":331907,"geometry":{"type":"Polygon","coordinates":[[[114.16621077927927,22.445258348483176],[114.16618637659865,22.445284145347586],[114.16613745311277,22.445245398392295],[114.16616014273316,22.445220508350381],[114.16621077927927,22.445258348483176]]]},"properties":{"OBJECTID":331907,"Shape__Length":20.720563576497796,"Shape__Area":24.658703084495798,"GeoRefNo":"3516633980","DateCreate":1210780800000,"BuildingBlockType":"Temporary Structure","BuildingCSUID":"3516633980T20080515","BuildingID":1106129821,"Status":"Active","BuildingNameEN":null,"BuildingNameTC":null,"BaseHeight":null,"TopHeight":null,"Storeys":null,"StoreysInBasement":null,"DateStamp":1712419200000}},{"type":"Feature","id":331910,"geometry":{"type":"Polygon","coordinates":[[[114.16282153609843,22.445135689993656],[114.16282744303844,22.445111338802509],[114.16271270987538,22.445087569135982],[114.16272748381239,22.445028699360208],[114.16280969971422,22.44504586628609],[114.16281873173101,22.445007403114047],[114.1628328079635,22.445010853969563],[114.16285266364569,22.444925283103473],[114.16289587364186,22.444934272143716],[114.1628856981489,22.444976488639739],[114.16292988943704,22.444984565679718],[114.16290110230271,22.445107079372956],[114.16289369010727,22.445105931865093],[114.16288425296399,22.445147687870747],[114.16288203742894,22.445153530383191],[114.16287889909343,22.445158415587652],[114.16287481849726,22.445162650517819],[114.16286994137531,22.445166090698972],[114.16286445232042,22.445168600690206],[114.16285855534946,22.445170099235042],[114.16285245447659,22.445170532168376],[114.16284637314268,22.445169872418212],[114.1628400296398,22.445167939351002],[114.16283470626723,22.445165139448431],[114.16283045156496,22.445161806841611],[114.16282655641184,22.445157426733196],[114.16282385618102,22.445152902241148],[114.16282190406899,22.445147510890411],[114.16282107893883,22.445141352048868],[114.16282153609843,22.445135689993656]]]},"properties":{"OBJECTID":331910,"Shape__Length":89.286420940730906,"Shape__Area":274.51390180941746,"GeoRefNo":"3482233960","DateCreate":1114790400000,"BuildingBlockType":"Tower","BuildingCSUID":"3482233960T20050430","BuildingID":1106129877,"Status":"Active","BuildingNameEN":null,"BuildingNameTC":"漢家華園","BaseHeight":50.600000000000001,"TopHeight":59.399999999999999,"Storeys":null,"StoreysInBasement":null,"DateStamp":1712160000000}},{"type":"Feature","id":331911,"geometry":{"type":"Polygon","coordinates":[[[114.1654740384934,22.445265125049364],[114.16543766955721,22.445280594181607],[114.1654040148053,22.44521191320921],[114.16543995642843,22.445197012431034],[114.1654740384934,22.445265125049364]]]},"properties":{"OBJECTID":331911,"Shape__Length":24.8438581444771,"Shape__Area":34.050586177263654,"GeoRefNo":"3509133981","DateCreate":1114790400000,"BuildingBlockType":"Tower","BuildingCSUID":"3509133981T20050430","BuildingID":1106129820,"Status":"Active","BuildingNameEN":null,"BuildingNameTC":null,"BaseHeight":8.0999999999999996,"TopHeight":18.600000000000001,"Storeys":null,"StoreysInBasement":null,"DateStamp":1711382400000}},{"type":"Feature","id":331912,"geometry":{"type":"Polygon","coordinates":[[[114.16559303165711,22.445119353312439],[114.16556735830318,22.445130704428664],[114.1655319708192,22.445060731012294],[114.16555864116285,22.445049611602435],[114.16559303165711,22.445119353312439]]]},"properties":{"OBJECTID":331912,"Shape__Length":22.993049217844177,"Shape__Area":25.308757092853465,"GeoRefNo":"3510533963","DateCreate":1114790400000,"BuildingBlockType":"Tower","BuildingCSUID":"3510533963T20050430","BuildingID":1106129892,"Status":"Active","BuildingNameEN":null,"BuildingNameTC":null,"BaseHeight":8.6999999999999993,"TopHeight":17.899999999999999,"Storeys":null,"StoreysInBasement":null,"DateStamp":1711382400000}},{"type":"Feature","id":331934,"geometry":{"type":"Polygon","coordinates":[[[114.16557511015264,22.444513396082161],[114.16556731617109,22.444513572264146],[114.16556744314998,22.444509861388074],[114.16555977584765,22.444510037578578],[114.1655593958258,22.444507445811379],[114.16555553048256,22.444507209936692],[114.1655551505627,22.444504559200642],[114.16554378371521,22.444494089489353],[114.16553657091153,22.444473308642866],[114.16553745685505,22.444437735032601],[114.16559137491338,22.444437410541159],[114.16559221963895,22.444483943271507],[114.16559676697536,22.444483863759004],[114.16559753728724,22.444505099198945],[114.16557511015264,22.444513396082161]]]},"properties":{"OBJECTID":331934,"Shape__Length":27.002870932109662,"Shape__Area":43.451978150393018,"GeoRefNo":"3510433894","DateCreate":1210780800000,"BuildingBlockType":"Temporary Structure","BuildingCSUID":"3510433894T20080515","BuildingID":1106130120,"Status":"Active","BuildingNameEN":null,"BuildingNameTC":null,"BaseHeight":null,"TopHeight":null,"Storeys":null,"StoreysInBasement":null,"DateStamp":1710691200000}},{"type":"Feature","id":331935,"geometry":{"type":"Polygon","coordinates":[[[114.16614773977794,22.444480305350957],[114.16616414039792,22.444482077489134],[114.16615862825738,22.444530931796809],[114.16612117153463,22.444527600237087],[114.16612370311699,22.44450809272556],[114.1661275844736,22.444478182941573],[114.16614773977794,22.444480305350957]]]},"properties":{"OBJECTID":331935,"Shape__Length":18.612498388686952,"Shape__Area":20.977763220862595,"GeoRefNo":"3516333898","DateCreate":1114790400000,"BuildingBlockType":"Tower","BuildingCSUID":"3516333898T20050430","BuildingID":1106130111,"Status":"Active","BuildingNameEN":null,"BuildingNameTC":null,"BaseHeight":8,"TopHeight":10.4,"Storeys":null,"StoreysInBasement":null,"DateStamp":1710604800000}},{"type":"Feature","id":331936,"geometry":{"type":"Polygon","coordinates":[[[114.16569652187981,22.444409269452137],[114.16562272852889,22.444420678837471],[114.16561690648577,22.444393608288571],[114.16561520249489,22.444385685300162],[114.16565900779715,22.444377934790829],[114.16566054953697,22.444383669236718],[114.16569115209002,22.444379134452102],[114.16569652187981,22.444409269452137]]]},"properties":{"OBJECTID":331936,"Shape__Length":23.46932058990085,"Shape__Area":29.131533653942601,"GeoRefNo":"3511233886","DateCreate":1114790400000,"BuildingBlockType":"Tower","BuildingCSUID":"3511233886T20050430","BuildingID":1106130165,"Status":"Active","BuildingNameEN":null,"BuildingNameTC":null,"BaseHeight":13.699999999999999,"TopHeight":17.300000000000001,"Storeys":null,"StoreysInBasement":null,"DateStamp":1712419200000}},{"type":"Feature","id":332028,"geometry":{"type":"Polygon","coordinates":[[[114.16404867114015,22.447052990635591],[114.16398341253633,22.447053266298582],[114.16398311687648,22.446983056314274],[114.16402994594284,22.446982779190002],[114.16399006714373,22.446967329883343],[114.16402874595038,22.446890944541032],[114.16410608531636,22.446935604170484],[114.16406344555132,22.446995673718607],[114.16404810698272,22.446987499854213],[114.16404867114015,22.447052990635591]]]},"properties":{"OBJECTID":332028,"Shape__Length":59.522657458782788,"Shape__Area":126.75578046189229,"GeoRefNo":"3494634169","DateCreate":1114790400000,"BuildingBlockType":"Tower","BuildingCSUID":"3494634169T20050430","BuildingID":1106128985,"Status":"Active","BuildingNameEN":null,"BuildingNameTC":null,"BaseHeight":9.5,"TopHeight":14.6,"Storeys":null,"StoreysInBasement":null,"DateStamp":1707235200000}},{"type":"Feature","id":332084,"geometry":{"type":"Polygon","coordinates":[[[114.1662846537827,22.445173381269342],[114.16621077927927,22.445258348483176],[114.16616014273316,22.445220508350381],[114.1662339747312,22.445135091349606],[114.1662846537827,22.445173381269342]]]},"properties":{"OBJECTID":332084,"Shape__Length":37.641929620564873,"Shape__Area":81.238133873032069,"GeoRefNo":"3517133974","DateCreate":1114790400000,"BuildingBlockType":"Tower","BuildingCSUID":"3517133974T20050430","BuildingID":1106129834,"Status":"Active","BuildingNameEN":null,"BuildingNameTC":null,"BaseHeight":6.0999999999999996,"TopHeight":9.8000000000000007,"Storeys":null,"StoreysInBasement":null,"DateStamp":1712419200000}},{"type":"Feature","id":332086,"geometry":{"type":"Polygon","coordinates":[[[114.16549506896303,22.445160212876878],[114.16546498304535,22.4451731949279],[114.16542630789256,22.445107557952255],[114.16545992430876,22.445093434707779],[114.16549506896303,22.445160212876878]]]},"properties":{"OBJECTID":332086,"Shape__Length":23.73126598207546,"Shape__Area":29.739790396115183,"GeoRefNo":"3509433967","DateCreate":1114790400000,"BuildingBlockType":"Tower","BuildingCSUID":"3509433967T20050430","BuildingID":1106129873,"Status":"Active","BuildingNameEN":null,"BuildingNameTC":null,"BaseHeight":9.3000000000000007,"TopHeight":18.5,"Storeys":null,"StoreysInBasement":null,"DateStamp":1711382400000}},{"type":"Feature","id":332087,"geometry":{"type":"Polygon","coordinates":[[[114.16546923306969,22.444862828887796],[114.16536018131512,22.444908368616851],[114.16533513755645,22.444856507822298],[114.16536401466125,22.44484421762246],[114.1653673482877,22.444850866802643],[114.16538489603002,22.444843418284673],[114.1653831785994,22.444839545813476],[114.16544498066555,22.444812982679579],[114.16546923306969,22.444862828887796]]]},"properties":{"OBJECTID":332087,"Shape__Length":38.199237248557537,"Shape__Area":73.955308427381397,"GeoRefNo":"3508933938","DateCreate":1114790400000,"BuildingBlockType":"Tower","BuildingCSUID":"3508933938T20050430","BuildingID":1106129999,"Status":"Active","BuildingNameEN":null,"BuildingNameTC":null,"BaseHeight":11.300000000000001,"TopHeight":20.699999999999999,"Storeys":null,"StoreysInBasement":null,"DateStamp":1707926400000}},{"type":"Feature","id":332088,"geometry":{"type":"Polygon","coordinates":[[[114.16529930373655,22.444852729360711],[114.16528379010803,22.444905180834677],[114.16525059995948,22.44489639796382],[114.16526670594833,22.444844572978113],[114.16529930373655,22.444852729360711]]]},"properties":{"OBJECTID":332088,"Shape__Length":19.024591639825008,"Shape__Area":21.075798761892202,"GeoRefNo":"3507433939","DateCreate":1210780800000,"BuildingBlockType":"Temporary Structure","BuildingCSUID":"3507433939T20080515","BuildingID":1106130004,"Status":"Active","BuildingNameEN":null,"BuildingNameTC":null,"BaseHeight":null,"TopHeight":null,"Storeys":null,"StoreysInBasement":null,"DateStamp":1707926400000}},{"type":"Feature","id":332089,"geometry":{"type":"Polygon","coordinates":[[[114.16524179931925,22.444922305254881],[114.16520719736629,22.44496673910432],[114.16518895565615,22.444954688272659],[114.16518153257739,22.444949958668296],[114.16521615935076,22.444906163459816],[114.16524179931925,22.444922305254881]]]},"properties":{"OBJECTID":332089,"Shape__Length":18.510646420939217,"Shape__Area":19.376309765968287,"GeoRefNo":"3506733945","DateCreate":1114790400000,"BuildingBlockType":"Tower","BuildingCSUID":"3506733945T20050430","BuildingID":1106129975,"Status":"Active","BuildingNameEN":null,"BuildingNameTC":null,"BaseHeight":12.199999999999999,"TopHeight":16.199999999999999,"Storeys":null,"StoreysInBasement":null,"DateStamp":1707926400000}},{"type":"Feature","id":332176,"geometry":{"type":"Polygon","coordinates":[[[114.16290626040997,22.443577138008081],[114.16285856920958,22.443583602942745],[114.16284956690866,22.443547641802908],[114.162899919815,22.443532234601175],[114.16290626040997,22.443577138008081]]]},"properties":{"OBJECTID":332176,"Shape__Length":19.521670797163427,"Shape__Area":23.549939017264908,"GeoRefNo":"3482733793","DateCreate":1210694400000,"BuildingBlockType":"Temporary Structure","BuildingCSUID":"3482733793T20080514","BuildingID":1106130541,"Status":"Active","BuildingNameEN":null,"BuildingNameTC":null,"BaseHeight":null,"TopHeight":null,"Storeys":null,"StoreysInBasement":null,"DateStamp":1712246400000}},{"type":"Feature","id":332179,"geometry":{"type":"Polygon","coordinates":[[[114.16672087562844,22.44356624452206],[114.16666839708161,22.443571162823183],[114.16666195060559,22.443516212090522],[114.16671625550731,22.443510824322253],[114.16672087562844,22.44356624452206]]]},"properties":{"OBJECTID":332179,"Shape__Length":23.32776434978183,"Shape__Area":33.911526001219244,"GeoRefNo":"3521933791","DateCreate":1114790400000,"BuildingBlockType":"Tower","BuildingCSUID":"3521933791T20050430","BuildingID":1106130548,"Status":"Active","BuildingNameEN":null,"BuildingNameTC":null,"BaseHeight":14.5,"TopHeight":18.699999999999999,"Storeys":null,"StoreysInBasement":null,"DateStamp":1706976000000}},{"type":"Feature","id":332191,"geometry":{"type":"Polygon","coordinates":[[[114.16621938523303,22.443619943527551],[114.16615609201885,22.443671282822891],[114.1661262536736,22.443626678971277],[114.16613444609891,22.443620152391254],[114.1661224520488,22.443604105829472],[114.16614330313814,22.443586498725701],[114.16617616512941,22.443618613201711],[114.1662191258546,22.443581645345745],[114.16618650674468,22.443549296102521],[114.16619495898927,22.443542000051348],[114.16624643264262,22.443593675707397],[114.16621938523303,22.443619943527551]]]},"properties":{"OBJECTID":332191,"Shape__Length":49.494279867382716,"Shape__Area":62.504358767293482,"GeoRefNo":"3517133795","DateCreate":1210780800000,"BuildingBlockType":"Temporary Structure","BuildingCSUID":"3517133795T20080515","BuildingID":1106130516,"Status":"Active","BuildingNameEN":null,"BuildingNameTC":null,"BaseHeight":29.800000000000001,"TopHeight":32.799999999999997,"Storeys":null,"StoreysInBasement":null,"DateStamp":1710345600000}},{"type":"Feature","id":332196,"geometry":{"type":"Polygon","coordinates":[[[114.1642702269196,22.447024961531028],[114.16423115191412,22.447071540446487],[114.16422171873025,22.447082143627689],[114.16416020308638,22.447037052649073],[114.1642087113824,22.446979870570615],[114.1642702269196,22.447024961531028]]]},"properties":{"OBJECTID":332196,"Shape__Length":32.256524694812313,"Shape__Area":65.171033678451423,"GeoRefNo":"3496534177","DateCreate":1289404800000,"BuildingBlockType":"Tower","BuildingCSUID":"3496534177T20101111","BuildingID":1810022162,"Status":"Active","BuildingNameEN":null,"BuildingNameTC":null,"BaseHeight":7.4000000000000004,"TopHeight":15.6,"Storeys":null,"StoreysInBasement":null,"DateStamp":1707235200000}},{"type":"Feature","id":332197,"geometry":{"type":"Polygon","coordinates":[[[114.16573598511214,22.444803279143233],[114.16571424782414,22.444830470874759],[114.16570221791279,22.444835807044086],[114.1656924091553,22.444816931000762],[114.16566709209528,22.444762865813864],[114.16569497971525,22.444750541892883],[114.16573598511214,22.444803279143233]]]},"properties":{"OBJECTID":332197,"Shape__Length":24.358703594707066,"Shape__Area":33.314378508063413,"GeoRefNo":"3511733929","DateCreate":1323792000000,"BuildingBlockType":"Temporary Structure","BuildingCSUID":"3511733929T20111214","BuildingID":1810076746,"Status":"Active","BuildingNameEN":null,"BuildingNameTC":null,"BaseHeight":null,"TopHeight":null,"Storeys":null,"StoreysInBasement":null,"DateStamp":1707926400000}},{"type":"Feature","id":332198,"geometry":{"type":"Polygon","coordinates":[[[114.16577347384367,22.445610197337626],[114.16572291560772,22.44563063998573],[114.16571029728766,22.445605735381989],[114.16576176982447,22.445584597184638],[114.16577347384367,22.445610197337626]]]},"properties":{"OBJECTID":332198,"Shape__Length":17.596407793050176,"Shape__Area":17.56666899546596,"GeoRefNo":"3512234020","DateCreate":1351440000000,"BuildingBlockType":"Open-sided Structure","BuildingCSUID":"3512234020T20121029","BuildingID":1810090994,"Status":"Active","BuildingNameEN":null,"BuildingNameTC":null,"BaseHeight":null,"TopHeight":null,"Storeys":null,"StoreysInBasement":null,"DateStamp":1711382400000}},{"type":"Feature","id":332230,"geometry":{"type":"Polygon","coordinates":[[[114.16328990101425,22.446734087926405],[114.16331323999979,22.44674570178152],[114.16330962335358,22.446750896246296],[114.16331217714928,22.446753236792418],[114.16330863632911,22.446759910632281],[114.16331382580282,22.446763733115912],[114.1633045753335,22.446777052709653],[114.16325100047946,22.446743316397963],[114.1632568632478,22.446734543535751],[114.16322727742759,22.446733165886322],[114.16315364238991,22.446720478285979],[114.16314591738737,22.446718338587552],[114.16314772722428,22.446699851417808],[114.16315545310243,22.446694046123969],[114.16316137301837,22.446666239243072],[114.16319766297363,22.446663993369977],[114.16319834579562,22.446654379968958],[114.16316186734795,22.446652946729472],[114.1631636780657,22.446625445090625],[114.16315611726279,22.44662513885941],[114.16315584778617,22.446590357415623],[114.16316647555304,22.446592595881746],[114.16326542260016,22.446608494216964],[114.1632581856672,22.446658302424897],[114.16331275424012,22.44666976610932],[114.16330239433233,22.446719268556915],[114.16329286126083,22.446717587099677],[114.16328990101425,22.446734087926405]]]},"properties":{"OBJECTID":332230,"Shape__Length":80.119061482635544,"Shape__Area":201.55997699664678,"GeoRefNo":"3486334138","DateCreate":1210780800000,"BuildingBlockType":"Temporary Structure","BuildingCSUID":"3486334138T20080515","BuildingID":1106129102,"Status":"Active","BuildingNameEN":null,"BuildingNameTC":null,"BaseHeight":null,"TopHeight":null,"Storeys":null,"StoreysInBasement":null,"DateStamp":1712419200000}},{"type":"Feature","id":332231,"geometry":{"type":"Polygon","coordinates":[[[114.16406979988874,22.446803948685179],[114.16400332330811,22.446882892053726],[114.16395636600087,22.446859397487231],[114.16395747164127,22.446851010452399],[114.16397938647971,22.446823967981114],[114.16397110086506,22.446818147645679],[114.16401640341947,22.446766801478503],[114.16406979988874,22.446803948685179]]]},"properties":{"OBJECTID":332231,"Shape__Length":36.563597048785013,"Shape__Area":75.697948700841124,"GeoRefNo":"3494434155","DateCreate":1114790400000,"BuildingBlockType":"Tower","BuildingCSUID":"3494434155T20050430","BuildingID":1106129054,"Status":"Active","BuildingNameEN":null,"BuildingNameTC":null,"BaseHeight":13.4,"TopHeight":18.100000000000001,"Storeys":null,"StoreysInBasement":null,"DateStamp":1711900800000}},{"type":"Feature","id":332235,"geometry":{"type":"Polygon","coordinates":[[[114.16394516364785,22.446745967696941],[114.16392879201513,22.44676956296108],[114.16386984218467,22.4467506138812],[114.16388009626174,22.446725502912326],[114.16391628232182,22.446737404518306],[114.16392498888966,22.446714702657125],[114.16394991630855,22.44672302169635],[114.16394516364785,22.446745967696941]]]},"properties":{"OBJECTID":332235,"Shape__Length":24.437997174710347,"Shape__Area":27.657804477535727,"GeoRefNo":"3493234145","DateCreate":1210694400000,"BuildingBlockType":"Temporary Structure","BuildingCSUID":"3493234145T20080514","BuildingID":1106129096,"Status":"Active","BuildingNameEN":null,"BuildingNameTC":null,"BaseHeight":null,"TopHeight":null,"Storeys":null,"StoreysInBasement":null,"DateStamp":1711814400000}},{"type":"Feature","id":332236,"geometry":{"type":"Polygon","coordinates":[[[114.16414744491803,22.446918300565574],[114.16414143549949,22.446915386507797],[114.16406500334868,22.446861740131553],[114.16408792456423,22.446832147615709],[114.16414143050085,22.446867849212239],[114.16418324578333,22.446837880424184],[114.1642192266799,22.446868496475187],[114.16418504636063,22.446902827579709],[114.16416783753652,22.446889958557435],[114.16414744491803,22.446918300565574]]]},"properties":{"OBJECTID":332236,"Shape__Length":43.05927065928411,"Shape__Area":71.87962317496671,"GeoRefNo":"3495534160","DateCreate":1114790400000,"BuildingBlockType":"Tower","BuildingCSUID":"3495534160T20050430","BuildingID":1106129043,"Status":"Active","BuildingNameEN":null,"BuildingNameTC":null,"BaseHeight":7.5999999999999996,"TopHeight":15.4,"Storeys":null,"StoreysInBasement":null,"DateStamp":1707235200000}},{"type":"Feature","id":332237,"geometry":{"type":"Polygon","coordinates":[[[114.16357243441058,22.446594777739673],[114.16356814895725,22.446625046471755],[114.16361240028219,22.446630859574544],[114.16360545674003,22.446668610180954],[114.16361188260163,22.446669566400427],[114.16359750991923,22.44674246282878],[114.16359388304116,22.44674196107017],[114.16357794840548,22.44672380105683],[114.1635821315717,22.446693439393112],[114.16354902856442,22.446688460078931],[114.16353769733217,22.446681160282257],[114.16353811293949,22.446666812642952],[114.16351575094195,22.446663585211393],[114.16352655359476,22.446589397953261],[114.16357243441058,22.446594777739673]]]},"properties":{"OBJECTID":332237,"Shape__Length":49.300912774091536,"Shape__Area":89.881500347559509,"GeoRefNo":"3489834135","DateCreate":1114790400000,"BuildingBlockType":"Tower","BuildingCSUID":"3489834135T20050430","BuildingID":1106129105,"Status":"Active","BuildingNameEN":null,"BuildingNameTC":null,"BaseHeight":28.600000000000001,"TopHeight":37.5,"Storeys":null,"StoreysInBasement":null,"DateStamp":1712678400000}},{"type":"Feature","id":332238,"geometry":{"type":"Polygon","coordinates":[[[114.16414143549949,22.446915386507797],[114.16412058667261,22.446941502921586],[114.16404052860517,22.446892630558104],[114.16406500334868,22.446861740131553],[114.16414143549949,22.446915386507797]]]},"properties":{"OBJECTID":332238,"Shape__Length":27.567145729894662,"Shape__Area":38.663093182853338,"GeoRefNo":"3495234163","DateCreate":1114790400000,"BuildingBlockType":"Tower","BuildingCSUID":"3495234163T20050430","BuildingID":1106129028,"Status":"Active","BuildingNameEN":null,"BuildingNameTC":null,"BaseHeight":9.4000000000000004,"TopHeight":15.5,"Storeys":null,"StoreysInBasement":null,"DateStamp":1707235200000}},{"type":"Feature","id":332267,"geometry":{"type":"Polygon","coordinates":[[[114.16583027219991,22.445556797193206],[114.16576176982447,22.445584597184638],[114.16574686076564,22.445553636062133],[114.16581496587303,22.445524870242711],[114.16583027219991,22.445556797193206]]]},"properties":{"OBJECTID":332267,"Shape__Length":23.021363433424103,"Shape__Area":29.352363243425419,"GeoRefNo":"3512734014","DateCreate":1716480000000,"BuildingBlockType":"Tower","BuildingCSUID":"3512734014T20240524","BuildingID":1106129625,"Status":"Active","BuildingNameEN":null,"BuildingNameTC":null,"BaseHeight":5.9000000000000004,"TopHeight":16.800000000000001,"Storeys":null,"StoreysInBasement":null,"DateStamp":1716480000000}},{"type":"Feature","id":332269,"geometry":{"type":"Polygon","coordinates":[[[114.16497317141646,22.445453549442487],[114.1649462608916,22.445484118077786],[114.16485581404579,22.4454128622802],[114.16488322947305,22.445382028201756],[114.16497317141646,22.445453549442487]]]},"properties":{"OBJECTID":332269,"Shape__Length":33.191687975975704,"Shape__Area":53.668150587028961,"GeoRefNo":"3503333998","DateCreate":1114790400000,"BuildingBlockType":"Tower","BuildingCSUID":"3503333998T20050430","BuildingID":1106129689,"Status":"Active","BuildingNameEN":null,"BuildingNameTC":null,"BaseHeight":11.6,"TopHeight":20.600000000000001,"Storeys":null,"StoreysInBasement":null,"DateStamp":1711555200000}}]}