{"type":"FeatureCollection","features":[{"type":"Feature","id":156032,"geometry":{"type":"Polygon","coordinates":[[[114.16740532162069,22.447805985099912],[114.16732375434511,22.44765039737031],[114.16737425340534,22.447627449084994],[114.1674155085858,22.447704761195727],[114.16742591869885,22.447724269565356],[114.16745695808505,22.447782437233656],[114.16740532162069,22.447805985099912]]]},"properties":{"OBJECTID":156032,"Shape__Length":50.03078691009776,"Shape__Area":112.15940054665768,"GeoRefNo":"3529134251","DateCreate":1114790400000,"BuildingBlockType":"Tower","BuildingCSUID":"3529134251T20050430","BuildingID":1106128577,"Status":"Active","BuildingNameEN":"Po Wah Building","BuildingNameTC":"寶華樓","BaseHeight":4.7999999999999998,"TopHeight":25.300000000000001,"Storeys":6,"StoreysInBasement":null,"DateStamp":1599580800000}},{"type":"Feature","id":156040,"geometry":{"type":"Polygon","coordinates":[[[114.16594375213984,22.447831278384427],[114.16591933498724,22.447784886221427],[114.16595653741057,22.447767775847623],[114.16596595972246,22.447763442317381],[114.16597779043805,22.447758001092843],[114.16598819573503,22.447753215382424],[114.16601696979765,22.447739981381279],[114.16604172887145,22.447787241288712],[114.16601317273711,22.447800076253156],[114.16600136398536,22.447805383921338],[114.16598170756903,22.447814218716573],[114.16596438882688,22.447822002973854],[114.16594375213984,22.447831278384427]]]},"properties":{"OBJECTID":156040,"Shape__Length":33.955396030148343,"Shape__Area":64.668054168261932,"GeoRefNo":"3514834260","DateCreate":1114790400000,"BuildingBlockType":"Tower","BuildingCSUID":"3514834260T20050430","BuildingID":1106128567,"Status":"Active","BuildingNameEN":"Wah Lok Building","BuildingNameTC":"華樂樓","BaseHeight":4.7999999999999998,"TopHeight":27.300000000000001,"Storeys":7,"StoreysInBasement":null,"DateStamp":1599580800000}},{"type":"Feature","id":156202,"geometry":{"type":"Polygon","coordinates":[[[114.16560599561923,22.449540366243834],[114.16552207017079,22.449378532827012],[114.16557202743464,22.44935607045948],[114.1655963262733,22.449403050901321],[114.16561786084003,22.449443791557893],[114.16559295525883,22.449454973404258],[114.16563393649766,22.449533703714202],[114.16560599561923,22.449540366243834]]]},"properties":{"OBJECTID":156202,"Shape__Length":51.907119157821484,"Shape__Area":88.997327858487921,"GeoRefNo":"3510434440","DateCreate":1114790400000,"BuildingBlockType":"Tower","BuildingCSUID":"3510434440T20050430","BuildingID":1106127233,"Status":"Active","BuildingNameEN":null,"BuildingNameTC":null,"BaseHeight":4.2000000000000002,"TopHeight":16.699999999999999,"Storeys":null,"StoreysInBasement":null,"DateStamp":1362067200000}},{"type":"Feature","id":156260,"geometry":{"type":"Polygon","coordinates":[[[114.16597069723328,22.447882473830191],[114.1660063800832,22.447866497115935],[114.16602045938281,22.447860193179622],[114.16602867632261,22.447856514092074],[114.16603900029899,22.44785189155326],[114.16606864483369,22.447838618409154],[114.16606865357579,22.447838635025757],[114.16608918276555,22.447877820967996],[114.16608306088219,22.447897344396129],[114.1659786318843,22.447944620847011],[114.16595942839639,22.447908091378018],[114.16597924749641,22.447898719104092],[114.16597069723328,22.447882473830191]]]},"properties":{"OBJECTID":156260,"Shape__Length":39.021674950013029,"Shape__Area":82.023526670327229,"GeoRefNo":"3515334271","DateCreate":1114790400000,"BuildingBlockType":"Tower","BuildingCSUID":"3515334271T20050430","BuildingID":1106128494,"Status":"Active","BuildingNameEN":"WAH LOK BUILDING","BuildingNameTC":"華樂樓","BaseHeight":4.7000000000000002,"TopHeight":27.300000000000001,"Storeys":7,"StoreysInBasement":null,"DateStamp":1599580800000}},{"type":"Feature","id":156261,"geometry":{"type":"Polygon","coordinates":[[[114.16475056880572,22.447988963367894],[114.16465807523058,22.447966967265572],[114.16466433410372,22.447938521816155],[114.16475807144548,22.447957303167392],[114.16475056880572,22.447988963367894]]]},"properties":{"OBJECTID":156261,"Shape__Length":26.503023332739097,"Shape__Area":33.496836005204948,"GeoRefNo":"3501834281","DateCreate":1114790400000,"BuildingBlockType":"Tower","BuildingCSUID":"3501834281T20050430","BuildingID":1106128471,"Status":"Active","BuildingNameEN":null,"BuildingNameTC":null,"BaseHeight":7.2000000000000002,"TopHeight":14.5,"Storeys":null,"StoreysInBasement":null,"DateStamp":1362067200000}},{"type":"Feature","id":156273,"geometry":{"type":"Polygon","coordinates":[[[114.16610925010217,22.449585350359225],[114.16614650462664,22.44972587935786],[114.16612102168763,22.449731828733793],[114.16611091079389,22.449700158276087],[114.16609087808591,22.449704735381133],[114.16606070772153,22.449597945053505],[114.16610925010217,22.449585350359225]]]},"properties":{"OBJECTID":156273,"Shape__Length":41.927574136301565,"Shape__Area":72.849509217173861,"GeoRefNo":"3515934465","DateCreate":1114790400000,"BuildingBlockType":"Tower","BuildingCSUID":"3515934465T20050430","BuildingID":1106127085,"Status":"Active","BuildingNameEN":null,"BuildingNameTC":null,"BaseHeight":4.5999999999999996,"TopHeight":22.100000000000001,"Storeys":null,"StoreysInBasement":null,"DateStamp":1362067200000}},{"type":"Feature","id":156278,"geometry":{"type":"Polygon","coordinates":[[[114.16301929498475,22.449187418066362],[114.16303487218357,22.449158840192723],[114.16312413784253,22.449199293020207],[114.16311264315881,22.449221209396409],[114.16304994296927,22.449192795340426],[114.16304600934191,22.449200007534326],[114.16301929498475,22.449187418066362]]]},"properties":{"OBJECTID":156278,"Shape__Length":27.628459967508491,"Shape__Area":30.342614464155805,"GeoRefNo":"3485034417","DateCreate":1114790400000,"BuildingBlockType":"Tower","BuildingCSUID":"3485034417T20050430","BuildingID":1106127391,"Status":"Active","BuildingNameEN":null,"BuildingNameTC":null,"BaseHeight":4.7999999999999998,"TopHeight":7.9000000000000004,"Storeys":null,"StoreysInBasement":null,"DateStamp":1362067200000}},{"type":"Feature","id":156288,"geometry":{"type":"Polygon","coordinates":[[[114.16956837245928,22.447740939606675],[114.16958852884227,22.447779112232375],[114.16958160194362,22.447782769253987],[114.16959462832958,22.447807152058449],[114.16957707312405,22.447815152249699],[114.16954438584523,22.447752136284496],[114.16956837245928,22.447740939606675]]]},"properties":{"OBJECTID":156288,"Shape__Length":21.065904456197863,"Shape__Area":19.182588999707406,"GeoRefNo":"3551534259","DateCreate":1114790400000,"BuildingBlockType":"Tower","BuildingCSUID":"3551534259T20050430","BuildingID":1106128574,"Status":"Active","BuildingNameEN":"MAN SZE CHEUNG YUEN","BuildingNameTC":"萬四長園","BaseHeight":4.2000000000000002,"TopHeight":8,"Storeys":null,"StoreysInBasement":null,"DateStamp":1362067200000}},{"type":"Feature","id":156302,"geometry":{"type":"Polygon","coordinates":[[[114.16949926347706,22.44778668384388],[114.16947299157867,22.447798633095235],[114.16946771054018,22.447801035134887],[114.16946760629702,22.447801082539986],[114.16943019125154,22.447730337984765],[114.16942177797526,22.447733994931301],[114.16940383647606,22.447698811466129],[114.16941101594986,22.447695380225039],[114.16940658158887,22.447686402939169],[114.16939317483163,22.447692602990639],[114.16938791060079,22.447695037538111],[114.16936693337624,22.447655090636136],[114.16935713187951,22.447636425592901],[114.16939834956955,22.44761767847417],[114.16940738374068,22.447613569492976],[114.16941726976393,22.447632196157681],[114.16949761638553,22.447783580544581],[114.16949926347706,22.44778668384388]]]},"properties":{"OBJECTID":156302,"Shape__Length":56.053710874835751,"Shape__Area":96.949878454163425,"GeoRefNo":"3549834246","DateCreate":1114790400000,"BuildingBlockType":"Tower","BuildingCSUID":"3549834246T20050430","BuildingID":1106128579,"Status":"Active","BuildingNameEN":null,"BuildingNameTC":null,"BaseHeight":4.2000000000000002,"TopHeight":14.699999999999999,"Storeys":null,"StoreysInBasement":null,"DateStamp":1362067200000}},{"type":"Feature","id":156397,"geometry":{"type":"Polygon","coordinates":[[[114.16620900759484,22.444265422668369],[114.16618431391429,22.444277566100041],[114.16617195861859,22.444255079450063],[114.16619689438662,22.444244186844585],[114.16620900759484,22.444265422668369]]]},"properties":{"OBJECTID":156397,"Shape__Length":11.169586764737044,"Shape__Area":7.7899679619071982,"GeoRefNo":"3516833870","DateCreate":1210780800000,"BuildingBlockType":"Open-sided Structure","BuildingCSUID":"3516833870T20080515","BuildingID":1106130238,"Status":"Active","BuildingNameEN":null,"BuildingNameTC":null,"BaseHeight":null,"TopHeight":null,"Storeys":null,"StoreysInBasement":null,"DateStamp":1286899200000}},{"type":"Feature","id":156431,"geometry":{"type":"Polygon","coordinates":[[[114.16662973955717,22.445704068799291],[114.1667514198103,22.445647577775329],[114.16679479042122,22.445730206694517],[114.16681055012987,22.445760231856276],[114.1666888698024,22.445816723014314],[114.1666733462461,22.445787147752952],[114.16662973955717,22.445704068799291]]]},"properties":{"OBJECTID":156431,"Shape__Length":55.762385591774873,"Shape__Area":194.3283031837604,"GeoRefNo":"3522334034","DateCreate":1114790400000,"BuildingBlockType":"Tower","BuildingCSUID":"3522334034T20050430","BuildingID":1106129520,"Status":"Active","BuildingNameEN":"TAI PO COMPLEX","BuildingNameTC":"大埔綜合大樓","BaseHeight":18.600000000000001,"TopHeight":22.600000000000001,"Storeys":null,"StoreysInBasement":null,"DateStamp":1286899200000}},{"type":"Feature","id":156434,"geometry":{"type":"Polygon","coordinates":[[[114.17135869120831,22.445512392879778],[114.17136430588731,22.445602546531948],[114.17134106587964,22.445603797182446],[114.17134104295288,22.445603798355634],[114.1713378591142,22.445545467835014],[114.17133612007557,22.445513607520773],[114.17135869120831,22.445512392879778]]]},"properties":{"OBJECTID":156434,"Shape__Length":24.726161803227221,"Shape__Area":23.629507909202335,"GeoRefNo":"3569934014","DateCreate":1207843200000,"BuildingBlockType":"Open-sided Structure","BuildingCSUID":"3569934014T20080411","BuildingID":1106129617,"Status":"Active","BuildingNameEN":"WONG SHIU CHI SECONDARY SCHOOL","BuildingNameTC":"王肇枝中學","BaseHeight":null,"TopHeight":null,"Storeys":null,"StoreysInBasement":null,"DateStamp":1286899200000}},{"type":"Feature","id":156442,"geometry":{"type":"Polygon","coordinates":[[[114.16543863869926,22.448191412933962],[114.16542128984615,22.448159029593793],[114.16540830222803,22.448134787060692],[114.16544860258703,22.448116623441368],[114.16547740269237,22.448172830998885],[114.16543863869926,22.448191412933962]]]},"properties":{"OBJECTID":156442,"Shape__Length":22.998910821082656,"Shape__Area":31.614348759869152,"GeoRefNo":"3509134302","DateCreate":1114790400000,"BuildingBlockType":"Tower","BuildingCSUID":"3509134302T20050430","BuildingID":1106128315,"Status":"Active","BuildingNameEN":"Hung Wan Building","BuildingNameTC":"鴻運大樓","BaseHeight":4.2000000000000002,"TopHeight":25.300000000000001,"Storeys":6,"StoreysInBasement":null,"DateStamp":1599580800000}},{"type":"Feature","id":156443,"geometry":{"type":"Polygon","coordinates":[[[114.16862534126008,22.448175509952652],[114.16857317520046,22.448075949093671],[114.16861924419406,22.448055022833621],[114.16867141222153,22.448154587380568],[114.1686843780351,22.448179333188101],[114.16866134260154,22.448189794522765],[114.16864837669398,22.44816504862311],[114.16862534126008,22.448175509952652]]]},"properties":{"OBJECTID":156443,"Shape__Length":41.178749111544477,"Shape__Area":72.769755518210161,"GeoRefNo":"3541734296","DateCreate":1114790400000,"BuildingBlockType":"Tower","BuildingCSUID":"3541734296T20050430","BuildingID":1106128321,"Status":"Active","BuildingNameEN":null,"BuildingNameTC":null,"BaseHeight":4.7000000000000002,"TopHeight":22.199999999999999,"Storeys":null,"StoreysInBasement":null,"DateStamp":1362067200000}},{"type":"Feature","id":156444,"geometry":{"type":"Polygon","coordinates":[[[114.16535367936594,22.448140013981732],[114.16525763128361,22.448182577297391],[114.16521946754179,22.44810904862171],[114.16538521970492,22.448033177587181],[114.16539605990778,22.448052936983323],[114.1654122455528,22.448045298368207],[114.16542176460156,22.448064235897998],[114.16540615210428,22.448072235772695],[114.16541427227277,22.448090387554515],[114.16543186657346,22.448082848372128],[114.16544036434534,22.448100041326011],[114.16535367936594,22.448140013981732]]]},"properties":{"OBJECTID":156444,"Shape__Length":63.712487731722874,"Shape__Area":182.32398359423925,"GeoRefNo":"3507434299","DateCreate":1114790400000,"BuildingBlockType":"Tower","BuildingCSUID":"3507434299T20050430","BuildingID":1106128326,"Status":"Active","BuildingNameEN":null,"BuildingNameTC":"錦興樓","BaseHeight":4.2000000000000002,"TopHeight":26.600000000000001,"Storeys":6,"StoreysInBasement":null,"DateStamp":1599580800000}},{"type":"Feature","id":156497,"geometry":{"type":"Polygon","coordinates":[[[114.16395043462266,22.448063128429247],[114.16400868389009,22.447996584694916],[114.16404184017215,22.448021662542168],[114.16398359081289,22.448088206288247],[114.16395043462266,22.448063128429247]]]},"properties":{"OBJECTID":156497,"Shape__Length":27.799994190791331,"Shape__Area":41.799975829729789,"GeoRefNo":"3494134289","DateCreate":1207843200000,"BuildingBlockType":"Open-sided Structure","BuildingCSUID":"3494134289T20080411","BuildingID":1106128395,"Status":"Active","BuildingNameEN":null,"BuildingNameTC":null,"BaseHeight":null,"TopHeight":null,"Storeys":null,"StoreysInBasement":null,"DateStamp":1286899200000}},{"type":"Feature","id":156499,"geometry":{"type":"Polygon","coordinates":[[[114.16525903526134,22.449098971897715],[114.16525901622288,22.449098937309724],[114.16519651257732,22.448985517855256],[114.1652030033795,22.448954746432186],[114.16522872442458,22.448942984316894],[114.16528840363443,22.449057702407018],[114.16525623353344,22.449071230515319],[114.1652686012885,22.449094440652363],[114.16525903526134,22.449098971897715]]]},"properties":{"OBJECTID":156499,"Shape__Length":42.257617469323186,"Shape__Area":69.580929227839036,"GeoRefNo":"3506834394","DateCreate":1114790400000,"BuildingBlockType":"Tower","BuildingCSUID":"3506834394T20050430","BuildingID":1106127484,"Status":"Active","BuildingNameEN":null,"BuildingNameTC":null,"BaseHeight":4,"TopHeight":26.600000000000001,"Storeys":6,"StoreysInBasement":null,"DateStamp":1599580800000}},{"type":"Feature","id":156505,"geometry":{"type":"Polygon","coordinates":[[[114.16383759365054,22.449064631840876],[114.16385539211053,22.449068205448675],[114.16385189766638,22.449082490165548],[114.16382471575427,22.449076365331031],[114.16382798766574,22.449062751198024],[114.16383759365054,22.449064631840876]]]},"properties":{"OBJECTID":156505,"Shape__Length":8.9307276457945939,"Shape__Area":4.5678387292372218,"GeoRefNo":"3492634403","DateCreate":1114790400000,"BuildingBlockType":"Tower","BuildingCSUID":"3492634403T20050430","BuildingID":1106127496,"Status":"Active","BuildingNameEN":"CRANBTOWN BUILDING","BuildingNameTC":"康城樓","BaseHeight":5.7999999999999998,"TopHeight":9,"Storeys":null,"StoreysInBasement":null,"DateStamp":1362067200000}},{"type":"Feature","id":156507,"geometry":{"type":"Polygon","coordinates":[[[114.16380902946538,22.449144110501287],[114.1638111578569,22.449135414349783],[114.1638373391486,22.44914142171012],[114.16383556046148,22.449150506199459],[114.16380902946538,22.449144110501287]]]},"properties":{"OBJECTID":156507,"Shape__Length":7.6072110841753462,"Shape__Area":2.8089349982245451,"GeoRefNo":"3492534411","DateCreate":1114790400000,"BuildingBlockType":"Tower","BuildingCSUID":"3492534411T20050430","BuildingID":1106127438,"Status":"Active","BuildingNameEN":"CRANBTOWN BUILDING","BuildingNameTC":"康城樓","BaseHeight":5.7000000000000002,"TopHeight":9.1999999999999993,"Storeys":null,"StoreysInBasement":null,"DateStamp":1362067200000}},{"type":"Feature","id":156516,"geometry":{"type":"Polygon","coordinates":[[[114.16745695808505,22.447782437233656],[114.16742591869885,22.447724269565356],[114.1674155085858,22.447704761195727],[114.16737425340534,22.447627449084994],[114.16742704610211,22.44760345853253],[114.1674304902652,22.44760993690851],[114.16744116904759,22.447630023151678],[114.16746820123488,22.447680869417336],[114.16747908702597,22.447701345153209],[114.16750946821753,22.447758490887502],[114.16745695808505,22.447782437233656]]]},"properties":{"OBJECTID":156516,"Shape__Length":50.377315481086043,"Shape__Area":115.58723079605521,"GeoRefNo":"3529634249","DateCreate":1114790400000,"BuildingBlockType":"Tower","BuildingCSUID":"3529634249T20050430","BuildingID":1106128590,"Status":"Active","BuildingNameEN":"Po Wah Building","BuildingNameTC":"寶華樓","BaseHeight":4.7999999999999998,"TopHeight":25.300000000000001,"Storeys":6,"StoreysInBasement":null,"DateStamp":1599580800000}},{"type":"Feature","id":156517,"geometry":{"type":"Polygon","coordinates":[[[114.16591933498724,22.447784886221427],[114.16589773231661,22.447743841356271],[114.16589478933984,22.447735804054876],[114.16599163793965,22.447691627933899],[114.16601695445043,22.447739952031277],[114.16601696979765,22.447739981381279],[114.16598819573503,22.447753215382424],[114.16597779043805,22.447758001092843],[114.16596595972246,22.447763442317381],[114.16595653741057,22.447767775847623],[114.16591933498724,22.447784886221427]]]},"properties":{"OBJECTID":156517,"Shape__Length":34.273384058677983,"Shape__Area":66.962555561945749,"GeoRefNo":"3514534254","DateCreate":1114790400000,"BuildingBlockType":"Tower","BuildingCSUID":"3514534254T20050430","BuildingID":1106128589,"Status":"Active","BuildingNameEN":"WAH LOK BUILDING","BuildingNameTC":"華樂樓","BaseHeight":4.9000000000000004,"TopHeight":27.199999999999999,"Storeys":7,"StoreysInBasement":null,"DateStamp":1599580800000}},{"type":"Feature","id":156518,"geometry":{"type":"Polygon","coordinates":[[[114.16473922028338,22.447663902296966],[114.16475812308151,22.4475854833608],[114.16480354811107,22.447565533429238],[114.16483344965765,22.447622267843364],[114.16473922028338,22.447663902296966]]]},"properties":{"OBJECTID":156518,"Shape__Length":31.806100795868034,"Shape__Area":55.716956054491902,"GeoRefNo":"3502334241","DateCreate":1114790400000,"BuildingBlockType":"Tower","BuildingCSUID":"3502334241T20050430","BuildingID":1106128651,"Status":"Active","BuildingNameEN":null,"BuildingNameTC":null,"BaseHeight":7.7999999999999998,"TopHeight":28.800000000000001,"Storeys":6,"StoreysInBasement":null,"DateStamp":1599580800000}},{"type":"Feature","id":156520,"geometry":{"type":"Polygon","coordinates":[[[114.16937117933004,22.447390690760173],[114.16938852154193,22.447420928856218],[114.16896541624342,22.447613922309944],[114.16888873540715,22.447467896144719],[114.16920508811863,22.447324850995038],[114.16937117933004,22.447390690760173]]]},"properties":{"OBJECTID":156520,"Shape__Length":125.10040183799167,"Shape__Area":781.36529640875892,"GeoRefNo":"3547234229","DateCreate":1114790400000,"BuildingBlockType":"Tower","BuildingCSUID":"3547234229T20050430","BuildingID":1106128681,"Status":"Active","BuildingNameEN":"Tai Po Commercial Centre","BuildingNameTC":"大埔商業中心","BaseHeight":4.2000000000000002,"TopHeight":60.100000000000001,"Storeys":17,"StoreysInBasement":null,"DateStamp":1599580800000}},{"type":"Feature","id":156553,"geometry":{"type":"Polygon","coordinates":[[[114.1642737070958,22.448812458910947],[114.16441973975641,22.448840229817552],[114.16441138637282,22.448878184337769],[114.16426535367415,22.448850413423703],[114.1642737070958,22.448812458910947]]]},"properties":{"OBJECTID":156553,"Shape__Length":39.266189866084233,"Shape__Area":65.821899638364485,"GeoRefNo":"3497834378","DateCreate":1147622400000,"BuildingBlockType":"Tower","BuildingCSUID":"3497834378T20060515","BuildingID":1106127642,"Status":"Active","BuildingNameEN":null,"BuildingNameTC":null,"BaseHeight":3.6000000000000001,"TopHeight":14.4,"Storeys":2,"StoreysInBasement":null,"DateStamp":1599580800000}},{"type":"Feature","id":156630,"geometry":{"type":"Polygon","coordinates":[[[114.16850006823903,22.44826303560156],[114.16848710235323,22.448238289779461],[114.16843494200285,22.448138739623136],[114.16848102852524,22.448117805456821],[114.16853319074633,22.448217359210798],[114.16851013780786,22.448227828469737],[114.16852310369676,22.448252574289992],[114.16850006823903,22.44826303560156]]]},"properties":{"OBJECTID":156630,"Shape__Length":41.180090686214172,"Shape__Area":72.787278100437916,"GeoRefNo":"3540334303","DateCreate":1114790400000,"BuildingBlockType":"Tower","BuildingCSUID":"3540334303T20050430","BuildingID":1106128251,"Status":"Active","BuildingNameEN":null,"BuildingNameTC":null,"BaseHeight":4.7000000000000002,"TopHeight":22,"Storeys":null,"StoreysInBasement":null,"DateStamp":1362067200000}},{"type":"Feature","id":156633,"geometry":{"type":"Polygon","coordinates":[[[114.16586543652321,22.448282803587052],[114.16584826037895,22.448249301251341],[114.16581017311539,22.448175011183064],[114.16579956976675,22.448154329099712],[114.16579963048714,22.448154301199775],[114.16583963636009,22.44813590971475],[114.16589273836776,22.448245374221507],[114.16587318160259,22.448253635756725],[114.16588400242857,22.44827381954947],[114.16586543652321,22.448282803587052]]]},"properties":{"OBJECTID":156633,"Shape__Length":40.52089142111992,"Shape__Area":64.415965199141809,"GeoRefNo":"3513234304","DateCreate":1114790400000,"BuildingBlockType":"Tower","BuildingCSUID":"3513234304T20050430","BuildingID":1106128236,"Status":"Active","BuildingNameEN":"Hung Cheong Building","BuildingNameTC":"鴻昌樓","BaseHeight":4.0999999999999996,"TopHeight":25,"Storeys":6,"StoreysInBasement":null,"DateStamp":1599580800000}},{"type":"Feature","id":156635,"geometry":{"type":"Polygon","coordinates":[[[114.16539157796177,22.448213642754329],[114.16538474479106,22.448200574755383],[114.16538219056015,22.448195690183748],[114.16537410154835,22.44818022053704],[114.1653613983931,22.448155926817776],[114.16540830222803,22.448134787060692],[114.16542128984615,22.448159029593793],[114.16543863869926,22.448191412933962],[114.16541522485383,22.448202636129217],[114.16539157796177,22.448213642754329]]]},"properties":{"OBJECTID":156635,"Shape__Length":24.910777074703851,"Shape__Area":38.139781667581794,"GeoRefNo":"3508734304","DateCreate":1114790400000,"BuildingBlockType":"Tower","BuildingCSUID":"3508734304T20050430","BuildingID":1106128292,"Status":"Active","BuildingNameEN":"Hung Wan Building","BuildingNameTC":"鴻運大樓","BaseHeight":4.2000000000000002,"TopHeight":25.300000000000001,"Storeys":6,"StoreysInBasement":null,"DateStamp":1599580800000}},{"type":"Feature","id":156638,"geometry":{"type":"Polygon","coordinates":[[[114.1652790589773,22.448223477746183],[114.16531041726141,22.44820920546471],[114.1653638890507,22.448184868597213],[114.16537410154835,22.44818022053704],[114.16538219056015,22.448195690183748],[114.16538474479106,22.448200574755383],[114.16539157796177,22.448213642754329],[114.1653626943349,22.448227086864279],[114.1652968915047,22.448255935366287],[114.1652790589773,22.448223477746183]]]},"properties":{"OBJECTID":156638,"Shape__Length":29.857815362516924,"Shape__Area":44.519599760690141,"GeoRefNo":"3507934310","DateCreate":1114790400000,"BuildingBlockType":"Tower","BuildingCSUID":"3507934310T20050430","BuildingID":1106128258,"Status":"Active","BuildingNameEN":"Hung Wan Building","BuildingNameTC":"鴻運大樓","BaseHeight":4.0999999999999996,"TopHeight":25.300000000000001,"Storeys":6,"StoreysInBasement":null,"DateStamp":1599580800000}},{"type":"Feature","id":156639,"geometry":{"type":"Polygon","coordinates":[[[114.16834888080932,22.448301061451172],[114.16829672616814,22.448201522087803],[114.1683427952447,22.448180595906997],[114.16839495175657,22.448280138868036],[114.16840791753272,22.448304884697379],[114.16838488205771,22.448315345992413],[114.16837191628468,22.448290600161268],[114.16834888080932,22.448301061451172]]]},"properties":{"OBJECTID":156639,"Shape__Length":41.173409111144139,"Shape__Area":72.755663259416053,"GeoRefNo":"3538934310","DateCreate":1114790400000,"BuildingBlockType":"Tower","BuildingCSUID":"3538934310T20050430","BuildingID":1106128206,"Status":"Active","BuildingNameEN":null,"BuildingNameTC":null,"BaseHeight":4.7999999999999998,"TopHeight":22.300000000000001,"Storeys":null,"StoreysInBasement":null,"DateStamp":1362067200000}},{"type":"Feature","id":156643,"geometry":{"type":"Polygon","coordinates":[[[114.16859222753652,22.448221182389617],[114.16857926163829,22.448196436574818],[114.16852709744937,22.448096879223172],[114.16857317520046,22.448075949093671],[114.16862534126008,22.448175509952652],[114.16860229707908,22.448185975251874],[114.16861526298042,22.44821072115516],[114.16859222753652,22.448221182389617]]]},"properties":{"OBJECTID":156643,"Shape__Length":41.179858308120501,"Shape__Area":72.779646683115459,"GeoRefNo":"3541234299","DateCreate":1114790400000,"BuildingBlockType":"Tower","BuildingCSUID":"3541234299T20050430","BuildingID":1106128283,"Status":"Active","BuildingNameEN":null,"BuildingNameTC":null,"BaseHeight":4.7000000000000002,"TopHeight":21.800000000000001,"Storeys":null,"StoreysInBasement":null,"DateStamp":1362067200000}},{"type":"Feature","id":156646,"geometry":{"type":"Polygon","coordinates":[[[114.16462891401503,22.448213614858233],[114.16463323357873,22.44819669103607],[114.16461122006568,22.448191361403818],[114.16461446603108,22.448177825003562],[114.16466492436257,22.448188033226835],[114.16466606326013,22.448183362944057],[114.16478417171693,22.448208479803199],[114.16477552370714,22.448244337362247],[114.16474246825533,22.448237410519166],[114.16466333126658,22.448220827099252],[114.16462891401503,22.448213614858233]]]},"properties":{"OBJECTID":156646,"Shape__Length":43.65997875414363,"Shape__Area":65.338944154269257,"GeoRefNo":"3501934309","DateCreate":1114790400000,"BuildingBlockType":"Tower","BuildingCSUID":"3501934309T20050430","BuildingID":1106128272,"Status":"Active","BuildingNameEN":"Fu Wing House","BuildingNameTC":"富榮樓","BaseHeight":4.7000000000000002,"TopHeight":25.199999999999999,"Storeys":6,"StoreysInBasement":null,"DateStamp":1599580800000}},{"type":"Feature","id":156648,"geometry":{"type":"Polygon","coordinates":[[[114.16619581217132,22.448275140795836],[114.16618038718705,22.448245077406614],[114.16626465971038,22.448206067246954],[114.16629002192137,22.448253776327796],[114.16620615729234,22.44829168526384],[114.16620465749249,22.448289286677255],[114.16619581217132,22.448275140795836]]]},"properties":{"OBJECTID":156648,"Shape__Length":30.990196008976724,"Shape__Area":56.71619740057227,"GeoRefNo":"3517334312","DateCreate":1114790400000,"BuildingBlockType":"Tower","BuildingCSUID":"3517334312T20050430","BuildingID":1106128227,"Status":"Active","BuildingNameEN":"PO YAN BUILDING","BuildingNameTC":"寶仁樓","BaseHeight":4.7000000000000002,"TopHeight":27.800000000000001,"Storeys":6,"StoreysInBasement":null,"DateStamp":1599580800000}},{"type":"Feature","id":156652,"geometry":{"type":"Polygon","coordinates":[[[114.1645471238625,22.448155706030487],[114.1644943230126,22.448144219421181],[114.16443786283251,22.44813193684044],[114.16444646514334,22.44809522898823],[114.16459097027054,22.448125473697495],[114.16458203895074,22.448163301579136],[114.1645471238625,22.448155706030487]]]},"properties":{"OBJECTID":156652,"Shape__Length":38.937545226618596,"Shape__Area":64.394485490093899,"GeoRefNo":"3499234298","DateCreate":1114790400000,"BuildingBlockType":"Tower","BuildingCSUID":"3499234298T20050430","BuildingID":1106128337,"Status":"Active","BuildingNameEN":null,"BuildingNameTC":null,"BaseHeight":5.0999999999999996,"TopHeight":32.399999999999999,"Storeys":6,"StoreysInBasement":null,"DateStamp":1599580800000}},{"type":"Feature","id":156656,"geometry":{"type":"Polygon","coordinates":[[[114.16499015018803,22.448087573251161],[114.16498735980188,22.448101003675067],[114.16492330089442,22.448087561647544],[114.16493855888652,22.448021938484334],[114.16500015022081,22.448034919771931],[114.16499015018803,22.448087573251161]]]},"properties":{"OBJECTID":156656,"Shape__Length":28.130822629544731,"Shape__Area":49.342903404586664,"GeoRefNo":"3504234291","DateCreate":1114790400000,"BuildingBlockType":"Tower","BuildingCSUID":"3504234291T20050430","BuildingID":1106128391,"Status":"Active","BuildingNameEN":null,"BuildingNameTC":null,"BaseHeight":4.9000000000000004,"TopHeight":29.699999999999999,"Storeys":6,"StoreysInBasement":null,"DateStamp":1599580800000}},{"type":"Feature","id":156660,"geometry":{"type":"Polygon","coordinates":[[[114.16558087056028,22.448126594121316],[114.16556346128149,22.448092687986961],[114.16553216568848,22.448031737295857],[114.1655155967359,22.447999467893787],[114.16553282144687,22.447992153622927],[114.16552247665145,22.447972854823593],[114.1655457340832,22.447961097179377],[114.1656215382384,22.448108137897783],[114.16558087056028,22.448126594121316]]]},"properties":{"OBJECTID":156660,"Shape__Length":45.375042950125312,"Shape__Area":78.905151441234409,"GeoRefNo":"3510634294","DateCreate":1114790400000,"BuildingBlockType":"Tower","BuildingCSUID":"3510634294T20050430","BuildingID":1106128370,"Status":"Active","BuildingNameEN":"Sing Hay Building","BuildingNameTC":"成熙樓","BaseHeight":4.0999999999999996,"TopHeight":25.300000000000001,"Storeys":6,"StoreysInBasement":null,"DateStamp":1599580800000}},{"type":"Feature","id":156709,"geometry":{"type":"Polygon","coordinates":[[[114.1658559725781,22.449909530969418],[114.16581607624954,22.449772080929215],[114.16586541571068,22.449759767390585],[114.16589555491134,22.449864823091453],[114.16587526951743,22.449870221923394],[114.16588414652541,22.449902352864335],[114.1658559725781,22.449909530969418]]]},"properties":{"OBJECTID":156709,"Shape__Length":41.916060563197988,"Shape__Area":74.400966883355849,"GeoRefNo":"3513334485","DateCreate":1114790400000,"BuildingBlockType":"Tower","BuildingCSUID":"3513334485T20050430","BuildingID":1106127001,"Status":"Active","BuildingNameEN":null,"BuildingNameTC":null,"BaseHeight":4.5999999999999996,"TopHeight":22.399999999999999,"Storeys":null,"StoreysInBasement":null,"DateStamp":1362067200000}},{"type":"Feature","id":156712,"geometry":{"type":"Polygon","coordinates":[[[114.16581607624954,22.449772080929215],[114.1658559725781,22.449909530969418],[114.16582847830486,22.449916535911949],[114.16581836753703,22.44988394433085],[114.1657978295388,22.449889442470734],[114.16576575612631,22.449784639200953],[114.16576573971217,22.449784585829875],[114.16581607624954,22.449772080929215]]]},"properties":{"OBJECTID":156712,"Shape__Length":42.09086873703545,"Shape__Area":74.684807721665166,"GeoRefNo":"3512834485","DateCreate":1114790400000,"BuildingBlockType":"Tower","BuildingCSUID":"3512834485T20050430","BuildingID":1106126997,"Status":"Active","BuildingNameEN":null,"BuildingNameTC":null,"BaseHeight":4.5999999999999996,"TopHeight":22.300000000000001,"Storeys":null,"StoreysInBasement":null,"DateStamp":1362067200000}},{"type":"Feature","id":156731,"geometry":{"type":"Polygon","coordinates":[[[114.16388012008532,22.449077823691276],[114.16390410588501,22.449082765271399],[114.1638980511013,22.449108176472397],[114.16387406529746,22.449103234891371],[114.16388012008532,22.449077823691276]]]},"properties":{"OBJECTID":156731,"Shape__Length":10.822012595286076,"Shape__Area":7.2885469988102765,"GeoRefNo":"3493234406","DateCreate":1114790400000,"BuildingBlockType":"Tower","BuildingCSUID":"3493234406T20050430","BuildingID":1106127474,"Status":"Active","BuildingNameEN":"MEI CHEONG BUILDING","BuildingNameTC":"美昌大廈","BaseHeight":5.5999999999999996,"TopHeight":7.7999999999999998,"Storeys":null,"StoreysInBasement":null,"DateStamp":1362067200000}},{"type":"Feature","id":156735,"geometry":{"type":"Polygon","coordinates":[[[114.16386735937155,22.44913114747348],[114.16389058745652,22.449135610380832],[114.16388554328039,22.449158276405505],[114.16386231519179,22.4491538134974],[114.16386735937155,22.44913114747348]]]},"properties":{"OBJECTID":156735,"Shape__Length":10.009189810514506,"Shape__Area":6.2577960023322108,"GeoRefNo":"3493034411","DateCreate":1114790400000,"BuildingBlockType":"Tower","BuildingCSUID":"3493034411T20050430","BuildingID":1106127432,"Status":"Active","BuildingNameEN":"MEI CHEONG BUILDING","BuildingNameTC":"美昌大廈","BaseHeight":5.5,"TopHeight":7.7999999999999998,"Storeys":null,"StoreysInBasement":null,"DateStamp":1362067200000}},{"type":"Feature","id":156738,"geometry":{"type":"Polygon","coordinates":[[[114.16488755452478,22.449102287981418],[114.16489835550971,22.449058294505171],[114.16502825525212,22.449085380241794],[114.16501738272716,22.449129132518049],[114.16488755452478,22.449102287981418]]]},"properties":{"OBJECTID":156738,"Shape__Length":37.36321337053289,"Shape__Area":68.274056682953571,"GeoRefNo":"3504434406","DateCreate":1114790400000,"BuildingBlockType":"Tower","BuildingCSUID":"3504434406T20050430","BuildingID":1106127457,"Status":"Active","BuildingNameEN":null,"BuildingNameTC":null,"BaseHeight":4.2000000000000002,"TopHeight":15.199999999999999,"Storeys":null,"StoreysInBasement":null,"DateStamp":1362067200000}},{"type":"Feature","id":156879,"geometry":{"type":"Polygon","coordinates":[[[114.16840791753272,22.448304884697379],[114.16839495175657,22.448280138868036],[114.1683427952447,22.448180595906997],[114.1683888730511,22.448159665830353],[114.16844103143366,22.448259212298723],[114.16841798722501,22.448269677571499],[114.16843095310143,22.448294423399034],[114.16840791753272,22.448304884697379]]]},"properties":{"OBJECTID":156879,"Shape__Length":41.176298312270035,"Shape__Area":72.770252772947856,"GeoRefNo":"3539434307","DateCreate":1114790400000,"BuildingBlockType":"Tower","BuildingCSUID":"3539434307T20050430","BuildingID":1106128215,"Status":"Active","BuildingNameEN":null,"BuildingNameTC":null,"BaseHeight":4.7000000000000002,"TopHeight":21.800000000000001,"Storeys":null,"StoreysInBasement":null,"DateStamp":1362067200000}},{"type":"Feature","id":156880,"geometry":{"type":"Polygon","coordinates":[[[114.16397546298718,22.448127710523053],[114.16399655267364,22.448142558263996],[114.16393073707324,22.448216494347111],[114.16391188170594,22.448202784613514],[114.16397546298718,22.448127710523053]]]},"properties":{"OBJECTID":156880,"Shape__Length":26.394683792888149,"Shape__Area":27.491935000794527,"GeoRefNo":"3493934303","DateCreate":1114790400000,"BuildingBlockType":"Tower","BuildingCSUID":"3493934303T20050430","BuildingID":1106128289,"Status":"Active","BuildingNameEN":null,"BuildingNameTC":null,"BaseHeight":12.4,"TopHeight":16.300000000000001,"Storeys":null,"StoreysInBasement":null,"DateStamp":1362067200000}},{"type":"Feature","id":156883,"geometry":{"type":"Polygon","coordinates":[[[114.16390060429349,22.446824149790004],[114.16382912282813,22.446804114049424],[114.16384536280152,22.446752840899194],[114.16390681716641,22.446769055496727],[114.16389859599252,22.446795423759436],[114.16390896141493,22.446798440761224],[114.16390060429349,22.446824149790004]]]},"properties":{"OBJECTID":156883,"Shape__Length":27.311927812940809,"Shape__Area":42.62874646393238,"GeoRefNo":"3493034151","DateCreate":1114790400000,"BuildingBlockType":"Tower","BuildingCSUID":"3493034151T20050430","BuildingID":1106129075,"Status":"Active","BuildingNameEN":null,"BuildingNameTC":null,"BaseHeight":18.699999999999999,"TopHeight":25.399999999999999,"Storeys":null,"StoreysInBasement":null,"DateStamp":1362067200000}},{"type":"Feature","id":156884,"geometry":{"type":"Polygon","coordinates":[[[114.16390060429349,22.446824149790004],[114.16389151835004,22.446852098312043],[114.16388164835688,22.446849325171161],[114.16387268882568,22.446875928164783],[114.16381172993732,22.446859027280048],[114.16382912282813,22.446804114049424],[114.16390060429349,22.446824149790004]]]},"properties":{"OBJECTID":156884,"Shape__Length":27.95361648123265,"Shape__Area":45.163029371455515,"GeoRefNo":"3492734156","DateCreate":1114790400000,"BuildingBlockType":"Tower","BuildingCSUID":"3492734156T20050430","BuildingID":1106129055,"Status":"Active","BuildingNameEN":null,"BuildingNameTC":null,"BaseHeight":19.100000000000001,"TopHeight":25.399999999999999,"Storeys":null,"StoreysInBasement":null,"DateStamp":1362067200000}},{"type":"Feature","id":156885,"geometry":{"type":"Polygon","coordinates":[[[114.16270697746677,22.446986733303959],[114.16268316645566,22.446986532547641],[114.16268347760935,22.44695506298368],[114.16268351000018,22.446951792427591],[114.1627082050522,22.446952011322157],[114.16270809914857,22.446955007075161],[114.16270697746677,22.446986733303959]]]},"properties":{"OBJECTID":156885,"Shape__Length":12.687435186823219,"Shape__Area":9.6034021228447592,"GeoRefNo":"3480834171","DateCreate":1114790400000,"BuildingBlockType":"Tower","BuildingCSUID":"3480834171T20050430","BuildingID":1106129016,"Status":"Active","BuildingNameEN":null,"BuildingNameTC":null,"BaseHeight":54.299999999999997,"TopHeight":58,"Storeys":null,"StoreysInBasement":null,"DateStamp":1362067200000}},{"type":"Feature","id":156888,"geometry":{"type":"Polygon","coordinates":[[[114.16907161408074,22.44405034125635],[114.16908156302533,22.444086863155338],[114.16906954539382,22.444089721258482],[114.16904768157049,22.444094921115145],[114.16903771155782,22.444058321641478],[114.16907161408074,22.44405034125635]]]},"properties":{"OBJECTID":156888,"Shape__Length":15.552781967942831,"Shape__Area":15.034982845274145,"GeoRefNo":"3546333850","DateCreate":1207843200000,"BuildingBlockType":"Open-sided Structure","BuildingCSUID":"3546333850T20080411","BuildingID":1106130318,"Status":"Active","BuildingNameEN":null,"BuildingNameTC":null,"BaseHeight":null,"TopHeight":null,"Storeys":null,"StoreysInBasement":null,"DateStamp":1286899200000}},{"type":"Feature","id":156889,"geometry":{"type":"Polygon","coordinates":[[[114.16512231807327,22.44379592594813],[114.16512413343661,22.443794818584749],[114.16514498517826,22.443828058585961],[114.16510622496462,22.443850188698658],[114.16508429317049,22.443819122425257],[114.16512231807327,22.44379592594813]]]},"properties":{"OBJECTID":156889,"Shape__Length":17.963471069826685,"Shape__Area":20.065357777572117,"GeoRefNo":"3505733822","DateCreate":1210780800000,"BuildingBlockType":"Open-sided Structure","BuildingCSUID":"3505733822T20080515","BuildingID":1106130402,"Status":"Active","BuildingNameEN":null,"BuildingNameTC":null,"BaseHeight":null,"TopHeight":null,"Storeys":null,"StoreysInBasement":null,"DateStamp":1286899200000}},{"type":"Feature","id":156895,"geometry":{"type":"Polygon","coordinates":[[[114.16396101324773,22.446694513442928],[114.16387603042843,22.446666891426094],[114.16389910899234,22.446606308060563],[114.16398324628877,22.446634056334151],[114.16396101324773,22.446694513442928]]]},"properties":{"OBJECTID":156895,"Shape__Length":32.648929966188213,"Shape__Area":65.483721134892875,"GeoRefNo":"3493434135","DateCreate":1114790400000,"BuildingBlockType":"Tower","BuildingCSUID":"3493434135T20050430","BuildingID":1106129129,"Status":"Active","BuildingNameEN":null,"BuildingNameTC":null,"BaseHeight":18.399999999999999,"TopHeight":32,"Storeys":null,"StoreysInBasement":null,"DateStamp":1362067200000}},{"type":"Feature","id":156896,"geometry":{"type":"Polygon","coordinates":[[[114.16454117476542,22.446547940253446],[114.16454307566536,22.446584233788261],[114.16451464034607,22.446585522974519],[114.16451273945351,22.446549229439395],[114.16454117476542,22.446547940253446]]]},"properties":{"OBJECTID":156896,"Shape__Length":13.908535091221577,"Shape__Area":11.791641001603395,"GeoRefNo":"3499734126","DateCreate":1114790400000,"BuildingBlockType":"Tower","BuildingCSUID":"3499734126T20050430","BuildingID":1106129172,"Status":"Active","BuildingNameEN":null,"BuildingNameTC":null,"BaseHeight":8.3000000000000007,"TopHeight":11.300000000000001,"Storeys":null,"StoreysInBasement":null,"DateStamp":1362067200000}},{"type":"Feature","id":156897,"geometry":{"type":"Polygon","coordinates":[[[114.16456575359786,22.446543313475182],[114.16457625533783,22.446542750411819],[114.16457721574953,22.44655813837646],[114.16456575223894,22.446558757265247],[114.16455299665461,22.446559445950594],[114.16455220669452,22.446546781854291],[114.16455203624635,22.446544048955346],[114.16456575359786,22.446543313475182]]]},"properties":{"OBJECTID":156897,"Shape__Length":8.4091138614274783,"Shape__Area":4.2636235953429464,"GeoRefNo":"3500134124","DateCreate":1114790400000,"BuildingBlockType":"Tower","BuildingCSUID":"3500134124T20050430","BuildingID":1106129186,"Status":"Active","BuildingNameEN":null,"BuildingNameTC":null,"BaseHeight":8.3000000000000007,"TopHeight":11.300000000000001,"Storeys":null,"StoreysInBasement":null,"DateStamp":1362067200000}},{"type":"Feature","id":156938,"geometry":{"type":"Polygon","coordinates":[[[114.16307143989862,22.447035348182506],[114.16307523199291,22.447040180249367],[114.16312209402687,22.447063473774758],[114.16310363256613,22.447096848756352],[114.16309176964432,22.447108144842186],[114.16305242002207,22.447055936441856],[114.16306549761521,22.447041407560558],[114.16307143989862,22.447035348182506]]]},"properties":{"OBJECTID":156938,"Shape__Length":22.101104937249556,"Shape__Area":28.35523056981431,"GeoRefNo":"3484934182","DateCreate":1210780800000,"BuildingBlockType":"Open-sided Structure","BuildingCSUID":"3484934182T20080515","BuildingID":1106128957,"Status":"Active","BuildingNameEN":null,"BuildingNameTC":null,"BaseHeight":null,"TopHeight":null,"Storeys":null,"StoreysInBasement":null,"DateStamp":1286899200000}},{"type":"Feature","id":156940,"geometry":{"type":"Polygon","coordinates":[[[114.16330916562529,22.449237164282053],[114.16327033576822,22.449227733232835],[114.16327903426573,22.449190799423899],[114.16331802941829,22.449198677247526],[114.16330916562529,22.449237164282053]]]},"properties":{"OBJECTID":156940,"Shape__Length":16.783983896482006,"Shape__Area":17.592520999470441,"GeoRefNo":"3487134419","DateCreate":1114790400000,"BuildingBlockType":"Tower","BuildingCSUID":"3487134419T20050430","BuildingID":1106127384,"Status":"Active","BuildingNameEN":"BONG HING BUILDING","BuildingNameTC":"邦興大樓","BaseHeight":5.2000000000000002,"TopHeight":12.6,"Storeys":null,"StoreysInBasement":null,"DateStamp":1362067200000}},{"type":"Feature","id":156941,"geometry":{"type":"Polygon","coordinates":[[[114.17280240838821,22.448654088026863],[114.17301010824379,22.4488562758455],[114.17330683362869,22.448794776213468],[114.17333987103891,22.448919622910758],[114.17304242627692,22.448989159686381],[114.17295686879513,22.449259276476447],[114.17282161785441,22.449223386158184],[114.17286684511581,22.449081771758671],[114.17285491573618,22.449060676332913],[114.17288473364471,22.448966426256582],[114.17287799205458,22.448945547690066],[114.17280909548521,22.448878910291064],[114.17280752246572,22.448851123555766],[114.172698960997,22.448745563871508],[114.17280240838821,22.448654088026863]]]},"properties":{"OBJECTID":156941,"Shape__Length":230.19220798578837,"Shape__Area":1518.1512205288516,"GeoRefNo":"3588534383","DateCreate":1114790400000,"BuildingBlockType":"Tower","BuildingCSUID":"3588534383T20050430","BuildingID":1106127368,"Status":"Active","BuildingNameEN":"Kwong Chi House","BuildingNameTC":"廣智樓","BaseHeight":8.4000000000000004,"TopHeight":104.2,"Storeys":35,"StoreysInBasement":null,"DateStamp":1786636800000}},{"type":"Feature","id":156942,"geometry":{"type":"Polygon","coordinates":[[[114.16312356545657,22.449257367433265],[114.16313201815748,22.449241683163027],[114.16317928357384,22.449262537936832],[114.16317084935197,22.449279044885035],[114.16312356545657,22.449257367433265]]]},"properties":{"OBJECTID":156942,"Shape__Length":14.778556592709565,"Shape__Area":10.720015975673777,"GeoRefNo":"3485534424","DateCreate":1114790400000,"BuildingBlockType":"Tower","BuildingCSUID":"3485534424T20050430","BuildingID":1106127359,"Status":"Active","BuildingNameEN":null,"BuildingNameTC":null,"BaseHeight":4.7999999999999998,"TopHeight":10.199999999999999,"Storeys":null,"StoreysInBasement":null,"DateStamp":1362067200000}},{"type":"Feature","id":156944,"geometry":{"type":"Polygon","coordinates":[[[114.16484840054055,22.449263088132238],[114.16485754990336,22.449224788506459],[114.16487037348192,22.449227047070352],[114.16498717466902,22.449250679346118],[114.16497785397016,22.44928895097215],[114.16497784415461,22.449288991156912],[114.16494805240291,22.449283029500101],[114.16487283330017,22.449267977405544],[114.16484840054055,22.449263088132238]]]},"properties":{"OBJECTID":156944,"Shape__Length":35.971490954581093,"Shape__Area":59.509534123175612,"GeoRefNo":"3504034424","DateCreate":1114790400000,"BuildingBlockType":"Tower","BuildingCSUID":"3504034424T20050430","BuildingID":1106127350,"Status":"Active","BuildingNameEN":"Wai On Building","BuildingNameTC":"惠安樓","BaseHeight":4.2999999999999998,"TopHeight":28.199999999999999,"Storeys":6,"StoreysInBasement":null,"DateStamp":1599580800000}},{"type":"Feature","id":156945,"geometry":{"type":"Polygon","coordinates":[[[114.16432394581983,22.449323495982586],[114.16433586042355,22.449278534296461],[114.16435272533283,22.449281894929339],[114.16435724365454,22.449263662620005],[114.16435783453881,22.449261278265737],[114.16451876326603,22.449296925417009],[114.16450278558321,22.449362078801382],[114.16432394581983,22.449323495982586]]]},"properties":{"OBJECTID":156945,"Shape__Length":52.572670770748076,"Shape__Area":136.25028829837757,"GeoRefNo":"3499234431","DateCreate":1114790400000,"BuildingBlockType":"Tower","BuildingCSUID":"3499234431T20050430","BuildingID":1106127307,"Status":"Active","BuildingNameEN":null,"BuildingNameTC":"育賢樓","BaseHeight":3.3999999999999999,"TopHeight":27.5,"Storeys":6,"StoreysInBasement":null,"DateStamp":1599580800000}},{"type":"Feature","id":156947,"geometry":{"type":"Polygon","coordinates":[[[114.16384854671711,22.449211443366622],[114.16385514283634,22.449182863878018],[114.16388351003879,22.449188546310449],[114.1638755896326,22.44921759663179],[114.16384854671711,22.449211443366622]]]},"properties":{"OBJECTID":156947,"Shape__Length":12.408228173692901,"Shape__Area":9.5892629922406059,"GeoRefNo":"3492934417","DateCreate":1114790400000,"BuildingBlockType":"Tower","BuildingCSUID":"3492934417T20050430","BuildingID":1106127393,"Status":"Active","BuildingNameEN":"MEI CHEONG BUILDING","BuildingNameTC":"美昌大廈","BaseHeight":5.2999999999999998,"TopHeight":7.7999999999999998,"Storeys":null,"StoreysInBasement":null,"DateStamp":1362067200000}},{"type":"Feature","id":156948,"geometry":{"type":"Polygon","coordinates":[[[114.16301929498475,22.449187418066362],[114.16304600934191,22.449200007534326],[114.16310837718537,22.449229399200053],[114.16306746971142,22.449304447783121],[114.16297838747525,22.449262466627221],[114.16301929498475,22.449187418066362]]]},"properties":{"OBJECTID":156948,"Shape__Length":39.19436341538362,"Shape__Area":95.779962451071441,"GeoRefNo":"3484434423","DateCreate":1114790400000,"BuildingBlockType":"Tower","BuildingCSUID":"3484434423T20050430","BuildingID":1106127338,"Status":"Active","BuildingNameEN":"Pak Shing Street Public Toilet cum Bathhouse","BuildingNameTC":"北盛街公廁連浴室","BaseHeight":4.5999999999999996,"TopHeight":15.9,"Storeys":3,"StoreysInBasement":null,"DateStamp":1783612800000}},{"type":"Feature","id":156955,"geometry":{"type":"Polygon","coordinates":[[[114.16455555948085,22.448505688027566],[114.16455955912112,22.448489091447147],[114.16453712778544,22.448484186204379],[114.1645418767978,22.448464725222514],[114.16471368546009,22.44850049049726],[114.16470526930013,22.44853533837399],[114.16465451432674,22.4485252862778],[114.16456232037065,22.448507027035326],[114.16455555948085,22.448505688027566]]]},"properties":{"OBJECTID":156955,"Shape__Length":44.299398826485138,"Shape__Area":68.869797170556225,"GeoRefNo":"3501134341","DateCreate":1114790400000,"BuildingBlockType":"Tower","BuildingCSUID":"3501134341T20050430","BuildingID":1106127974,"Status":"Active","BuildingNameEN":"Yuk Choi Building","BuildingNameTC":"育才樓","BaseHeight":4,"TopHeight":27.399999999999999,"Storeys":6,"StoreysInBasement":null,"DateStamp":1599580800000}},{"type":"Feature","id":156959,"geometry":{"type":"Polygon","coordinates":[[[114.16568417115198,22.448601623237433],[114.16563838032661,22.448515258886687],[114.16567839680803,22.448496973460699],[114.1657243342641,22.448583167767008],[114.16568417115198,22.448601623237433]]]},"properties":{"OBJECTID":156959,"Shape__Length":30.515605963251669,"Shape__Area":49.030606023082122,"GeoRefNo":"3511634347","DateCreate":1114790400000,"BuildingBlockType":"Tower","BuildingCSUID":"3511634347T20050430","BuildingID":1106127926,"Status":"Active","BuildingNameEN":null,"BuildingNameTC":null,"BaseHeight":4.0999999999999996,"TopHeight":14.699999999999999,"Storeys":null,"StoreysInBasement":null,"DateStamp":1362067200000}},{"type":"Feature","id":156961,"geometry":{"type":"Polygon","coordinates":[[[114.16776194653838,22.448598372456825],[114.16773889503321,22.44860884539796],[114.16772592429693,22.448584081635246],[114.16770287405443,22.448594553939181],[114.16765069946521,22.448494943119403],[114.16769680225296,22.448474003309133],[114.16774897541036,22.448573608966846],[114.16776194653838,22.448598372456825]]]},"properties":{"OBJECTID":156961,"Shape__Length":41.200123865507351,"Shape__Area":72.853666885643079,"GeoRefNo":"3532234342","DateCreate":1114790400000,"BuildingBlockType":"Tower","BuildingCSUID":"3532234342T20050430","BuildingID":1106127916,"Status":"Active","BuildingNameEN":null,"BuildingNameTC":null,"BaseHeight":4.7999999999999998,"TopHeight":23.300000000000001,"Storeys":null,"StoreysInBasement":null,"DateStamp":1362067200000}},{"type":"Feature","id":156979,"geometry":{"type":"Polygon","coordinates":[[[114.1628019946908,22.446989267592702],[114.16280230421646,22.446975639583417],[114.16280292804923,22.446948171259201],[114.16280324058644,22.446915233794957],[114.16283557391047,22.446917362823161],[114.16283490058312,22.446950194058051],[114.16283408999342,22.446989714227264],[114.1628019946908,22.446989267592702]]]},"properties":{"OBJECTID":156979,"Shape__Length":22.853489020064558,"Shape__Area":26.794480692294115,"GeoRefNo":"3482134168","DateCreate":1210780800000,"BuildingBlockType":"Open-sided Structure","BuildingCSUID":"3482134168T20080515","BuildingID":1106129013,"Status":"Active","BuildingNameEN":null,"BuildingNameTC":null,"BaseHeight":null,"TopHeight":null,"Storeys":null,"StoreysInBasement":null,"DateStamp":1286899200000}},{"type":"Feature","id":157103,"geometry":{"type":"Polygon","coordinates":[[[114.16396348146878,22.44670734708706],[114.16396453873838,22.446705160627886],[114.16398059152957,22.446683544267923],[114.16404181284159,22.446721776393794],[114.16402369812558,22.446746154559992],[114.16401210904009,22.446738775759705],[114.16399063136869,22.446724894426502],[114.16397019943784,22.446711689012886],[114.16396348146878,22.44670734708706]]]},"properties":{"OBJECTID":157103,"Shape__Length":21.589452541959531,"Shape__Area":24.50733508628533,"GeoRefNo":"3494334142","DateCreate":1114790400000,"BuildingBlockType":"Tower","BuildingCSUID":"3494334142T20050430","BuildingID":1106129103,"Status":"Active","BuildingNameEN":null,"BuildingNameTC":null,"BaseHeight":15.9,"TopHeight":22.899999999999999,"Storeys":null,"StoreysInBasement":null,"DateStamp":1362067200000}},{"type":"Feature","id":157107,"geometry":{"type":"Polygon","coordinates":[[[114.16418112925744,22.446820307268482],[114.16423070938953,22.446768629326748],[114.16424906766545,22.446793284166141],[114.16423841919966,22.446804733949154],[114.16424997841321,22.446820366564442],[114.16422050083612,22.446851745085389],[114.16418112925744,22.446820307268482]]]},"properties":{"OBJECTID":157107,"Shape__Length":24.720559457862326,"Shape__Area":33.62037337894575,"GeoRefNo":"3496534154","DateCreate":1114790400000,"BuildingBlockType":"Tower","BuildingCSUID":"3496534154T20050430","BuildingID":1106129066,"Status":"Active","BuildingNameEN":null,"BuildingNameTC":null,"BaseHeight":7.5999999999999996,"TopHeight":12.4,"Storeys":null,"StoreysInBasement":null,"DateStamp":1362067200000}},{"type":"Feature","id":157108,"geometry":{"type":"Polygon","coordinates":[[[114.16399145228115,22.446924107900436],[114.16389977333871,22.446885394432918],[114.16392318030267,22.44683725478459],[114.16395598596731,22.446850875328568],[114.16394928147409,22.446864637202967],[114.16400700437759,22.446892085347017],[114.16399145228115,22.446924107900436]]]},"properties":{"OBJECTID":157108,"Shape__Length":32.151190649540482,"Shape__Area":48.644992351948659,"GeoRefNo":"3493734160","DateCreate":1114790400000,"BuildingBlockType":"Tower","BuildingCSUID":"3493734160T20050430","BuildingID":1106129040,"Status":"Active","BuildingNameEN":null,"BuildingNameTC":null,"BaseHeight":13.699999999999999,"TopHeight":19.399999999999999,"Storeys":null,"StoreysInBasement":null,"DateStamp":1362067200000}},{"type":"Feature","id":157109,"geometry":{"type":"Polygon","coordinates":[[[114.16387970792351,22.446926661810338],[114.16389977333871,22.446885394432918],[114.16399145228115,22.446924107900436],[114.1639714899769,22.446965211123675],[114.16388246614446,22.446927820277576],[114.16387970792351,22.446926661810338]]]},"properties":{"OBJECTID":157109,"Shape__Length":30.741249242189653,"Shape__Area":51.876801561751606,"GeoRefNo":"3493634165","DateCreate":1114790400000,"BuildingBlockType":"Tower","BuildingCSUID":"3493634165T20050430","BuildingID":1106129022,"Status":"Active","BuildingNameEN":null,"BuildingNameTC":null,"BaseHeight":12.9,"TopHeight":24.100000000000001,"Storeys":null,"StoreysInBasement":null,"DateStamp":1362067200000}},{"type":"Feature","id":157115,"geometry":{"type":"Polygon","coordinates":[[[114.1658406382892,22.446429192447741],[114.16585666942795,22.446421841757086],[114.16590491011553,22.446399722227998],[114.16595278792774,22.446377769000915],[114.16595304853628,22.446378269124978],[114.16607772920045,22.446614983718064],[114.16607912501527,22.446617596411418],[114.16607303867069,22.446620423801612],[114.16592315125384,22.446689176569606],[114.16579585772502,22.44644972545337],[114.1658406382892,22.446429192447741]]]},"properties":{"OBJECTID":157115,"Shape__Length":95.064979612633692,"Shape__Area":531.10571193916178,"GeoRefNo":"3514234123","DateCreate":1114790400000,"BuildingBlockType":"Tower","BuildingCSUID":"3514234123T20050430","BuildingID":1106129131,"Status":"Active","BuildingNameEN":"Tai Po Community Centre Hall","BuildingNameTC":"大埔社區中心禮堂","BaseHeight":5.2000000000000002,"TopHeight":17.699999999999999,"Storeys":null,"StoreysInBasement":null,"DateStamp":1362067200000}},{"type":"Feature","id":157157,"geometry":{"type":"Polygon","coordinates":[[[114.16632199504031,22.448587647817263],[114.16630975281592,22.448563814305285],[114.16630761642762,22.448559655101548],[114.16629394846046,22.448533045625023],[114.16628106933165,22.448507972097921],[114.1662799060432,22.448505707275064],[114.16627572331436,22.448497564334261],[114.16625752450108,22.448462134065085],[114.16629690081446,22.448444542253153],[114.16631507824712,22.448478890578301],[114.16631964390361,22.448487517846132],[114.166320900739,22.448489892846279],[114.16633378818534,22.448514245018405],[114.16637092066611,22.448584410962344],[114.16635659939672,22.448590855878273],[114.16634872174262,22.448575458448122],[114.16632199504031,22.448587647817263]]]},"properties":{"OBJECTID":157157,"Shape__Length":43.750402924101458,"Shape__Area":73.638279236198144,"GeoRefNo":"3517934338","DateCreate":1114790400000,"BuildingBlockType":"Tower","BuildingCSUID":"3517934338T20050430","BuildingID":1106127935,"Status":"Active","BuildingNameEN":"Tai Wo Building","BuildingNameTC":"泰和樓","BaseHeight":3.8999999999999999,"TopHeight":26.5,"Storeys":6,"StoreysInBasement":null,"DateStamp":1599580800000}},{"type":"Feature","id":157162,"geometry":{"type":"Polygon","coordinates":[[[114.16375711291342,22.44934841119894],[114.16358487304187,22.449312011026699],[114.16362300620573,22.449154119176224],[114.16363343472864,22.449108118917668],[114.16379423388108,22.449140686765659],[114.16380902946538,22.449144110501287],[114.16383556046148,22.449150506199459],[114.16383195495295,22.449163943218466],[114.16380977691863,22.449254516842007],[114.16378617962717,22.449354066613711],[114.16375711291342,22.44934841119894]]]},"properties":{"OBJECTID":157162,"Shape__Length":88.80271992692316,"Shape__Area":492.40108174190345,"GeoRefNo":"3490634420","DateCreate":1114790400000,"BuildingBlockType":"Tower","BuildingCSUID":"3490634420T20050430","BuildingID":1106127313,"Status":"Active","BuildingNameEN":"Mei Shing Building","BuildingNameTC":"美盛大廈","BaseHeight":4.9000000000000004,"TopHeight":43.899999999999999,"Storeys":11,"StoreysInBasement":null,"DateStamp":1599580800000}},{"type":"Feature","id":157176,"geometry":{"type":"Polygon","coordinates":[[[114.16779507102051,22.448552666599763],[114.16777202564599,22.44856313665629],[114.16778499667996,22.448587900234767],[114.16776194653838,22.448598372456825],[114.16774897541036,22.448573608966846],[114.16769680225296,22.448474003309133],[114.16774290172371,22.448453064930309],[114.16779507102051,22.448552666599763]]]},"properties":{"OBJECTID":157176,"Shape__Length":41.197874535723123,"Shape__Area":72.843891866288189,"GeoRefNo":"3532734339","DateCreate":1114790400000,"BuildingBlockType":"Tower","BuildingCSUID":"3532734339T20050430","BuildingID":1106127928,"Status":"Active","BuildingNameEN":null,"BuildingNameTC":null,"BaseHeight":4.7999999999999998,"TopHeight":23.399999999999999,"Storeys":null,"StoreysInBasement":null,"DateStamp":1362067200000}},{"type":"Feature","id":157178,"geometry":{"type":"Polygon","coordinates":[[[114.16503478851588,22.448497181069929],[114.16504573615765,22.448451389447847],[114.16505582977875,22.448453593614996],[114.16517313575966,22.448477914999039],[114.1651731303173,22.448477938839041],[114.16516255201779,22.448524436226069],[114.16503478851588,22.448497181069929]]]},"properties":{"OBJECTID":157178,"Shape__Length":37.391972598436652,"Shape__Area":70.34826664022583,"GeoRefNo":"3505834339","DateCreate":1114790400000,"BuildingBlockType":"Tower","BuildingCSUID":"3505834339T20050430","BuildingID":1106127986,"Status":"Active","BuildingNameEN":null,"BuildingNameTC":null,"BaseHeight":4.2000000000000002,"TopHeight":27.100000000000001,"Storeys":6,"StoreysInBasement":null,"DateStamp":1599580800000}},{"type":"Feature","id":157181,"geometry":{"type":"Polygon","coordinates":[[[114.16800232691168,22.448050478715615],[114.16791134137475,22.447877235245514],[114.16791165643765,22.44787709222059],[114.16818585263181,22.447752327263071],[114.16827651421775,22.447925974044548],[114.16800232691168,22.448050478715615]]]},"properties":{"OBJECTID":157181,"Shape__Length":105.59383945524924,"Shape__Area":671.5022986382769,"GeoRefNo":"3536634279","DateCreate":1114790400000,"BuildingBlockType":"Tower","BuildingCSUID":"3536634279T20050430","BuildingID":1106128426,"Status":"Active","BuildingNameEN":"Kwong Fuk Building","BuildingNameTC":"廣福大樓","BaseHeight":4.5999999999999996,"TopHeight":26.800000000000001,"Storeys":6,"StoreysInBasement":null,"DateStamp":1599580800000}},{"type":"Feature","id":157183,"geometry":{"type":"Polygon","coordinates":[[[114.16953409349362,22.447826765818963],[114.16955019970771,22.447819163629291],[114.1695588951343,22.447835436172973],[114.16954281662132,22.447842750112752],[114.16953409349362,22.447826765818963]]]},"properties":{"OBJECTID":157183,"Shape__Length":7.6987512171352188,"Shape__Area":3.698843880795057,"GeoRefNo":"3551434266","DateCreate":1114790400000,"BuildingBlockType":"Tower","BuildingCSUID":"3551434266T20050430","BuildingID":1106128560,"Status":"Active","BuildingNameEN":null,"BuildingNameTC":null,"BaseHeight":4.2000000000000002,"TopHeight":7.0999999999999996,"Storeys":null,"StoreysInBasement":null,"DateStamp":1362067200000}},{"type":"Feature","id":157184,"geometry":{"type":"Polygon","coordinates":[[[114.16949926347706,22.44778668384388],[114.16949761638553,22.447783580544581],[114.16941726976393,22.447632196157681],[114.16940738374068,22.447613569492976],[114.16941580275106,22.447609740336688],[114.16945896140498,22.447590110384361],[114.1694911516678,22.447651734662575],[114.16946814628868,22.44766247985126],[114.16947306155191,22.447671212522462],[114.16948172742161,22.447667329823439],[114.16950065016285,22.447702052771689],[114.16949546230032,22.447704337240005],[114.16953100682358,22.447772245953274],[114.16949926347706,22.44778668384388]]]},"properties":{"OBJECTID":157184,"Shape__Length":56.506223394912901,"Shape__Area":97.23281253617381,"GeoRefNo":"3550334244","DateCreate":1114790400000,"BuildingBlockType":"Tower","BuildingCSUID":"3550334244T20050430","BuildingID":1106128588,"Status":"Active","BuildingNameEN":null,"BuildingNameTC":null,"BaseHeight":4.2000000000000002,"TopHeight":14.9,"Storeys":null,"StoreysInBasement":null,"DateStamp":1362067200000}},{"type":"Feature","id":157319,"geometry":{"type":"Polygon","coordinates":[[[114.16911607521546,22.44408112189171],[114.16912459388874,22.444112394134976],[114.16911517349591,22.444114611654769],[114.16909950797559,22.444118299213525],[114.16909069183949,22.444120374440867],[114.16908975680332,22.444116941919791],[114.16908156302533,22.444086863155338],[114.16907161408074,22.44405034125635],[114.16906302908583,22.444018826358523],[114.16906442324876,22.444018498168589],[114.16909693159769,22.444010845968027],[114.16910574096181,22.444043184452411],[114.16911607521546,22.44408112189171]]]},"properties":{"OBJECTID":157319,"Shape__Length":30.399942989527343,"Shape__Area":41.759771237256317,"GeoRefNo":"3546733849","DateCreate":1207843200000,"BuildingBlockType":"Open-sided Structure","BuildingCSUID":"3546733849T20080411","BuildingID":1106130307,"Status":"Active","BuildingNameEN":null,"BuildingNameTC":null,"BaseHeight":null,"TopHeight":null,"Storeys":null,"StoreysInBasement":null,"DateStamp":1286899200000}},{"type":"Feature","id":157320,"geometry":{"type":"Polygon","coordinates":[[[114.1687099650612,22.44394683515009],[114.16870617983527,22.44393226088734],[114.16870006634696,22.443908721792912],[114.16865989940784,22.443917736221628],[114.16865029933804,22.443882904363452],[114.16868915140387,22.443873750982306],[114.16869088684241,22.44387338723282],[114.16868405688579,22.443845228210488],[114.16868233800943,22.443838141653934],[114.16870509652436,22.443832885993132],[114.16872617157138,22.443828019186284],[114.16873472031766,22.4438632647629],[114.16874612269748,22.443860631692711],[114.16876853527708,22.443855367878236],[114.16878943575625,22.443850459153087],[114.16879667110321,22.443878995122382],[114.16883458054004,22.443870017933754],[114.1688428811007,22.443900307036163],[114.16884669017949,22.4439142067219],[114.16879607452285,22.443926285784219],[114.1687869933745,22.443928452911873],[114.16876694155908,22.443933238142439],[114.16875560299451,22.443935944002735],[114.1687099650612,22.44394683515009]]]},"properties":{"OBJECTID":157320,"Shape__Length":62.19881111837757,"Shape__Area":143.24667480049462,"GeoRefNo":"3543133830","DateCreate":1207843200000,"BuildingBlockType":"Open-sided Structure","BuildingCSUID":"3543133830T20080411","BuildingID":1106130368,"Status":"Active","BuildingNameEN":null,"BuildingNameTC":null,"BaseHeight":null,"TopHeight":null,"Storeys":null,"StoreysInBasement":null,"DateStamp":1286899200000}},{"type":"Feature","id":157357,"geometry":{"type":"Polygon","coordinates":[[[114.16783186783711,22.445571659345926],[114.16777485328562,22.445556677340523],[114.16777678569814,22.445549820896176],[114.16777990124773,22.445538766982533],[114.16778301873914,22.445527722460582],[114.16778613147036,22.445516670172108],[114.16778691689223,22.445513881250715],[114.16784393210776,22.445528860452512],[114.16783186783711,22.445571659345926]]]},"properties":{"OBJECTID":157357,"Shape__Length":21.996195117317505,"Shape__Area":29.873878193987494,"GeoRefNo":"3533434012","DateCreate":1207843200000,"BuildingBlockType":"Open-sided Structure","BuildingCSUID":"3533434012T20080411","BuildingID":1106129634,"Status":"Active","BuildingNameEN":"VALTORTA COLLEGE","BuildingNameTC":"恩主教書院","BaseHeight":null,"TopHeight":null,"Storeys":null,"StoreysInBasement":null,"DateStamp":1286899200000}},{"type":"Feature","id":157358,"geometry":{"type":"Polygon","coordinates":[[[114.1656132735021,22.445540418434216],[114.1656332338079,22.445583350599321],[114.16558008961601,22.445604774001442],[114.16554591612287,22.445536353553727],[114.1655690823833,22.445526138207317],[114.16558165106468,22.445553004684992],[114.1656132735021,22.445540418434216]]]},"properties":{"OBJECTID":157358,"Shape__Length":28.919830595092456,"Shape__Area":39.630253828587456,"GeoRefNo":"3510634015","DateCreate":1114790400000,"BuildingBlockType":"Temporary Structure","BuildingCSUID":"3510634015T20050430","BuildingID":1106129614,"Status":"Active","BuildingNameEN":null,"BuildingNameTC":null,"BaseHeight":null,"TopHeight":11.5,"Storeys":null,"StoreysInBasement":null,"DateStamp":1286899200000}},{"type":"Feature","id":157369,"geometry":{"type":"Polygon","coordinates":[[[114.17135319649684,22.445425127440657],[114.17133159082807,22.445426302921671],[114.17133048996121,22.445411425752528],[114.17134615494612,22.445384054076293],[114.17134622373101,22.445383933792971],[114.17135643906366,22.445383377593348],[114.17138507287365,22.445381179467024],[114.17138509258224,22.445381492914766],[114.17138683189317,22.445409115778652],[114.17135230533989,22.445410973889089],[114.17135319649684,22.445425127440657]]]},"properties":{"OBJECTID":157369,"Shape__Length":19.567208764624066,"Shape__Area":18.540480249235465,"GeoRefNo":"3570033997","DateCreate":1207843200000,"BuildingBlockType":"Open-sided Structure","BuildingCSUID":"3570033997T20080411","BuildingID":1106129727,"Status":"Active","BuildingNameEN":"WONG SHIU CHI SECONDARY SCHOOL","BuildingNameTC":"王肇枝中學","BaseHeight":null,"TopHeight":null,"Storeys":null,"StoreysInBasement":null,"DateStamp":1286899200000}},{"type":"Feature","id":157404,"geometry":{"type":"Polygon","coordinates":[[[114.17170564822678,22.445384460087375],[114.17155202805112,22.445394227886982],[114.1715504818397,22.445369072422185],[114.1715504894172,22.445369071880609],[114.17170421759278,22.44535930562105],[114.17170564822678,22.445384460087375]]]},"properties":{"OBJECTID":157404,"Shape__Length":37.291634682808777,"Shape__Area":44.230976249534926,"GeoRefNo":"3572733994","DateCreate":1207843200000,"BuildingBlockType":"Open-sided Structure","BuildingCSUID":"3572733994T20080411","BuildingID":1106129748,"Status":"Active","BuildingNameEN":"WONG SHIU CHI SECONDARY SCHOOL","BuildingNameTC":"王肇枝中學","BaseHeight":null,"TopHeight":null,"Storeys":null,"StoreysInBasement":null,"DateStamp":1286899200000}},{"type":"Feature","id":157405,"geometry":{"type":"Polygon","coordinates":[[[114.17178115454954,22.44543836028561],[114.1717208555657,22.445441993684781],[114.17171786500766,22.445399107962583],[114.17177816397304,22.445395474564521],[114.17178115454954,22.44543836028561]]]},"properties":{"OBJECTID":157405,"Shape__Length":21.957955736527246,"Shape__Area":29.600841518957864,"GeoRefNo":"3574133998","DateCreate":1114790400000,"BuildingBlockType":"Tower","BuildingCSUID":"3574133998T20050430","BuildingID":1106129717,"Status":"Active","BuildingNameEN":"WONG SHIU CHI SECONDARY SCHOOL","BuildingNameTC":"王肇枝中學","BaseHeight":5.2000000000000002,"TopHeight":8.5,"Storeys":null,"StoreysInBasement":null,"DateStamp":1286899200000}},{"type":"Feature","id":157579,"geometry":{"type":"Polygon","coordinates":[[[114.16884772223921,22.446173367351438],[114.16897640666437,22.446102647881773],[114.16898738749062,22.446119253162543],[114.16894583612846,22.446142603888767],[114.16895893043157,22.446163835124477],[114.16887289370362,22.446212170918514],[114.16884772223921,22.446173367351438]]]},"properties":{"OBJECTID":157579,"Shape__Length":40.620352077980833,"Shape__Area":62.50678841901366,"GeoRefNo":"3544934081","DateCreate":1114790400000,"BuildingBlockType":"Tower","BuildingCSUID":"3544934081T20050430","BuildingID":1106129305,"Status":"Active","BuildingNameEN":null,"BuildingNameTC":null,"BaseHeight":12.6,"TopHeight":22.100000000000001,"Storeys":null,"StoreysInBasement":null,"DateStamp":1286899200000}},{"type":"Feature","id":157767,"geometry":{"type":"Polygon","coordinates":[[[114.16905014511308,22.442742719376565],[114.169041061819,22.442638728617091],[114.16909482216721,22.442635272539558],[114.16910402576724,22.442739258696314],[114.16905014511308,22.442742719376565]]]},"properties":{"OBJECTID":157767,"Shape__Length":34.214274594130941,"Shape__Area":64.157653992694918,"GeoRefNo":"3546433696","DateCreate":1114790400000,"BuildingBlockType":"Tower","BuildingCSUID":"3546433696T20050430","BuildingID":1106131081,"Status":"Active","BuildingNameEN":"Hong Kong Teachers' Association Lee Heng Kwei Secondary School","BuildingNameTC":"香港教師會李興貴中學","BaseHeight":8.3000000000000007,"TopHeight":11.4,"Storeys":null,"StoreysInBasement":null,"DateStamp":1286899200000}},{"type":"Feature","id":157794,"geometry":{"type":"Polygon","coordinates":[[[114.16914467765736,22.444034020400245],[114.16910574096181,22.444043184452411],[114.16909693159769,22.444010845968027],[114.16913586828431,22.444001690948397],[114.16914467765736,22.444034020400245]]]},"properties":{"OBJECTID":157794,"Shape__Length":15.655988694536834,"Shape__Area":15.270795499221895,"GeoRefNo":"3546933844","DateCreate":1207843200000,"BuildingBlockType":"Open-sided Structure","BuildingCSUID":"3546933844T20080411","BuildingID":1106130333,"Status":"Active","BuildingNameEN":null,"BuildingNameTC":null,"BaseHeight":null,"TopHeight":null,"Storeys":null,"StoreysInBasement":null,"DateStamp":1286899200000}},{"type":"Feature","id":157797,"geometry":{"type":"Polygon","coordinates":[[[114.16536136160013,22.443880548919513],[114.16540928370895,22.443881121238149],[114.16540867498084,22.443959505551589],[114.16532790784233,22.443957702752158],[114.16532888273096,22.443916162724996],[114.16536025114939,22.443916833212135],[114.16536136160013,22.443880548919513]]]},"properties":{"OBJECTID":157797,"Shape__Length":33.780556499963708,"Shape__Area":58.271580507994315,"GeoRefNo":"3508333833","DateCreate":1144771200000,"BuildingBlockType":"Temporary Structure","BuildingCSUID":"3508333833T20060412","BuildingID":1106130361,"Status":"Active","BuildingNameEN":null,"BuildingNameTC":null,"BaseHeight":null,"TopHeight":26.5,"Storeys":null,"StoreysInBasement":null,"DateStamp":1286899200000}},{"type":"Feature","id":157884,"geometry":{"type":"Polygon","coordinates":[[[114.17075615349145,22.445248288035703],[114.17072291019971,22.445238723528373],[114.17073489965331,22.44520417346331],[114.17076764749818,22.445213503157763],[114.17075615349145,22.445248288035703]]]},"properties":{"OBJECTID":157884,"Shape__Length":15.157484901968424,"Shape__Area":14.303254502265521,"GeoRefNo":"3563733977","DateCreate":1207843200000,"BuildingBlockType":"Open-sided Structure","BuildingCSUID":"3563733977T20080411","BuildingID":1106129838,"Status":"Active","BuildingNameEN":"LAW TING PONG SCOUT CENTRE","BuildingNameTC":"羅定邦童軍中心","BaseHeight":null,"TopHeight":null,"Storeys":null,"StoreysInBasement":null,"DateStamp":1286899200000}},{"type":"Feature","id":157926,"geometry":{"type":"Polygon","coordinates":[[[114.16617025489363,22.446668061379434],[114.16591872639289,22.446191114095779],[114.16596327494568,22.446170822243143],[114.16628092961464,22.446026130316064],[114.16660726345772,22.445877484056368],[114.16685979251811,22.446358597179824],[114.16679255812261,22.446389077832421],[114.16617158922232,22.446670591619863],[114.16617025489363,22.446668061379434]]]},"properties":{"OBJECTID":157926,"Shape__Length":276.15622462360523,"Shape__Area":4669.7016108773341,"GeoRefNo":"3520834077","DateCreate":1114790400000,"BuildingBlockType":"Tower","BuildingCSUID":"3520834077T20050430","BuildingID":1106129138,"Status":"Active","BuildingNameEN":"Tai Po Complex","BuildingNameTC":"大埔綜合大樓","BaseHeight":5.2999999999999998,"TopHeight":60.600000000000001,"Storeys":null,"StoreysInBasement":null,"DateStamp":1286899200000}},{"type":"Feature","id":158253,"geometry":{"type":"Polygon","coordinates":[[[114.16796985779557,22.442537505111005],[114.16797028826794,22.442560077665988],[114.16797063237468,22.442578124150934],[114.1679706326652,22.442578138509369],[114.1679711318815,22.442604320000001],[114.16790217650802,22.44260545629303],[114.16789925573791,22.442605504353971],[114.16789920239036,22.442602703644987],[114.16789798168638,22.442538689464435],[114.16795091748602,22.44253781724569],[114.16796985779557,22.442537505111005]]]},"properties":{"OBJECTID":158253,"Shape__Length":29.600000350096646,"Shape__Area":54.76000692548746,"GeoRefNo":"3534733683","DateCreate":1207843200000,"BuildingBlockType":"Open-sided Structure","BuildingCSUID":"3534733683T20080411","BuildingID":1106131132,"Status":"Active","BuildingNameEN":"WAN TAU TONG SHOPPING CENTRE","BuildingNameTC":"運頭塘商場","BaseHeight":null,"TopHeight":null,"Storeys":null,"StoreysInBasement":null,"DateStamp":1286899200000}},{"type":"Feature","id":158277,"geometry":{"type":"Polygon","coordinates":[[[114.16795091748602,22.44253781724569],[114.16795075511592,22.442529305037279],[114.16795037828626,22.442509541047666],[114.16795007378211,22.442493574911197],[114.16796901408567,22.442493262776615],[114.16797338493986,22.442493190773035],[114.1680218612712,22.442492391974589],[114.16802313538165,22.442559206863557],[114.16800334495119,22.442559532955176],[114.16800376459142,22.442536946359283],[114.16796985779557,22.442537505111005],[114.16795091748602,22.44253781724569]]]},"properties":{"OBJECTID":158277,"Shape__Length":29.670806718440197,"Shape__Area":41.19970841226511,"GeoRefNo":"3535333677","DateCreate":1207843200000,"BuildingBlockType":"Open-sided Structure","BuildingCSUID":"3535333677T20080411","BuildingID":1106131145,"Status":"Active","BuildingNameEN":"WAN TAU TONG SHOPPING CENTRE","BuildingNameTC":"運頭塘商場","BaseHeight":null,"TopHeight":null,"Storeys":null,"StoreysInBasement":null,"DateStamp":1286899200000}},{"type":"Feature","id":158303,"geometry":{"type":"Polygon","coordinates":[[[114.16350876076389,22.443079967525129],[114.16352785931969,22.443083622462495],[114.16358077303266,22.443093748784559],[114.16358881187263,22.443095287241011],[114.16358526453664,22.443111334071364],[114.16357695922221,22.443109830992242],[114.16350464485379,22.443096743245242],[114.16350876076389,22.443079967525129]]]},"properties":{"OBJECTID":158303,"Shape__Length":20.587307705994458,"Shape__Area":15.68178306653919,"GeoRefNo":"3489633741","DateCreate":1114790400000,"BuildingBlockType":"Tower","BuildingCSUID":"3489633741T20050430","BuildingID":1106130812,"Status":"Active","BuildingNameEN":null,"BuildingNameTC":null,"BaseHeight":23.399999999999999,"TopHeight":30.699999999999999,"Storeys":null,"StoreysInBasement":null,"DateStamp":1410451200000}},{"type":"Feature","id":158304,"geometry":{"type":"Polygon","coordinates":[[[114.16349680876117,22.442958034781981],[114.1635069733622,22.442924659053151],[114.16352357527261,22.442927161859817],[114.16352943616008,22.442895510591701],[114.16355105458932,22.442898703555329],[114.16358119089892,22.44290315461657],[114.16363331226506,22.442910852837606],[114.16363753545139,22.442920254430451],[114.16364878426964,22.442945296264948],[114.16364565583794,22.442948989466188],[114.16365080603299,22.442963052565883],[114.16365960232254,22.442987072041745],[114.16351883134449,22.442961016651228],[114.16349680876117,22.442958034781981]]]},"properties":{"OBJECTID":158304,"Shape__Length":46.130674014942308,"Shape__Area":105.45415854044384,"GeoRefNo":"3489933724","DateCreate":1410451200000,"BuildingBlockType":"Tower","BuildingCSUID":"3489933724T20140912","BuildingID":1106130900,"Status":"Active","BuildingNameEN":null,"BuildingNameTC":null,"BaseHeight":17.899999999999999,"TopHeight":21.699999999999999,"Storeys":null,"StoreysInBasement":null,"DateStamp":1410451200000}},{"type":"Feature","id":158305,"geometry":{"type":"Polygon","coordinates":[[[114.16358119089892,22.44290315461657],[114.16355105458932,22.442898703555329],[114.16355475297489,22.442873579864248],[114.16355579111122,22.442867028262867],[114.16356406232116,22.442866402680991],[114.163666538781,22.442858651835095],[114.16367350522033,22.442898283556932],[114.16363753545139,22.442920254430451],[114.16363331226506,22.442910852837606],[114.16358119089892,22.44290315461657]]]},"properties":{"OBJECTID":158305,"Shape__Length":33.558507019194899,"Shape__Area":58.586426263330125,"GeoRefNo":"3489833718","DateCreate":1210780800000,"BuildingBlockType":"Open-sided Structure","BuildingCSUID":"3489833718T20080515","BuildingID":1106130974,"Status":"Active","BuildingNameEN":null,"BuildingNameTC":null,"BaseHeight":null,"TopHeight":null,"Storeys":null,"StoreysInBasement":null,"DateStamp":1410364800000}},{"type":"Feature","id":158440,"geometry":{"type":"Polygon","coordinates":[[[114.16257933001962,22.443418410301867],[114.16258247796263,22.443391477424552],[114.16263017602407,22.443396294862808],[114.16262702809017,22.443423227741029],[114.16257933001962,22.443418410301867]]]},"properties":{"OBJECTID":158440,"Shape__Length":15.877692304848768,"Shape__Area":14.816540874730828,"GeoRefNo":"3479933776","DateCreate":1210780800000,"BuildingBlockType":"Open-sided Structure","BuildingCSUID":"3479933776T20080515","BuildingID":1106130622,"Status":"Active","BuildingNameEN":null,"BuildingNameTC":null,"BaseHeight":null,"TopHeight":null,"Storeys":null,"StoreysInBasement":null,"DateStamp":1286899200000}},{"type":"Feature","id":158464,"geometry":{"type":"Polygon","coordinates":[[[114.1675953588958,22.44451002473749],[114.16763732196426,22.444574044031551],[114.16757551497244,22.444609512124519],[114.16753232779887,22.4445466396119],[114.1675953588958,22.44451002473749]]]},"properties":{"OBJECTID":158464,"Shape__Length":31.689987399399467,"Shape__Area":62.633582006598296,"GeoRefNo":"3531333903","DateCreate":1114790400000,"BuildingBlockType":"Tower","BuildingCSUID":"3531333903T20050430","BuildingID":1106130079,"Status":"Active","BuildingNameEN":null,"BuildingNameTC":null,"BaseHeight":11.300000000000001,"TopHeight":15.1,"Storeys":null,"StoreysInBasement":null,"DateStamp":1286899200000}},{"type":"Feature","id":159317,"geometry":{"type":"Polygon","coordinates":[[[114.173340416017,22.441394463117895],[114.17332322415345,22.441415152247945],[114.173252396005,22.441422943976121],[114.17322958662146,22.441448660317949],[114.17323049256532,22.441457124677441],[114.17323255395706,22.441476383982796],[114.17323687119425,22.441478477971618],[114.17323926809541,22.441480016905523],[114.17324148809115,22.441481770308862],[114.17324362007173,22.441483616814232],[114.17324563178467,22.441485576468565],[114.17324751623575,22.441487642589117],[114.17324930674643,22.441489779777289],[114.17325099496227,22.441491987852242],[114.17325257777478,22.44149426238905],[114.17325405188116,22.441496599052943],[114.17325541475572,22.441498993509335],[114.17325666358144,22.441501441062254],[114.17325779602696,22.441503937106145],[114.17325880995521,22.441506476764527],[114.17325970332627,22.441509055251174],[114.17326088452671,22.44151200715368],[114.17326300863212,22.44152550466605],[114.17326202858165,22.441539115441888],[114.17325798810498,22.441552229474638],[114.173251068488,22.441564258885229],[114.17324157963486,22.441574664561823],[114.173229946953,22.441582980270933],[114.17321669182664,22.441588833065833],[114.17320240830162,22.441591960805308],[114.17318773656443,22.441592223260564],[114.17317333418727,22.441589608706774],[114.17315984659579,22.441584234193495],[114.17314787841144,22.441576340757745],[114.17313796595981,22.44156628213516],[114.17313055356762,22.441554509046522],[114.17312597335734,22.441541549330115],[114.17312443067618,22.441527983649369],[114.17312599467388,22.441514420117084],[114.17313059529228,22.441501466571712],[114.17313802618048,22.441489703576444],[114.1731323999043,22.44143713678605],[114.17312762919246,22.44143532751437],[114.17312357089469,22.441431479000745],[114.17312122693251,22.441426549941792],[114.17311399177474,22.441362547662731],[114.17311260668554,22.441351842112123],[114.17316440468083,22.441345623209486],[114.17316024323233,22.441296991474935],[114.17331145646676,22.441280985019549],[114.17331758578489,22.441330986352643],[114.17336063673366,22.441362270962497],[114.17337411794,22.44134647056822],[114.17342978061353,22.441340245522618],[114.17347538495905,22.441374427217209],[114.17348146266937,22.441424006910317],[114.1734466680369,22.441465962416732],[114.17339033259515,22.441471939657916],[114.17334642356279,22.441439330540447],[114.173340416017,22.441394463117895]]]},"properties":{"OBJECTID":159317,"Shape__Length":146.35641823712771,"Shape__Area":671.77918135181983,"GeoRefNo":"3588833553","DateCreate":1114790400000,"BuildingBlockType":"Tower","BuildingCSUID":"3588833553T20050430","BuildingID":1106131497,"Status":"Active","BuildingNameEN":"Grand Palisades CLUB House","BuildingNameTC":"大埔寶馬山會所","BaseHeight":53.700000000000003,"TopHeight":66,"Storeys":3,"StoreysInBasement":null,"DateStamp":1599580800000}},{"type":"Feature","id":162199,"geometry":{"type":"Polygon","coordinates":[[[114.16662629123495,22.44584577554561],[114.16662301636605,22.445839536107613],[114.166567161028,22.445733121308088],[114.16657347970813,22.445730187805893],[114.16659497371084,22.445720209074945],[114.16663766178904,22.445801537877834],[114.1666541039348,22.445832863302449],[114.16662629123495,22.44584577554561]]]},"properties":{"OBJECTID":162199,"Shape__Length":34.16147992594189,"Shape__Area":44.417909731355046,"GeoRefNo":"3521134039","DateCreate":1114790400000,"BuildingBlockType":"Tower","BuildingCSUID":"3521134039T20050430","BuildingID":1106129498,"Status":"Active","BuildingNameEN":"TAI PO COMPLEX","BuildingNameTC":"大埔綜合大樓","BaseHeight":18.600000000000001,"TopHeight":21.600000000000001,"Storeys":null,"StoreysInBasement":null,"DateStamp":1286899200000}},{"type":"Feature","id":162595,"geometry":{"type":"Polygon","coordinates":[[[114.16684206170368,22.445810722265122],[114.16684221059894,22.445811165127807],[114.16684241532901,22.445811955666411],[114.16684268832888,22.445813093159266],[114.16684294092751,22.445814234624255],[114.16684317312493,22.44581537997108],[114.16684338462967,22.445816528657893],[114.16684357563609,22.44581768050411],[114.16684374594995,22.445818835058166],[114.16684389547406,22.445819992139459],[114.16684402430563,22.44582115138677],[114.16684413234749,22.445822312529192],[114.16684421959974,22.445823475115226],[114.16684428606231,22.445824638873908],[114.16684433154101,22.445825803534344],[114.16684435623013,22.445826968735314],[114.16684436003251,22.445828134115622],[114.16684434285106,22.445829299494598],[114.16684432698104,22.445829788131473],[114.16684430488012,22.445830464330477],[114.16684424611964,22.445831628532925],[114.16684416637543,22.445832791560118],[114.16684406584174,22.445833953231471],[114.16684394461578,22.44583511318573],[114.16684380250329,22.445836271061726],[114.16684363969851,22.445837426678811],[114.16684345620156,22.445838579495167],[114.16684325210954,22.445839729420499],[114.16684302742252,22.445840875912985],[114.16684278223762,22.445842018882335],[114.16684251655492,22.445843157786694],[114.1668422305687,22.445844292535806],[114.16684192427898,22.445845422587816],[114.16684159778293,22.445846547852444],[114.16684125117774,22.445847667787831],[114.16684088456059,22.445848782303724],[114.16684049802861,22.445849890948587],[114.16684009158183,22.445850993451511],[114.16683966560888,22.445852089541585],[114.16683921991546,22.445853178857611],[114.16683875489021,22.445854261128691],[114.16683827043599,22.445855335993556],[114.16683776684425,22.445856403271687],[114.1668372442122,22.445857462601843],[114.16683670263697,22.445858513713084],[114.16683614231287,22.445859556244248],[114.16683556343425,22.445860590014714],[114.16683496600109,22.445861614572969],[114.16683435040207,22.445862629828717],[114.16683371663713,22.445863635420771],[114.16683266869943,22.445865103165751],[114.16683193254552,22.445866046441324],[114.16683116316882,22.445866966596871],[114.16683036134663,22.445867862458449],[114.16682952805044,22.445868733213445],[114.16682866415468,22.445869577687894],[114.16682777063087,22.445870395159446],[114.16682684845054,22.445871184634832],[114.16682589858529,22.445871945211024],[114.16682492210374,22.445872676075368],[114.16682392017174,22.445873376505507],[114.16682289376078,22.44587404568875],[114.16682184403676,22.445874682812406],[114.16682077206829,22.445875287244458],[114.16681967931268,22.445875858352842],[114.16681856664425,22.445876395415159],[114.16681743552027,22.44587689798],[114.16681628710657,22.445877365324975],[114.16681512256896,22.445877796998662],[114.16681394336464,22.445878192639906],[114.16681275056231,22.445878551616659],[114.16681154571636,22.44587887374842],[114.1668103300897,22.445879158493408],[114.16680910484817,22.445879405671118],[114.16680787154608,22.445879614920372],[114.16680663144645,22.445879786060736],[114.16680538600643,22.445879918821294],[114.16680413639183,22.445880013202164],[114.16680288415705,22.445880069022831],[114.16680163056496,22.445880086193043],[114.16680037707282,22.44588006471292],[114.16679912504068,22.445880004582552],[114.16679787592571,22.445879905982608],[114.1667966308937,22.445879768913173],[114.16679539149901,22.445879593464653],[114.16679415900454,22.445879379998345],[114.16679293486749,22.445879128694962],[114.1667917202536,22.445878839735133],[114.1667905167172,22.445878513570555],[114.16678932542406,22.445878150381848],[114.16678814773418,22.445877750801252],[114.16678698500763,22.445877315099771],[114.16678583841014,22.445876843819292],[114.16678470930171,22.445876337411427],[114.16678359875098,22.445875796508396],[114.16678250821504,22.445875221652081],[114.16678143876251,22.445874613565],[114.16678039155912,22.445873972789077],[114.16677936777057,22.44587330013708],[114.16677836856257,22.445872596331562],[114.16677739500376,22.445871862095007],[114.16677644825977,22.445871098240211],[114.16677552910771,22.44587030557998],[114.16677463890763,22.445869485107782],[114.16677377833949,22.445868637636355],[114.16677294847182,22.445867764068819],[114.16677215027607,22.445866865398603],[114.1667713845293,22.445865942709407],[114.16677065210578,22.445864996813981],[114.16676995387978,22.445864028976725],[114.16676929043406,22.445863040100658],[114.16676866274008,22.445862031269517],[114.1667680713806,22.445861003747602],[114.16676751693844,22.44585995852831],[114.16676651090985,22.445858192470013],[114.16676595520474,22.445857147792456],[114.16676542252434,22.445856092821622],[114.16676491325721,22.445855027828422],[114.16676442750042,22.445853953445038],[114.16676396554544,22.44585287012298],[114.16676352748934,22.445851778133182],[114.16676311352641,22.445850678017468],[114.16676272394805,22.445849570317698],[114.16676235875418,22.445848455485397],[114.16676201813915,22.445847333881787],[114.16676170239433,22.445846206048728],[114.1667614114225,22.445845072437692],[114.16676114551508,22.445843933590563],[114.16676090467207,22.445842789868568],[114.16676068908771,22.445841641813526],[114.16676049885913,22.445840489876993],[114.16676033398625,22.445839334600766],[114.16676019456624,22.445838176346058],[114.16676008069615,22.44583701574502],[114.16675999227886,22.445835853249203],[114.1667599296057,22.445834689310111],[114.16675991138327,22.44583411786185],[114.16675989248243,22.445833524379253],[114.16675988100607,22.445832359088794],[114.16675989517667,22.445831193709626],[114.16675993499413,22.445830028873885],[114.16675994734767,22.445829809705533],[114.16676000045844,22.445828865033089],[114.16676009147243,22.44582770272908],[114.16676020813318,22.445826542323058],[114.16676035024635,22.445825384447154],[114.16676051781197,22.445824229462584],[114.1667607107328,22.445823078001478],[114.16676092900883,22.445821930334731],[114.16676117254286,22.44582078709449],[114.16676144104342,22.445819648732254],[114.16676173460762,22.445818515789863],[114.16676205304115,22.445817388538206],[114.1667623962468,22.445816267699712],[114.16676276403027,22.445815153545276],[114.16676315629434,22.445814046616757],[114.16676357274757,22.445812947365596],[114.16676401338989,22.445811856333684],[114.16676447792987,22.445810773791887],[114.16676496617313,22.445809700462622],[114.1667654779254,22.44580863652649],[114.16676601299231,22.445807582615611],[114.16676657108238,22.445806539000898],[114.16676715209846,22.445805506314482],[114.16676775574909,22.445804484827207],[114.16676838164558,22.445803475080915],[114.16676902969081,22.445802477436803],[114.1667696995933,22.445801492346384],[114.16677039096444,22.445800520170867],[114.16677110370701,22.445799561361756],[114.16677187863732,22.445798416709753],[114.166772583317,22.445797452752764],[114.16677332121952,22.445796510651533],[114.16677409166476,22.445795591309075],[114.1667748938755,22.445794695808996],[114.16677572697729,22.445793824873647],[114.16677659009579,22.445792979676995],[114.16677748225943,22.445792160941348],[114.16677840259382,22.445791369569751],[114.16677935012746,22.44579060646516],[114.16678032379163,22.445789872349941],[114.16678132261481,22.445789168036786],[114.16678234552836,22.445788494248035],[114.16678339136641,22.445787851706104],[114.16678445925461,22.445787241043028],[114.16678554783286,22.44578666307148],[114.16678665603247,22.445786118152622],[114.16678778278481,22.44578560709909],[114.16678892672972,22.445785130362356],[114.16679008679864,22.445784688303547],[114.16679126163139,22.445784281645039],[114.1667924500622,22.445783910567368],[114.16679365092523,22.445783575702571],[114.16679486276335,22.445783277231168],[114.16679608441065,22.445783015514312],[114.1667973146043,22.445782790822832],[114.16679855198412,22.445782603427595],[114.16679979528726,22.445782453509089],[114.16680104305647,22.44578234115755],[114.16680229422312,22.445782266643779],[114.16680354732999,22.44578222987743],[114.16680480101702,22.445782231039018],[114.16680605392415,22.445782270038155],[114.16680730488561,22.445782346784458],[114.16680855254135,22.445782461368132],[114.16680979553132,22.445782613608511],[114.16681103249546,22.445782803234572],[114.16681226217084,22.44578303015598],[114.16681348329462,22.44578329410167],[114.16681469450673,22.445783594710388],[114.1668158946414,22.44578393180144],[114.16681708233865,22.445784305013529],[114.16681825633555,22.445784713804755],[114.16681941546636,22.445785157904105],[114.16682055837107,22.445785636769706],[114.16682168398111,22.44578614985965],[114.16682279113073,22.445786696722301],[114.16682387845989,22.445787276725518],[114.16682494499719,22.44578788923706],[114.16682598957688,22.445788533715035],[114.16682701113044,22.445789209346643],[114.16682800849209,22.445789915499674],[114.16682898059329,22.445790651361335],[114.16682992646265,22.445791416209115],[114.16683084512871,22.44579220923022],[114.16683173562006,22.445793029611846],[114.16683259696535,22.445793876360579],[114.16683342819307,22.44579474875394],[114.16683422852618,22.445795645798523],[114.16683499709039,22.44579656650091],[114.16683573301147,22.445797509958009],[114.16683643560944,22.445798475086146],[114.16683710410717,22.445799460982201],[114.16683773782476,22.445800466562488],[114.16683833598506,22.445801490743314],[114.16683889810243,22.445802532440972],[114.16683942339975,22.445803590571789],[114.16683991158567,22.445804663961756],[114.16684036188312,22.445805751617502],[114.16684063976867,22.445806493667106],[114.16684206170368,22.445810722265122]]]},"properties":{"OBJECTID":162595,"Shape__Length":30.967103997942228,"Shape__Area":74.799325584892642,"GeoRefNo":"3523134045","DateCreate":1114790400000,"BuildingBlockType":"Tower","BuildingCSUID":"3523134045T20050430","BuildingID":1106129482,"Status":"Active","BuildingNameEN":"TAI PO COMPLEX","BuildingNameTC":"大埔綜合大樓","BaseHeight":18.600000000000001,"TopHeight":21.600000000000001,"Storeys":null,"StoreysInBasement":null,"DateStamp":1286899200000}},{"type":"Feature","id":162636,"geometry":{"type":"Polygon","coordinates":[[[114.16621318944534,22.444229814954692],[114.16620745765401,22.444222977438852],[114.16620961535385,22.44422192264312],[114.16622767620393,22.444213093310054],[114.16624258511877,22.444240355428388],[114.16622426923757,22.444249440398526],[114.16621318944534,22.444229814954692]]]},"properties":{"OBJECTID":162636,"Shape__Length":11.289369541645446,"Shape__Area":7.4050632351589636,"GeoRefNo":"3517133867","DateCreate":1210780800000,"BuildingBlockType":"Temporary Structure","BuildingCSUID":"3517133867T20080515","BuildingID":1106130254,"Status":"Active","BuildingNameEN":null,"BuildingNameTC":null,"BaseHeight":null,"TopHeight":null,"Storeys":null,"StoreysInBasement":null,"DateStamp":1286899200000}},{"type":"Feature","id":162967,"geometry":{"type":"Polygon","coordinates":[[[114.16605671538383,22.4443732381025],[114.16603563501329,22.444383114747051],[114.16602317368681,22.444360132126285],[114.16605978239973,22.444342980141201],[114.16607192475632,22.44436274040056],[114.16605671538383,22.4443732381025]]]},"properties":{"OBJECTID":162967,"Shape__Length":13.970001382774212,"Shape__Area":11.915663736269963,"GeoRefNo":"3515333882","DateCreate":1210780800000,"BuildingBlockType":"Open-sided Structure","BuildingCSUID":"3515333882T20080515","BuildingID":1106130184,"Status":"Active","BuildingNameEN":null,"BuildingNameTC":null,"BaseHeight":null,"TopHeight":null,"Storeys":null,"StoreysInBasement":null,"DateStamp":1286899200000}},{"type":"Feature","id":162989,"geometry":{"type":"Polygon","coordinates":[[[114.16567774521812,22.444266045133038],[114.16569207490819,22.444258469570986],[114.16570838354359,22.444286465108096],[114.16569376612657,22.444293758179047],[114.16567774521812,22.444266045133038]]]},"properties":{"OBJECTID":162989,"Shape__Length":10.414013770504098,"Shape__Area":5.9653378508886519,"GeoRefNo":"3511733872","DateCreate":1210780800000,"BuildingBlockType":"Temporary Structure","BuildingCSUID":"3511733872T20080515","BuildingID":1106130224,"Status":"Active","BuildingNameEN":null,"BuildingNameTC":null,"BaseHeight":null,"TopHeight":null,"Storeys":null,"StoreysInBasement":null,"DateStamp":1286899200000}}]}