{"type":"FeatureCollection","features":[{"type":"Feature","id":333495,"geometry":{"type":"Polygon","coordinates":[[[114.16677671430436,22.444149172159566],[114.16672148065717,22.444182348587962],[114.16675003238552,22.444226008021797],[114.16675641864849,22.44423997889665],[114.16670306710382,22.44422460806841],[114.1667023177328,22.44419631777151],[114.16669292630931,22.444173615248413],[114.1666857886548,22.44415929502566],[114.16676581959459,22.444131009879335],[114.16677671430436,22.444149172159566]]]},"properties":{"OBJECTID":333495,"Shape__Length":38.548974690861684,"Shape__Area":47.546538767739527,"GeoRefNo":"3522733857","DateCreate":1374681600000,"BuildingBlockType":"Temporary Structure","BuildingCSUID":"3522733857T20130725","BuildingID":1810103054,"Status":"Active","BuildingNameEN":null,"BuildingNameTC":null,"BaseHeight":null,"TopHeight":null,"Storeys":null,"StoreysInBasement":null,"DateStamp":1710604800000}},{"type":"Feature","id":333498,"geometry":{"type":"Polygon","coordinates":[[[114.16687853611334,22.444135557205556],[114.16683945895086,22.444163845039931],[114.16681991985263,22.444183751738706],[114.16680789628555,22.444190037724319],[114.16677671430436,22.444149172159566],[114.16676581959459,22.444131009879335],[114.1668169187385,22.444119836696849],[114.16685411635477,22.444104471423898],[114.16687853611334,22.444135557205556]]]},"properties":{"OBJECTID":333498,"Shape__Length":31.209332336585806,"Shape__Area":54.671145181455643,"GeoRefNo":"3523433857","DateCreate":1374681600000,"BuildingBlockType":"Open-sided Structure","BuildingCSUID":"3523433857T20130725","BuildingID":1810103058,"Status":"Active","BuildingNameEN":null,"BuildingNameTC":null,"BaseHeight":null,"TopHeight":null,"Storeys":null,"StoreysInBasement":null,"DateStamp":1710604800000}},{"type":"Feature","id":333499,"geometry":{"type":"Polygon","coordinates":[[[114.1650246610384,22.445395365397484],[114.16499904705458,22.445423730254376],[114.16490958417471,22.445353049256649],[114.1649355443417,22.445324180810818],[114.1650246610384,22.445395365397484]]]},"properties":{"OBJECTID":333499,"Shape__Length":32.448318951572531,"Shape__Area":49.976193009253365,"GeoRefNo":"3504233994","DateCreate":1404403200000,"BuildingBlockType":"Tower","BuildingCSUID":"3504233994T20140704","BuildingID":1810129503,"Status":"Active","BuildingNameEN":null,"BuildingNameTC":null,"BaseHeight":12.4,"TopHeight":20.600000000000001,"Storeys":null,"StoreysInBasement":null,"DateStamp":1711555200000}},{"type":"Feature","id":333500,"geometry":{"type":"Polygon","coordinates":[[[114.16554196590799,22.444357360051811],[114.16553086077289,22.444373415514182],[114.16549734706528,22.444353609916451],[114.16550415781067,22.444343974898953],[114.1654965901259,22.444343739575569],[114.16548745423941,22.444313259521117],[114.16548624298754,22.444298121232034],[114.16548974526386,22.444295083000981],[114.16548536431374,22.444290775165708],[114.16549276736316,22.444284662067847],[114.16548891818937,22.444281585030808],[114.1655296938664,22.444270161747493],[114.16555253021053,22.444331897344867],[114.16553206868605,22.444338723298507],[114.16551813722542,22.444343370839363],[114.16554196590799,22.444357360051811]]]},"properties":{"OBJECTID":333500,"Shape__Length":34.409577062823303,"Shape__Area":47.680427102164636,"GeoRefNo":"3510033876","DateCreate":1429804800000,"BuildingBlockType":"Temporary Structure","BuildingCSUID":"3510033876T20150424","BuildingID":1810141506,"Status":"Active","BuildingNameEN":null,"BuildingNameTC":null,"BaseHeight":15.1,"TopHeight":18.100000000000001,"Storeys":null,"StoreysInBasement":null,"DateStamp":1710691200000}},{"type":"Feature","id":333501,"geometry":{"type":"Polygon","coordinates":[[[114.16534322220777,22.444437997108238],[114.1653265967774,22.444423629011034],[114.16541548207921,22.444350145479952],[114.16548560668581,22.444278937881169],[114.16548891818937,22.444281585030808],[114.16549276736316,22.444284662067847],[114.16548536431374,22.444290775165708],[114.16548974526386,22.444295083000981],[114.16548624298754,22.444298121232034],[114.16545751574024,22.444325509393227],[114.16545938279357,22.444327927068056],[114.16543475579557,22.444351718141856],[114.16544176910507,22.444359800894667],[114.16536475167059,22.444431370285752],[114.16535781898862,22.444424527507216],[114.16534322220777,22.444437997108238]]]},"properties":{"OBJECTID":333501,"Shape__Length":52.152311971841428,"Shape__Area":51.689056680944702,"GeoRefNo":"3508833883","DateCreate":1429804800000,"BuildingBlockType":"Open-sided Structure","BuildingCSUID":"3508833883T20150424","BuildingID":1810141508,"Status":"Active","BuildingNameEN":null,"BuildingNameTC":null,"BaseHeight":null,"TopHeight":19.699999999999999,"Storeys":null,"StoreysInBasement":null,"DateStamp":1712419200000}},{"type":"Feature","id":333502,"geometry":{"type":"Polygon","coordinates":[[[114.16665191769373,22.443835270657072],[114.16661742862476,22.44385106193177],[114.16658711872526,22.443794775435489],[114.16662216106127,22.44377855977072],[114.16665191769373,22.443835270657072]]]},"properties":{"OBJECTID":333502,"Shape__Length":21.944344508415671,"Shape__Area":27.868787537106932,"GeoRefNo":"3521233821","DateCreate":1430236800000,"BuildingBlockType":"Tower","BuildingCSUID":"3521233821T20150429","BuildingID":1810141654,"Status":"Active","BuildingNameEN":null,"BuildingNameTC":null,"BaseHeight":11.199999999999999,"TopHeight":19.399999999999999,"Storeys":null,"StoreysInBasement":null,"DateStamp":1710432000000}},{"type":"Feature","id":333503,"geometry":{"type":"Polygon","coordinates":[[[114.16624217539922,22.444496833607946],[114.16624763491198,22.444552159501324],[114.16622247010254,22.44455177315098],[114.16622140046567,22.444538436001455],[114.16615862825738,22.444530931796809],[114.16616414039792,22.444482077489134],[114.16614773977794,22.444480305350957],[114.16615545106312,22.444451242966771],[114.16620620212892,22.444461398445497],[114.16620663143389,22.444448459456879],[114.1662173210191,22.444447487761135],[114.16621434234736,22.444425368909815],[114.16623639930184,22.444422185408701],[114.1662404660232,22.444448063619244],[114.16624217539922,22.444496833607946]]]},"properties":{"OBJECTID":333503,"Shape__Length":48.141496914928027,"Shape__Area":90.211905273682973,"GeoRefNo":"3516933896","DateCreate":1430928000000,"BuildingBlockType":"Temporary Structure","BuildingCSUID":"3516933896T20150507","BuildingID":1810142006,"Status":"Active","BuildingNameEN":null,"BuildingNameTC":null,"BaseHeight":null,"TopHeight":10.300000000000001,"Storeys":null,"StoreysInBasement":null,"DateStamp":1710604800000}},{"type":"Feature","id":333504,"geometry":{"type":"Polygon","coordinates":[[[114.1655569069418,22.444360784271353],[114.16555133636463,22.444350078818974],[114.16555846232338,22.444347934042106],[114.16555253021053,22.444331897344867],[114.1655296938664,22.444270161747493],[114.16560400383626,22.444249479607532],[114.16559809401907,22.444225586055847],[114.16563279430166,22.444215792320481],[114.16564076122604,22.444229650920001],[114.16564475742082,22.444228638521885],[114.16565237632292,22.444241860178625],[114.16566833844573,22.444270840376682],[114.16569100747499,22.444311824227356],[114.16567989787927,22.444315893395732],[114.16568839663123,22.444335354614296],[114.16570150242894,22.444330824036502],[114.16570995033892,22.444345895184831],[114.16567581997495,22.444359485289134],[114.16566643285316,22.444342030124151],[114.16560577664859,22.444359399788564],[114.1656022657458,22.444346528345903],[114.1655569069418,22.444360784271353]]]},"properties":{"OBJECTID":333504,"Shape__Length":63.955435244154721,"Shape__Area":171.24716991061882,"GeoRefNo":"3510933875","DateCreate":1430928000000,"BuildingBlockType":"Temporary Structure","BuildingCSUID":"3510933875T20150507","BuildingID":1810142025,"Status":"Active","BuildingNameEN":null,"BuildingNameTC":null,"BaseHeight":null,"TopHeight":17.5,"Storeys":null,"StoreysInBasement":null,"DateStamp":1710691200000}},{"type":"Feature","id":333505,"geometry":{"type":"Polygon","coordinates":[[[114.16565900779715,22.444377934790829],[114.16561520249489,22.444385685300162],[114.16561690648577,22.444393608288571],[114.16557027100343,22.444401431284103],[114.16557633066088,22.444429669940611],[114.16555756173,22.444432594497606],[114.16554832697193,22.444384783912614],[114.1655519998648,22.444375413265977],[114.16556027297247,22.444373940073881],[114.16560857905523,22.444361510310642],[114.1656530977927,22.444356191573515],[114.16565900779715,22.444377934790829]]]},"properties":{"OBJECTID":333505,"Shape__Length":35.124380734344221,"Shape__Area":40.394542890216677,"GeoRefNo":"3510833884","DateCreate":1430928000000,"BuildingBlockType":"Temporary Structure","BuildingCSUID":"3510833884T20150507","BuildingID":1810142028,"Status":"Active","BuildingNameEN":null,"BuildingNameTC":null,"BaseHeight":15.1,"TopHeight":17.600000000000001,"Storeys":null,"StoreysInBasement":null,"DateStamp":1712419200000}},{"type":"Feature","id":333531,"geometry":{"type":"Polygon","coordinates":[[[114.16294925549059,22.446498450669555],[114.16291814857566,22.446500055410571],[114.16291529720084,22.446452238916535],[114.16292783915112,22.446451591882248],[114.16294640410513,22.446450634176063],[114.16294925549059,22.446498450669555]]]},"properties":{"OBJECTID":333531,"Shape__Length":17.020198950070334,"Shape__Area":17.00692588155108,"GeoRefNo":"3483334116","DateCreate":1114790400000,"BuildingBlockType":"Tower","BuildingCSUID":"3483334116T20050430","BuildingID":1106129202,"Status":"Active","BuildingNameEN":null,"BuildingNameTC":null,"BaseHeight":38.299999999999997,"TopHeight":42.5,"Storeys":null,"StoreysInBasement":null,"DateStamp":1712419200000}},{"type":"Feature","id":333532,"geometry":{"type":"Polygon","coordinates":[[[114.16291589911634,22.446677182580959],[114.16288200104403,22.446686129283712],[114.16285232752882,22.446694283561982],[114.16283373588023,22.446635682981299],[114.16284380218016,22.446632580539298],[114.1628376224551,22.446611733654773],[114.16287110025034,22.446602784215759],[114.16287805025165,22.446623778000788],[114.16289750431254,22.44661810720326],[114.16291589911634,22.446677182580959]]]},"properties":{"OBJECTID":333532,"Shape__Length":31.991192084854269,"Shape__Area":55.022337862047394,"GeoRefNo":"3482634135","DateCreate":1114790400000,"BuildingBlockType":"Tower","BuildingCSUID":"3482634135T20050430","BuildingID":1106129130,"Status":"Active","BuildingNameEN":null,"BuildingNameTC":null,"BaseHeight":40,"TopHeight":44.899999999999999,"Storeys":null,"StoreysInBasement":null,"DateStamp":1712419200000}},{"type":"Feature","id":333534,"geometry":{"type":"Polygon","coordinates":[[[114.16247442236454,22.446525597730293],[114.1624317824174,22.446580903105708],[114.16239664643869,22.44655926986422],[114.16243710031961,22.446501641580131],[114.16247442236454,22.446525597730293]]]},"properties":{"OBJECTID":333534,"Shape__Length":24.16158925990824,"Shape__Area":34.114006721765193,"GeoRefNo":"3478134124","DateCreate":1114790400000,"BuildingBlockType":"Tower","BuildingCSUID":"3478134124T20050430","BuildingID":1106129179,"Status":"Active","BuildingNameEN":null,"BuildingNameTC":null,"BaseHeight":55,"TopHeight":57,"Storeys":null,"StoreysInBasement":null,"DateStamp":1712073600000}},{"type":"Feature","id":333536,"geometry":{"type":"Polygon","coordinates":[[[114.16409981758218,22.446404028334275],[114.16408360830364,22.446411131401948],[114.16407070440179,22.446416950508748],[114.16405644045297,22.446388586623332],[114.16408540783226,22.44637648277951],[114.16409981758218,22.446404028334275]]]},"properties":{"OBJECTID":333536,"Shape__Length":13.449107394253431,"Shape__Area":11.283363754501856,"GeoRefNo":"3495234108","DateCreate":1114790400000,"BuildingBlockType":"Tower","BuildingCSUID":"3495234108T20050430","BuildingID":1106129236,"Status":"Active","BuildingNameEN":null,"BuildingNameTC":null,"BaseHeight":17.600000000000001,"TopHeight":21.899999999999999,"Storeys":null,"StoreysInBasement":null,"DateStamp":1711555200000}},{"type":"Feature","id":333537,"geometry":{"type":"Polygon","coordinates":[[[114.16273917362746,22.446291203878705],[114.1627362908382,22.44633086618953],[114.16266833045245,22.44632780189438],[114.16266956584076,22.446311937031943],[114.16267059642134,22.446287661729336],[114.16273917362746,22.446291203878705]]]},"properties":{"OBJECTID":333537,"Shape__Length":22.927487456688944,"Shape__Area":31.069530844000514,"GeoRefNo":"3480834097","DateCreate":1114790400000,"BuildingBlockType":"Tower","BuildingCSUID":"3480834097T20050430","BuildingID":1106129269,"Status":"Active","BuildingNameEN":null,"BuildingNameTC":null,"BaseHeight":45.100000000000001,"TopHeight":49.100000000000001,"Storeys":null,"StoreysInBasement":null,"DateStamp":1712160000000}},{"type":"Feature","id":333539,"geometry":{"type":"Polygon","coordinates":[[[114.1627525090308,22.446331316057915],[114.1627362908382,22.44633086618953],[114.16273917362746,22.446291203878705],[114.16267059642134,22.446287661729336],[114.16266956584076,22.446311937031943],[114.16263756124236,22.446309522998209],[114.16263821524348,22.446299003119734],[114.16263408014943,22.446299002755918],[114.162634953142,22.446274928367195],[114.16272918953256,22.446278982726266],[114.16275528289587,22.44628027617912],[114.1627525090308,22.446331316057915]]]},"properties":{"OBJECTID":333539,"Shape__Length":41.457309767501947,"Shape__Area":32.083779044253369,"GeoRefNo":"3480434095","DateCreate":1248192000000,"BuildingBlockType":"Temporary Structure","BuildingCSUID":"3480434095T20090722","BuildingID":1106129270,"Status":"Active","BuildingNameEN":null,"BuildingNameTC":null,"BaseHeight":null,"TopHeight":null,"Storeys":null,"StoreysInBasement":null,"DateStamp":1712160000000}},{"type":"Feature","id":333540,"geometry":{"type":"Polygon","coordinates":[[[114.1639246364273,22.44647032710747],[114.16390648825099,22.446473280238138],[114.1639004284625,22.446474279513982],[114.16387803028817,22.446477973430007],[114.16387401889368,22.446478635040062],[114.16386343512943,22.4464231650839],[114.16391409064136,22.446414717004981],[114.1639246364273,22.44647032710747]]]},"properties":{"OBJECTID":333540,"Shape__Length":23.079907719230267,"Shape__Area":33.058846926515571,"GeoRefNo":"3493134113","DateCreate":1114790400000,"BuildingBlockType":"Tower","BuildingCSUID":"3493134113T20050430","BuildingID":1106129210,"Status":"Active","BuildingNameEN":null,"BuildingNameTC":null,"BaseHeight":21.199999999999999,"TopHeight":27.100000000000001,"Storeys":null,"StoreysInBasement":null,"DateStamp":1712419200000}},{"type":"Feature","id":333541,"geometry":{"type":"Polygon","coordinates":[[[114.16405419494012,22.446389003923347],[114.16406793289669,22.446423038440287],[114.164014654364,22.446442435783357],[114.16399814309786,22.446403577244297],[114.16405195140405,22.446383753620854],[114.16405419494012,22.446389003923347]]]},"properties":{"OBJECTID":333541,"Shape__Length":21.125437754194145,"Shape__Area":27.502288221642591,"GeoRefNo":"3494734110","DateCreate":1114790400000,"BuildingBlockType":"Tower","BuildingCSUID":"3494734110T20050430","BuildingID":1106129226,"Status":"Active","BuildingNameEN":null,"BuildingNameTC":null,"BaseHeight":19.100000000000001,"TopHeight":23.699999999999999,"Storeys":null,"StoreysInBasement":null,"DateStamp":1711555200000}},{"type":"Feature","id":333641,"geometry":{"type":"Polygon","coordinates":[[[114.16592125466907,22.444483099748144],[114.16589642132551,22.444502672662047],[114.1658934300803,22.444500288960917],[114.16586736427924,22.444471089381942],[114.16589877538344,22.444456790523549],[114.16592125466907,22.444483099748144]]]},"properties":{"OBJECTID":333641,"Shape__Length":15.279536793541595,"Shape__Area":14.397331279600367,"GeoRefNo":"3513733895","DateCreate":1210780800000,"BuildingBlockType":"Open-sided Structure","BuildingCSUID":"3513733895T20080515","BuildingID":1106130124,"Status":"Active","BuildingNameEN":null,"BuildingNameTC":null,"BaseHeight":null,"TopHeight":null,"Storeys":null,"StoreysInBasement":null,"DateStamp":1712419200000}},{"type":"Feature","id":333642,"geometry":{"type":"Polygon","coordinates":[[[114.16663240849476,22.444234157025832],[114.16659599426205,22.444250101781467],[114.16657854289161,22.444215820612673],[114.16661572595774,22.444199539344506],[114.16663240849476,22.444234157025832]]]},"properties":{"OBJECTID":333642,"Shape__Length":16.774596080617556,"Shape__Area":17.585040174081957,"GeoRefNo":"3521033867","DateCreate":1114790400000,"BuildingBlockType":"Tower","BuildingCSUID":"3521033867T20050430","BuildingID":1106130250,"Status":"Active","BuildingNameEN":null,"BuildingNameTC":null,"BaseHeight":5.7000000000000002,"TopHeight":13.4,"Storeys":null,"StoreysInBasement":null,"DateStamp":1710604800000}},{"type":"Feature","id":333643,"geometry":{"type":"Polygon","coordinates":[[[114.16652268934889,22.444262518414938],[114.16652298718969,22.444273161186938],[114.16647652938553,22.44427439529365],[114.16647514178679,22.444254247626318],[114.1665128245583,22.444241099169329],[114.16652268934889,22.444262518414938]]]},"properties":{"OBJECTID":333643,"Shape__Length":14.922142464101718,"Shape__Area":13.554158736784903,"GeoRefNo":"3520033871","DateCreate":1114790400000,"BuildingBlockType":"Tower","BuildingCSUID":"3520033871T20050430","BuildingID":1106130241,"Status":"Active","BuildingNameEN":null,"BuildingNameTC":null,"BaseHeight":6.2999999999999998,"TopHeight":11.699999999999999,"Storeys":null,"StoreysInBasement":null,"DateStamp":1710691200000}},{"type":"Feature","id":333644,"geometry":{"type":"Polygon","coordinates":[[[114.16659599426205,22.444250101781467],[114.16653248386518,22.444277911180944],[114.1665147275547,22.444243763185103],[114.16657854289161,22.444215820612673],[114.16659599426205,22.444250101781467]]]},"properties":{"OBJECTID":333644,"Shape__Length":22.887624754416684,"Shape__Area":30.422856341514308,"GeoRefNo":"3520633870","DateCreate":1114790400000,"BuildingBlockType":"Tower","BuildingCSUID":"3520633870T20050430","BuildingID":1106130236,"Status":"Active","BuildingNameEN":null,"BuildingNameTC":null,"BaseHeight":5.7999999999999998,"TopHeight":13.1,"Storeys":null,"StoreysInBasement":null,"DateStamp":1710604800000}},{"type":"Feature","id":333645,"geometry":{"type":"Polygon","coordinates":[[[114.16595688868944,22.444159203379147],[114.1659203033697,22.444177053938915],[114.16587284013733,22.444095374585611],[114.16586253208459,22.444077640327802],[114.16589946343763,22.444059569551545],[114.16595688868944,22.444159203379147]]]},"properties":{"OBJECTID":333645,"Shape__Length":33.57848429802219,"Shape__Area":53.491958238397245,"GeoRefNo":"3513833853","DateCreate":1114790400000,"BuildingBlockType":"Tower","BuildingCSUID":"3513833853T20050430","BuildingID":1106130286,"Status":"Active","BuildingNameEN":null,"BuildingNameTC":null,"BaseHeight":11.5,"TopHeight":18.199999999999999,"Storeys":null,"StoreysInBasement":null,"DateStamp":1710432000000}},{"type":"Feature","id":333646,"geometry":{"type":"Polygon","coordinates":[[[114.16680789628555,22.444190037724319],[114.16675003238552,22.444226008021797],[114.16672148065717,22.444182348587962],[114.16677671430436,22.444149172159566],[114.16680789628555,22.444190037724319]]]},"properties":{"OBJECTID":333646,"Shape__Length":25.140800995343831,"Shape__Area":39.012731784649148,"GeoRefNo":"3522633862","DateCreate":1114790400000,"BuildingBlockType":"Tower","BuildingCSUID":"3522633862T20050430","BuildingID":1106130271,"Status":"Active","BuildingNameEN":null,"BuildingNameTC":null,"BaseHeight":5.5,"TopHeight":12.800000000000001,"Storeys":null,"StoreysInBasement":null,"DateStamp":1710604800000}},{"type":"Feature","id":333647,"geometry":{"type":"Polygon","coordinates":[[[114.16602637043539,22.444125123134981],[114.1659917769889,22.444142126877988],[114.16593450852875,22.444042293319477],[114.16597098022733,22.444024701200178],[114.16602637043539,22.444125123134981]]]},"properties":{"OBJECTID":333647,"Shape__Length":33.283424683950223,"Shape__Area":51.662019030673385,"GeoRefNo":"3514533849","DateCreate":1114790400000,"BuildingBlockType":"Tower","BuildingCSUID":"3514533849T20050430","BuildingID":1106130296,"Status":"Active","BuildingNameEN":null,"BuildingNameTC":null,"BaseHeight":11.199999999999999,"TopHeight":17.899999999999999,"Storeys":null,"StoreysInBasement":null,"DateStamp":1710432000000}},{"type":"Feature","id":333648,"geometry":{"type":"Polygon","coordinates":[[[114.1663811603823,22.444253024892348],[114.16632796367298,22.444279606556588],[114.16631366588096,22.444254970091016],[114.16636705311818,22.444229274692692],[114.1663811603823,22.444253024892348]]]},"properties":{"OBJECTID":333648,"Shape__Length":18.509557189423568,"Shape__Area":18.928415071091237,"GeoRefNo":"3518333870","DateCreate":1210780800000,"BuildingBlockType":"Open-sided Structure","BuildingCSUID":"3518333870T20080515","BuildingID":1106130234,"Status":"Active","BuildingNameEN":null,"BuildingNameTC":null,"BaseHeight":null,"TopHeight":null,"Storeys":null,"StoreysInBasement":null,"DateStamp":1707062400000}},{"type":"Feature","id":333649,"geometry":{"type":"Polygon","coordinates":[[[114.166295740726,22.444293605995899],[114.16625951375067,22.444309377393282],[114.16624521605139,22.444284918189616],[114.16628087105116,22.444268792222303],[114.166295740726,22.444293605995899]]]},"properties":{"OBJECTID":333649,"Shape__Length":14.427333060241931,"Shape__Area":12.744570276539159,"GeoRefNo":"3517633874","DateCreate":1210780800000,"BuildingBlockType":"Temporary Structure","BuildingCSUID":"3517633874T20080515","BuildingID":1106130213,"Status":"Active","BuildingNameEN":null,"BuildingNameTC":null,"BaseHeight":null,"TopHeight":null,"Storeys":null,"StoreysInBasement":null,"DateStamp":1707062400000}},{"type":"Feature","id":333651,"geometry":{"type":"Polygon","coordinates":[[[114.16668268573872,22.443819917479225],[114.16668303813609,22.443820582865396],[114.16665191769373,22.443835270657072],[114.16662216106127,22.44377855977072],[114.16660943473063,22.443754857810578],[114.16660055767754,22.443738298461799],[114.1666318135065,22.443723865166685],[114.16668268573872,22.443819917479225]]]},"properties":{"OBJECTID":333651,"Shape__Length":31.092456899903048,"Shape__Area":42.790260230724769,"GeoRefNo":"3521433817","DateCreate":1114790400000,"BuildingBlockType":"Tower","BuildingCSUID":"3521433817T20050430","BuildingID":1106130413,"Status":"Active","BuildingNameEN":null,"BuildingNameTC":null,"BaseHeight":11.199999999999999,"TopHeight":19.199999999999999,"Storeys":null,"StoreysInBasement":null,"DateStamp":1710432000000}},{"type":"Feature","id":333654,"geometry":{"type":"Polygon","coordinates":[[[114.16389849806139,22.443742901284821],[114.16385838608856,22.443761825448796],[114.16383159949505,22.443712299007949],[114.16385349266407,22.443702196683475],[114.16387140514746,22.443694513295515],[114.16389849806139,22.443742901284821]]]},"properties":{"OBJECTID":333654,"Shape__Length":21.356281607822204,"Shape__Area":28.008654377336224,"GeoRefNo":"3492933811","DateCreate":1114790400000,"BuildingBlockType":"Tower","BuildingCSUID":"3492933811T20050430","BuildingID":1106130447,"Status":"Active","BuildingNameEN":null,"BuildingNameTC":null,"BaseHeight":46.700000000000003,"TopHeight":53.799999999999997,"Storeys":null,"StoreysInBasement":null,"DateStamp":1711296000000}},{"type":"Feature","id":333655,"geometry":{"type":"Polygon","coordinates":[[[114.16666985797073,22.44365365613254],[114.16662678300661,22.443660037946017],[114.1666228690043,22.44364668165375],[114.16660129281379,22.443647836185342],[114.16659320318881,22.443612038943854],[114.16659198358764,22.443580729732947],[114.16661914325333,22.443577877469146],[114.16662126771131,22.443592806121732],[114.166659291249,22.443589295947202],[114.16665693075365,22.443572610946813],[114.16666839708161,22.443571162823183],[114.16672087562844,22.44356624452206],[114.16671625550731,22.443510824322253],[114.16674667994472,22.443507852859007],[114.16675345858998,22.443562878200666],[114.16675000986015,22.443563600421687],[114.16675956419775,22.443630227724409],[114.16672268347907,22.443637710853029],[114.16672415310867,22.443642981480547],[114.16666985797073,22.44365365613254]]]},"properties":{"OBJECTID":333655,"Shape__Length":66.112360910925673,"Shape__Area":152.7514981871407,"GeoRefNo":"3522133796","DateCreate":1210780800000,"BuildingBlockType":"Temporary Structure","BuildingCSUID":"3522133796T20080515","BuildingID":1106130496,"Status":"Active","BuildingNameEN":null,"BuildingNameTC":null,"BaseHeight":null,"TopHeight":null,"Storeys":null,"StoreysInBasement":null,"DateStamp":1706976000000}},{"type":"Feature","id":333665,"geometry":{"type":"Polygon","coordinates":[[[114.1636963998844,22.443411578744165],[114.16356119532631,22.443418010640585],[114.1635589081734,22.443375680549533],[114.16369437338086,22.443367704829374],[114.1636963998844,22.443411578744165]]]},"properties":{"OBJECTID":333665,"Shape__Length":37.464699243056828,"Shape__Area":66.669784220295085,"GeoRefNo":"3490433774","DateCreate":1435507200000,"BuildingBlockType":"Temporary Structure","BuildingCSUID":"3490433774T20150629","BuildingID":1106130626,"Status":"Active","BuildingNameEN":null,"BuildingNameTC":null,"BaseHeight":38.399999999999999,"TopHeight":43,"Storeys":null,"StoreysInBasement":null,"DateStamp":1710259200000}},{"type":"Feature","id":333666,"geometry":{"type":"Polygon","coordinates":[[[114.16371442368256,22.443338687811394],[114.1636236362059,22.443344537378689],[114.16362192086912,22.443313122628272],[114.16371041706968,22.443308071529167],[114.16371442368256,22.443338687811394]]]},"properties":{"OBJECTID":333666,"Shape__Length":25.393277987937655,"Shape__Area":31.870253164017385,"GeoRefNo":"3490833767","DateCreate":1114790400000,"BuildingBlockType":"Tower","BuildingCSUID":"3490833767T20050430","BuildingID":1106130663,"Status":"Active","BuildingNameEN":null,"BuildingNameTC":null,"BaseHeight":35.399999999999999,"TopHeight":38.5,"Storeys":null,"StoreysInBasement":null,"DateStamp":1710259200000}},{"type":"Feature","id":333675,"geometry":{"type":"Polygon","coordinates":[[[114.16647754019999,22.443167769949504],[114.16647539360768,22.443169935766775],[114.16646705624716,22.443179565400655],[114.16643965744775,22.443158135718974],[114.16645111133417,22.443147220349989],[114.16647754019999,22.443167769949504]]]},"properties":{"OBJECTID":333675,"Shape__Length":10.616158266236342,"Shape__Area":6.0932795748963722,"GeoRefNo":"3519533749","DateCreate":1249228800000,"BuildingBlockType":"Tower","BuildingCSUID":"3519533749T20090803","BuildingID":1106130759,"Status":"Active","BuildingNameEN":null,"BuildingNameTC":null,"BaseHeight":10,"TopHeight":19,"Storeys":null,"StoreysInBasement":null,"DateStamp":1710345600000}},{"type":"Feature","id":333678,"geometry":{"type":"Polygon","coordinates":[[[114.16520345856355,22.445649341842515],[114.16518811745787,22.445667862196927],[114.16514324783992,22.445635349318302],[114.1651414132174,22.445634142445812],[114.16514600103402,22.445629078951171],[114.16513697017605,22.445622681845638],[114.16515058468046,22.445608854497912],[114.16520345856355,22.445649341842515]]]},"properties":{"OBJECTID":333678,"Shape__Length":19.705008554090412,"Shape__Area":18.395236464143917,"GeoRefNo":"3506334023","DateCreate":1431014400000,"BuildingBlockType":"Temporary Structure","BuildingCSUID":"3506334023T20150508","BuildingID":1810142060,"Status":"Active","BuildingNameEN":"TAI PO PUN CHUNG COMMUNITY EDUCATION CENTER","BuildingNameTC":"大埔泮涌社區教育中心","BaseHeight":7.5,"TopHeight":10.6,"Storeys":null,"StoreysInBasement":null,"DateStamp":1711382400000}},{"type":"Feature","id":333679,"geometry":{"type":"Polygon","coordinates":[[[114.164186601721,22.445962302591546],[114.16418342871113,22.445948136541286],[114.16416936091851,22.445951964169478],[114.16416239283832,22.445927165274604],[114.1641700757488,22.44592501572675],[114.16426031908514,22.445903256501079],[114.16427103718122,22.44594196962603],[114.164186601721,22.445962302591546]]]},"properties":{"OBJECTID":333679,"Shape__Length":29.777101694533194,"Shape__Area":43.755705384767026,"GeoRefNo":"3496534056","DateCreate":1431273600000,"BuildingBlockType":"Temporary Structure","BuildingCSUID":"3496534056T20150511","BuildingID":1810142070,"Status":"Active","BuildingNameEN":null,"BuildingNameTC":null,"BaseHeight":null,"TopHeight":21.100000000000001,"Storeys":null,"StoreysInBasement":null,"DateStamp":1707062400000}},{"type":"Feature","id":333680,"geometry":{"type":"Polygon","coordinates":[[[114.16611505177232,22.443063147130044],[114.16610484917354,22.443075640992006],[114.16606252392545,22.443048214661768],[114.16607087083314,22.443037237614803],[114.16611505177232,22.443063147130044]]]},"properties":{"OBJECTID":333680,"Shape__Length":13.913839631257948,"Shape__Area":8.6054996585448684,"GeoRefNo":"3515833738","DateCreate":1431532800000,"BuildingBlockType":"Temporary Structure","BuildingCSUID":"3515833738T20150514","BuildingID":1810142177,"Status":"Active","BuildingNameEN":null,"BuildingNameTC":null,"BaseHeight":null,"TopHeight":null,"Storeys":null,"StoreysInBasement":null,"DateStamp":1710345600000}},{"type":"Feature","id":333682,"geometry":{"type":"Polygon","coordinates":[[[114.16652777453297,22.443268084471313],[114.16651019213212,22.443291851328453],[114.16646187253338,22.443260882703992],[114.16648011399096,22.443236893203249],[114.16652777453297,22.443268084471313]]]},"properties":{"OBJECTID":333682,"Shape__Length":18.48882274451622,"Shape__Area":19.408144556573202,"GeoRefNo":"3520033760","DateCreate":1431532800000,"BuildingBlockType":"Temporary Structure","BuildingCSUID":"3520033760T20150514","BuildingID":1810142186,"Status":"Active","BuildingNameEN":null,"BuildingNameTC":null,"BaseHeight":null,"TopHeight":null,"Storeys":null,"StoreysInBasement":null,"DateStamp":1710345600000}},{"type":"Feature","id":333683,"geometry":{"type":"Polygon","coordinates":[[[114.16646187253338,22.443260882703992],[114.16642632958687,22.443303574969217],[114.16638910511169,22.44327898859099],[114.16639660339789,22.44326987626183],[114.16642445054322,22.443236604891791],[114.16646187253338,22.443260882703992]]]},"properties":{"OBJECTID":333683,"Shape__Length":21.314657016154385,"Shape__Area":27.993311882890989,"GeoRefNo":"3519233761","DateCreate":1431532800000,"BuildingBlockType":"Tower","BuildingCSUID":"3519233761T20150514","BuildingID":1810142188,"Status":"Active","BuildingNameEN":null,"BuildingNameTC":null,"BaseHeight":13.6,"TopHeight":19.100000000000001,"Storeys":null,"StoreysInBasement":null,"DateStamp":1710432000000}},{"type":"Feature","id":333684,"geometry":{"type":"Polygon","coordinates":[[[114.166428152205,22.44323106187505],[114.16642445054322,22.443236604891791],[114.16639660339789,22.44326987626183],[114.16636410735623,22.443244621026665],[114.16639644595516,22.443208472397703],[114.166428152205,22.44323106187505]]]},"properties":{"OBJECTID":333684,"Shape__Length":19.069162713120832,"Shape__Area":22.603855481983356,"GeoRefNo":"3518933754","DateCreate":1431964800000,"BuildingBlockType":"Tower","BuildingCSUID":"3518933754T20150519","BuildingID":1810142189,"Status":"Active","BuildingNameEN":null,"BuildingNameTC":null,"BaseHeight":13.6,"TopHeight":18.5,"Storeys":null,"StoreysInBasement":null,"DateStamp":1712419200000}},{"type":"Feature","id":333685,"geometry":{"type":"Polygon","coordinates":[[[114.16362811134266,22.446676020800613],[114.1636269524369,22.446691690979428],[114.16365608692824,22.446693824548209],[114.16365529835883,22.446711497079683],[114.16368740562736,22.44671317936298],[114.1636361711022,22.446759452728443],[114.16361188287864,22.446739380559105],[114.16361565820836,22.446675224830209],[114.16362811134266,22.446676020800613]]]},"properties":{"OBJECTID":333685,"Shape__Length":29.115002006794306,"Shape__Area":35.736397227126496,"GeoRefNo":"3490734143","DateCreate":1431619200000,"BuildingBlockType":"Temporary Structure","BuildingCSUID":"3490734143T20150515","BuildingID":1810142259,"Status":"Active","BuildingNameEN":null,"BuildingNameTC":null,"BaseHeight":null,"TopHeight":null,"Storeys":null,"StoreysInBasement":null,"DateStamp":1712505600000}},{"type":"Feature","id":333687,"geometry":{"type":"Polygon","coordinates":[[[114.16428373805294,22.446642406424516],[114.16430299760799,22.446656840661856],[114.16427578497321,22.446684051363999],[114.16425394716417,22.446666853152401],[114.16424320720454,22.446657757294247],[114.16428886702683,22.446601950033703],[114.16429526744061,22.446528331931699],[114.16432063109787,22.446530620953173],[114.1643168449973,22.446609113355557],[114.16430985041336,22.446608336193876],[114.16428373805294,22.446642406424516]]]},"properties":{"OBJECTID":333687,"Shape__Length":43.726656692778327,"Shape__Area":51.708561415938718,"GeoRefNo":"3497234133","DateCreate":1431878400000,"BuildingBlockType":"Temporary Structure","BuildingCSUID":"3497234133T20150518","BuildingID":1810142341,"Status":"Active","BuildingNameEN":null,"BuildingNameTC":null,"BaseHeight":11.300000000000001,"TopHeight":14.4,"Storeys":null,"StoreysInBasement":null,"DateStamp":1711814400000}},{"type":"Feature","id":333688,"geometry":{"type":"Polygon","coordinates":[[[114.16408372220387,22.447001318903322],[114.16408704536832,22.44700328500506],[114.16407495892777,22.447019572818515],[114.16406740270804,22.447053834659943],[114.16404867114015,22.447052990635591],[114.16404810698272,22.446987499854213],[114.16406344555132,22.446995673718607],[114.16410608531636,22.446935604170484],[114.16413659804523,22.446954422876651],[114.16408372220387,22.447001318903322]]]},"properties":{"OBJECTID":333688,"Shape__Length":36.733869449959258,"Shape__Area":40.14210577780716,"GeoRefNo":"3495334170","DateCreate":1431878400000,"BuildingBlockType":"Open-sided Structure","BuildingCSUID":"3495334170T20150518","BuildingID":1810142343,"Status":"Active","BuildingNameEN":null,"BuildingNameTC":null,"BaseHeight":null,"TopHeight":null,"Storeys":null,"StoreysInBasement":null,"DateStamp":1707235200000}},{"type":"Feature","id":333722,"geometry":{"type":"Polygon","coordinates":[[[114.16426700961162,22.445655571543842],[114.16425340218807,22.445663115066498],[114.1642615137752,22.445715040446927],[114.16425196492236,22.445717702512574],[114.16425244162068,22.445726356704512],[114.16426771906207,22.445730130186423],[114.16426891043484,22.44575431744655],[114.1642156764555,22.445760082759115],[114.16421615827551,22.445711042737024],[114.1642302944805,22.445711002572619],[114.16423030987393,22.445701916311801],[114.16423215665759,22.445662003927158],[114.16417223953177,22.445658448823526],[114.16417319620602,22.445638477869277],[114.16419110025478,22.445633153653173],[114.16423335273609,22.445634044561441],[114.16425101791089,22.445630717404903],[114.16426700961162,22.445655571543842]]]},"properties":{"OBJECTID":333722,"Shape__Length":51.309707055608598,"Shape__Area":66.447234051350407,"GeoRefNo":"3496734029","DateCreate":1210780800000,"BuildingBlockType":"Temporary Structure","BuildingCSUID":"3496734029T20080515","BuildingID":1106129546,"Status":"Active","BuildingNameEN":null,"BuildingNameTC":null,"BaseHeight":null,"TopHeight":null,"Storeys":null,"StoreysInBasement":null,"DateStamp":1712419200000}},{"type":"Feature","id":333723,"geometry":{"type":"Polygon","coordinates":[[[114.16528097944499,22.445564253444065],[114.16520345856355,22.445649341842515],[114.16515058468046,22.445608854497912],[114.16522911597178,22.445522935395314],[114.16528097944499,22.445564253444065]]]},"properties":{"OBJECTID":333723,"Shape__Length":38.914691689160982,"Shape__Area":87.419778001089512,"GeoRefNo":"3506734017","DateCreate":1114790400000,"BuildingBlockType":"Tower","BuildingCSUID":"3506734017T20050430","BuildingID":1106129595,"Status":"Active","BuildingNameEN":"Pun Chung Public Primary School","BuildingNameTC":"泮涌公立小學","BaseHeight":7.5999999999999996,"TopHeight":12.9,"Storeys":null,"StoreysInBasement":null,"DateStamp":1711382400000}},{"type":"Feature","id":333724,"geometry":{"type":"Polygon","coordinates":[[[114.16426890843518,22.445776507528823],[114.1642144809982,22.445780053694655],[114.1642156764555,22.445760082759115],[114.16426891043484,22.44575431744655],[114.16426890843518,22.445776507528823]]]},"properties":{"OBJECTID":333724,"Shape__Length":15.80526811274547,"Shape__Area":12.903347050882166,"GeoRefNo":"3496734037","DateCreate":1114790400000,"BuildingBlockType":"Tower","BuildingCSUID":"3496734037T20050430","BuildingID":1106129536,"Status":"Active","BuildingNameEN":null,"BuildingNameTC":null,"BaseHeight":13,"TopHeight":17.399999999999999,"Storeys":null,"StoreysInBasement":null,"DateStamp":1712419200000}},{"type":"Feature","id":333812,"geometry":{"type":"Polygon","coordinates":[[[114.16536475167059,22.444431370285752],[114.1653747440387,22.444441056429817],[114.16535674959519,22.444456458940273],[114.16534025114724,22.444440723371699],[114.16534322220777,22.444437997108238],[114.16535781898862,22.444424527507216],[114.16536475167059,22.444431370285752]]]},"properties":{"OBJECTID":333812,"Shape__Length":10.025090362709838,"Shape__Area":6.2711950070381732,"GeoRefNo":"3508233891","DateCreate":1114790400000,"BuildingBlockType":"Tower","BuildingCSUID":"3508233891T20050430","BuildingID":1106130141,"Status":"Active","BuildingNameEN":null,"BuildingNameTC":null,"BaseHeight":15.9,"TopHeight":19,"Storeys":null,"StoreysInBasement":null,"DateStamp":1712592000000}},{"type":"Feature","id":333813,"geometry":{"type":"Polygon","coordinates":[[[114.16608878518045,22.444420915988207],[114.16605936628059,22.444461687344717],[114.16602681900693,22.444441622115413],[114.16605687395514,22.444401779408963],[114.16608878518045,22.444420915988207]]]},"properties":{"OBJECTID":333813,"Shape__Length":18.754328204315197,"Shape__Area":21.452023042708419,"GeoRefNo":"3515433889","DateCreate":1210780800000,"BuildingBlockType":"Temporary Structure","BuildingCSUID":"3515433889T20080515","BuildingID":1106130151,"Status":"Active","BuildingNameEN":null,"BuildingNameTC":null,"BaseHeight":null,"TopHeight":null,"Storeys":null,"StoreysInBasement":null,"DateStamp":1710691200000}},{"type":"Feature","id":333842,"geometry":{"type":"Polygon","coordinates":[[[114.16644700053843,22.444225515423131],[114.16640329288468,22.444245957554926],[114.16638718684045,22.44421691095593],[114.16643118727666,22.444196598885853],[114.16644700053843,22.444225515423131]]]},"properties":{"OBJECTID":333842,"Shape__Length":17.304346447591737,"Shape__Area":18.194633817590784,"GeoRefNo":"3519233867","DateCreate":1114790400000,"BuildingBlockType":"Tower","BuildingCSUID":"3519233867T20050430","BuildingID":1106130253,"Status":"Active","BuildingNameEN":null,"BuildingNameTC":null,"BaseHeight":8.8000000000000007,"TopHeight":12.6,"Storeys":null,"StoreysInBasement":null,"DateStamp":1711036800000}},{"type":"Feature","id":333843,"geometry":{"type":"Polygon","coordinates":[[[114.16631366588096,22.444254970091016],[114.16632796367298,22.444279606556588],[114.166295740726,22.444293605995899],[114.16628087105116,22.444268792222303],[114.16631252203291,22.444253020431411],[114.16631366588096,22.444254970091016]]]},"properties":{"OBJECTID":333843,"Shape__Length":13.849104552762807,"Shape__Area":11.929338801550731,"GeoRefNo":"3518033872","DateCreate":1114790400000,"BuildingBlockType":"Tower","BuildingCSUID":"3518033872T20050430","BuildingID":1106130220,"Status":"Active","BuildingNameEN":null,"BuildingNameTC":null,"BaseHeight":9.0999999999999996,"TopHeight":12.6,"Storeys":null,"StoreysInBasement":null,"DateStamp":1707062400000}},{"type":"Feature","id":333844,"geometry":{"type":"Polygon","coordinates":[[[114.16606132593556,22.444108143429691],[114.16602637043539,22.444125123134981],[114.16597098022733,22.444024701200178],[114.16600570118558,22.444007884219751],[114.16606132593556,22.444108143429691]]]},"properties":{"OBJECTID":333844,"Shape__Length":33.078839815701031,"Shape__Area":50.53917107217891,"GeoRefNo":"3514933847","DateCreate":1114790400000,"BuildingBlockType":"Tower","BuildingCSUID":"3514933847T20050430","BuildingID":1106130305,"Status":"Active","BuildingNameEN":null,"BuildingNameTC":null,"BaseHeight":11.199999999999999,"TopHeight":17.800000000000001,"Storeys":null,"StoreysInBasement":null,"DateStamp":1710432000000}},{"type":"Feature","id":333845,"geometry":{"type":"Polygon","coordinates":[[[114.16669082530926,22.444208577969903],[114.16663240849476,22.444234157025832],[114.16661572595774,22.444199539344506],[114.16667386996532,22.444174080021135],[114.16669082530926,22.444208577969903]]]},"properties":{"OBJECTID":333845,"Shape__Length":21.663474768650545,"Shape__Area":27.85042999131819,"GeoRefNo":"3521533866","DateCreate":1114790400000,"BuildingBlockType":"Tower","BuildingCSUID":"3521533866T20050430","BuildingID":1106130258,"Status":"Active","BuildingNameEN":null,"BuildingNameTC":null,"BaseHeight":5.5999999999999996,"TopHeight":13.1,"Storeys":null,"StoreysInBasement":null,"DateStamp":1710604800000}},{"type":"Feature","id":333846,"geometry":{"type":"Polygon","coordinates":[[[114.16584946133858,22.444212252376197],[114.16580892467535,22.444232392855394],[114.16576138130362,22.444149995091685],[114.16580142178164,22.444130389193276],[114.16584946133858,22.444212252376197]]]},"properties":{"OBJECTID":333846,"Shape__Length":30.070238822899434,"Shape__Area":48.544498345876129,"GeoRefNo":"3512733860","DateCreate":1259683200000,"BuildingBlockType":"Tower","BuildingCSUID":"3512733860T20091202","BuildingID":1106130266,"Status":"Active","BuildingNameEN":null,"BuildingNameTC":null,"BaseHeight":11.800000000000001,"TopHeight":19.899999999999999,"Storeys":null,"StoreysInBasement":null,"DateStamp":1710432000000}},{"type":"Feature","id":333847,"geometry":{"type":"Polygon","coordinates":[[[114.16421028738364,22.443882368405976],[114.16419695698711,22.443903950152059],[114.16421474356311,22.443913587040253],[114.16420166591105,22.443933326593417],[114.16414558638604,22.443901218923497],[114.1641724897849,22.443861035508121],[114.16421028738364,22.443882368405976]]]},"properties":{"OBJECTID":333847,"Shape__Length":24.014943709238366,"Shape__Area":29.701067005837608,"GeoRefNo":"3496033830","DateCreate":1210694400000,"BuildingBlockType":"Temporary Structure","BuildingCSUID":"3496033830T20080514","BuildingID":1106130372,"Status":"Active","BuildingNameEN":null,"BuildingNameTC":null,"BaseHeight":41.399999999999999,"TopHeight":43.799999999999997,"Storeys":null,"StoreysInBasement":null,"DateStamp":1710432000000}},{"type":"Feature","id":333849,"geometry":{"type":"Polygon","coordinates":[[[114.16560050708587,22.444007914586763],[114.16559830331023,22.444018952178737],[114.16557895079805,22.44402286797089],[114.16558291297983,22.444032769870947],[114.16551971387962,22.444054027389122],[114.16541085235765,22.444044389912563],[114.16541261698465,22.444029379343114],[114.16542789034948,22.444028846091349],[114.16542819749668,22.44400425997496],[114.16542833209762,22.443995292109797],[114.165429407538,22.443923627211191],[114.16541648857773,22.44392227353535],[114.1654169564428,22.443903174154396],[114.16540335347428,22.443821291790272],[114.16546723241721,22.443810692831455],[114.1655447991471,22.443804639111548],[114.16554479877918,22.443809183507859],[114.1655728271556,22.443806761782206],[114.16557445487263,22.443829180725071],[114.16555555209962,22.443830391201899],[114.16555189773025,22.443836728520409],[114.1655566155688,22.443879497089291],[114.16553972147854,22.443884300110277],[114.16553881516651,22.443919527855073],[114.16549485665014,22.44391839596517],[114.16549390038841,22.443985938650215],[114.16557034352373,22.443985916370934],[114.16557190418031,22.443991883443804],[114.16559085675135,22.443990208441928],[114.16559741333143,22.443991507568466],[114.16560050708587,22.444007914586763]]]},"properties":{"OBJECTID":333849,"Shape__Length":109.01296241594625,"Shape__Area":341.40305309728484,"GeoRefNo":"3509533829","DateCreate":1210694400000,"BuildingBlockType":"Temporary Structure","BuildingCSUID":"3509533829T20080514","BuildingID":1106130336,"Status":"Active","BuildingNameEN":null,"BuildingNameTC":null,"BaseHeight":null,"TopHeight":null,"Storeys":null,"StoreysInBasement":null,"DateStamp":1712678400000}},{"type":"Feature","id":333850,"geometry":{"type":"Polygon","coordinates":[[[114.16233059650716,22.443889101022052],[114.16232102051349,22.443854694576178],[114.16232711735219,22.443847679092308],[114.16244193023202,22.443821783974343],[114.16243220970678,22.443780361489775],[114.16248039913201,22.443770381440022],[114.16250052884891,22.443857346699605],[114.1624217998443,22.443875192899071],[114.16242145934629,22.4438733231128],[114.16233059650716,22.443889101022052]]]},"properties":{"OBJECTID":333850,"Shape__Length":54.789948515981166,"Shape__Area":113.17764080338185,"GeoRefNo":"3478233823","DateCreate":1210694400000,"BuildingBlockType":"Temporary Structure","BuildingCSUID":"3478233823T20080514","BuildingID":1106130391,"Status":"Active","BuildingNameEN":null,"BuildingNameTC":null,"BaseHeight":null,"TopHeight":null,"Storeys":null,"StoreysInBasement":null,"DateStamp":1712246400000}},{"type":"Feature","id":333854,"geometry":{"type":"Polygon","coordinates":[[[114.16577480682072,22.443826609883253],[114.16575361157085,22.443840384028547],[114.1656924330368,22.443856660825066],[114.16568799396445,22.443841870076604],[114.16565321184579,22.44384003313327],[114.16566271346964,22.443785916707078],[114.16571027405674,22.443725728120206],[114.16574682398365,22.443757218390886],[114.16575180212541,22.443753639060077],[114.16573529848168,22.443730434710897],[114.16577662405292,22.443697742510842],[114.16583165457034,22.443753597114426],[114.16577480682072,22.443826609883253]]]},"properties":{"OBJECTID":333854,"Shape__Length":61.652831987515412,"Shape__Area":179.89860000776801,"GeoRefNo":"3512433816","DateCreate":1594742400000,"BuildingBlockType":"Temporary Structure","BuildingCSUID":"3512433816T20200715","BuildingID":1106130448,"Status":"Active","BuildingNameEN":null,"BuildingNameTC":null,"BaseHeight":null,"TopHeight":null,"Storeys":null,"StoreysInBasement":null,"DateStamp":1710172800000}},{"type":"Feature","id":333855,"geometry":{"type":"Polygon","coordinates":[[[114.16411507108054,22.443600556520163],[114.16410284590938,22.443607412200901],[114.16411657415844,22.443629977864674],[114.16408173603001,22.443647593535314],[114.1640583275335,22.443607568702387],[114.16407491306461,22.443600031299454],[114.16405877733727,22.443575555770948],[114.16406913777953,22.443569910478665],[114.16405847830384,22.443552428748998],[114.16407817486656,22.443542330554553],[114.16411507108054,22.443600556520163]]]},"properties":{"OBJECTID":333855,"Shape__Length":31.806933237030073,"Shape__Area":39.754835356168797,"GeoRefNo":"3495133799","DateCreate":1210694400000,"BuildingBlockType":"Temporary Structure","BuildingCSUID":"3495133799T20080514","BuildingID":1106130498,"Status":"Active","BuildingNameEN":null,"BuildingNameTC":null,"BaseHeight":null,"TopHeight":null,"Storeys":null,"StoreysInBasement":null,"DateStamp":1711296000000}},{"type":"Feature","id":333857,"geometry":{"type":"Polygon","coordinates":[[[114.16413581325969,22.443829071133873],[114.16411661996572,22.443841393485624],[114.16407934566632,22.4437600857371],[114.16408287272685,22.443718856385381],[114.16408847804,22.44375296142886],[114.16411516910797,22.443803913367148],[114.16414505247673,22.443790126213418],[114.16413961334449,22.44377865710663],[114.1641670193154,22.443766711966902],[114.16413044072154,22.443694420291351],[114.16408313596129,22.443714946941174],[114.16408260821605,22.443709101936815],[114.16408677828959,22.443704998194896],[114.16415006219613,22.44368015073416],[114.16419591996501,22.443781616200933],[114.16417835436975,22.443787455813531],[114.16413581325969,22.443829071133873]]]},"properties":{"OBJECTID":333857,"Shape__Length":77.8338295519046,"Shape__Area":67.767294849144989,"GeoRefNo":"3495533820","DateCreate":1210780800000,"BuildingBlockType":"Open-sided Structure","BuildingCSUID":"3495533820T20080515","BuildingID":1106130409,"Status":"Active","BuildingNameEN":null,"BuildingNameTC":null,"BaseHeight":37.5,"TopHeight":40.899999999999999,"Storeys":null,"StoreysInBasement":null,"DateStamp":1710345600000}},{"type":"Feature","id":333877,"geometry":{"type":"Polygon","coordinates":[[[114.16580521041041,22.443658457738785],[114.16578847429349,22.443647585550373],[114.16581836691468,22.443606389930309],[114.16582404693024,22.443610166854707],[114.16583666227099,22.443593217458375],[114.16584490724617,22.443598008496458],[114.165853863387,22.443592202793706],[114.16588292691097,22.443584704071775],[114.16589823910175,22.44360128267985],[114.16588615119412,22.44362414670433],[114.16590074925162,22.443631048678355],[114.16589286880533,22.443641825632415],[114.16589772523432,22.443645437241038],[114.16589214670522,22.443653153748855],[114.16583507632377,22.443617136409888],[114.16580521041041,22.443658457738785]]]},"properties":{"OBJECTID":333877,"Shape__Length":38.488086203995394,"Shape__Area":42.983297418418829,"GeoRefNo":"3513433799","DateCreate":1432656000000,"BuildingBlockType":"Temporary Structure","BuildingCSUID":"3513433799T20150527","BuildingID":1810142600,"Status":"Active","BuildingNameEN":null,"BuildingNameTC":null,"BaseHeight":35.299999999999997,"TopHeight":37.200000000000003,"Storeys":null,"StoreysInBasement":null,"DateStamp":1710172800000}},{"type":"Feature","id":333878,"geometry":{"type":"Polygon","coordinates":[[[114.16588486651648,22.444194745993471],[114.16584946133858,22.444212252376197],[114.16580142178164,22.444130389193276],[114.16583824900536,22.444112450810501],[114.16588486651648,22.444194745993471]]]},"properties":{"OBJECTID":333878,"Shape__Length":29.033443099515111,"Shape__Area":43.351999676375883,"GeoRefNo":"3513233859","DateCreate":1489334400000,"BuildingBlockType":"Tower","BuildingCSUID":"3513233859T20170313","BuildingID":1810159918,"Status":"Active","BuildingNameEN":null,"BuildingNameTC":null,"BaseHeight":11.800000000000001,"TopHeight":20,"Storeys":null,"StoreysInBasement":null,"DateStamp":1710432000000}},{"type":"Feature","id":333879,"geometry":{"type":"Polygon","coordinates":[[[114.1659203033697,22.444177053938915],[114.16588486651648,22.444194745993471],[114.16583824900536,22.444112450810501],[114.16587284013733,22.444095374585611],[114.1659203033697,22.444177053938915]]]},"properties":{"OBJECTID":333879,"Shape__Length":28.751684854553329,"Shape__Area":42.044493865559943,"GeoRefNo":"3513533858","DateCreate":1489334400000,"BuildingBlockType":"Tower","BuildingCSUID":"3513533858T20170313","BuildingID":1810159919,"Status":"Active","BuildingNameEN":null,"BuildingNameTC":null,"BaseHeight":11.800000000000001,"TopHeight":20,"Storeys":null,"StoreysInBasement":null,"DateStamp":1710432000000}},{"type":"Feature","id":333880,"geometry":{"type":"Polygon","coordinates":[[[114.16591379632054,22.445520372209899],[114.16586509271541,22.445541577198615],[114.16584995817773,22.445509151962618],[114.16589800356967,22.445488354749077],[114.16591379632054,22.445520372209899]]]},"properties":{"OBJECTID":333880,"Shape__Length":18.806087453911164,"Shape__Area":21.46906191368398,"GeoRefNo":"3513634009","DateCreate":1716480000000,"BuildingBlockType":"Tower","BuildingCSUID":"3513634009T20240524","BuildingID":1810160016,"Status":"Active","BuildingNameEN":null,"BuildingNameTC":null,"BaseHeight":5.9000000000000004,"TopHeight":16.800000000000001,"Storeys":null,"StoreysInBasement":null,"DateStamp":1716480000000}},{"type":"Feature","id":333881,"geometry":{"type":"Polygon","coordinates":[[[114.16520752752017,22.445012754441763],[114.16518732619302,22.445002607811055],[114.16521194315816,22.444969368030932],[114.16521472991556,22.444966993763884],[114.16523330574287,22.444977572020392],[114.16524166631193,22.444965700643738],[114.16525025760794,22.444971313417362],[114.16523516243294,22.444989012475631],[114.16522819656869,22.444984910703507],[114.16520752752017,22.445012754441763]]]},"properties":{"OBJECTID":333881,"Shape__Length":19.212178065803194,"Shape__Area":13.643860368896942,"GeoRefNo":"3506833951","DateCreate":1591718400000,"BuildingBlockType":"Temporary Structure","BuildingCSUID":"3506833951T20200610","BuildingID":1810199096,"Status":"Active","BuildingNameEN":null,"BuildingNameTC":null,"BaseHeight":null,"TopHeight":null,"Storeys":null,"StoreysInBasement":null,"DateStamp":1712678400000}},{"type":"Feature","id":333882,"geometry":{"type":"Polygon","coordinates":[[[114.1657249329288,22.44369118014032],[114.16567517263772,22.443758009577014],[114.16564255396374,22.443737022525003],[114.16566655041528,22.443705019799708],[114.16569155867803,22.443671207798381],[114.1657249329288,22.44369118014032]]]},"properties":{"OBJECTID":333882,"Shape__Length":26.033166350199199,"Shape__Area":36.410763583357308,"GeoRefNo":"3511633810","DateCreate":1594742400000,"BuildingBlockType":"Temporary Structure","BuildingCSUID":"3511633810T20200715","BuildingID":1810200777,"Status":"Active","BuildingNameEN":null,"BuildingNameTC":null,"BaseHeight":28.899999999999999,"TopHeight":31.399999999999999,"Storeys":null,"StoreysInBasement":null,"DateStamp":1710172800000}},{"type":"Feature","id":333883,"geometry":{"type":"Polygon","coordinates":[[[114.16662216106127,22.44377855977072],[114.16658711872526,22.443794775435489],[114.16657327598892,22.443771187817529],[114.16660943473063,22.443754857810578],[114.16662216106127,22.44377855977072]]]},"properties":{"OBJECTID":333883,"Shape__Length":14.076382442710603,"Shape__Area":12.059469564569929,"GeoRefNo":"3521033817","DateCreate":1663257600000,"BuildingBlockType":"Temporary Structure","BuildingCSUID":"3521033817T20220916","BuildingID":1910225403,"Status":"Active","BuildingNameEN":null,"BuildingNameTC":null,"BaseHeight":11.199999999999999,"TopHeight":14.199999999999999,"Storeys":null,"StoreysInBasement":null,"DateStamp":1710432000000}},{"type":"Feature","id":333884,"geometry":{"type":"Polygon","coordinates":[[[114.16353644981972,22.446794592056101],[114.16351777779664,22.446758617527813],[114.16350843559141,22.446763289835179],[114.16348286922414,22.44671261848428],[114.16349035083987,22.446710056983111],[114.16348838243479,22.446705908591596],[114.16349310804624,22.446700418738047],[114.16352735960376,22.446754592181261],[114.16357172460773,22.44673409878331],[114.1635451035024,22.446690397961795],[114.163523781823,22.446701795706048],[114.16350702310358,22.446675408694649],[114.16351293058868,22.446663086678207],[114.16353769733217,22.446681160282257],[114.16354902856442,22.446688460078931],[114.16356214530018,22.446711893015681],[114.16356634564229,22.446709331241085],[114.16357881263995,22.446728853124252],[114.16358130652321,22.44672787731778],[114.16359272376137,22.446746179099478],[114.16353644981972,22.446794592056101]]]},"properties":{"OBJECTID":333884,"Shape__Length":59.982663787440529,"Shape__Area":48.502679957405256,"GeoRefNo":"3489234146","DateCreate":1676908800000,"BuildingBlockType":"Open-sided Structure","BuildingCSUID":"3489234146T20230221","BuildingID":1910229305,"Status":"Active","BuildingNameEN":null,"BuildingNameTC":null,"BaseHeight":null,"TopHeight":null,"Storeys":null,"StoreysInBasement":null,"DateStamp":1711814400000}},{"type":"Feature","id":333921,"geometry":{"type":"Polygon","coordinates":[[[114.16434493524213,22.445688235056206],[114.16432644525634,22.445704838100113],[114.1642615137752,22.445715040446927],[114.16425340218807,22.445663115066498],[114.16426820268344,22.445660897256602],[114.16426533988098,22.445641147882579],[114.16432143833528,22.445636048500731],[114.16434493524213,22.445688235056206]]]},"properties":{"OBJECTID":333921,"Shape__Length":31.051979278251206,"Shape__Area":59.831784958254737,"GeoRefNo":"3497234027","DateCreate":1114790400000,"BuildingBlockType":"Tower","BuildingCSUID":"3497234027T20050430","BuildingID":1106129560,"Status":"Active","BuildingNameEN":null,"BuildingNameTC":null,"BaseHeight":13,"TopHeight":17.699999999999999,"Storeys":null,"StoreysInBasement":null,"DateStamp":1712419200000}},{"type":"Feature","id":333926,"geometry":{"type":"Polygon","coordinates":[[[114.16442719214723,22.445601662105815],[114.16440093224644,22.445616083615928],[114.16442217490714,22.445649370330329],[114.1643663126619,22.445682207346252],[114.1643496045895,22.445660459728231],[114.1643985436197,22.44563316977306],[114.16437515249784,22.445599439042802],[114.16441478091765,22.445579692946403],[114.16442719214723,22.445601662105815]]]},"properties":{"OBJECTID":333926,"Shape__Length":34.882981616433213,"Shape__Area":34.472834919757325,"GeoRefNo":"3498434023","DateCreate":1210780800000,"BuildingBlockType":"Temporary Structure","BuildingCSUID":"3498434023T20080515","BuildingID":1106129575,"Status":"Active","BuildingNameEN":null,"BuildingNameTC":null,"BaseHeight":null,"TopHeight":null,"Storeys":null,"StoreysInBasement":null,"DateStamp":1711555200000}},{"type":"Feature","id":333927,"geometry":{"type":"Polygon","coordinates":[[[114.16571029728766,22.445605735381989],[114.16567904612363,22.445618539762805],[114.16566428765674,22.445588803985512],[114.16569444418101,22.445575739816071],[114.16571029728766,22.445605735381989]]]},"properties":{"OBJECTID":333927,"Shape__Length":14.267470400613469,"Shape__Area":12.709228924381161,"GeoRefNo":"3511634019","DateCreate":1114790400000,"BuildingBlockType":"Tower","BuildingCSUID":"3511634019T20050430","BuildingID":1106129604,"Status":"Active","BuildingNameEN":null,"BuildingNameTC":null,"BaseHeight":6.0999999999999996,"TopHeight":14.9,"Storeys":null,"StoreysInBasement":null,"DateStamp":1711382400000}},{"type":"Feature","id":333931,"geometry":{"type":"Polygon","coordinates":[[[114.16562476119833,22.445605212288463],[114.16563914283574,22.445634803736521],[114.16561191368604,22.445646003310387],[114.16559636770216,22.44561330403846],[114.16562339818891,22.445602000693455],[114.16562476119833,22.445605212288463]]]},"properties":{"OBJECTID":333931,"Shape__Length":14.052891548816168,"Shape__Area":12.101420169559644,"GeoRefNo":"3510934021","DateCreate":1114790400000,"BuildingBlockType":"Tower","BuildingCSUID":"3510934021T20050430","BuildingID":1106129594,"Status":"Active","BuildingNameEN":null,"BuildingNameTC":null,"BaseHeight":6,"TopHeight":10.6,"Storeys":null,"StoreysInBasement":null,"DateStamp":1711382400000}},{"type":"Feature","id":333934,"geometry":{"type":"Polygon","coordinates":[[[114.16567337035754,22.445769448819792],[114.16561288428056,22.44580780599226],[114.16559214328336,22.445780403533057],[114.16562773614224,22.445757470462475],[114.16558363428379,22.445697997159364],[114.16560699903937,22.445681761217973],[114.16567337035754,22.445769448819792]]]},"properties":{"OBJECTID":333934,"Shape__Length":38.57977775276288,"Shape__Area":52.651424061616268,"GeoRefNo":"3511234034","DateCreate":1210780800000,"BuildingBlockType":"Open-sided Structure","BuildingCSUID":"3511234034T20080515","BuildingID":1106129524,"Status":"Active","BuildingNameEN":null,"BuildingNameTC":null,"BaseHeight":null,"TopHeight":null,"Storeys":null,"StoreysInBasement":null,"DateStamp":1707235200000}},{"type":"Feature","id":334062,"geometry":{"type":"Polygon","coordinates":[[[114.16589214670522,22.443653153748855],[114.16586202829409,22.443693553964437],[114.16580521041041,22.443658457738785],[114.16583507632377,22.443617136409888],[114.16589214670522,22.443653153748855]]]},"properties":{"OBJECTID":334062,"Shape__Length":25.078607785981241,"Shape__Area":38.679069007594272,"GeoRefNo":"3513333803","DateCreate":1114790400000,"BuildingBlockType":"Tower","BuildingCSUID":"3513333803T20050430","BuildingID":1106130480,"Status":"Active","BuildingNameEN":null,"BuildingNameTC":null,"BaseHeight":34.5,"TopHeight":37.399999999999999,"Storeys":null,"StoreysInBasement":null,"DateStamp":1710172800000}},{"type":"Feature","id":334063,"geometry":{"type":"Polygon","coordinates":[[[114.16389103694304,22.443637361927554],[114.16385441613723,22.443665625668423],[114.16381545606377,22.44362289917154],[114.16385180123318,22.443594960513611],[114.16389103694304,22.443637361927554]]]},"properties":{"OBJECTID":334063,"Shape__Length":22.150267412794463,"Shape__Area":30.225046995246792,"GeoRefNo":"3492733802","DateCreate":1210694400000,"BuildingBlockType":"Temporary Structure","BuildingCSUID":"3492733802T20080514","BuildingID":1106130488,"Status":"Active","BuildingNameEN":"MA WO VILLAGE OFFICE","BuildingNameTC":"馬窩鄉公所","BaseHeight":null,"TopHeight":null,"Storeys":null,"StoreysInBasement":null,"DateStamp":1711296000000}},{"type":"Feature","id":334064,"geometry":{"type":"Polygon","coordinates":[[[114.1638184333665,22.443792817826598],[114.16376867421242,22.443816641837575],[114.16373974270098,22.443760437818103],[114.16375505355427,22.443753548821803],[114.16378946398943,22.443739340017157],[114.1638184333665,22.443792817826598]]]},"properties":{"OBJECTID":334064,"Shape__Length":24.918500387069844,"Shape__Area":38.617467266139421,"GeoRefNo":"3492033816","DateCreate":1114790400000,"BuildingBlockType":"Tower","BuildingCSUID":"3492033816T20050430","BuildingID":1106130418,"Status":"Active","BuildingNameEN":null,"BuildingNameTC":null,"BaseHeight":51.299999999999997,"TopHeight":58.100000000000001,"Storeys":null,"StoreysInBasement":null,"DateStamp":1711296000000}},{"type":"Feature","id":334065,"geometry":{"type":"Polygon","coordinates":[[[114.16404793095562,22.443629042303648],[114.16402144623613,22.443637815729403],[114.16400718424038,22.443601974883425],[114.16403301683066,22.443593017006332],[114.16404793095562,22.443629042303648]]]},"properties":{"OBJECTID":334065,"Shape__Length":14.238600337620994,"Shape__Area":12.188852757784277,"GeoRefNo":"3494533799","DateCreate":1114790400000,"BuildingBlockType":"Tower","BuildingCSUID":"3494533799T20050430","BuildingID":1106130503,"Status":"Active","BuildingNameEN":null,"BuildingNameTC":null,"BaseHeight":38.399999999999999,"TopHeight":42,"Storeys":null,"StoreysInBasement":null,"DateStamp":1712419200000}},{"type":"Feature","id":334066,"geometry":{"type":"Polygon","coordinates":[[[114.16395089389532,22.443712846248854],[114.16391380879818,22.443726679026291],[114.16389253320177,22.443681137815467],[114.16393264472546,22.443666767611475],[114.16395089389532,22.443712846248854]]]},"properties":{"OBJECTID":334066,"Shape__Length":19.473821975889045,"Shape__Area":23.332152605323092,"GeoRefNo":"3493533808","DateCreate":1114790400000,"BuildingBlockType":"Tower","BuildingCSUID":"3493533808T20050430","BuildingID":1106130469,"Status":"Active","BuildingNameEN":null,"BuildingNameTC":null,"BaseHeight":43.700000000000003,"TopHeight":50.700000000000003,"Storeys":null,"StoreysInBasement":null,"DateStamp":1711296000000}},{"type":"Feature","id":334071,"geometry":{"type":"Polygon","coordinates":[[[114.16269837723247,22.443518495115164],[114.1626748105394,22.443538513931806],[114.16263882705897,22.443567953218476],[114.16263587767135,22.443575021548554],[114.16263731462055,22.443534304612463],[114.1626422289016,22.443507918412934],[114.16269837723247,22.443518495115164]]]},"properties":{"OBJECTID":334071,"Shape__Length":22.434033470966796,"Shape__Area":21.365081808126451,"GeoRefNo":"3480433790","DateCreate":1682524800000,"BuildingBlockType":"Open-sided Structure","BuildingCSUID":"3480433790T20230427","BuildingID":1910231449,"Status":"Active","BuildingNameEN":null,"BuildingNameTC":null,"BaseHeight":null,"TopHeight":null,"Storeys":null,"StoreysInBasement":null,"DateStamp":1712246400000}},{"type":"Feature","id":334072,"geometry":{"type":"Polygon","coordinates":[[[114.16285856920958,22.443583602942745],[114.16285799557893,22.443595078706384],[114.16283764742084,22.443595890496724],[114.16283606315429,22.44355148751621],[114.16284956690866,22.443547641802908],[114.16285856920958,22.443583602942745]]]},"properties":{"OBJECTID":334072,"Shape__Length":13.830838301037224,"Shape__Area":9.6990066779838191,"GeoRefNo":"3482633792","DateCreate":1682524800000,"BuildingBlockType":"Open-sided Structure","BuildingCSUID":"3482633792T20230427","BuildingID":1910231450,"Status":"Active","BuildingNameEN":null,"BuildingNameTC":null,"BaseHeight":null,"TopHeight":null,"Storeys":null,"StoreysInBasement":null,"DateStamp":1712246400000}},{"type":"Feature","id":334074,"geometry":{"type":"Polygon","coordinates":[[[114.16374426453839,22.446506129790837],[114.16365996810421,22.446518873930088],[114.16366685207522,22.446559276738043],[114.16365712268538,22.446560561970603],[114.16364917860277,22.446519516288006],[114.16366353068668,22.446502688940207],[114.16367810277093,22.44649448117633],[114.16369157032375,22.446493045619057],[114.16369090893714,22.44648381048221],[114.16373992213609,22.446477041988494],[114.16374426453839,22.446506129790837]]]},"properties":{"OBJECTID":334074,"Shape__Length":33.855449619802357,"Shape__Area":29.858370317112538,"GeoRefNo":"3491234119","DateCreate":1706544000000,"BuildingBlockType":"Open-sided Structure","BuildingCSUID":"3491234119T20240130","BuildingID":1910241641,"Status":"Active","BuildingNameEN":null,"BuildingNameTC":null,"BaseHeight":25.800000000000001,"TopHeight":28.399999999999999,"Storeys":null,"StoreysInBasement":null,"DateStamp":1706544000000}},{"type":"Feature","id":334075,"geometry":{"type":"Polygon","coordinates":[[[114.16371862107846,22.446440134332533],[114.16369660952238,22.446454466579929],[114.1636676126459,22.446469778419807],[114.16365008631392,22.44644184399176],[114.16369740390726,22.446416242543279],[114.16371862107846,22.446440134332533]]]},"properties":{"OBJECTID":334075,"Shape__Length":18.846503251704505,"Shape__Area":21.068816582041844,"GeoRefNo":"3491034112","DateCreate":1711555200000,"BuildingBlockType":"Tower","BuildingCSUID":"3491034112T20240328","BuildingID":1910241580,"Status":"Active","BuildingNameEN":null,"BuildingNameTC":null,"BaseHeight":24.699999999999999,"TopHeight":27.5,"Storeys":null,"StoreysInBasement":null,"DateStamp":1716220800000}},{"type":"Feature","id":334076,"geometry":{"type":"Polygon","coordinates":[[[114.16423115191412,22.447071540446487],[114.1642702269196,22.447024961531028],[114.16427798591627,22.447016780364589],[114.16430452700929,22.447037363551004],[114.16425894547911,22.447091763061827],[114.16423115191412,22.447071540446487]]]},"properties":{"OBJECTID":334076,"Shape__Length":22.575378053456632,"Shape__Area":27.886047236404753,"GeoRefNo":"3497034180","DateCreate":1711468800000,"BuildingBlockType":"Open-sided Structure","BuildingCSUID":"3497034180T20240327","BuildingID":1910242312,"Status":"Active","BuildingNameEN":null,"BuildingNameTC":null,"BaseHeight":7.7000000000000002,"TopHeight":10.5,"Storeys":null,"StoreysInBasement":null,"DateStamp":1716220800000}},{"type":"Feature","id":334077,"geometry":{"type":"Polygon","coordinates":[[[114.16414143549949,22.446915386507797],[114.16414744491803,22.446918300565574],[114.16416783753652,22.446889958557435],[114.16418504636063,22.446902827579709],[114.16416222203848,22.446928908896165],[114.16413902389088,22.446951686208294],[114.16412058667261,22.446941502921586],[114.16414143549949,22.446915386507797]]]},"properties":{"OBJECTID":334077,"Shape__Length":19.752252935781978,"Shape__Area":16.410545907916326,"GeoRefNo":"3495834166","DateCreate":1707235200000,"BuildingBlockType":"Open-sided Structure","BuildingCSUID":"3495834166T20240207","BuildingID":1910242378,"Status":"Active","BuildingNameEN":null,"BuildingNameTC":null,"BaseHeight":null,"TopHeight":null,"Storeys":null,"StoreysInBasement":null,"DateStamp":1707235200000}},{"type":"Feature","id":334078,"geometry":{"type":"Polygon","coordinates":[[[114.16529928640284,22.444785120060072],[114.16529016801843,22.444761663433635],[114.16529332993659,22.444731291711459],[114.1653276052532,22.444732085768841],[114.16532547300021,22.444773050198393],[114.16532185380029,22.444773049940224],[114.16529928640284,22.444785120060072]]]},"properties":{"OBJECTID":334078,"Shape__Length":17.264364672313519,"Shape__Area":18.207759750643021,"GeoRefNo":"3507733925","DateCreate":1707926400000,"BuildingBlockType":"Temporary Structure","BuildingCSUID":"3507733925T20240215","BuildingID":1910242827,"Status":"Active","BuildingNameEN":null,"BuildingNameTC":null,"BaseHeight":13.5,"TopHeight":16,"Storeys":null,"StoreysInBasement":null,"DateStamp":1712678400000}},{"type":"Feature","id":334079,"geometry":{"type":"Polygon","coordinates":[[[114.1653276056778,22.444726940396269],[114.16529326411111,22.44472963534071],[114.16529460848196,22.444716053722946],[114.16530291218311,22.444704378480139],[114.16532377572177,22.444701609335819],[114.1653276056778,22.444726940396269]]]},"properties":{"OBJECTID":334079,"Shape__Length":11.609867667406798,"Shape__Area":8.4211704324575081,"GeoRefNo":"3507833921","DateCreate":1707926400000,"BuildingBlockType":"Temporary Structure","BuildingCSUID":"3507833921T20240215","BuildingID":1910242828,"Status":"Active","BuildingNameEN":null,"BuildingNameTC":null,"BaseHeight":13.5,"TopHeight":16,"Storeys":null,"StoreysInBasement":null,"DateStamp":1716220800000}},{"type":"Feature","id":334080,"geometry":{"type":"Polygon","coordinates":[[[114.16591261719246,22.443473328409716],[114.16594777479968,22.443450138496452],[114.16596261182946,22.443461911509289],[114.16597357445548,22.44345172146776],[114.16599908892032,22.443475442579562],[114.16595088847197,22.443514180986906],[114.16591261719246,22.443473328409716]]]},"properties":{"OBJECTID":334080,"Shape__Length":24.313813915658649,"Shape__Area":33.186087354036118,"GeoRefNo":"3514433784","DateCreate":1710172800000,"BuildingBlockType":"Temporary Structure","BuildingCSUID":"3514433784T20240312","BuildingID":1910244684,"Status":"Active","BuildingNameEN":null,"BuildingNameTC":null,"BaseHeight":36.600000000000001,"TopHeight":39.399999999999999,"Storeys":null,"StoreysInBasement":null,"DateStamp":1710172800000}},{"type":"Feature","id":334081,"geometry":{"type":"Polygon","coordinates":[[[114.16589901279441,22.443655497256419],[114.16594229848334,22.443686637918947],[114.16596007575231,22.443708435568499],[114.16590544693709,22.443752503754496],[114.16589179122056,22.443743880098157],[114.16584902073349,22.443714655629837],[114.16589901279441,22.443655497256419]]]},"properties":{"OBJECTID":334081,"Shape__Length":31.602923489613733,"Shape__Area":64.023757045118572,"GeoRefNo":"3513933809","DateCreate":1710691200000,"BuildingBlockType":"Temporary Structure","BuildingCSUID":"3513933809T20240318","BuildingID":1910244691,"Status":"Active","BuildingNameEN":null,"BuildingNameTC":null,"BaseHeight":null,"TopHeight":null,"Storeys":null,"StoreysInBasement":null,"DateStamp":1710691200000}},{"type":"Feature","id":334082,"geometry":{"type":"Polygon","coordinates":[[[114.16566655041528,22.443705019799708],[114.16564255396374,22.443737022525003],[114.16567517263772,22.443758009577014],[114.16565513928198,22.443781135188246],[114.16565482325515,22.443809140687296],[114.16559977130848,22.443818510387029],[114.16559514080848,22.443787602877567],[114.16562773428677,22.443782487855824],[114.16564038284132,22.443762525556171],[114.16562566717333,22.443750364393573],[114.16563302736758,22.443727057839471],[114.16565319703561,22.44369640535513],[114.16566655041528,22.443705019799708]]]},"properties":{"OBJECTID":334082,"Shape__Length":40.346273923145148,"Shape__Area":42.545674252507183,"GeoRefNo":"3510933820","DateCreate":1716220800000,"BuildingBlockType":"Open-sided Structure","BuildingCSUID":"3510933820T20240521","BuildingID":1910244741,"Status":"Active","BuildingNameEN":null,"BuildingNameTC":null,"BaseHeight":28.899999999999999,"TopHeight":31.399999999999999,"Storeys":null,"StoreysInBasement":null,"DateStamp":1716220800000}},{"type":"Feature","id":334083,"geometry":{"type":"Polygon","coordinates":[[[114.16528993277214,22.44387521007701],[114.16529221628494,22.443848247014863],[114.16532448120391,22.443849461206522],[114.16532252347521,22.443877030145632],[114.16528993277214,22.44387521007701]]]},"properties":{"OBJECTID":334083,"Shape__Length":12.739422448544905,"Shape__Area":10.115366625649388,"GeoRefNo":"3507733826","DateCreate":1710259200000,"BuildingBlockType":"Temporary Structure","BuildingCSUID":"3507733826T20240313","BuildingID":1910244834,"Status":"Active","BuildingNameEN":null,"BuildingNameTC":null,"BaseHeight":24,"TopHeight":25.600000000000001,"Storeys":null,"StoreysInBasement":null,"DateStamp":1716393600000}},{"type":"Feature","id":334120,"geometry":{"type":"Polygon","coordinates":[[[114.16562773614224,22.445757470462475],[114.16559214328336,22.445780403533057],[114.16553908991744,22.445709766327646],[114.16555896072317,22.445697792432526],[114.16556725709412,22.445708753454475],[114.16558363428379,22.445697997159364],[114.16562773614224,22.445757470462475]]]},"properties":{"OBJECTID":334120,"Shape__Length":27.982507026904859,"Shape__Area":39.496056412605292,"GeoRefNo":"3510634035","DateCreate":1114790400000,"BuildingBlockType":"Tower","BuildingCSUID":"3510634035T20050430","BuildingID":1106129539,"Status":"Active","BuildingNameEN":"Pan Chung Village Office","BuildingNameTC":"泮涌村公所","BaseHeight":6.0999999999999996,"TopHeight":12.4,"Storeys":null,"StoreysInBasement":null,"DateStamp":1707235200000}},{"type":"Feature","id":334125,"geometry":{"type":"Polygon","coordinates":[[[114.16576176982447,22.445584597184638],[114.16571029728766,22.445605735381989],[114.16569444418101,22.445575739816071],[114.16574686076564,22.445553636062133],[114.16576176982447,22.445584597184638]]]},"properties":{"OBJECTID":334125,"Shape__Length":19.174396896135196,"Shape__Area":21.837155101702404,"GeoRefNo":"3512134017","DateCreate":1114790400000,"BuildingBlockType":"Tower","BuildingCSUID":"3512134017T20050430","BuildingID":1106129612,"Status":"Active","BuildingNameEN":null,"BuildingNameTC":null,"BaseHeight":6,"TopHeight":12.6,"Storeys":null,"StoreysInBasement":null,"DateStamp":1711382400000}},{"type":"Feature","id":334126,"geometry":{"type":"Polygon","coordinates":[[[114.16567904612363,22.445618539762805],[114.16563914283574,22.445634803736521],[114.16562476119833,22.445605212288463],[114.16566428765674,22.445588803985512],[114.16567904612363,22.445618539762805]]]},"properties":{"OBJECTID":334126,"Shape__Length":16.163122328362036,"Shape__Area":16.141922444866907,"GeoRefNo":"3511334021","DateCreate":1114790400000,"BuildingBlockType":"Tower","BuildingCSUID":"3511334021T20050430","BuildingID":1106129599,"Status":"Active","BuildingNameEN":null,"BuildingNameTC":null,"BaseHeight":6.0999999999999996,"TopHeight":16,"Storeys":null,"StoreysInBasement":null,"DateStamp":1711382400000}},{"type":"Feature","id":334127,"geometry":{"type":"Polygon","coordinates":[[[114.16511678958739,22.445511579067425],[114.16509074710689,22.445540832323406],[114.16500653528342,22.445476059485504],[114.16503255602552,22.445446605765223],[114.16511678958739,22.445511579067425]]]},"properties":{"OBJECTID":334127,"Shape__Length":30.943579057342294,"Shape__Area":47.430295172707652,"GeoRefNo":"3505134006","DateCreate":1114790400000,"BuildingBlockType":"Tower","BuildingCSUID":"3505134006T20050430","BuildingID":1106129660,"Status":"Active","BuildingNameEN":null,"BuildingNameTC":null,"BaseHeight":11.4,"TopHeight":20.399999999999999,"Storeys":null,"StoreysInBasement":null,"DateStamp":1711382400000}},{"type":"Feature","id":334128,"geometry":{"type":"Polygon","coordinates":[[[114.16521869439372,22.445495111816548],[114.1651988963153,22.445516826464885],[114.16518740860889,22.445509272112844],[114.16517536057046,22.445500415347425],[114.16518348720943,22.445491299600725],[114.1651702871103,22.445481210455959],[114.16518339345293,22.445466997468056],[114.16521869439372,22.445495111816548]]]},"properties":{"OBJECTID":334128,"Shape__Length":16.109819206017491,"Shape__Area":13.528839776785107,"GeoRefNo":"3506634006","DateCreate":1210780800000,"BuildingBlockType":"Temporary Structure","BuildingCSUID":"3506634006T20080515","BuildingID":1106129676,"Status":"Active","BuildingNameEN":null,"BuildingNameTC":null,"BaseHeight":null,"TopHeight":null,"Storeys":null,"StoreysInBasement":null,"DateStamp":1711382400000}},{"type":"Feature","id":334130,"geometry":{"type":"Polygon","coordinates":[[[114.16491939194403,22.445514568683532],[114.1648942187506,22.445542037463941],[114.16480452884764,22.445470979190148],[114.16482926217029,22.445443432006417],[114.16491939194403,22.445514568683532]]]},"properties":{"OBJECTID":334130,"Shape__Length":32.270707951585557,"Shape__Area":48.414829521593802,"GeoRefNo":"3502934006","DateCreate":1114790400000,"BuildingBlockType":"Tower","BuildingCSUID":"3502934006T20050430","BuildingID":1106129656,"Status":"Active","BuildingNameEN":null,"BuildingNameTC":null,"BaseHeight":10.800000000000001,"TopHeight":20.600000000000001,"Storeys":null,"StoreysInBasement":null,"DateStamp":1711555200000}},{"type":"Feature","id":334239,"geometry":{"type":"Polygon","coordinates":[[[114.16831212457092,22.446450628683809],[114.16812057541068,22.446374562621315],[114.16817906176095,22.446246725255484],[114.16818379757729,22.446236373900852],[114.16818852727179,22.446226036091431],[114.16819325686843,22.446215698191555],[114.16819798646439,22.446205360291515],[114.16820271615681,22.446195022481643],[114.16823116298916,22.446132844272434],[114.16832479361302,22.445935133779248],[114.16852090403846,22.446016096511617],[114.16848774215174,22.446085623782928],[114.16839128437121,22.446045859663876],[114.168331972486,22.446173064483116],[114.16832055303085,22.446197555463783],[114.16838569015057,22.446223422015986],[114.16835291361754,22.4462947412811],[114.16841409143198,22.446319035501766],[114.16838645536839,22.446379169470269],[114.16835136875892,22.446365236258853],[114.16831212457092,22.446450628683809]]]},"properties":{"OBJECTID":334239,"Shape__Length":178.30821182966437,"Shape__Area":956.75121866228005,"GeoRefNo":"3539134072","DateCreate":1114790400000,"BuildingBlockType":"Tower","BuildingCSUID":"3539134072T20050430","BuildingID":1106129312,"Status":"Active","BuildingNameEN":"Church Of Jesus Christ Of Latter-Day Saints","BuildingNameTC":"耶穌基督後期聖徒教會","BaseHeight":10.9,"TopHeight":20.5,"Storeys":null,"StoreysInBasement":null,"DateStamp":1708272000000}},{"type":"Feature","id":334268,"geometry":{"type":"Polygon","coordinates":[[[114.16843710739829,22.446257605507942],[114.16844095155592,22.446249169819737],[114.16846183534867,22.446258130830302],[114.16845918529509,22.446263946214369],[114.16843599724402,22.446314830619688],[114.16842180827578,22.446309243551774],[114.16844408729692,22.446260353928338],[114.16843710739829,22.446257605507942]]]},"properties":{"OBJECTID":334268,"Shape__Length":18.447017282931569,"Shape__Area":11.637862317239934,"GeoRefNo":"3540034094","DateCreate":1708272000000,"BuildingBlockType":"Tower","BuildingCSUID":"3540034094T20240219","BuildingID":1910243039,"Status":"Active","BuildingNameEN":null,"BuildingNameTC":null,"BaseHeight":11.5,"TopHeight":14.699999999999999,"Storeys":null,"StoreysInBasement":null,"DateStamp":1708444800000}},{"type":"Feature","id":334767,"geometry":{"type":"Polygon","coordinates":[[[114.16748965693461,22.448889271522628],[114.16750347654673,22.448916990477045],[114.16745823584483,22.448937058029802],[114.16744384334851,22.448909341205564],[114.16748965693461,22.448889271522628]]]},"properties":{"OBJECTID":334767,"Shape__Length":17.16428813133966,"Shape__Area":17.61082410485238,"GeoRefNo":"3530034385","DateCreate":1114790400000,"BuildingBlockType":"Tower","BuildingCSUID":"3530034385T20050430","BuildingID":1106127601,"Status":"Active","BuildingNameEN":null,"BuildingNameTC":null,"BaseHeight":4.4000000000000004,"TopHeight":6.7999999999999998,"Storeys":null,"StoreysInBasement":null,"DateStamp":1707926400000}},{"type":"Feature","id":334768,"geometry":{"type":"Polygon","coordinates":[[[114.16883445999416,22.448279808442425],[114.16884823723994,22.448306215879651],[114.16880671461439,22.448324933943606],[114.16879293737463,22.44829852650291],[114.16883445999416,22.448279808442425]]]},"properties":{"OBJECTID":334768,"Shape__Length":16.000398095087455,"Shape__Area":15.438144691609541,"GeoRefNo":"3543834317","DateCreate":1114790400000,"BuildingBlockType":"Tower","BuildingCSUID":"3543834317T20050430","BuildingID":1106128202,"Status":"Active","BuildingNameEN":null,"BuildingNameTC":null,"BaseHeight":4.5,"TopHeight":6.7999999999999998,"Storeys":null,"StoreysInBasement":null,"DateStamp":1708272000000}},{"type":"Feature","id":334770,"geometry":{"type":"Polygon","coordinates":[[[114.16967141997843,22.447697745966124],[114.16962360943246,22.447719606108045],[114.16961926635993,22.447712832442964],[114.169569244738,22.447735731513564],[114.16952573064104,22.447656137313938],[114.16953994670544,22.447648639702379],[114.16951527341827,22.447599538302661],[114.1695557323791,22.447582002544351],[114.16956457371015,22.447598250261031],[114.16960703771981,22.44757875542366],[114.16961047881531,22.447576909176469],[114.16961418772395,22.44757568698024],[114.16961805228578,22.447575125795037],[114.16962195563377,22.447575242591491],[114.16962577972798,22.447576033837588],[114.16962940892516,22.447577475605506],[114.16963273347588,22.447579524295183],[114.16963565284344,22.447582117952834],[114.16963807874413,22.44758517814445],[114.16963993781705,22.447588612327731],[114.16964117384255,22.447592316650599],[114.16964174944235,22.447596179091768],[114.16964164720993,22.44760008284835],[114.16964087023686,22.44760390986805],[114.16963944201936,22.447607544419146],[114.16963740574769,22.4476108765903],[114.16963482300012,22.447613805614356],[114.16963177188073,22.447616242915608],[114.16962834465747,22.447618114788366],[114.16967141997843,22.447697745966124]]]},"properties":{"OBJECTID":334770,"Shape__Length":58.888891344581026,"Shape__Area":174.3021591896696,"GeoRefNo":"3551434242","DateCreate":1114790400000,"BuildingBlockType":"Tower","BuildingCSUID":"3551434242T20050430","BuildingID":1106128615,"Status":"Active","BuildingNameEN":"Man Sze Cheung Yuen","BuildingNameTC":"萬四長園","BaseHeight":4.2999999999999998,"TopHeight":11.5,"Storeys":null,"StoreysInBasement":null,"DateStamp":1708012800000}},{"type":"Feature","id":334772,"geometry":{"type":"Polygon","coordinates":[[[114.16813183964217,22.446177823246099],[114.16815437581043,22.446188003496822],[114.16817824539366,22.446198786147175],[114.16817688073223,22.446205493081962],[114.16817546713345,22.446208665494666],[114.1681748394719,22.446210073940797],[114.16817048029493,22.446218901697328],[114.16816543672283,22.446229115410937],[114.16816149766431,22.446237092430771],[114.16807796703444,22.446203331091045],[114.16809322149038,22.446171789718637],[114.16809441277296,22.446169316251673],[114.16809798800102,22.446170870676649],[114.16810599207075,22.446174349188986],[114.16811562953735,22.446178538485857],[114.16812853457513,22.446184145288179],[114.16813183964217,22.446177823246099]]]},"properties":{"OBJECTID":334772,"Shape__Length":28.069194830588152,"Shape__Area":41.561386036414689,"GeoRefNo":"3536634085","DateCreate":1207843200000,"BuildingBlockType":"Open-sided Structure","BuildingCSUID":"3536634085T20080411","BuildingID":1106129300,"Status":"Active","BuildingNameEN":null,"BuildingNameTC":null,"BaseHeight":null,"TopHeight":null,"Storeys":null,"StoreysInBasement":null,"DateStamp":1708272000000}},{"type":"Feature","id":338572,"geometry":{"type":"Polygon","coordinates":[[[114.17107862792906,22.444336729618595],[114.1710824676323,22.444395772679297],[114.17104583770285,22.444397971187961],[114.17104398565175,22.444359455506639],[114.17103627784746,22.444359800735004],[114.17097687678992,22.44436246130908],[114.17096452207534,22.444363014697824],[114.17096451110487,22.444362846640662],[114.17096323435938,22.444343214113118],[114.17107862792906,22.444336729618595]]]},"properties":{"OBJECTID":338572,"Shape__Length":36.883853835562562,"Shape__Area":42.878938795865572,"GeoRefNo":"3566633880","DateCreate":1504800000000,"BuildingBlockType":"Tower","BuildingCSUID":"3566633880T20170908","BuildingID":1810165631,"Status":"Active","BuildingNameEN":null,"BuildingNameTC":null,"BaseHeight":5.5999999999999996,"TopHeight":12.800000000000001,"Storeys":null,"StoreysInBasement":null,"DateStamp":1684944000000}}]}