{"type":"FeatureCollection","features":[{"type":"Feature","id":264565,"geometry":{"type":"Polygon","coordinates":[[[114.20289701764931,22.290457530577417],[114.20292198759574,22.290462680072373],[114.2029445407335,22.290365260734049],[114.20301319821299,22.290379357226005],[114.20307470273701,22.290391985021028],[114.20306469922582,22.290435733338793],[114.20307458340017,22.290437836599079],[114.20305659808292,22.290515930038268],[114.20298390643315,22.290501504597245],[114.2029161139312,22.290488051386237],[114.20289185670229,22.29048323762494],[114.20289701764931,22.290457530577417]]]},"properties":{"OBJECTID":264565,"Shape__Length":62.502696341525386,"Shape__Area":207.30494754640182,"GeoRefNo":"3895916839","DateCreate":1114790400000,"BuildingBlockType":"Tower","BuildingCSUID":"3895916839T20050430","BuildingID":1103120344,"Status":"Active","BuildingNameEN":null,"BuildingNameTC":null,"BaseHeight":42.600000000000001,"TopHeight":55.200000000000003,"Storeys":6,"StoreysInBasement":2,"DateStamp":1599580800000}},{"type":"Feature","id":264566,"geometry":{"type":"Polygon","coordinates":[[[114.20309905700256,22.290443044484903],[114.20310226525964,22.29042969805494],[114.20312752136006,22.290434748405996],[114.20312582083487,22.290442518090288],[114.2031825172289,22.290454385702763],[114.20320966017363,22.290437188877803],[114.20321599572566,22.290377363923938],[114.20320674332775,22.290376541654204],[114.20321002350778,22.290347834837807],[114.20322652192594,22.290349053276586],[114.20328000566269,22.290353003144052],[114.20328295829137,22.290367463404372],[114.20328639914081,22.29039179234347],[114.20328910088287,22.290414284844527],[114.20329474179982,22.290477171036791],[114.20329373711694,22.290512054431538],[114.20329422056493,22.290531103193747],[114.20329347322375,22.290545331789151],[114.20326040905285,22.290564361093491],[114.20307877167298,22.290527429032739],[114.20309905700256,22.290443044484903]]]},"properties":{"OBJECTID":264566,"Shape__Length":86.606309040857951,"Shape__Area":324.43908289723328,"GeoRefNo":"3897916840","DateCreate":1114790400000,"BuildingBlockType":"Tower","BuildingCSUID":"3897916840T20050430","BuildingID":1103120333,"Status":"Active","BuildingNameEN":null,"BuildingNameTC":null,"BaseHeight":42.600000000000001,"TopHeight":54.600000000000001,"Storeys":6,"StoreysInBasement":2,"DateStamp":1599580800000}},{"type":"Feature","id":264567,"geometry":{"type":"Polygon","coordinates":[[[114.1963187900932,22.290864155321184],[114.19633021901619,22.290818985015587],[114.19628774307782,22.290811942071457],[114.1963001065125,22.290757749608805],[114.19634357893673,22.290766182514211],[114.19635405427135,22.290724781072168],[114.19640534115869,22.290735610561665],[114.1963939784777,22.290783086925639],[114.19640794584298,22.29078603374067],[114.19639890837642,22.290823367347695],[114.19638505221027,22.290820383583245],[114.19637197377827,22.290875029294817],[114.1963187900932,22.290864155321184]]]},"properties":{"OBJECTID":264567,"Shape__Length":54.801070422784285,"Shape__Area":120.93695499995027,"GeoRefNo":"3827516877","DateCreate":1114790400000,"BuildingBlockType":"Tower","BuildingCSUID":"3827516877T20050430","BuildingID":1103120280,"Status":"Active","BuildingNameEN":"Mainway Mansion","BuildingNameTC":"明威大廈","BaseHeight":9.9000000000000004,"TopHeight":78.099999999999994,"Storeys":24,"StoreysInBasement":null,"DateStamp":1599580800000}},{"type":"Feature","id":264573,"geometry":{"type":"Polygon","coordinates":[[[114.19766691134835,22.290919008998262],[114.19768446289692,22.290845237729553],[114.19773480686843,22.290855881159889],[114.19774255905665,22.290823632518915],[114.197754237271,22.290816076985504],[114.19778368004728,22.290822494503608],[114.19778805056447,22.290830520901313],[114.1977786839971,22.290865157269653],[114.19782085919078,22.290874073626938],[114.19780377685406,22.290948195869902],[114.19766691134835,22.290919008998262]]]},"properties":{"OBJECTID":264573,"Shape__Length":54.200643904279858,"Shape__Area":142.47510286856519,"GeoRefNo":"3841916885","DateCreate":1114790400000,"BuildingBlockType":"Tower","BuildingCSUID":"3841916885T20050430","BuildingID":1103120265,"Status":"Active","BuildingNameEN":"Yue Yick Building","BuildingNameTC":"裕益大廈","BaseHeight":15.4,"TopHeight":73,"Storeys":20,"StoreysInBasement":null,"DateStamp":1599580800000}},{"type":"Feature","id":264574,"geometry":{"type":"Polygon","coordinates":[[[114.19863893156756,22.290488548033945],[114.19858964022512,22.290478376953846],[114.19860309816347,22.290421915854633],[114.19863810620805,22.290428895801838],[114.19866436570904,22.29031822899017],[114.19869600631253,22.29032490531679],[114.19869229379366,22.29033939590839],[114.19872380177171,22.290346210957846],[114.19871345220029,22.290387933214912],[114.19876266871685,22.290398196921892],[114.19875220576526,22.290442115715663],[114.19870499972724,22.290432637850628],[114.1987012829423,22.290446540729654],[114.19874888365159,22.290456060083336],[114.1987382010402,22.290500901113109],[114.19868879824182,22.290490454463491],[114.1986711403878,22.290563994312738],[114.19863974828162,22.29055751869889],[114.19864154656902,22.290549670843184],[114.19862526992885,22.290546119117266],[114.19863893156756,22.290488548033945]]]},"properties":{"OBJECTID":264574,"Shape__Length":93.77809574961249,"Shape__Area":232.13970848836919,"GeoRefNo":"3851216839","DateCreate":1114790400000,"BuildingBlockType":"Tower","BuildingCSUID":"3851216839T20050430","BuildingID":1103120334,"Status":"Active","BuildingNameEN":"Ming Yuen Centre","BuildingNameTC":"明苑中心","BaseHeight":12.199999999999999,"TopHeight":83,"Storeys":26,"StoreysInBasement":null,"DateStamp":1599580800000}},{"type":"Feature","id":264575,"geometry":{"type":"Polygon","coordinates":[[[114.20327515569211,22.290690681252109],[114.20323244512531,22.290681735062904],[114.20321417747218,22.29075875996919],[114.20315971544962,22.290747712076985],[114.20317071888591,22.290702591208554],[114.20314780291294,22.290697867122727],[114.20313696050835,22.290742734112616],[114.20308001206752,22.290731285456253],[114.20309780659612,22.290654628007225],[114.20305500051263,22.290644884563079],[114.20306819207821,22.290589118497248],[114.2032923905066,22.29063529415706],[114.2032901741967,22.290642416611714],[114.20328696382975,22.290652733631653],[114.20328347270187,22.290663952947092],[114.20328022295961,22.290674396763269],[114.2032765121682,22.29068632185772],[114.20327515569211,22.290690681252109]]]},"properties":{"OBJECTID":264575,"Shape__Length":87.225461230285561,"Shape__Area":260.75992117539278,"GeoRefNo":"3897616863","DateCreate":1114790400000,"BuildingBlockType":"Tower","BuildingCSUID":"3897616863T20050430","BuildingID":1103120301,"Status":"Active","BuildingNameEN":"Tanner Court","BuildingNameTC":"丹桂閣","BaseHeight":14.1,"TopHeight":85.700000000000003,"Storeys":22,"StoreysInBasement":null,"DateStamp":1599580800000}},{"type":"Feature","id":264576,"geometry":{"type":"Polygon","coordinates":[[[114.20175944742678,22.290678648979714],[114.20175060464857,22.290718473681597],[114.20176904308421,22.290722232195275],[114.20176297229747,22.29074809783349],[114.20174445083246,22.290744565187847],[114.20173461960704,22.290786087707598],[114.20169461828709,22.290777791896456],[114.2016982233386,22.290762541868329],[114.20168255961057,22.29075961121077],[114.20168543867365,22.290747462049698],[114.20166644892856,22.290743563545909],[114.20167851324085,22.290691546920392],[114.20169745860669,22.290695302294186],[114.20170049202507,22.290682421267178],[114.2017162580661,22.290685584807207],[114.20171936383144,22.29067081790317],[114.20175944742678,22.290678648979714]]]},"properties":{"OBJECTID":264576,"Shape__Length":43.914946813699288,"Shape__Area":83.263917154863961,"GeoRefNo":"3882916874","DateCreate":1114790400000,"BuildingBlockType":"Tower","BuildingCSUID":"3882916874T20050430","BuildingID":1103120299,"Status":"Active","BuildingNameEN":"Melody Court","BuildingNameTC":"愛琴軒","BaseHeight":17.5,"TopHeight":74,"Storeys":20,"StoreysInBasement":null,"DateStamp":1599580800000}},{"type":"Feature","id":264577,"geometry":{"type":"Polygon","coordinates":[[[114.20356335595191,22.290766028381739],[114.20355211443901,22.290812866127766],[114.20341989404709,22.290785207351021],[114.20343181307329,22.290735996435103],[114.20338564416963,22.290726503687495],[114.20336194184328,22.290721630303715],[114.20338562445718,22.290622169078866],[114.20338580286888,22.290621419868952],[114.20345599619547,22.290636149600743],[114.20346866055796,22.290583861282908],[114.2035633250411,22.290603510266525],[114.20360050934316,22.290611228392819],[114.20358788555171,22.290663825742037],[114.20363705100165,22.290674142794643],[114.20361254887251,22.290773155549193],[114.20356335541057,22.290763182109242],[114.20356335595191,22.290766028381739]]]},"properties":{"OBJECTID":264577,"Shape__Length":98.793083721236741,"Shape__Area":460.86304535431594,"GeoRefNo":"3900916874","DateCreate":1114790400000,"BuildingBlockType":"Tower","BuildingCSUID":"3900916874T20050430","BuildingID":1103120295,"Status":"Active","BuildingNameEN":"Golden Peach Court","BuildingNameTC":"金桃閣","BaseHeight":18.100000000000001,"TopHeight":84.599999999999994,"Storeys":24,"StoreysInBasement":null,"DateStamp":1599580800000}},{"type":"Feature","id":264578,"geometry":{"type":"Polygon","coordinates":[[[114.20065186752649,22.290995442160099],[114.20063628818284,22.290992297453734],[114.20062905009155,22.291020553175091],[114.2004624619679,22.290985880500557],[114.20047775719252,22.290922809648112],[114.20050439629433,22.290928391386899],[114.2005095897662,22.290908157512604],[114.20048273577171,22.290902279872377],[114.20049540040185,22.290850056446661],[114.20052197597695,22.290855344786873],[114.20052685407099,22.29083400235826],[114.20050049784662,22.29082893144432],[114.20051389012964,22.290773037864295],[114.20069342488097,22.290809961905712],[114.20068704112467,22.290836923506291],[114.20067466749578,22.290834252440121],[114.20066743459667,22.290863276307988],[114.20062627619154,22.290854280439735],[114.20060371019017,22.29094929288177],[114.20065922755514,22.290960677506082],[114.20065186752649,22.290995442160099]]]},"properties":{"OBJECTID":264578,"Shape__Length":109.35713927799263,"Shape__Area":376.53302371274191,"GeoRefNo":"3870816894","DateCreate":1114790400000,"BuildingBlockType":"Tower","BuildingCSUID":"3870816894T20050430","BuildingID":1103120250,"Status":"Active","BuildingNameEN":"Roca Centre Block 1","BuildingNameTC":"樂嘉中心第一座","BaseHeight":19.5,"TopHeight":84.700000000000003,"Storeys":24,"StoreysInBasement":null,"DateStamp":1599580800000}},{"type":"Feature","id":264747,"geometry":{"type":"Polygon","coordinates":[[[114.2027831044483,22.290466139125932],[114.20281501298955,22.29033254252413],[114.20288990398429,22.290347743960655],[114.20287898662215,22.290394249193213],[114.20289164606017,22.290397051621785],[114.20287814435869,22.290453638337389],[114.20287090936056,22.290483960547579],[114.2027831044483,22.290466139125932]]]},"properties":{"OBJECTID":264747,"Shape__Length":48.785165052896616,"Shape__Area":133.19083049237722,"GeoRefNo":"3894416827","DateCreate":1114790400000,"BuildingBlockType":"Tower","BuildingCSUID":"3894416827T20050430","BuildingID":1103120353,"Status":"Active","BuildingNameEN":null,"BuildingNameTC":null,"BaseHeight":42.600000000000001,"TopHeight":53.399999999999999,"Storeys":5,"StoreysInBasement":1,"DateStamp":1599580800000}},{"type":"Feature","id":264748,"geometry":{"type":"Polygon","coordinates":[[[114.19782638632982,22.290194167456626],[114.19782519086482,22.290199127953812],[114.19766060257135,22.29016529180798],[114.1976732207832,22.290112107021994],[114.19771144168702,22.290120434306854],[114.19771532413809,22.290103451262446],[114.19772352863137,22.290067562857477],[114.19781021956896,22.29008573971732],[114.19780555849528,22.290103439625494],[114.19779651478699,22.290137782009296],[114.19783799029832,22.290146017995728],[114.19782638632982,22.290194167456626]]]},"properties":{"OBJECTID":264748,"Shape__Length":58.92042548799752,"Shape__Area":158.26851242519518,"GeoRefNo":"3841816802","DateCreate":1114790400000,"BuildingBlockType":"Tower","BuildingCSUID":"3841816802T20050430","BuildingID":1103120412,"Status":"Active","BuildingNameEN":"Elgar Mansion","BuildingNameTC":"怡家洋樓","BaseHeight":18.100000000000001,"TopHeight":80.700000000000003,"Storeys":22,"StoreysInBasement":null,"DateStamp":1599580800000}},{"type":"Feature","id":264750,"geometry":{"type":"Polygon","coordinates":[[[114.19758701519119,22.290103467723242],[114.19762248913048,22.290112036317495],[114.19761623209025,22.29013674419085],[114.19763495753223,22.290140861021506],[114.19762740058401,22.290172999461365],[114.19736869427129,22.290119893220083],[114.19737279217978,22.290103494979952],[114.19737281477749,22.290103409728001],[114.19737748973128,22.290084696865062],[114.19739549196569,22.290088432451586],[114.19740125161739,22.290064379821551],[114.19745523415178,22.290075565980477],[114.19747280820785,22.290000392899948],[114.19752226822293,22.29001105529364],[114.19751145936047,22.29006226493027],[114.19752232499995,22.290063848600887],[114.19753240159086,22.29001323977424],[114.19758666871115,22.290024938341279],[114.19756969963193,22.290099285234835],[114.19758701519119,22.290103467723242]]]},"properties":{"OBJECTID":264750,"Shape__Length":96.207477755332818,"Shape__Area":266.89395182518956,"GeoRefNo":"3840316802","DateCreate":1114790400000,"BuildingBlockType":"Tower","BuildingCSUID":"3840316802T20050430","BuildingID":1103120419,"Status":"Active","BuildingNameEN":"Wing Po Mansion","BuildingNameTC":"永寶大廈","BaseHeight":17.300000000000001,"TopHeight":86.599999999999994,"Storeys":26,"StoreysInBasement":null,"DateStamp":1599580800000}},{"type":"Feature","id":264751,"geometry":{"type":"Polygon","coordinates":[[[114.20325673993307,22.29029676094353],[114.20327208111742,22.290298329141642],[114.20326869294696,22.290329103809796],[114.20322866173922,22.290325764659638],[114.20312894540037,22.290317446934981],[114.20314288558383,22.290176763864597],[114.20322883705641,22.290184534938923],[114.20324061012334,22.290213674041745],[114.20323807121943,22.290239184799983],[114.20324991799055,22.290240167119897],[114.20324757720184,22.290267009682697],[114.20325974577875,22.29026809968488],[114.20325673993307,22.29029676094353]]]},"properties":{"OBJECTID":264751,"Shape__Length":58.959219106935201,"Shape__Area":185.79347826135211,"GeoRefNo":"3897516819","DateCreate":1114790400000,"BuildingBlockType":"Tower","BuildingCSUID":"3897516819T20050430","BuildingID":1103120383,"Status":"Active","BuildingNameEN":null,"BuildingNameTC":null,"BaseHeight":42.600000000000001,"TopHeight":55.100000000000001,"Storeys":6,"StoreysInBasement":2,"DateStamp":1599580800000}},{"type":"Feature","id":265853,"geometry":{"type":"Polygon","coordinates":[[[114.19986009493104,22.289580865758882],[114.1998376975471,22.289576200101244],[114.19928397384072,22.289459014958094],[114.19934909125094,22.289182641645745],[114.19935607827504,22.289184076545936],[114.19936513487607,22.289141513940951],[114.19937453084945,22.289097343836353],[114.19940181905719,22.289103020308435],[114.19940468004984,22.289092743056258],[114.19940098130598,22.289022548501595],[114.19943234107895,22.288882361701983],[114.19944838942621,22.288810638219331],[114.19946594672059,22.288814330291832],[114.20029511077989,22.288988689321219],[114.2003012620833,22.288989982791648],[114.20028285748711,22.289069960690963],[114.20025148376365,22.289063345771329],[114.20024532593266,22.289088126702076],[114.20025595209003,22.28909061762193],[114.20025034711325,22.289113800051876],[114.20024085636933,22.28911167922362],[114.20023342805867,22.289140858252679],[114.20024280231732,22.289142735271191],[114.20023720719506,22.289166847853775],[114.20022781342338,22.289164347724434],[114.20022109298266,22.289190474298554],[114.20020589682291,22.289249536791637],[114.20021014994703,22.289266504727976],[114.20019413981855,22.289332611226012],[114.20013797431673,22.289336348950634],[114.20011424625704,22.289441161816875],[114.20010321254782,22.289438887681353],[114.20009676463805,22.289470197790408],[114.20009603779469,22.289475932342874],[114.20009432161073,22.289484430409079],[114.20009286758291,22.289493840531012],[114.20009087004961,22.289502726954453],[114.20008870740479,22.289510737430682],[114.20008621481355,22.289518666678514],[114.20008340197674,22.289526496635268],[114.20007914366261,22.289536774099012],[114.20007639868368,22.289544188637077],[114.20007419674238,22.289549300287398],[114.20007177159613,22.289554321663374],[114.20006770687324,22.289561664145229],[114.20006315691424,22.289568762869525],[114.20005814112098,22.289575581710899],[114.20005208707917,22.289582825140148],[114.20005012723134,22.28958489343416],[114.20004595519663,22.289588804292514],[114.20004146287752,22.289592381063379],[114.20003909539963,22.289594052067951],[114.20003417602172,22.289597105123285],[114.20002900428082,22.289599787958849],[114.20002360928424,22.289602073478559],[114.20001803955007,22.289603952644825],[114.20001233389253,22.289605416421491],[114.20000589070644,22.289606690660097],[114.20000296989957,22.28960711551662],[114.19999707000127,22.289607594982115],[114.19999411031472,22.289607631527065],[114.19998819087765,22.28960731629985],[114.19998233928317,22.289606486316998],[114.19997660404943,22.28960513254097],[114.19986009493104,22.289580865758882]]]},"properties":{"OBJECTID":265853,"Shape__Length":332.5335070346282,"Shape__Area":6271.2719070487283,"GeoRefNo":"3862716701","DateCreate":1142092800000,"BuildingBlockType":"Podium","BuildingCSUID":"3862716701P20060312","BuildingID":1103116873,"Status":"Active","BuildingNameEN":null,"BuildingNameTC":null,"BaseHeight":18.5,"TopHeight":33.899999999999999,"Storeys":null,"StoreysInBasement":null,"DateStamp":1518451200000}},{"type":"Feature","id":267308,"geometry":{"type":"Polygon","coordinates":[[[114.19624966541046,22.291255998839517],[114.19623405849049,22.291252932551323],[114.19622894864908,22.291275477034745],[114.19613678373557,22.291257385865816],[114.19614383693279,22.291230707294879],[114.196156515289,22.291233195980531],[114.19617381200713,22.291156884051105],[114.19620451644539,22.291162911130485],[114.19619930011709,22.29118592539907],[114.19626355411199,22.291198531243751],[114.19624966541046,22.291255998839517]]]},"properties":{"OBJECTID":267308,"Shape__Length":46.043345334969715,"Shape__Area":98.669152606457786,"GeoRefNo":"3825916923","DateCreate":1533657600000,"BuildingBlockType":"Tower","BuildingCSUID":"3825916923T20180808","BuildingID":1810178362,"Status":"Active","BuildingNameEN":"One Prestige","BuildingNameTC":"尚譽","BaseHeight":27.100000000000001,"TopHeight":109.90000000000001,"Storeys":27,"StoreysInBasement":null,"DateStamp":1599580800000}},{"type":"Feature","id":267339,"geometry":{"type":"Polygon","coordinates":[[[114.20240011439331,22.293227959130299],[114.20228621630085,22.293150389987712],[114.20237847841929,22.293037035660539],[114.20240748945537,22.293056254216982],[114.2024193532929,22.293040437558229],[114.2023955949425,22.293024552011616],[114.20243621454603,22.292973898079772],[114.2024301411421,22.292969804282485],[114.20246308369886,22.292928850985671],[114.20255176355055,22.292994235824743],[114.20254935870895,22.292997101983836],[114.20258730376756,22.29302311174623],[114.20256574263105,22.293050245868027],[114.20261447225833,22.293083872688744],[114.2025885190361,22.293116396535446],[114.20252281396345,22.293071251036256],[114.20240011439331,22.293227959130299]]]},"properties":{"OBJECTID":267339,"Shape__Length":113.82714722391434,"Shape__Area":467.11018983319298,"GeoRefNo":"3890417127","DateCreate":1515081600000,"BuildingBlockType":"Tower","BuildingCSUID":"3890417127T20180105","BuildingID":1810170318,"Status":"Active","BuildingNameEN":"Victoria Harbour Tower 6","BuildingNameTC":"海璇第６座","BaseHeight":15.9,"TopHeight":79.799999999999997,"Storeys":18,"StoreysInBasement":2,"DateStamp":1599580800000}},{"type":"Feature","id":267655,"geometry":{"type":"Polygon","coordinates":[[[114.20180033438356,22.293016347087253],[114.20176502901199,22.293095421672074],[114.20175743075364,22.293092656127378],[114.20172050959046,22.293177173977391],[114.20162834784026,22.293141875370477],[114.20164468751037,22.293105657003775],[114.20153204094113,22.293061476152392],[114.20153336450556,22.293057700518315],[114.2014751730605,22.2930359183819],[114.2014810451693,22.293022273031127],[114.20149207277439,22.292997433439226],[114.20150079223779,22.293000743824066],[114.20151235378869,22.292976069680865],[114.20158104139425,22.293001062757522],[114.20158544282839,22.292991824751983],[114.20159685608225,22.292996323331337],[114.20161134154469,22.292963795253321],[114.20161823384331,22.292966160404617],[114.20162404569331,22.292952632726781],[114.20163269497267,22.292955810184498],[114.20163647262524,22.292947152490395],[114.20164926482903,22.292951614371592],[114.20164473952165,22.292962196154605],[114.2016623014717,22.292968655601666],[114.2016838214073,22.292919989258515],[114.20169626431132,22.292913217274723],[114.20170124314994,22.292919986589453],[114.20171424807424,22.292921194970273],[114.20171179708474,22.292948515148918],[114.20172036818184,22.292951321906866],[114.20172844325904,22.292954441922475],[114.20172130698684,22.292970647748202],[114.20173274156022,22.292974964528302],[114.20172395570819,22.292995163948802],[114.20174709668055,22.293003840542156],[114.20175014492685,22.292997163011893],[114.20180033438356,22.293016347087253]]]},"properties":{"OBJECTID":267655,"Shape__Length":115.00465892208135,"Shape__Area":450.2860147264887,"GeoRefNo":"3882017124","DateCreate":1515081600000,"BuildingBlockType":"Tower","BuildingCSUID":"3882017124T20180105","BuildingID":1810170314,"Status":"Active","BuildingNameEN":"Victoria Harbour Tower 5","BuildingNameTC":"海璇第５座","BaseHeight":15.9,"TopHeight":79.599999999999994,"Storeys":17,"StoreysInBasement":2,"DateStamp":1599580800000}},{"type":"Feature","id":270150,"geometry":{"type":"Polygon","coordinates":[[[114.19900005746973,22.292900054035712],[114.19885606992877,22.292870487875028],[114.19886556180163,22.292830047725293],[114.1988542735366,22.292813138241087],[114.19887264790488,22.29280251564278],[114.19886094741004,22.292784988700934],[114.19887933623201,22.292774357701386],[114.19886760108679,22.292756778838587],[114.19888600329504,22.292746140160411],[114.19887435182056,22.292728686541409],[114.19889278303732,22.292718030971216],[114.19888112923481,22.292700574011629],[114.19889964176052,22.292689871470323],[114.19888793379776,22.29267233324293],[114.19890626933216,22.292661733041857],[114.19889458388977,22.292644228586333],[114.19891299452306,22.292633585027271],[114.19890129102828,22.29261605357306],[114.19891969437995,22.292605414168278],[114.19890807756479,22.292588012382463],[114.19892642143147,22.292577407391633],[114.19891475793004,22.292559935625267],[114.19893320736368,22.29254926957228],[114.19892148203401,22.292531705431458],[114.19893987693129,22.292521070901969],[114.1989282058619,22.2925035879395],[114.19894870130946,22.292491739045868],[114.1990278922276,22.292508026883834],[114.19902425812576,22.29252332850875],[114.19910433168822,22.29253979770418],[114.19909728010292,22.29256984129972],[114.19909671405584,22.292572253095759],[114.19908172702385,22.292569206774012],[114.19906262434588,22.292650594547556],[114.19909576292315,22.29268965160588],[114.1991594496868,22.292642393819474],[114.19917150844717,22.292633445791797],[114.19923409855838,22.292706488948536],[114.19921528328538,22.292720225768957],[114.19918575735315,22.292741782235098],[114.19919153395132,22.292748634237658],[114.19909122244353,22.292821870492098],[114.19908652087881,22.292816293643245],[114.19900597441449,22.292875099537589],[114.19900005746973,22.292900054035712]]]},"properties":{"OBJECTID":270150,"Shape__Length":167.59110348412469,"Shape__Area":958.03354011098941,"GeoRefNo":"3855317086","DateCreate":1510502400000,"BuildingBlockType":"Tower","BuildingCSUID":"3855317086T20171113","BuildingID":1810168214,"Status":"Active","BuildingNameEN":"Hyatt Centric Victoria Harbour Hotel Tower 1","BuildingNameTC":null,"BaseHeight":14.199999999999999,"TopHeight":85.900000000000006,"Storeys":18,"StoreysInBasement":2,"DateStamp":1599580800000}},{"type":"Feature","id":270661,"geometry":{"type":"Polygon","coordinates":[[[114.2034540826,22.289682904907881],[114.20348667490298,22.289675516569218],[114.20348361737435,22.289662621516857],[114.20354758480838,22.289648896186424],[114.20354221173827,22.289626867669337],[114.20369337141582,22.289593400683838],[114.20369281065774,22.289591023102904],[114.20383407031953,22.289560504047177],[114.20384554939641,22.289608648924268],[114.20386492040424,22.289604939077972],[114.20387030247477,22.289628096591873],[114.2038880153097,22.289624539365743],[114.20389192320489,22.289641344620478],[114.20391503478139,22.289636619463245],[114.20392257486878,22.289669607807056],[114.20391896047019,22.289670206418471],[114.20392903141439,22.289715148360674],[114.20388803454567,22.289724466589519],[114.20388940126681,22.289730122243189],[114.20383518703258,22.289741764887449],[114.20383103535528,22.289723826147831],[114.20377107545082,22.289737104902024],[114.20376990807492,22.289731058188117],[114.20369543774997,22.289747660696456],[114.20369793391259,22.289757428712171],[114.2036593772384,22.289765610968264],[114.20365864425402,22.289761296075369],[114.2035925122822,22.289775841877571],[114.20358982536817,22.289763124308383],[114.20355002373906,22.289771653881047],[114.20354510870131,22.289751222445634],[114.20352734968503,22.2897549587192],[114.20352295333498,22.289736109544179],[114.20350587120342,22.289739518976013],[114.20349830055613,22.289710677572216],[114.20351440647039,22.289707268301665],[114.20351318517901,22.289701363646515],[114.20346145077279,22.289712046254177],[114.2034540826,22.289682904907881]]]},"properties":{"OBJECTID":270661,"Shape__Length":139.50020563036114,"Shape__Area":694.33314150287958,"GeoRefNo":"3903216753","DateCreate":1540742400000,"BuildingBlockType":"Tower","BuildingCSUID":"3903216753T20181029","BuildingID":1810181484,"Status":"Active","BuildingNameEN":"Fleur Pavilia Tower 2","BuildingNameTC":"柏蔚山第２座","BaseHeight":36,"TopHeight":125.8,"Storeys":26,"StoreysInBasement":null,"DateStamp":1599580800000}},{"type":"Feature","id":270857,"geometry":{"type":"Polygon","coordinates":[[[114.19914268736909,22.29014599422991],[114.19913556467513,22.290175977791964],[114.19910334942392,22.290169348498708],[114.19911047299838,22.290139368640467],[114.19914268736909,22.29014599422991]]]},"properties":{"OBJECTID":270857,"Shape__Length":13.600194245116022,"Shape__Area":11.560330173505873,"GeoRefNo":"3856116806","DateCreate":1560355200000,"BuildingBlockType":"Open-sided Structure","BuildingCSUID":"3856116806T20190613","BuildingID":1810188292,"Status":"Active","BuildingNameEN":null,"BuildingNameTC":null,"BaseHeight":8.5999999999999996,"TopHeight":11.300000000000001,"Storeys":null,"StoreysInBasement":null,"DateStamp":1560441600000}},{"type":"Feature","id":273037,"geometry":{"type":"Polygon","coordinates":[[[114.20172050959046,22.293177173977391],[114.20175743075364,22.293092656127378],[114.20176502901199,22.293095421672074],[114.20180033438356,22.293016347087253],[114.20185185797382,22.293036041171554],[114.20185616114375,22.293026024914759],[114.20196043668047,22.2930657763238],[114.20194364614819,22.293104187698386],[114.20196431363038,22.293112151946584],[114.20197169156462,22.29309676542146],[114.20200564530427,22.293109672865],[114.20198734837049,22.293150611787723],[114.20197110971596,22.293144570017926],[114.20196398803409,22.293158693480322],[114.20199679954119,22.293171765188937],[114.20196606209353,22.293240566954474],[114.20195459870286,22.293266831316334],[114.20172050959046,22.293177173977391]]]},"properties":{"OBJECTID":273037,"Shape__Length":101.10772703479311,"Shape__Area":486.42576953500412,"GeoRefNo":"3884317135","DateCreate":1515081600000,"BuildingBlockType":"Tower","BuildingCSUID":"3884317135T20180105","BuildingID":1810170313,"Status":"Active","BuildingNameEN":"Victoria Harbour Tower 3","BuildingNameTC":"海璇第３座","BaseHeight":15.9,"TopHeight":79.599999999999994,"Storeys":17,"StoreysInBasement":2,"DateStamp":1599580800000}},{"type":"Feature","id":278287,"geometry":{"type":"Polygon","coordinates":[[[114.19689889130191,22.290922985615548],[114.1968927280202,22.290921769320132],[114.19678047937619,22.290899616312746],[114.19675697679648,22.290894977910085],[114.19677743212078,22.290807955654792],[114.19695927906604,22.290845462857522],[114.19696074557716,22.290845765291898],[114.1969603313663,22.290847488386678],[114.19694860165974,22.290896287640322],[114.19690733563618,22.290887728285746],[114.19689889130191,22.290922985615548]]]},"properties":{"OBJECTID":278287,"Shape__Length":58.25234557611639,"Shape__Area":171.60679571558921,"GeoRefNo":"3831916885","DateCreate":1114790400000,"BuildingBlockType":"Tower","BuildingCSUID":"3831916885T20050430","BuildingID":1103120272,"Status":"Active","BuildingNameEN":"Mil Lan House","BuildingNameTC":"文瀾樓","BaseHeight":4.7999999999999998,"TopHeight":46.899999999999999,"Storeys":13,"StoreysInBasement":null,"DateStamp":1766332800000}},{"type":"Feature","id":292507,"geometry":{"type":"Polygon","coordinates":[[[114.20299665438192,22.293811435424711],[114.20301783323019,22.293791719785482],[114.2030432566259,22.293815370312174],[114.20302207777763,22.293835085954683],[114.20299665438192,22.293811435424711]]]},"properties":{"OBJECTID":292507,"Shape__Length":13.582672736578512,"Shape__Area":11.435270100087472,"GeoRefNo":"3896217211","DateCreate":1767024000000,"BuildingBlockType":"Tower","BuildingCSUID":"3896217211T20251230","BuildingID":1910270663,"Status":"Active","BuildingNameEN":null,"BuildingNameTC":null,"BaseHeight":4.0999999999999996,"TopHeight":9.5,"Storeys":null,"StoreysInBasement":null,"DateStamp":1767024000000}},{"type":"Feature","id":292508,"geometry":{"type":"Polygon","coordinates":[[[114.20295138291047,22.293712658004804],[114.20295299727459,22.29373131501076],[114.20290620400135,22.293733218967212],[114.20290698669474,22.293715184688562],[114.20295138291047,22.293712658004804]]]},"properties":{"OBJECTID":292508,"Shape__Length":13.481370178126083,"Shape__Area":9.5553939980336882,"GeoRefNo":"3895317201","DateCreate":1767024000000,"BuildingBlockType":"Tower","BuildingCSUID":"3895317201T20251230","BuildingID":1910270702,"Status":"Active","BuildingNameEN":null,"BuildingNameTC":null,"BaseHeight":4.0999999999999996,"TopHeight":6.0999999999999996,"Storeys":null,"StoreysInBasement":null,"DateStamp":1767024000000}},{"type":"Feature","id":292540,"geometry":{"type":"Polygon","coordinates":[[[114.20301716685269,22.293708448163237],[114.20301898476956,22.293725795695437],[114.20297000796971,22.29372723946091],[114.20297181961011,22.293710875681356],[114.20301716685269,22.293708448163237]]]},"properties":{"OBJECTID":292540,"Shape__Length":13.481886661382491,"Shape__Area":9.0711899983807847,"GeoRefNo":"3896017200","DateCreate":1767024000000,"BuildingBlockType":"Tower","BuildingCSUID":"3896017200T20251230","BuildingID":1910270703,"Status":"Active","BuildingNameEN":null,"BuildingNameTC":null,"BaseHeight":4.0999999999999996,"TopHeight":6.0999999999999996,"Storeys":null,"StoreysInBasement":null,"DateStamp":1767024000000}},{"type":"Feature","id":292542,"geometry":{"type":"Polygon","coordinates":[[[114.20308867924608,22.293720194477917],[114.20303119313087,22.29372423269141],[114.2030297528237,22.29370647745608],[114.20308723893169,22.293702439243098],[114.20308867924608,22.293720194477917]]]},"properties":{"OBJECTID":292542,"Shape__Length":15.824808904024543,"Shape__Area":11.713320480519929,"GeoRefNo":"3896617200","DateCreate":1767024000000,"BuildingBlockType":"Tower","BuildingCSUID":"3896617200T20251230","BuildingID":1910270704,"Status":"Active","BuildingNameEN":null,"BuildingNameTC":null,"BaseHeight":4.0999999999999996,"TopHeight":6.0999999999999996,"Storeys":null,"StoreysInBasement":null,"DateStamp":1767024000000}},{"type":"Feature","id":292758,"geometry":{"type":"Polygon","coordinates":[[[114.19701272970757,22.291906169706614],[114.19703838567304,22.291796559293484],[114.19717859581515,22.291824998084984],[114.19715332856816,22.291935046366135],[114.19710545864278,22.291925387327868],[114.1970999384459,22.291948683326336],[114.19703065112276,22.291934113738066],[114.19703594393687,22.291911302534153],[114.19701272970757,22.291906169706614]]]},"properties":{"OBJECTID":292758,"Shape__Length":59.723517201557158,"Shape__Area":203.74180928700483,"GeoRefNo":"3835016998","DateCreate":1114790400000,"BuildingBlockType":"Tower","BuildingCSUID":"3835016998T20050430","BuildingID":1103119950,"Status":"Active","BuildingNameEN":"Princeton Residence","BuildingNameTC":"皇子薈","BaseHeight":4.0999999999999996,"TopHeight":41.5,"Storeys":12,"StoreysInBasement":null,"DateStamp":1756915200000}},{"type":"Feature","id":292795,"geometry":{"type":"Polygon","coordinates":[[[114.19892850533752,22.292487585181636],[114.19894870130946,22.292491739045868],[114.1990278922276,22.292508026883834],[114.19910792512026,22.292524487865212],[114.19910433168822,22.29253979770418],[114.19909728010292,22.29256984129972],[114.1991594496868,22.292642393819474],[114.19917150844717,22.292633445791797],[114.19923409855838,22.292706488948536],[114.19921528328538,22.292720225768957],[114.1994236698627,22.292763102196179],[114.19943147227418,22.292759491027624],[114.19942538983797,22.29274811003787],[114.19951493681,22.292706664863452],[114.19952101925169,22.292718045849931],[114.19962335437579,22.292670681872064],[114.19962911071487,22.292646453615905],[114.19969753665795,22.292660532393583],[114.19970089809492,22.292646384093278],[114.19977840469016,22.292662331257166],[114.19979998427559,22.292666771271065],[114.19970994962405,22.293045820298136],[114.19969076873595,22.293041881856656],[114.19954823541045,22.293012614929232],[114.19900005746973,22.292900054035712],[114.19885606992877,22.292870487875028],[114.19883943485607,22.292867072040998],[114.19892850533752,22.292487585181636]]]},"properties":{"OBJECTID":292795,"Shape__Length":296.43405252235726,"Shape__Area":3175.8997241631623,"GeoRefNo":"3858117105","DateCreate":1510761600000,"BuildingBlockType":"Podium","BuildingCSUID":"3858117105P20171116","BuildingID":1810168542,"Status":"Active","BuildingNameEN":"Harbour North Phase 1","BuildingNameTC":"北角匯一期","BaseHeight":4.2999999999999998,"TopHeight":14.199999999999999,"Storeys":3,"StoreysInBasement":2,"DateStamp":1757001600000}},{"type":"Feature","id":292796,"geometry":{"type":"Polygon","coordinates":[[[114.202453999464,22.293535619162476],[114.2023462405966,22.293513968246341],[114.20235141463843,22.293493482368323],[114.20229609503546,22.293481896913278],[114.20229229651589,22.293485572250283],[114.20212664842342,22.293451546748436],[114.20210737365991,22.293534954866942],[114.20183550475647,22.293479541557936],[114.20166992041841,22.293445390054341],[114.20167094446613,22.293441355286269],[114.2015739619833,22.293421351650291],[114.20157163864783,22.29342377067622],[114.20132778731555,22.293230544213593],[114.20140814492426,22.292894180272018],[114.20142493594234,22.292897221590046],[114.20143146392165,22.292869539301698],[114.20144214974886,22.292824225083589],[114.2014678615288,22.292715192207034],[114.20170635039612,22.292764598217758],[114.20170872029901,22.292754509112822],[114.20172887380531,22.292757653465205],[114.20178639078446,22.292763306470086],[114.20178427364419,22.292771556721743],[114.20179452272851,22.292773584416839],[114.20179169000184,22.292784542701398],[114.20190085915529,22.292808088846595],[114.20190279107352,22.292800584822501],[114.20254714337329,22.292932531572731],[114.20254680734567,22.292934798944568],[114.20262294358395,22.2929505773579],[114.20260675906015,22.293021175471672],[114.20268469273208,22.293037362386642],[114.20263056243054,22.293263661256098],[114.2025843061233,22.293458740170031],[114.20256079276288,22.293557076091986],[114.2025530941517,22.293555529283154],[114.20253828589279,22.293574273783779],[114.2025410567004,22.293576242562366],[114.20253096111499,22.293588273582916],[114.202453999464,22.293535619162476]]]},"properties":{"OBJECTID":292796,"Shape__Length":414.58662304480464,"Shape__Area":9145.6922329227746,"GeoRefNo":"3885817139","DateCreate":1515081600000,"BuildingBlockType":"Podium","BuildingCSUID":"3885817139P20180105","BuildingID":1810170320,"Status":"Active","BuildingNameEN":"Harbour North Phase 3","BuildingNameTC":"北角匯三期","BaseHeight":4,"TopHeight":15.9,"Storeys":3,"StoreysInBasement":2,"DateStamp":1757001600000}},{"type":"Feature","id":292797,"geometry":{"type":"Polygon","coordinates":[[[114.20056385513972,22.292531691277858],[114.20055267952681,22.292578439303679],[114.20064298371139,22.292596872571913],[114.20064903845127,22.292584574050878],[114.20071113288409,22.29260701857779],[114.20071229389228,22.292604208167141],[114.20088946089778,22.292639413712223],[114.20089317510956,22.292625578246071],[114.20095171465988,22.292637675106498],[114.20095388122043,22.292628739704792],[114.20128147409427,22.292687729101736],[114.2012736344433,22.292725776119216],[114.20117619051777,22.292814564505328],[114.2011672154315,22.292854199993471],[114.20119318361455,22.292909157193407],[114.20121530949294,22.29290947815991],[114.2012116637211,22.292983733007826],[114.20095312309287,22.292986365691721],[114.20067071904563,22.292977853708614],[114.20059306313424,22.292972322372599],[114.20052438282706,22.292986616603265],[114.20052594493768,22.292993153191841],[114.20051163651428,22.292996302633298],[114.20051319895083,22.293004776110006],[114.20047651730202,22.293011802497752],[114.20047807947661,22.293019307530837],[114.20041590287609,22.293031421858885],[114.20041925699886,22.293050390827617],[114.20033220990437,22.2930653835454],[114.20029867012251,22.293066574085561],[114.20026537329746,22.293062372205675],[114.20023318078709,22.293052886604471],[114.20020292538173,22.293038362665623],[114.20017538976056,22.293019176109922],[114.20015128624448,22.29299582327571],[114.2001373828673,22.292976361188746],[114.20012579646784,22.292955436751509],[114.20010475801681,22.292959133927305],[114.2001001095903,22.292929400483168],[114.20010003155126,22.29289930597405],[114.2001045257108,22.292869548821979],[114.20013571805084,22.292744017685312],[114.20033472778414,22.292707051023832],[114.20031976106686,22.292637099180588],[114.20023512801058,22.292597258182468],[114.20017203618309,22.292584813316829],[114.20020215565272,22.292457199765192],[114.20056385513972,22.292531691277858]]]},"properties":{"OBJECTID":292797,"Shape__Length":372.69561655581208,"Shape__Area":5002.8740714499436,"GeoRefNo":"3872217097","DateCreate":1590940800000,"BuildingBlockType":"Podium","BuildingCSUID":"3872217097P20200601","BuildingID":1810198326,"Status":"Active","BuildingNameEN":"Harbour North Phase 2","BuildingNameTC":"北角匯二期","BaseHeight":4.7999999999999998,"TopHeight":19.800000000000001,"Storeys":null,"StoreysInBasement":null,"DateStamp":1757001600000}},{"type":"Feature","id":294093,"geometry":{"type":"Polygon","coordinates":[[[114.19884811732123,22.291077447174583],[114.1988052043545,22.291265608328214],[114.19877207809211,22.291258631233891],[114.19881499110106,22.291070470088833],[114.19884811732123,22.291077447174583]]]},"properties":{"OBJECTID":294093,"Shape__Length":49.600012135756813,"Shape__Area":74.543305221026245,"GeoRefNo":"3852816918","DateCreate":1767888000000,"BuildingBlockType":"Temporary Structure","BuildingCSUID":"3852816918T20260109","BuildingID":1910270922,"Status":"Active","BuildingNameEN":null,"BuildingNameTC":null,"BaseHeight":4,"TopHeight":6,"Storeys":null,"StoreysInBasement":null,"DateStamp":1767888000000}},{"type":"Feature","id":295092,"geometry":{"type":"Polygon","coordinates":[[[114.20256868318114,22.293774558327769],[114.20258356393607,22.293713388400935],[114.20272632589382,22.293740126486696],[114.20271093227707,22.293804163730744],[114.20256868318114,22.293774558327769]]]},"properties":{"OBJECTID":295092,"Shape__Length":44.238388389477301,"Shape__Area":106.66748689351245,"GeoRefNo":"3892417205","DateCreate":1706457600000,"BuildingBlockType":"Tower","BuildingCSUID":"3892417205T20240129","BuildingID":1910241534,"Status":"Active","BuildingNameEN":"Community Liaison Centre","BuildingNameTC":"社區聯絡中心","BaseHeight":3.8999999999999999,"TopHeight":8.9000000000000004,"Storeys":null,"StoreysInBasement":null,"DateStamp":1748793600000}},{"type":"Feature","id":295093,"geometry":{"type":"Polygon","coordinates":[[[114.19834780317636,22.293517291817111],[114.1982755085174,22.293570249553845],[114.19827383302676,22.293570801343993],[114.19827208766742,22.293571057199397],[114.19827032429914,22.293571009517837],[114.19826859531679,22.293570659716078],[114.19826695209355,22.293570018187758],[114.1982654434544,22.293569103994574],[114.19825599198437,22.293550755017311],[114.19833054598615,22.293496650100703],[114.19834739143261,22.293510983981687],[114.19834790107284,22.293511561207939],[114.19834830928887,22.293512214111438],[114.19834860505546,22.293512925058295],[114.19834878038442,22.293513674846974],[114.1983488305404,22.293514443226883],[114.19834875416875,22.293515209445314],[114.19834855333217,22.293515952807926],[114.19834823345491,22.293516653237688],[114.19834780317636,22.293517291817111]]]},"properties":{"OBJECTID":295093,"Shape__Length":25.688453424347905,"Shape__Area":29.775530853136143,"GeoRefNo":"3847617180","DateCreate":1748361600000,"BuildingBlockType":"Tower","BuildingCSUID":"3847617180T20250528","BuildingID":1910263559,"Status":"Active","BuildingNameEN":null,"BuildingNameTC":null,"BaseHeight":5.2999999999999998,"TopHeight":8.3000000000000007,"Storeys":null,"StoreysInBasement":null,"DateStamp":1748361600000}},{"type":"Feature","id":295094,"geometry":{"type":"Polygon","coordinates":[[[114.19680769821338,22.29328960916969],[114.19680727382183,22.293304427481051],[114.19680708504222,22.293311017872419],[114.19680692767913,22.29331202441842],[114.19680660596903,22.293312991269865],[114.19680613095383,22.293313892746255],[114.19680551534107,22.293314704731497],[114.19680477559945,22.293315405503538],[114.19680393151839,22.293315976315487],[114.19680300567855,22.293316401897105],[114.19680202284781,22.293316670863334],[114.19680100931861,22.293316776018845],[114.19679999220466,22.293316714550542],[114.19679899797983,22.293316490431966],[114.1967960593654,22.293315815844771],[114.19670848835798,22.293295714133503],[114.19670756719393,22.29329554729868],[114.19670668638619,22.293295230194893],[114.19670587026657,22.293294771581941],[114.19670514137988,22.293294184128737],[114.19670451986119,22.293293484063323],[114.19670402287956,22.293292690724595],[114.19670366416382,22.293291826028057],[114.1967034536233,22.293290913860439],[114.19670339707403,22.293289979419828],[114.19670349607817,22.293289048519586],[114.19671263383904,22.293269359016382],[114.1967136196738,22.293268594363042],[114.19680769821338,22.29328960916969]]]},"properties":{"OBJECTID":295094,"Shape__Length":26.653662993700536,"Shape__Area":32.396197292189242,"GeoRefNo":"3831717153","DateCreate":1748361600000,"BuildingBlockType":"Tower","BuildingCSUID":"3831717153T20250528","BuildingID":1910263561,"Status":"Active","BuildingNameEN":null,"BuildingNameTC":null,"BaseHeight":5.2999999999999998,"TopHeight":8.9000000000000004,"Storeys":null,"StoreysInBasement":null,"DateStamp":1748880000000}},{"type":"Feature","id":295095,"geometry":{"type":"Polygon","coordinates":[[[114.19891167365829,22.292950186587898],[114.19890572079387,22.292974558792654],[114.19883608636347,22.292960136501318],[114.19884173110296,22.29293557316257],[114.19891167365829,22.292950186587898]]]},"properties":{"OBJECTID":295095,"Shape__Length":20.287420717684242,"Shape__Area":20.445786342073536,"GeoRefNo":"3853517116","DateCreate":1748448000000,"BuildingBlockType":"Tower","BuildingCSUID":"3853517116T20250529","BuildingID":1910263623,"Status":"Active","BuildingNameEN":null,"BuildingNameTC":null,"BaseHeight":4.4000000000000004,"TopHeight":7.4000000000000004,"Storeys":null,"StoreysInBasement":null,"DateStamp":1748448000000}},{"type":"Feature","id":295096,"geometry":{"type":"Polygon","coordinates":[[[114.19869715398859,22.292853336551946],[114.1987440555487,22.292862824481073],[114.1987411304204,22.292874580490185],[114.19869445080968,22.292865841801177],[114.19869715398859,22.292853336551946]]]},"properties":{"OBJECTID":295096,"Shape__Length":12.601412969484493,"Shape__Area":6.769551405968059,"GeoRefNo":"3851917106","DateCreate":1748448000000,"BuildingBlockType":"Tower","BuildingCSUID":"3851917106T20250529","BuildingID":1910263624,"Status":"Active","BuildingNameEN":null,"BuildingNameTC":null,"BaseHeight":4.5,"TopHeight":7,"Storeys":null,"StoreysInBasement":null,"DateStamp":1748448000000}},{"type":"Feature","id":295097,"geometry":{"type":"Polygon","coordinates":[[[114.19871459900595,22.292984777272515],[114.19871424474069,22.29298498944965],[114.19870689472069,22.292974360764777],[114.19876994809088,22.292936600363518],[114.19877738040418,22.292947225151249],[114.19871459900595,22.292984777272515]]]},"properties":{"OBJECTID":295097,"Shape__Length":18.264287417571474,"Shape__Area":10.835783917316524,"GeoRefNo":"3852117116","DateCreate":1748448000000,"BuildingBlockType":"Tower","BuildingCSUID":"3852117116T20250529","BuildingID":1910263625,"Status":"Active","BuildingNameEN":null,"BuildingNameTC":null,"BaseHeight":4.2999999999999998,"TopHeight":7.2000000000000002,"Storeys":null,"StoreysInBasement":null,"DateStamp":1748448000000}},{"type":"Feature","id":300048,"geometry":{"type":"Polygon","coordinates":[[[114.20205832240981,22.292614820027833],[114.20209647696237,22.292452886519833],[114.20228168884231,22.292491381677799],[114.20224396899997,22.292652539068552],[114.20205832240981,22.292614820027833]]]},"properties":{"OBJECTID":300048,"Shape__Length":75.759171578151594,"Shape__Area":358.31819174161683,"GeoRefNo":"3886917077","DateCreate":1114790400000,"BuildingBlockType":"Tower","BuildingCSUID":"3886917077T20050430","BuildingID":1103119860,"Status":"Active","BuildingNameEN":"Kar Fu Building","BuildingNameTC":"嘉富大廈","BaseHeight":4.2999999999999998,"TopHeight":78.200000000000003,"Storeys":22,"StoreysInBasement":null,"DateStamp":1677686400000}},{"type":"Feature","id":300049,"geometry":{"type":"Polygon","coordinates":[[[114.20229557459317,22.292433249374124],[114.20192584423388,22.29235674534041],[114.20195664126625,22.292227042753218],[114.20232659441815,22.292303122243894],[114.20229624370022,22.292430621357585],[114.20229557459317,22.292433249374124]]]},"properties":{"OBJECTID":300049,"Shape__Length":107.54290183354993,"Shape__Area":575.21897249973438,"GeoRefNo":"3886817040","DateCreate":1114790400000,"BuildingBlockType":"Tower","BuildingCSUID":"3886817040T20050430","BuildingID":1103119881,"Status":"Active","BuildingNameEN":"Hong Lok Building","BuildingNameTC":"康樂大廈","BaseHeight":4.4000000000000004,"TopHeight":36.399999999999999,"Storeys":11,"StoreysInBasement":null,"DateStamp":1677686400000}},{"type":"Feature","id":300050,"geometry":{"type":"Polygon","coordinates":[[[114.20209647696237,22.292452886519833],[114.20205832240981,22.292614820027833],[114.20187362660052,22.292575294503052],[114.2019129966541,22.292414751023909],[114.20209647696237,22.292452886519833]]]},"properties":{"OBJECTID":300050,"Shape__Length":75.495161665386661,"Shape__Area":355.87991986275301,"GeoRefNo":"3884917069","DateCreate":1114790400000,"BuildingBlockType":"Tower","BuildingCSUID":"3884917069T20050430","BuildingID":1103119864,"Status":"Active","BuildingNameEN":"Kiu Wah Building","BuildingNameTC":"僑華大廈","BaseHeight":4.4000000000000004,"TopHeight":76.400000000000006,"Storeys":22,"StoreysInBasement":null,"DateStamp":1677686400000}},{"type":"Feature","id":300051,"geometry":{"type":"Polygon","coordinates":[[[114.20224396899997,22.292652539068552],[114.20228168884231,22.292491381677799],[114.2022875841083,22.292464704290488],[114.20229557459317,22.292433249374124],[114.20229624370022,22.292430621357585],[114.20232659441815,22.292303122243894],[114.20253176619106,22.292345633149694],[114.2024492285327,22.292694706899074],[114.20224396899997,22.292652539068552]]]},"properties":{"OBJECTID":300051,"Shape__Length":122.51971976020545,"Shape__Area":858.61719100238065,"GeoRefNo":"3889217082","DateCreate":1114790400000,"BuildingBlockType":"Tower","BuildingCSUID":"3889217082T20050430","BuildingID":1103119856,"Status":"Active","BuildingNameEN":"North Point Welfare Association","BuildingNameTC":"北角街坊服務中心","BaseHeight":4.4000000000000004,"TopHeight":26.899999999999999,"Storeys":7,"StoreysInBasement":1,"DateStamp":1677686400000}},{"type":"Feature","id":303539,"geometry":{"type":"Polygon","coordinates":[[[114.20351116690166,22.293142353642128],[114.20350902490944,22.293151585006786],[114.20348491888245,22.293146802737766],[114.2034870928737,22.293137433289942],[114.20336760189217,22.293113011311959],[114.20336545610945,22.293122259020809],[114.20333656572062,22.293116285469736],[114.2033389790719,22.293107161256465],[114.20330422085937,22.293100057211262],[114.20331410795657,22.293057437739837],[114.20356139138626,22.293108452997298],[114.20355163052621,22.293150623640724],[114.20351116690166,22.293142353642128]]]},"properties":{"OBJECTID":303539,"Shape__Length":66.034033928848331,"Shape__Area":131.19710011330491,"GeoRefNo":"3899617131","DateCreate":1114790400000,"BuildingBlockType":"Tower","BuildingCSUID":"3899617131T20050430","BuildingID":1103119829,"Status":"Active","BuildingNameEN":"Java Road Public Toilet","BuildingNameTC":"渣華道公廁","BaseHeight":4.0999999999999996,"TopHeight":10.4,"Storeys":2,"StoreysInBasement":null,"DateStamp":1785081600000}},{"type":"Feature","id":305461,"geometry":{"type":"Polygon","coordinates":[[[114.19860737914516,22.290962282017109],[114.19860680668046,22.290964622561152],[114.19859669209954,22.291005973617406],[114.19857572530545,22.291091731248041],[114.19856166598986,22.291149179377971],[114.19856097482128,22.291152003617988],[114.1984977219628,22.291138529351507],[114.19843128613853,22.291124658136482],[114.19847173778562,22.29095497370524],[114.19847636127901,22.29093557792363],[114.19860737914516,22.290962282017109]]]},"properties":{"OBJECTID":305461,"Shape__Length":70.517450836913326,"Shape__Area":295.74152043660757,"GeoRefNo":"3850116897","DateCreate":1205942400000,"BuildingBlockType":"Podium","BuildingCSUID":"3850116897P20080320","BuildingID":1103116824,"Status":"Active","BuildingNameEN":"HENAN ELECTRIC DEVELOPMENT BUILDING","BuildingNameTC":"豫港電力發展大廈","BaseHeight":4.4000000000000004,"TopHeight":19.399999999999999,"Storeys":4,"StoreysInBasement":null,"DateStamp":1679932800000}},{"type":"Feature","id":305462,"geometry":{"type":"Polygon","coordinates":[[[114.19830372465645,22.291098148595996],[114.19834349483266,22.290928410012175],[114.1984100363903,22.29094204753687],[114.19847173778562,22.29095497370524],[114.19843128730248,22.291124654704689],[114.19830372465645,22.291098148595996]]]},"properties":{"OBJECTID":305462,"Shape__Length":65.491795357422859,"Shape__Area":259.94717155667314,"GeoRefNo":"3848516902","DateCreate":1679500800000,"BuildingBlockType":"Tower","BuildingCSUID":"3848516902T20230323","BuildingID":1910230411,"Status":"Active","BuildingNameEN":null,"BuildingNameTC":null,"BaseHeight":5.4000000000000004,"TopHeight":109.59999999999999,"Storeys":22,"StoreysInBasement":null,"DateStamp":1679500800000}},{"type":"Feature","id":306203,"geometry":{"type":"Polygon","coordinates":[[[114.19954229815339,22.291553628128476],[114.19954925847026,22.291524175215908],[114.19963200189352,22.291174045281231],[114.19973700420226,22.291195949357395],[114.19979097465374,22.291207192896476],[114.19981180591577,22.291211526725132],[114.19987170233954,22.291223987629408],[114.19990336201523,22.291230574223551],[114.19995923813491,22.291242198708662],[114.19998132466573,22.291246793592624],[114.200039707822,22.29125893966247],[114.20006734476571,22.29126468929967],[114.20012584458324,22.291276859614182],[114.20019459037307,22.291291161466503],[114.20011094171198,22.291640008921394],[114.19957209740508,22.291528885280819],[114.19956505965331,22.291558330890407],[114.19954229815339,22.291553628128476]]]},"properties":{"OBJECTID":306203,"Shape__Length":204.64228049210018,"Shape__Area":2360.2729552181718,"GeoRefNo":"3863516925","DateCreate":1114790400000,"BuildingBlockType":"Tower","BuildingCSUID":"3863516925T20050430","BuildingID":1103120043,"Status":"Active","BuildingNameEN":"Kiu Fai Mansion","BuildingNameTC":"僑輝大廈","BaseHeight":25.100000000000001,"TopHeight":77.599999999999994,"Storeys":16,"StoreysInBasement":null,"DateStamp":1619366400000}},{"type":"Feature","id":308576,"geometry":{"type":"Polygon","coordinates":[[[114.19856097482128,22.291152003617988],[114.19856166598986,22.291149179377971],[114.19857572530545,22.291091731248041],[114.19859669209954,22.291005973617406],[114.19860680668046,22.290964622561152],[114.19860737914516,22.290962282017109],[114.19869907500394,22.290979816192504],[114.19873312355237,22.291024088758032],[114.1987264611127,22.291051136380524],[114.19871483335518,22.291098341028345],[114.19869460355872,22.291180459231921],[114.19856097482128,22.291152003617988]]]},"properties":{"OBJECTID":308576,"Shape__Length":69.112582596869615,"Shape__Area":297.70546558247383,"GeoRefNo":"3850516905","DateCreate":1142092800000,"BuildingBlockType":"Podium","BuildingCSUID":"3850516905P20060312","BuildingID":1103116822,"Status":"Active","BuildingNameEN":null,"BuildingNameTC":null,"BaseHeight":4.2999999999999998,"TopHeight":11.1,"Storeys":2,"StoreysInBasement":null,"DateStamp":1619539200000}},{"type":"Feature","id":308673,"geometry":{"type":"Polygon","coordinates":[[[114.19825282918512,22.289579306292211],[114.19831098799612,22.289591304191774],[114.19829647605971,22.289652730811937],[114.19837427551913,22.289669090140279],[114.19836791699888,22.289695490216246],[114.19838076068233,22.289698446493194],[114.19837415529435,22.289724847053616],[114.19830277790571,22.289710080600877],[114.19805249200255,22.289658373537222],[114.19805968090949,22.289629817031692],[114.19807375943753,22.289633000291719],[114.1980796315538,22.289609813478176],[114.19815422074477,22.289625720717364],[114.1981703750176,22.289562296228699],[114.19822705304873,22.289573988666337],[114.19821348147985,22.289631563773405],[114.1982396620438,22.289637245824153],[114.19825282918512,22.289579306292211]]]},"properties":{"OBJECTID":308673,"Shape__Length":106.9591858816854,"Shape__Area":281.12888513591969,"GeoRefNo":"3846216741","DateCreate":1114790400000,"BuildingBlockType":"Tower","BuildingCSUID":"3846216741T20050430","BuildingID":1103120534,"Status":"Active","BuildingNameEN":"Maple Gardens Phase II","BuildingNameTC":"楓林花園第二期","BaseHeight":20.699999999999999,"TopHeight":88.299999999999997,"Storeys":23,"StoreysInBasement":null,"DateStamp":1619539200000}},{"type":"Feature","id":310022,"geometry":{"type":"Polygon","coordinates":[[[114.20007341961076,22.291868071708564],[114.20004867491909,22.291970264623473],[114.19966342651009,22.291890209516872],[114.19968807133468,22.291787498225421],[114.20007341961076,22.291868071708564]]]},"properties":{"OBJECTID":310022,"Shape__Length":104.63113533891877,"Shape__Area":473.08202749169442,"GeoRefNo":"3863816997","DateCreate":1621440000000,"BuildingBlockType":"Tower","BuildingCSUID":"3863816997T20210520","BuildingID":1910211533,"Status":"Active","BuildingNameEN":null,"BuildingNameTC":null,"BaseHeight":19.899999999999999,"TopHeight":92.299999999999997,"Storeys":null,"StoreysInBasement":null,"DateStamp":1622131200000}},{"type":"Feature","id":310024,"geometry":{"type":"Polygon","coordinates":[[[114.19928568115401,22.291703360262417],[114.19926097858679,22.291806584441474],[114.19904235075096,22.291760054868835],[114.19906740231671,22.291657352102838],[114.19919894672809,22.291685242719407],[114.19928568115401,22.291703360262417]]]},"properties":{"OBJECTID":310024,"Shape__Length":69.54705385466093,"Shape__Area":269.59772707345508,"GeoRefNo":"3856316975","DateCreate":1114790400000,"BuildingBlockType":"Tower","BuildingCSUID":"3856316975T20050430","BuildingID":1103119999,"Status":"Active","BuildingNameEN":"Marvel Building","BuildingNameTC":"萬寶大廈","BaseHeight":4.0999999999999996,"TopHeight":70.700000000000003,"Storeys":20,"StoreysInBasement":null,"DateStamp":1621440000000}},{"type":"Feature","id":310179,"geometry":{"type":"Polygon","coordinates":[[[114.19926097858679,22.291806584441474],[114.19928568115401,22.291703360262417],[114.20007341961076,22.291868071708564],[114.20004867491909,22.291970264623473],[114.19926097858679,22.291806584441474]]]},"properties":{"OBJECTID":310179,"Shape__Length":189.68121872536022,"Shape__Area":969.54447639542968,"GeoRefNo":"3861716992","DateCreate":1621526400000,"BuildingBlockType":"Podium","BuildingCSUID":"3861716992P20210521","BuildingID":1910211540,"Status":"Active","BuildingNameEN":null,"BuildingNameTC":null,"BaseHeight":4.4000000000000004,"TopHeight":19.899999999999999,"Storeys":2,"StoreysInBasement":null,"DateStamp":1621526400000}},{"type":"Feature","id":312553,"geometry":{"type":"Polygon","coordinates":[[[114.19771274897258,22.291176994623111],[114.19765054005553,22.291164245864096],[114.19764876862851,22.291171731667074],[114.19734546803869,22.291109585675049],[114.19734736602358,22.291102114669531],[114.19728833911628,22.291090017922233],[114.19731184535372,22.290990893366114],[114.19737324999875,22.291003685704094],[114.19736710614546,22.291029225723012],[114.19739457019824,22.291034938270066],[114.19740474632488,22.290992635272296],[114.19746497762887,22.291005163397916],[114.19746073791538,22.291022788376761],[114.19753081842858,22.291037365087227],[114.19753505813372,22.291019740106577],[114.19760154233396,22.291033568787032],[114.19760695758279,22.291008785438375],[114.19762021599315,22.291011543228741],[114.19761450094065,22.291035338756089],[114.19762681231023,22.291037899528625],[114.19762660069918,22.2910387808545],[114.19761644045356,22.291081084134763],[114.1976505337357,22.291088175488206],[114.19765116876273,22.291085531510507],[114.19766442718119,22.291088289297214],[114.19766971900567,22.291066256329778],[114.19773539991817,22.291079917901573],[114.19773019945616,22.291102205974518],[114.19771274897258,22.291176994623111]]]},"properties":{"OBJECTID":312553,"Shape__Length":138.43530776750382,"Shape__Area":537.70907824757001,"GeoRefNo":"3839216908","DateCreate":1114790400000,"BuildingBlockType":"Tower","BuildingCSUID":"3839216908T20050430","BuildingID":1103120208,"Status":"Active","BuildingNameEN":"Ramada Grand View","BuildingNameTC":"華美達盛景酒店","BaseHeight":18.800000000000001,"TopHeight":105.90000000000001,"Storeys":26,"StoreysInBasement":null,"DateStamp":1680019200000}},{"type":"Feature","id":312554,"geometry":{"type":"Polygon","coordinates":[[[114.19712603574941,22.291066015121118],[114.19713198373505,22.291041222239556],[114.19716799319544,22.290891124307372],[114.19732773850399,22.29092387291913],[114.19731184535372,22.290990893366114],[114.19728833911628,22.291090017922233],[114.19728618963822,22.291099082232027],[114.19712603574941,22.291066015121118]]]},"properties":{"OBJECTID":312554,"Shape__Length":73.473408587289967,"Shape__Area":335.1831857383284,"GeoRefNo":"3836316892","DateCreate":1114790400000,"BuildingBlockType":"Tower","BuildingCSUID":"3836316892T20050430","BuildingID":1103120223,"Status":"Active","BuildingNameEN":"Wah Shing Mansion","BuildingNameTC":"華誠洋樓","BaseHeight":4.5,"TopHeight":76.5,"Storeys":24,"StoreysInBasement":null,"DateStamp":1680019200000}},{"type":"Feature","id":315538,"geometry":{"type":"Polygon","coordinates":[[[114.19806790562492,22.292118156923991],[114.19809360523183,22.292014194726359],[114.19819503337567,22.292035726668932],[114.19842166844795,22.292081988919342],[114.19839622696018,22.292188182059061],[114.19836922675766,22.292182904806708],[114.19837255062424,22.292165957495996],[114.1982575987463,22.292142517473895],[114.1982608389841,22.292126894878709],[114.19814230514784,22.292102565099142],[114.19813297475686,22.292140893196965],[114.19808684168584,22.292130973145138],[114.19808860159524,22.292121837173791],[114.19806790562492,22.292118156923991]]]},"properties":{"OBJECTID":315538,"Shape__Length":102.06919632176417,"Shape__Area":352.09687277336792,"GeoRefNo":"3846917016","DateCreate":1114790400000,"BuildingBlockType":"Tower","BuildingCSUID":"3846917016T20050430","BuildingID":1103119907,"Status":"Active","BuildingNameEN":"Ascott","BuildingNameTC":"香港越秀雅詩閣服務公寓","BaseHeight":19.899999999999999,"TopHeight":73.299999999999997,"Storeys":17,"StoreysInBasement":null,"DateStamp":1741795200000}},{"type":"Feature","id":321220,"geometry":{"type":"Polygon","coordinates":[[[114.19904347578355,22.289102261868294],[114.19900610438992,22.289094732364902],[114.19901205740022,22.289068743120762],[114.19897185401041,22.289060416140508],[114.19898407371383,22.289008730474642],[114.19900827646816,22.289013930075082],[114.19901446003864,22.288987941340935],[114.19903590985582,22.288992245204359],[114.19904575302417,22.288950811969144],[114.19902005830498,22.288945579706727],[114.19902872199361,22.288909823647444],[114.19901049484116,22.288906131438612],[114.19902703851454,22.288836975879345],[114.19905760285953,22.288843174473559],[114.1990541345028,22.288859106692012],[114.19910043785893,22.288869139784531],[114.19909424621731,22.288895500946516],[114.19920188362089,22.288917110435566],[114.19919525471389,22.288944526890376],[114.1991814721413,22.288941601601305],[114.19917652669692,22.288961951537786],[114.19913636602091,22.288953598945305],[114.19913308427617,22.288967699096112],[114.19911875382395,22.288964783901005],[114.1991107687672,22.288998834798839],[114.19914591075008,22.289006212328413],[114.19913389016143,22.289057466766597],[114.19913087352163,22.289070329594448],[114.19912576377909,22.289069269288014],[114.19905474103469,22.289054532013889],[114.19904347578355,22.289102261868294]]]},"properties":{"OBJECTID":321220,"Shape__Length":112.76786193230487,"Shape__Area":314.163487620399,"GeoRefNo":"3855716674","DateCreate":1307894400000,"BuildingBlockType":"Tower","BuildingCSUID":"3855716674T20110613","BuildingID":1810069165,"Status":"Active","BuildingNameEN":"Lime Habitat","BuildingNameTC":"形品","BaseHeight":28,"TopHeight":130.19999999999999,"Storeys":25,"StoreysInBasement":null,"DateStamp":1685289600000}},{"type":"Feature","id":322268,"geometry":{"type":"Polygon","coordinates":[[[114.19904527399461,22.289770802753242],[114.19907354144262,22.289776460813759],[114.19906933267944,22.289794384566036],[114.19904069926991,22.289787965724575],[114.19903324911064,22.289786295626449],[114.19903669998969,22.289768908668954],[114.19904527399461,22.289770802753242]]]},"properties":{"OBJECTID":322268,"Shape__Length":11.702046991318962,"Shape__Area":7.6592031606553439,"GeoRefNo":"3855416764","DateCreate":1301414400000,"BuildingBlockType":"Temporary Structure","BuildingCSUID":"3855416764T20110330","BuildingID":1810063338,"Status":"Active","BuildingNameEN":"MING COURT","BuildingNameTC":"明園閣","BaseHeight":null,"TopHeight":17,"Storeys":null,"StoreysInBasement":null,"DateStamp":1685289600000}},{"type":"Feature","id":322761,"geometry":{"type":"Polygon","coordinates":[[[114.2032096809917,22.29351266352106],[114.20315893727488,22.29346459904837],[114.20316844413266,22.293456140959719],[114.20317441241633,22.293461950383861],[114.20323485382957,22.293406794070044],[114.20327900221564,22.293448724279656],[114.2032096809917,22.29351266352106]]]},"properties":{"OBJECTID":322761,"Shape__Length":34.988209588952621,"Shape__Area":66.890383619728468,"GeoRefNo":"3898317172","DateCreate":1410710400000,"BuildingBlockType":"Tower","BuildingCSUID":"3898317172T20140915","BuildingID":1810133016,"Status":"Active","BuildingNameEN":null,"BuildingNameTC":null,"BaseHeight":3.7000000000000002,"TopHeight":7.4000000000000004,"Storeys":null,"StoreysInBasement":null,"DateStamp":1684944000000}},{"type":"Feature","id":323253,"geometry":{"type":"Polygon","coordinates":[[[114.20033638645329,22.293029874800844],[114.20032164575989,22.292959059600239],[114.20035798502322,22.29295250894004],[114.20035406207496,22.292933662778413],[114.20038132862227,22.292928747609473],[114.20038007082661,22.292922705040674],[114.200391401522,22.292920662475129],[114.20037803952104,22.292856470769902],[114.20051055680432,22.292832582375326],[114.20051656794725,22.292861459896642],[114.20054189196027,22.292856894740243],[114.20055197555148,22.292905336510646],[114.20056379842184,22.292903205270704],[114.20057015202467,22.292933728299911],[114.20058203234387,22.292931586665006],[114.20058902855786,22.292972427808881],[114.20047139531194,22.292997111684233],[114.20047329773479,22.293004166942733],[114.20044348197172,22.293008370343102],[114.20044587232188,22.293018915234668],[114.20041361066913,22.293025117101163],[114.20041125533297,22.29301387296287],[114.20033638645329,22.293029874800844]]]},"properties":{"OBJECTID":323253,"Shape__Length":91.811891500075944,"Shape__Area":368.70431022953522,"GeoRefNo":"3869817112","DateCreate":1590681600000,"BuildingBlockType":"Tower","BuildingCSUID":"3869817112T20200529","BuildingID":1810198327,"Status":"Active","BuildingNameEN":"Victoria Harbour II Tower 1","BuildingNameTC":"海璇ＩＩ第１座","BaseHeight":19.800000000000001,"TopHeight":79.900000000000006,"Storeys":14,"StoreysInBasement":1,"DateStamp":1733068800000}},{"type":"Feature","id":323254,"geometry":{"type":"Polygon","coordinates":[[[114.20036314658991,22.292794484473038],[114.20032977529608,22.292629353248515],[114.20033537354567,22.292628435377928],[114.20033131002511,22.292610338325616],[114.20032867433399,22.292615245677286],[114.20017970721192,22.292583780464529],[114.20018892757795,22.292539411412093],[114.20019609733411,22.292540980263599],[114.2002038682821,22.292542680604367],[114.20021243175081,22.292512214922542],[114.20023857793558,22.292517527120264],[114.20023879671716,22.292512006668371],[114.2002297883763,22.292510167887613],[114.20023461886616,22.292491970213064],[114.20024318783796,22.292494013600574],[114.20024977517883,22.292470704248675],[114.2004152206718,22.292504620624133],[114.20041105023435,22.292528338538126],[114.20042117355334,22.292530589394723],[114.20041544774996,22.292548579319856],[114.20040621973762,22.292546945034164],[114.20040424369652,22.292554510274762],[114.20039171979583,22.292551240750075],[114.20039391797258,22.292558192024487],[114.20040028932799,22.292557168832634],[114.20040380707806,22.292571684959071],[114.2004369294206,22.292564556788296],[114.20045609571132,22.292560432061212],[114.20046027398018,22.29258333094738],[114.20046818324441,22.292582307438611],[114.20047236075305,22.292600094810851],[114.20046467122955,22.292601936101118],[114.20046752978055,22.292615838962128],[114.20047543897775,22.292614406546381],[114.20047961659149,22.292632807278327],[114.20047126792815,22.292634444211604],[114.20048402234627,22.292695580578272],[114.20049220274822,22.292693971031671],[114.20049636832222,22.292712305389653],[114.20048731263623,22.292714087187754],[114.20048948263079,22.292723638381361],[114.20049846534475,22.292721870952487],[114.20050264937197,22.292740286763784],[114.20049565283165,22.292741663328826],[114.20050051072801,22.292763044879237],[114.20043833522848,22.29277409477643],[114.20043261809201,22.292746084690837],[114.20042031490458,22.2927489489165],[114.20042757059535,22.29278023012218],[114.20036314658991,22.292794484473038]]]},"properties":{"OBJECTID":323254,"Shape__Length":143.72253287635897,"Shape__Area":576.69159956666761,"GeoRefNo":"3868617075","DateCreate":1590681600000,"BuildingBlockType":"Tower","BuildingCSUID":"3868617075T20200529","BuildingID":1810198328,"Status":"Active","BuildingNameEN":"Victoria Harbour II Tower 5","BuildingNameTC":"海璇ＩＩ第５座","BaseHeight":19.800000000000001,"TopHeight":86.299999999999997,"Storeys":16,"StoreysInBasement":4,"DateStamp":1733068800000}},{"type":"Feature","id":323255,"geometry":{"type":"Polygon","coordinates":[[[114.20095951514438,22.292911930009378],[114.20095511799386,22.292963871467162],[114.20084016344843,22.292958984254945],[114.20083912834981,22.292967183491609],[114.20070312880902,22.292961649631447],[114.20070414378381,22.292890924529843],[114.20074060317923,22.292891397062704],[114.20074265424536,22.292873715522298],[114.20077055548292,22.292875448810292],[114.20077083445005,22.292867886163876],[114.2007823240324,22.292868927505481],[114.20078651636227,22.292803731926199],[114.20090197147601,22.292808408869412],[114.20089861947461,22.292870735839767],[114.2009095484579,22.292871255737005],[114.20090899228872,22.292896029889896],[114.20091459681592,22.29289602905823],[114.20091515634361,22.292890291820154],[114.20094598184619,22.292892112692535],[114.20094598305442,22.292899153779096],[114.20095495049064,22.292899934769153],[114.20095439213586,22.292911930771012],[114.20095951514438,22.292911930009378]]]},"properties":{"OBJECTID":323255,"Shape__Length":88.925103961302639,"Shape__Area":330.07491045932733,"GeoRefNo":"3873717108","DateCreate":1590681600000,"BuildingBlockType":"Tower","BuildingCSUID":"3873717108T20200529","BuildingID":1810198329,"Status":"Active","BuildingNameEN":"Victoria Harbour II Tower 2","BuildingNameTC":"海璇ＩＩ第２座","BaseHeight":19.800000000000001,"TopHeight":83.799999999999997,"Storeys":15,"StoreysInBasement":1,"DateStamp":1733068800000}},{"type":"Feature","id":323256,"geometry":{"type":"Polygon","coordinates":[[[114.20112389768144,22.292813504019179],[114.20112462156509,22.292808193994514],[114.20111705784085,22.29279901603973],[114.20111344195746,22.292803912081826],[114.20105031367146,22.292799943887296],[114.20104920547058,22.292815210682882],[114.20102588049946,22.292814509502652],[114.20101880102554,22.292804250866688],[114.20100736730001,22.29280070597374],[114.20100968001962,22.292794119143924],[114.20098631669471,22.292786490843351],[114.2009919180865,22.292767713808018],[114.20099920444643,22.292770059782072],[114.20100704745163,22.292750500089394],[114.20102722510335,22.292757016560149],[114.20103142643242,22.292744759300486],[114.20102470030699,22.29274137020732],[114.20103310386219,22.292722071234159],[114.20104207164698,22.292724938474041],[114.20104599348979,22.292716592870256],[114.20109503590797,22.292730667718576],[114.20110764086402,22.292699632998563],[114.20109559033969,22.292695462291526],[114.20110259279437,22.292676685132964],[114.20111128041968,22.292679552410942],[114.20111604228734,22.29266807738804],[114.20116844800692,22.292685281002601],[114.20116088564407,22.292706926825488],[114.20116621127008,22.29271422791826],[114.20117097467003,22.292711619340402],[114.20116592943447,22.292705100618974],[114.20119534987825,22.292684755357012],[114.20120039525671,22.292691534881914],[114.20121608613233,22.29268084053745],[114.20122729798926,22.292695964153445],[114.20124719211969,22.292684226046696],[114.20127269889622,22.292718123619427],[114.20123375159919,22.292744468197444],[114.2012382364713,22.292751247805413],[114.20122142465918,22.29276246392924],[114.20121693974885,22.292754901997888],[114.20120993481088,22.292759857792298],[114.20121722248633,22.292769766361701],[114.20119704822172,22.292782286829652],[114.20120184751623,22.292789678938579],[114.20118653524463,22.292800714491975],[114.20118149513239,22.292793543578714],[114.20116934392459,22.292800900934729],[114.20117438414798,22.292808715370569],[114.20114128955343,22.292830511045484],[114.20113595311001,22.292823524129016],[114.20113308823376,22.292825639259167],[114.20112389768144,22.292813504019179]]]},"properties":{"OBJECTID":323256,"Shape__Length":101.47253052927772,"Shape__Area":273.85182759130981,"GeoRefNo":"3876717093","DateCreate":1591545600000,"BuildingBlockType":"Tower","BuildingCSUID":"3876717093T20200608","BuildingID":1810198392,"Status":"Active","BuildingNameEN":"Victoria Harbour II Tower 3A","BuildingNameTC":"海璇ＩＩ第３Ａ座","BaseHeight":19.800000000000001,"TopHeight":79.900000000000006,"Storeys":16,"StoreysInBasement":null,"DateStamp":1733068800000}},{"type":"Feature","id":324532,"geometry":{"type":"Polygon","coordinates":[[[114.20250557324304,22.292614765416666],[114.20252032714974,22.292552967607794],[114.20253363684441,22.292555719479299],[114.20253742533897,22.292539851260642],[114.20256958656753,22.292546500829495],[114.20257084936536,22.292541211392887],[114.20258600640481,22.292544345233384],[114.20258990010197,22.292528036212051],[114.20264370736827,22.292539161157009],[114.20265454657381,22.292493760500374],[114.20268936032252,22.292500958414429],[114.20269409586827,22.292481123159025],[114.20271398936856,22.292485236326232],[114.2027177778409,22.292469368103262],[114.20272535635829,22.292470934971689],[114.20273030231458,22.292450218021756],[114.20272782466482,22.292449705748655],[114.20267779232356,22.292473407372704],[114.20266507847687,22.29245065394106],[114.20265599030974,22.292434389247372],[114.20269107480378,22.292417411957455],[114.20269904372185,22.292431673564352],[114.20272488121769,22.292419170879775],[114.20277230358757,22.292428975710969],[114.20276959910655,22.292440303886838],[114.20278759809536,22.292444025057598],[114.20278475679613,22.29245592624866],[114.20281146059541,22.292461910182332],[114.20279956945858,22.292511718594447],[114.20277265484579,22.29250661662326],[114.20276981354402,22.292518517633372],[114.2027518145461,22.292514796280091],[114.20274686849366,22.292535513049902],[114.20279380810628,22.292545218073052],[114.20278793603249,22.292569813735337],[114.20277940996318,22.292568050966533],[114.20277391682981,22.292591059706471],[114.20276325955722,22.292588856312161],[114.20275999722561,22.292602520708833],[114.20278150124507,22.292606134126597],[114.20277463991729,22.292634873286826],[114.20275332536576,22.29263046640731],[114.20274524341916,22.292664318539014],[114.2026976408564,22.292654476522802],[114.20270797495547,22.292611191547959],[114.20268571305768,22.292606588846091],[114.20267577893898,22.292648198755781],[114.20264934886163,22.292642734197869],[114.20265071696311,22.292637004049539],[114.20260363545006,22.292627269658144],[114.20260226744385,22.292632999896362],[114.20257583737222,22.292627535326453],[114.20258567687955,22.29258632206276],[114.20256341498971,22.292581719344103],[114.20255317568191,22.292624607489298],[114.20250557324304,22.292614765416666]]]},"properties":{"OBJECTID":324532,"Shape__Length":158.99156951120415,"Shape__Area":421.90362019656015,"GeoRefNo":"3892717071","DateCreate":1719158400000,"BuildingBlockType":"Tower","BuildingCSUID":"3892717071T20240624","BuildingID":1910249821,"Status":"Active","BuildingNameEN":"Kei Wah Court","BuildingNameTC":"驥華苑","BaseHeight":15.9,"TopHeight":109.2,"Storeys":31,"StoreysInBasement":0,"DateStamp":1727625600000}},{"type":"Feature","id":324706,"geometry":{"type":"Polygon","coordinates":[[[114.20112389768144,22.292813504019179],[114.20112370945709,22.292839534819436],[114.20115375004809,22.292840605505642],[114.20115182907391,22.292867844501732],[114.20114605198137,22.292867128516566],[114.20114528458157,22.29288397363398],[114.20115298711545,22.292883255719136],[114.2011526031368,22.29289006540855],[114.20117956264838,22.292890419791153],[114.20117918096854,22.292910490408836],[114.20121230276328,22.292912277472759],[114.2012088483548,22.292980374671082],[114.20114761161341,22.292977516635812],[114.20102000567495,22.292974391153539],[114.20102104084606,22.292966674151007],[114.20095511799386,22.292963871467162],[114.20095951514438,22.292911930009378],[114.20096391994961,22.292911929354378],[114.20096503885928,22.292900194073518],[114.20097288528119,22.292900453710814],[114.20097344462735,22.292893673345255],[114.20101071524549,22.292894450119068],[114.20101127265306,22.292876977766479],[114.20102999406507,22.292877536951508],[114.20103129498115,22.292846424724644],[114.20102484676089,22.29284575895522],[114.20102588049946,22.292814509502652],[114.20104920547058,22.292815210682882],[114.20105031367146,22.292799943887296],[114.20111344195746,22.292803912081826],[114.20111705784085,22.29279901603973],[114.20112462156509,22.292808193994514],[114.20112389768144,22.292813504019179]]]},"properties":{"OBJECTID":324706,"Shape__Length":93.65374877276146,"Shape__Area":341.39893735289178,"GeoRefNo":"3876317109","DateCreate":1590940800000,"BuildingBlockType":"Tower","BuildingCSUID":"3876317109T20200601","BuildingID":1810198393,"Status":"Active","BuildingNameEN":"Victoria Harbour II Tower 3","BuildingNameTC":"海璇ＩＩ第３座","BaseHeight":19.800000000000001,"TopHeight":79.799999999999997,"Storeys":16,"StoreysInBasement":null,"DateStamp":1733068800000}},{"type":"Feature","id":325368,"geometry":{"type":"Polygon","coordinates":[[[114.20247736803461,22.292687103275014],[114.20255768327306,22.292350697571067],[114.20279233231071,22.29239921253879],[114.20278191418362,22.292442849908479],[114.20278759809536,22.292444025057598],[114.20278475679613,22.29245592624866],[114.20281146059541,22.292461910182332],[114.2028112508587,22.292462792598151],[114.20282123122655,22.292477403271761],[114.20277541099377,22.292662663552974],[114.20276834198728,22.292667706660705],[114.20275947073642,22.292704864669162],[114.2027567380441,22.292706723933801],[114.20275375423802,22.292708145684003],[114.2027505888236,22.292709096801218],[114.2027473155367,22.292709555129925],[114.20272683857516,22.292705878780986],[114.2027246567057,22.292705674591716],[114.20272247114458,22.292705834498715],[114.20272034223045,22.292706354087297],[114.20271832873806,22.292707219012737],[114.20271648625558,22.292708405396308],[114.20271486565001,22.292709880484505],[114.20271351166276,22.292711603553325],[114.20271246167451,22.292713527032546],[114.20271040980256,22.292725474152213],[114.20271025470311,22.292726871701298],[114.20270986366144,22.292728222362506],[114.20270924812226,22.292729486605683],[114.20270842610074,22.292730627429901],[114.20270742165518,22.292731611446357],[114.20270626418294,22.292732409855589],[114.20270498756007,22.292732999290344],[114.20270362914981,22.29273336249949],[114.20270222870913,22.292733488852882],[114.20270082722507,22.29273337465251],[114.20269946571524,22.2927330232407],[114.20247736803461,22.292687103275014]]]},"properties":{"OBJECTID":325368,"Shape__Length":132.66975280123489,"Shape__Area":1072.727650965448,"GeoRefNo":"3892417071","DateCreate":1719417600000,"BuildingBlockType":"Podium","BuildingCSUID":"3892417071P20240627","BuildingID":1910250002,"Status":"Active","BuildingNameEN":null,"BuildingNameTC":null,"BaseHeight":4.5,"TopHeight":15.9,"Storeys":3,"StoreysInBasement":0,"DateStamp":1727625600000}},{"type":"Feature","id":326532,"geometry":{"type":"Polygon","coordinates":[[[114.19969242687399,22.290103184796269],[114.19966300442738,22.290229883750868],[114.19946825284504,22.290189284863466],[114.19948848422418,22.29010321339684],[114.19957433673298,22.289737195234284],[114.19976823602731,22.289776734192834],[114.19969242687399,22.290103184796269]]]},"properties":{"OBJECTID":326532,"Shape__Length":143.60142092132776,"Shape__Area":1051.9062952175648,"GeoRefNo":"3861616770","DateCreate":1114790400000,"BuildingBlockType":"Tower","BuildingCSUID":"3861616770T20050430","BuildingID":1103120406,"Status":"Active","BuildingNameEN":"Hung Fuk Building","BuildingNameTC":"鴻福大樓","BaseHeight":7.2000000000000002,"TopHeight":50.5,"Storeys":13,"StoreysInBasement":1,"DateStamp":1733760000000}},{"type":"Feature","id":326533,"geometry":{"type":"Polygon","coordinates":[[[114.19939742056903,22.290103226084693],[114.19938170758694,22.290171168652062],[114.19919672467192,22.290132572247739],[114.19920366026732,22.290103252911209],[114.19926534039179,22.289842508530651],[114.19925521454194,22.289840703804714],[114.19929450709002,22.289678542447099],[114.19948652121889,22.289717957019612],[114.19939742056903,22.290103226084693]]]},"properties":{"OBJECTID":326533,"Shape__Length":143.49326367244356,"Shape__Area":1014.6826785154011,"GeoRefNo":"3858616764","DateCreate":1114790400000,"BuildingBlockType":"Tower","BuildingCSUID":"3858616764T20050430","BuildingID":1103120420,"Status":"Active","BuildingNameEN":"Pak Fuk Building","BuildingNameTC":"百福大樓","BaseHeight":8.6999999999999993,"TopHeight":51,"Storeys":13,"StoreysInBasement":2,"DateStamp":1733760000000}},{"type":"Feature","id":327332,"geometry":{"type":"Polygon","coordinates":[[[114.20313720120289,22.291972172479298],[114.2031439063837,22.291943956199965],[114.20317422685638,22.291950196047974],[114.20316752168137,22.291978412328554],[114.20313720120289,22.291972172479298]]]},"properties":{"OBJECTID":327332,"Shape__Length":12.799999344290431,"Shape__Area":10.239998950864713,"GeoRefNo":"3897617006","DateCreate":1694966400000,"BuildingBlockType":"Tower","BuildingCSUID":"3897617006T20230918","BuildingID":1910235251,"Status":"Active","BuildingNameEN":null,"BuildingNameTC":null,"BaseHeight":4.5999999999999996,"TopHeight":16.5,"Storeys":null,"StoreysInBasement":null,"DateStamp":1694966400000}},{"type":"Feature","id":334774,"geometry":{"type":"Polygon","coordinates":[[[114.19597147473765,22.288951028731713],[114.19584858297566,22.289472575471823],[114.19578432299134,22.289459800136175],[114.19572116482887,22.28944724382017],[114.19573411243334,22.289390838458548],[114.19576535917609,22.289397364953043],[114.19584004286546,22.289087291519593],[114.19579841835726,22.289078437524399],[114.19580673273073,22.289043917700067],[114.19584836188447,22.289052752367066],[114.19585978691478,22.289005317564758],[114.19579669305197,22.288991742885866],[114.19581362032611,22.288919479447586],[114.19583703722309,22.288923937475943],[114.19597147473765,22.288951028731713]]]},"properties":{"OBJECTID":334774,"Shape__Length":167.02916669415731,"Shape__Area":687.93185553841158,"GeoRefNo":"3822716702","DateCreate":1114790400000,"BuildingBlockType":"Tower","BuildingCSUID":"3822716702T20050430","BuildingID":1103120601,"Status":"Active","BuildingNameEN":"The Education University of Hong Kong North Point Study Centre","BuildingNameTC":"香港教育大學北角教學中心","BaseHeight":17,"TopHeight":35.5,"Storeys":5,"StoreysInBasement":null,"DateStamp":1699891200000}},{"type":"Feature","id":334775,"geometry":{"type":"Polygon","coordinates":[[[114.19716799319544,22.290891124307372],[114.19713198373505,22.291041222239556],[114.19693979485376,22.291001820623663],[114.19697580421845,22.290851724358802],[114.19716799319544,22.290891124307372]]]},"properties":{"OBJECTID":334775,"Shape__Length":74.620201899381314,"Shape__Area":345.36904805019151,"GeoRefNo":"3834816893","DateCreate":1680019200000,"BuildingBlockType":"Tower","BuildingCSUID":"3834816893T20230329","BuildingID":1910230625,"Status":"Active","BuildingNameEN":"The Stellar","BuildingNameTC":null,"BaseHeight":4.5999999999999996,"TopHeight":106.3,"Storeys":null,"StoreysInBasement":null,"DateStamp":1699891200000}},{"type":"Feature","id":336974,"geometry":{"type":"Polygon","coordinates":[[[114.20117935497069,22.290937780364743],[114.20116747646705,22.29098748977966],[114.20111525453311,22.290976682615632],[114.20112404828313,22.290941203945358],[114.20109419189717,22.290935103528351],[114.20108578651968,22.2909707296091],[114.20103353832305,22.290960053998862],[114.20104545034705,22.290910324359942],[114.20098553610852,22.290897925299234],[114.20100070785311,22.290837140518228],[114.20106062206708,22.290849539573472],[114.20108373659596,22.290752809450272],[114.20113293729005,22.290762991345208],[114.20112394887234,22.290800606150082],[114.20115859967397,22.290807777055903],[114.20116758808282,22.290770162158864],[114.20121678878904,22.290780344028349],[114.20119367425021,22.290877074260404],[114.20125358849815,22.290889473244313],[114.2012391312398,22.290950107310195],[114.20117935497069,22.290937780364743]]]},"properties":{"OBJECTID":336974,"Shape__Length":117.12529821215983,"Shape__Area":389.85351528348457,"GeoRefNo":"3876616883","DateCreate":1291651200000,"BuildingBlockType":"Tower","BuildingCSUID":"3876616883T20101207","BuildingID":1810030025,"Status":"Active","BuildingNameEN":"King's Tower Block B","BuildingNameTC":"昌明洋樓Ｂ座","BaseHeight":19.5,"TopHeight":71.400000000000006,"Storeys":17,"StoreysInBasement":null,"DateStamp":1685462400000}},{"type":"Feature","id":337128,"geometry":{"type":"Polygon","coordinates":[[[114.1993524201508,22.291116206682105],[114.19926013473227,22.29149532953415],[114.19896356640449,22.291434054113815],[114.19905563486572,22.291055802731517],[114.19912494595768,22.291069909446957],[114.19927197009372,22.291099832930872],[114.1993524201508,22.291116206682105]]]},"properties":{"OBJECTID":337128,"Shape__Length":148.60424915349489,"Shape__Area":1346.0129293254495,"GeoRefNo":"3858116913","DateCreate":1114790400000,"BuildingBlockType":"Tower","BuildingCSUID":"3858116913T20050430","BuildingID":1103120100,"Status":"Active","BuildingNameEN":"Kiu Kwan Mansion Block A","BuildingNameTC":"僑冠大廈Ａ座","BaseHeight":4.2999999999999998,"TopHeight":90,"Storeys":25,"StoreysInBasement":null,"DateStamp":1684944000000}},{"type":"Feature","id":337129,"geometry":{"type":"Polygon","coordinates":[[[114.19926013473227,22.29149532953415],[114.1993524201508,22.291116206682105],[114.19942274453162,22.291130519569727],[114.19944769039317,22.291135596724942],[114.19955675041916,22.291158347334662],[114.19963200189352,22.291174045281231],[114.19954925847026,22.291524175215908],[114.19954229815339,22.291553628128476],[114.19926013473227,22.29149532953415]]]},"properties":{"OBJECTID":337129,"Shape__Length":145.38212887896674,"Shape__Area":1276.6624935169336,"GeoRefNo":"3858816915","DateCreate":1114790400000,"BuildingBlockType":"Tower","BuildingCSUID":"3858816915T20050430","BuildingID":1103120079,"Status":"Active","BuildingNameEN":"Kiu Kwan Mansion Block B","BuildingNameTC":"僑冠大廈Ｂ座","BaseHeight":4.2999999999999998,"TopHeight":90.299999999999997,"Storeys":25,"StoreysInBasement":null,"DateStamp":1684944000000}},{"type":"Feature","id":337130,"geometry":{"type":"Polygon","coordinates":[[[114.1994944780695,22.290693034183953],[114.19945573395024,22.290855262410282],[114.19903265519518,22.290767744993047],[114.1990720008647,22.290605652423231],[114.1994944780695,22.290693034183953]]]},"properties":{"OBJECTID":337130,"Shape__Length":126.0653482923054,"Shape__Area":821.29152655868018,"GeoRefNo":"3857516868","DateCreate":1114790400000,"BuildingBlockType":"Tower","BuildingCSUID":"3857516868T20050430","BuildingID":1103120286,"Status":"Active","BuildingNameEN":"Metropole Building Block C","BuildingNameTC":"新都城大廈Ｃ座","BaseHeight":17,"TopHeight":85,"Storeys":22,"StoreysInBasement":null,"DateStamp":1684944000000}},{"type":"Feature","id":337131,"geometry":{"type":"Polygon","coordinates":[[[114.19970171457224,22.290736826313388],[114.19983432852653,22.290764283068754],[114.199795246138,22.290925492496932],[114.19945573395024,22.290855262410282],[114.1994944780695,22.290693034183953],[114.19970171457224,22.290736826313388]]]},"properties":{"OBJECTID":337131,"Shape__Length":108.44290312825183,"Shape__Area":657.59243367717147,"GeoRefNo":"3861116876","DateCreate":1114790400000,"BuildingBlockType":"Tower","BuildingCSUID":"3861116876T20050430","BuildingID":1103120271,"Status":"Active","BuildingNameEN":"Metropole Building Block B","BuildingNameTC":"新都城大廈Ｂ座","BaseHeight":17,"TopHeight":85,"Storeys":22,"StoreysInBasement":null,"DateStamp":1684944000000}},{"type":"Feature","id":337132,"geometry":{"type":"Polygon","coordinates":[[[114.1994944780695,22.290693034183953],[114.19954594503966,22.290480741895866],[114.19958925501552,22.290305697638679],[114.19959386740004,22.290287698502048],[114.19980013642571,22.290330849921112],[114.19970171457224,22.290736826313388],[114.1994944780695,22.290693034183953]]]},"properties":{"OBJECTID":337132,"Shape__Length":135.81002988646037,"Shape__Area":1007.6476678776916,"GeoRefNo":"3861416847","DateCreate":1114790400000,"BuildingBlockType":"Tower","BuildingCSUID":"3861416847T20050430","BuildingID":1103120306,"Status":"Active","BuildingNameEN":"Metropole Building Block A","BuildingNameTC":"新都城大廈Ａ座","BaseHeight":17,"TopHeight":85,"Storeys":22,"StoreysInBasement":null,"DateStamp":1684944000000}}]}